{
  "id": 2014854639,
  "type": "Feature",
  "properties": {
    "geom:area": 0,
    "geom:bbox": "-123.399444,37.442778,-122.133333,47.316667",
    "geom:latitude": 42.495979961041385,
    "geom:longitude": -123.09621952698214,
    "src:alt_label": "swim-path",
    "src:geom": "swim",
    "swim:altitudes": [
      "055",
      "078",
      "078",
      "078",
      "205",
      "205",
      "239",
      "262",
      "262",
      "262",
      "282",
      "282",
      "365",
      "370C",
      "370C",
      "370C",
      "370C",
      "370C",
      "370C",
      "370C",
      "370C",
      "370C",
      "370C",
      "370C",
      "370C",
      "370C",
      "370C",
      "370C",
      "370C",
      "370C",
      "370C",
      "370C",
      "370C",
      "370C",
      "370C",
      "370C",
      "370C",
      "370C",
      "370C",
      "370C",
      "370C",
      "370C",
      "370C",
      "370C",
      "370C",
      "370C",
      "370C",
      "370C",
      "370C",
      "370C",
      "370C",
      "370C",
      "370C",
      "370C",
      "370C",
      "370C",
      "370C",
      "370C",
      "370C",
      "370C",
      "370C",
      "370C",
      "370C",
      "370C",
      "370C",
      "370C",
      "370C",
      "370C",
      "370C",
      "370C",
      "370C",
      "370C",
      "370C",
      "370C",
      "370C",
      "370C",
      "370C",
      "370C",
      "370C",
      "370C",
      "370",
      "370",
      "370",
      "370",
      "370",
      "370",
      "366",
      "366",
      "319",
      "319",
      "280",
      "280",
      "280",
      "230",
      "230",
      "211",
      "210",
      "187",
      "174",
      "169",
      "169",
      "153",
      "153",
      "148",
      "148",
      "128",
      "112",
      "110C",
      "110C",
      "098",
      "098",
      "094",
      "094",
      "066",
      "057",
      "053",
      "053",
      "029",
      "021",
      "021"
    ],
    "swim:geom": "path",
    "swim:speeds": [
      223,
      252,
      252,
      252,
      334,
      334,
      355,
      353,
      353,
      353,
      362,
      362,
      372,
      373,
      373,
      373,
      378,
      377,
      377,
      377,
      377,
      381,
      381,
      384,
      384,
      384,
      389,
      389,
      389,
      387,
      387,
      387,
      387,
      387,
      387,
      396,
      396,
      396,
      393,
      395,
      394,
      395,
      395,
      396,
      396,
      397,
      397,
      397,
      397,
      397,
      397,
      396,
      396,
      396,
      394,
      394,
      393,
      393,
      393,
      393,
      393,
      393,
      391,
      391,
      407,
      407,
      407,
      408,
      409,
      409,
      409,
      410,
      411,
      411,
      411,
      412,
      412,
      412,
      412,
      412,
      412,
      412,
      411,
      411,
      411,
      411,
      412,
      412,
      414,
      414,
      396,
      396,
      396,
      370,
      370,
      358,
      363,
      347,
      346,
      342,
      342,
      344,
      344,
      340,
      340,
      347,
      334,
      303,
      303,
      238,
      238,
      234,
      234,
      231,
      232,
      239,
      239,
      209,
      188,
      188
    ],
    "swim:timestamps": [
      1771789863,
      1771789923,
      1771789923,
      1771789923,
      1771790283,
      1771790283,
      1771790403,
      1771790463,
      1771790463,
      1771790463,
      1771790523,
      1771790523,
      1771790944,
      1771791004,
      1771791004,
      1771791004,
      1771791364,
      1771791484,
      1771791484,
      1771791484,
      1771791544,
      1771791664,
      1771791664,
      1771791725,
      1771791725,
      1771791725,
      1771792085,
      1771792085,
      1771792085,
      1771792205,
      1771792205,
      1771792205,
      1771792505,
      1771792505,
      1771792505,
      1771792709,
      1771792709,
      1771792709,
      1771792746,
      1771792769,
      1771792806,
      1771792829,
      1771792829,
      1771792889,
      1771792889,
      1771792986,
      1771793009,
      1771793046,
      1771793046,
      1771793106,
      1771793106,
      1771793250,
      1771793286,
      1771793286,
      1771793370,
      1771793370,
      1771793406,
      1771793466,
      1771793466,
      1771793490,
      1771793526,
      1771793526,
      1771793647,
      1771793647,
      1771793911,
      1771793911,
      1771793911,
      1771793971,
      1771794091,
      1771794091,
      1771794151,
      1771794211,
      1771794271,
      1771794271,
      1771794271,
      1771794307,
      1771794331,
      1771794367,
      1771794391,
      1771794391,
      1771794427,
      1771794488,
      1771794511,
      1771794511,
      1771794571,
      1771794632,
      1771794752,
      1771794752,
      1771794932,
      1771794932,
      1771795052,
      1771795052,
      1771795052,
      1771795232,
      1771795232,
      1771795287,
      1771795293,
      1771795360,
      1771795413,
      1771795419,
      1771795419,
      1771795473,
      1771795473,
      1771795479,
      1771795479,
      1771795540,
      1771795600,
      1771795653,
      1771795653,
      1771795833,
      1771795833,
      1771795840,
      1771795840,
      1771795959,
      1771796014,
      1771796020,
      1771796020,
      1771796140,
      1771796194,
      1771796194
    ],
    "wof:geomhash": "2cac72018fb514d672125e7d62c0566d",
    "wof:id": 2014854639,
    "wof:repo": "sfomuseum-data-flights-2026-02"
  },
  "bbox": [
    -123.39944444444446,
    37.44277777777778,
    -122.13333333333334,
    47.31666666666667
  ],
  "geometry": {"coordinates":[[-122.34833333333333,47.31666666666667],[-122.45,47.30722222222222],[-122.45,47.30722222222222],[-122.45,47.30722222222222],[-123.1275,47.16416666666667],[-123.1275,47.16416666666667],[-123.28888888888889,47.014722222222225],[-123.37444444444444,46.93472222222222],[-123.37444444444444,46.93472222222222],[-123.37444444444444,46.93472222222222],[-123.39944444444446,46.84055555555556],[-123.39944444444446,46.84055555555556],[-123.3775,46.12638888888889],[-123.37416666666665,46.02222222222222],[-123.37416666666665,46.02222222222222],[-123.37416666666665,46.02222222222222],[-123.35499999999999,45.39277777777778],[-123.34888888888888,45.18333333333333],[-123.34888888888888,45.18333333333333],[-123.34888888888888,45.18333333333333],[-123.34583333333333,45.07694444444445],[-123.33972222222222,44.86138888888889],[-123.33972222222222,44.86138888888889],[-123.33666666666666,44.75416666666667],[-123.33666666666666,44.75416666666667],[-123.33666666666666,44.75416666666667],[-123.31305555555555,44.10472222222222],[-123.31305555555555,44.10472222222222],[-123.31305555555555,44.10472222222222],[-123.30499999999999,43.89722222222222],[-123.30499999999999,43.89722222222222],[-123.30499999999999,43.89722222222222],[-123.28388888888888,43.36],[-123.28388888888888,43.36],[-123.28388888888888,43.36],[-123.26805555555555,42.986666666666665],[-123.26805555555555,42.986666666666665],[-123.26805555555555,42.986666666666665],[-123.26694444444445,42.920833333333334],[-123.26305555555555,42.87833333333333],[-123.26277777777777,42.8125],[-123.26055555555556,42.76833333333333],[-123.26055555555556,42.76833333333333],[-123.25527777777778,42.658055555555556],[-123.25527777777778,42.658055555555556],[-123.25055555555555,42.4825],[-123.2475,42.43861111111111],[-123.24638888888889,42.37305555555555],[-123.24638888888889,42.37305555555555],[-123.24194444444444,42.263333333333335],[-123.24194444444444,42.263333333333335],[-123.2325,42.00055555555556],[-123.23,41.933611111111105],[-123.23,41.933611111111105],[-123.22500000000001,41.7825],[-123.22500000000001,41.7825],[-123.22222222222223,41.71638888888889],[-123.21805555555555,41.60805555555556],[-123.21805555555555,41.60805555555556],[-123.21666666666667,41.56388888888888],[-123.21444444444445,41.499722222222225],[-123.21444444444445,41.499722222222225],[-123.20722222222223,41.26555555555556],[-123.20722222222223,41.26555555555556],[-123.15944444444445,40.780277777777776],[-123.15944444444445,40.780277777777776],[-123.15944444444445,40.780277777777776],[-123.14722222222223,40.668055555555554],[-123.12305555555555,40.442499999999995],[-123.12305555555555,40.442499999999995],[-123.11083333333333,40.32916666666667],[-123.09888888888888,40.215],[-123.08694444444444,40.10138888888889],[-123.08694444444444,40.10138888888889],[-123.08694444444444,40.10138888888889],[-123.08027777777778,40.040277777777774],[-123.07472222222222,39.98833333333334],[-123.06805555555555,39.925],[-123.06277777777777,39.87444444444444],[-123.06277777777777,39.87444444444444],[-123.05611111111111,39.811388888888885],[-123.04444444444444,39.69944444444444],[-123.03916666666666,39.647777777777776],[-123.03916666666666,39.647777777777776],[-123.02722222222222,39.535],[-123.01416666666667,39.41027777777778],[-122.99027777777778,39.18083333333333],[-122.99027777777778,39.18083333333333],[-122.94777777777779,38.83722222222222],[-122.94777777777779,38.83722222222222],[-122.88361111111112,38.61972222222222],[-122.88361111111112,38.61972222222222],[-122.88361111111112,38.61972222222222],[-122.7936111111111,38.31333333333333],[-122.7936111111111,38.31333333333333],[-122.76666666666667,38.21666666666667],[-122.765,38.21638888888889],[-122.73333333333333,38.1],[-122.71083333333334,38.02916666666667],[-122.7,38.016666666666666],[-122.7,38.016666666666666],[-122.68444444444445,37.93861111111111],[-122.68444444444445,37.93861111111111],[-122.68333333333334,37.916666666666664],[-122.68333333333334,37.916666666666664],[-122.61666666666666,37.833333333333336],[-122.53333333333333,37.766666666666666],[-122.48277777777778,37.719722222222224],[-122.48277777777778,37.719722222222224],[-122.32388888888889,37.53527777777778],[-122.32388888888889,37.53527777777778],[-122.31666666666666,37.516666666666666],[-122.31666666666666,37.516666666666666],[-122.2,37.45],[-122.14277777777778,37.44277777777778],[-122.13333333333334,37.46666666666667],[-122.13333333333334,37.46666666666667],[-122.21666666666667,37.55],[-122.25361111111111,37.56777777777778],[-122.25361111111111,37.56777777777778]],"type":"LineString"}
}
