{
  "id": 2014869859,
  "type": "Feature",
  "properties": {
    "geom:area": 0,
    "geom:bbox": "-122.325278,37.492222,-87.933333,41.983333",
    "geom:latitude": 39.353587979634604,
    "geom:longitude": -105.07750683511938,
    "src:alt_label": "swim-path",
    "src:geom": "swim",
    "swim:altitudes": [
      "013",
      "013",
      "013",
      "024",
      "040",
      "040",
      "040",
      "099",
      "124",
      "144",
      "144",
      "144",
      "144",
      "230",
      "230",
      "268",
      "268",
      "293",
      "318",
      "318",
      "334",
      "334",
      "334",
      "345",
      "348",
      "348",
      "348",
      "356",
      "356",
      "370",
      "380C",
      "380C",
      "380C",
      "380C",
      "380C",
      "380C",
      "380C",
      "380C",
      "380C",
      "380C",
      "380C",
      "380C",
      "380C",
      "380C",
      "380C",
      "380C",
      "380C",
      "380C",
      "380C",
      "380C",
      "380C",
      "380C",
      "380C",
      "380C",
      "380C",
      "380C",
      "380C",
      "380C",
      "380C",
      "380C",
      "380C",
      "380C",
      "380C",
      "380C",
      "380C",
      "380C",
      "380C",
      "380C",
      "380C",
      "380C",
      "380C",
      "380C",
      "380C",
      "380C",
      "380C",
      "380C",
      "380C",
      "380C",
      "380C",
      "380C",
      "380C",
      "380C",
      "380C",
      "380C",
      "380C",
      "380C",
      "380C",
      "380C",
      "380C",
      "380C",
      "380C",
      "380C",
      "380C",
      "380C",
      "380C",
      "380C",
      "380C",
      "380C",
      "380C",
      "380C",
      "380C",
      "380C",
      "380C",
      "380C",
      "380C",
      "380C",
      "380C",
      "380C",
      "380C",
      "380C",
      "380C",
      "380C",
      "380C",
      "380C",
      "380C",
      "380C",
      "380C",
      "380C",
      "380C",
      "380C",
      "380C",
      "380C",
      "380C",
      "380C",
      "380C",
      "380C",
      "380C",
      "380C",
      "380C",
      "380C",
      "380C",
      "380C",
      "380C",
      "380C",
      "380C",
      "380C",
      "380C",
      "380C",
      "380C",
      "380C",
      "380C",
      "380C",
      "380C",
      "380C",
      "380C",
      "380C",
      "380C",
      "380C",
      "380C",
      "380C",
      "380C",
      "380C",
      "380C",
      "380C",
      "380C",
      "380C",
      "380C",
      "380C",
      "380C",
      "380C",
      "380C",
      "380C",
      "380C",
      "380C",
      "380C",
      "380C",
      "380C",
      "380C",
      "380C",
      "380C",
      "380C",
      "380C",
      "380C",
      "380C",
      "380C",
      "380C",
      "380C",
      "380C",
      "380C",
      "380C",
      "380C",
      "380C",
      "377",
      "377",
      "377",
      "377",
      "358",
      "358",
      "358",
      "348",
      "348",
      "348",
      "348",
      "329",
      "329",
      "320C",
      "320C",
      "320C",
      "320C",
      "320C",
      "320C",
      "320C",
      "320C",
      "320C",
      "320C",
      "320C",
      "320C",
      "320C",
      "320C",
      "320C",
      "320C",
      "320C",
      "320C",
      "320C",
      "320C",
      "320C",
      "320C",
      "320C",
      "320C",
      "320C",
      "320C",
      "320C",
      "320C",
      "320C",
      "320C",
      "320C",
      "320C",
      "320C",
      "320C",
      "320C",
      "320C",
      "320C",
      "320C",
      "320C",
      "320C",
      "320C",
      "320C",
      "320C",
      "320C",
      "320C",
      "320C",
      "320C",
      "320C",
      "320C",
      "320C",
      "320C",
      "320C",
      "320C",
      "320C",
      "320C",
      "320C",
      "320C",
      "320C",
      "320C",
      "320C",
      "320C",
      "320C",
      "320C",
      "320C",
      "320C",
      "320C",
      "320C",
      "320C",
      "320C",
      "320C",
      "320C",
      "320C",
      "320C",
      "320C",
      "320C",
      "320C",
      "320C",
      "320C",
      "320C",
      "320C",
      "320C",
      "320C",
      "320C",
      "320C",
      "320C",
      "320C",
      "320C",
      "320C",
      "320C",
      "320C",
      "320C",
      "320C",
      "320C",
      "320C",
      "320C",
      "320C",
      "320C",
      "320C",
      "320C",
      "320C",
      "320C",
      "320C",
      "320C",
      "320C",
      "320C",
      "320C",
      "320C",
      "320C",
      "320C",
      "320C",
      "320C",
      "320C",
      "320C",
      "320C",
      "320C",
      "320C",
      "320C",
      "320C",
      "320C",
      "320C",
      "320C",
      "320C",
      "320C",
      "320C",
      "320C",
      "320C",
      "320C",
      "320C",
      "320C",
      "320C",
      "320C",
      "320C",
      "320C",
      "320C",
      "320C",
      "320C",
      "320C",
      "320C",
      "320C",
      "320C",
      "320C",
      "320C",
      "320C",
      "320C",
      "320C",
      "320C",
      "320C",
      "320C",
      "320C",
      "320C",
      "320C",
      "320C",
      "320C",
      "320C",
      "320C",
      "320C",
      "320C",
      "320C",
      "320C",
      "320C",
      "320C",
      "320C",
      "320C",
      "320C",
      "320C",
      "320C",
      "320C",
      "320C",
      "320C",
      "320C",
      "320C",
      "320C",
      "320C",
      "320C",
      "320C",
      "320C",
      "320C",
      "320C",
      "320C",
      "320C",
      "320C",
      "320C",
      "320C",
      "320C",
      "320C",
      "320C",
      "320C",
      "320C",
      "320C",
      "320C",
      "320C",
      "320C",
      "320C",
      "320C",
      "320C",
      "320C",
      "320C",
      "320C",
      "320C",
      "320C",
      "320C",
      "320C",
      "320C",
      "320C",
      "320C",
      "320C",
      "320C",
      "320C",
      "320C",
      "320C",
      "320C",
      "320C",
      "320C",
      "320C",
      "320C",
      "320C",
      "320C",
      "320C",
      "320C",
      "320C",
      "320C",
      "320C",
      "320C",
      "320C",
      "320C",
      "320C",
      "320C",
      "320C",
      "320C",
      "320C",
      "320C",
      "320C",
      "320C",
      "320C",
      "320C",
      "320C",
      "320C",
      "320C",
      "320C",
      "320C",
      "320C",
      "320C",
      "320C",
      "320",
      "320",
      "320",
      "320",
      "320",
      "320",
      "320",
      "320",
      "320",
      "320",
      "320",
      "320",
      "320",
      "320",
      "320",
      "320",
      "320",
      "320",
      "320",
      "320",
      "320",
      "320",
      "320",
      "320",
      "309",
      "309",
      "294",
      "294",
      "279",
      "279",
      "279",
      "253",
      "253",
      "253",
      "229",
      "229",
      "229",
      "214",
      "214",
      "214",
      "207",
      "207",
      "207",
      "207",
      "199",
      "199",
      "199",
      "192",
      "192",
      "192",
      "184",
      "184",
      "184",
      "178",
      "178",
      "156",
      "156",
      "156",
      "148",
      "148",
      "148",
      "141",
      "141",
      "141",
      "130",
      "130",
      "118",
      "118",
      "106",
      "106",
      "095",
      "095",
      "095",
      "089",
      "089",
      "089",
      "085",
      "085",
      "085",
      "074",
      "074",
      "066",
      "062",
      "062",
      "057",
      "057",
      "057",
      "033",
      "033",
      "033",
      "023",
      "018",
      "013",
      "013",
      "013",
      "006",
      "006",
      "006",
      "006"
    ],
    "swim:geom": "path",
    "swim:speeds": [
      180,
      180,
      180,
      182,
      234,
      234,
      234,
      248,
      267,
      326,
      326,
      326,
      326,
      336,
      336,
      353,
      353,
      352,
      334,
      334,
      345,
      345,
      345,
      348,
      349,
      349,
      349,
      349,
      349,
      352,
      355,
      361,
      361,
      365,
      365,
      365,
      365,
      364,
      363,
      361,
      361,
      359,
      359,
      359,
      359,
      360,
      363,
      362,
      362,
      362,
      362,
      362,
      364,
      364,
      373,
      376,
      376,
      376,
      376,
      377,
      377,
      379,
      379,
      380,
      382,
      382,
      382,
      384,
      384,
      384,
      385,
      385,
      385,
      385,
      388,
      388,
      388,
      388,
      388,
      388,
      384,
      384,
      382,
      380,
      380,
      379,
      379,
      379,
      379,
      380,
      380,
      380,
      383,
      384,
      384,
      384,
      384,
      384,
      384,
      384,
      382,
      382,
      382,
      381,
      381,
      382,
      382,
      382,
      382,
      376,
      376,
      376,
      378,
      378,
      378,
      378,
      378,
      378,
      380,
      380,
      380,
      382,
      382,
      382,
      382,
      386,
      386,
      388,
      388,
      388,
      389,
      389,
      389,
      390,
      390,
      392,
      392,
      393,
      393,
      395,
      395,
      395,
      396,
      395,
      395,
      394,
      394,
      394,
      393,
      393,
      392,
      392,
      392,
      392,
      394,
      394,
      394,
      394,
      372,
      372,
      372,
      372,
      369,
      369,
      369,
      371,
      371,
      371,
      371,
      371,
      371,
      370,
      370,
      370,
      374,
      374,
      374,
      374,
      374,
      374,
      376,
      376,
      377,
      377,
      377,
      377,
      379,
      379,
      379,
      383,
      383,
      383,
      383,
      388,
      388,
      393,
      393,
      393,
      393,
      397,
      397,
      397,
      397,
      402,
      402,
      409,
      409,
      409,
      409,
      409,
      412,
      412,
      410,
      410,
      412,
      412,
      412,
      412,
      411,
      413,
      413,
      413,
      407,
      407,
      407,
      407,
      410,
      402,
      402,
      402,
      406,
      406,
      406,
      406,
      406,
      406,
      404,
      404,
      403,
      403,
      403,
      394,
      391,
      391,
      391,
      393,
      393,
      393,
      395,
      393,
      393,
      393,
      393,
      394,
      394,
      394,
      395,
      395,
      395,
      396,
      396,
      396,
      396,
      395,
      395,
      395,
      395,
      399,
      399,
      399,
      397,
      397,
      398,
      398,
      398,
      398,
      398,
      398,
      398,
      398,
      398,
      398,
      398,
      398,
      397,
      397,
      397,
      396,
      396,
      397,
      397,
      396,
      396,
      395,
      395,
      395,
      395,
      394,
      394,
      395,
      395,
      395,
      395,
      395,
      395,
      395,
      396,
      396,
      397,
      397,
      397,
      397,
      402,
      402,
      402,
      402,
      403,
      403,
      403,
      403,
      403,
      403,
      403,
      391,
      391,
      391,
      391,
      391,
      391,
      390,
      390,
      390,
      387,
      387,
      387,
      387,
      392,
      392,
      392,
      392,
      394,
      394,
      394,
      394,
      394,
      400,
      400,
      400,
      403,
      403,
      403,
      404,
      404,
      406,
      406,
      406,
      406,
      406,
      406,
      405,
      405,
      405,
      405,
      405,
      402,
      402,
      402,
      400,
      400,
      400,
      400,
      401,
      401,
      401,
      401,
      401,
      402,
      402,
      402,
      402,
      402,
      402,
      402,
      403,
      403,
      403,
      403,
      405,
      405,
      406,
      407,
      407,
      407,
      406,
      406,
      406,
      405,
      405,
      403,
      403,
      401,
      401,
      401,
      401,
      401,
      401,
      401,
      401,
      401,
      401,
      401,
      401,
      401,
      401,
      401,
      401,
      401,
      402,
      402,
      402,
      402,
      404,
      404,
      404,
      404,
      404,
      404,
      405,
      405,
      405,
      405,
      405,
      405,
      405,
      406,
      406,
      406,
      406,
      385,
      385,
      385,
      385,
      385,
      385,
      378,
      378,
      378,
      378,
      378,
      376,
      376,
      376,
      376,
      377,
      377,
      377,
      379,
      379,
      380,
      380,
      380,
      380,
      380,
      380,
      381,
      381,
      381,
      381,
      381,
      373,
      373,
      373,
      352,
      352,
      352,
      327,
      327,
      327,
      328,
      328,
      328,
      328,
      321,
      321,
      321,
      317,
      317,
      317,
      320,
      320,
      320,
      320,
      320,
      312,
      312,
      312,
      290,
      290,
      290,
      281,
      281,
      281,
      249,
      249,
      251,
      251,
      253,
      253,
      250,
      250,
      250,
      229,
      229,
      229,
      227,
      227,
      227,
      225,
      225,
      229,
      225,
      225,
      234,
      234,
      234,
      219,
      219,
      219,
      191,
      181,
      160,
      160,
      160,
      147,
      147,
      147,
      147
    ],
    "swim:timestamps": [
      1771937109,
      1771937109,
      1771937109,
      1771937134,
      1771937188,
      1771937188,
      1771937188,
      1771937318,
      1771937378,
      1771937438,
      1771937438,
      1771937438,
      1771937438,
      1771937618,
      1771937618,
      1771937738,
      1771937738,
      1771937798,
      1771937878,
      1771937878,
      1771937978,
      1771937978,
      1771937978,
      1771938038,
      1771938058,
      1771938058,
      1771938058,
      1771938098,
      1771938098,
      1771938178,
      1771938299,
      1771938359,
      1771938359,
      1771938399,
      1771938399,
      1771938519,
      1771938519,
      1771938579,
      1771938659,
      1771938699,
      1771938699,
      1771938759,
      1771938819,
      1771938819,
      1771938819,
      1771938839,
      1771938879,
      1771938899,
      1771938899,
      1771938899,
      1771938899,
      1771938959,
      1771939199,
      1771939199,
      1771939259,
      1771939300,
      1771939300,
      1771939319,
      1771939319,
      1771939360,
      1771939360,
      1771939420,
      1771939420,
      1771939440,
      1771939500,
      1771939500,
      1771939500,
      1771939540,
      1771939560,
      1771939560,
      1771939660,
      1771939720,
      1771939720,
      1771939720,
      1771939841,
      1771939860,
      1771939860,
      1771939860,
      1771939901,
      1771939901,
      1771939980,
      1771939980,
      1771940040,
      1771940141,
      1771940141,
      1771940160,
      1771940201,
      1771940201,
      1771940201,
      1771940340,
      1771940340,
      1771940340,
      1771940461,
      1771940521,
      1771940521,
      1771940521,
      1771940521,
      1771940521,
      1771940761,
      1771940761,
      1771940881,
      1771940881,
      1771940881,
      1771940941,
      1771940941,
      1771941061,
      1771941061,
      1771941061,
      1771941061,
      1771941181,
      1771941181,
      1771941181,
      1771941362,
      1771941362,
      1771941482,
      1771941542,
      1771941542,
      1771941542,
      1771941722,
      1771941722,
      1771941722,
      1771941751,
      1771941751,
      1771941782,
      1771941782,
      1771941931,
      1771941931,
      1771941991,
      1771941991,
      1771941991,
      1771942051,
      1771942082,
      1771942082,
      1771942171,
      1771942171,
      1771942262,
      1771942262,
      1771942352,
      1771942352,
      1771942412,
      1771942412,
      1771942412,
      1771942472,
      1771942503,
      1771942503,
      1771942563,
      1771942563,
      1771942563,
      1771942623,
      1771942623,
      1771942712,
      1771942712,
      1771942712,
      1771942712,
      1771942832,
      1771942832,
      1771942832,
      1771942832,
      1771942892,
      1771942892,
      1771942892,
      1771942892,
      1771943133,
      1771943133,
      1771943133,
      1771943253,
      1771943253,
      1771943253,
      1771943313,
      1771943313,
      1771943313,
      1771943373,
      1771943373,
      1771943373,
      1771943853,
      1771943853,
      1771943853,
      1771943853,
      1771943853,
      1771943853,
      1771943974,
      1771943974,
      1771944094,
      1771944094,
      1771944094,
      1771944094,
      1771944214,
      1771944214,
      1771944214,
      1771944274,
      1771944274,
      1771944274,
      1771944274,
      1771944394,
      1771944394,
      1771944574,
      1771944574,
      1771944574,
      1771944574,
      1771944634,
      1771944634,
      1771944634,
      1771944634,
      1771944755,
      1771944755,
      1771944875,
      1771944875,
      1771944875,
      1771944875,
      1771944875,
      1771944986,
      1771944986,
      1771944995,
      1771944995,
      1771945046,
      1771945046,
      1771945046,
      1771945046,
      1771945055,
      1771945175,
      1771945175,
      1771945175,
      1771945235,
      1771945235,
      1771945235,
      1771945235,
      1771945286,
      1771945355,
      1771945355,
      1771945355,
      1771945415,
      1771945415,
      1771945415,
      1771945415,
      1771945467,
      1771945475,
      1771945536,
      1771945536,
      1771945596,
      1771945596,
      1771945596,
      1771945707,
      1771945767,
      1771945767,
      1771945767,
      1771945776,
      1771945776,
      1771945887,
      1771945896,
      1771946016,
      1771946016,
      1771946076,
      1771946076,
      1771946187,
      1771946187,
      1771946187,
      1771946196,
      1771946196,
      1771946196,
      1771946257,
      1771946257,
      1771946257,
      1771946257,
      1771946308,
      1771946368,
      1771946368,
      1771946368,
      1771946377,
      1771946377,
      1771946377,
      1771946428,
      1771946428,
      1771946557,
      1771946557,
      1771946557,
      1771946557,
      1771946617,
      1771946668,
      1771946668,
      1771946668,
      1771946737,
      1771946737,
      1771946788,
      1771946788,
      1771946857,
      1771946857,
      1771946857,
      1771946917,
      1771946917,
      1771946968,
      1771946968,
      1771947029,
      1771947029,
      1771947089,
      1771947089,
      1771947089,
      1771947089,
      1771947098,
      1771947149,
      1771947209,
      1771947218,
      1771947218,
      1771947218,
      1771947269,
      1771947269,
      1771947269,
      1771947278,
      1771947278,
      1771947329,
      1771947329,
      1771947338,
      1771947338,
      1771947569,
      1771947569,
      1771947569,
      1771947569,
      1771947629,
      1771947629,
      1771947629,
      1771947749,
      1771947749,
      1771947749,
      1771947749,
      1771948050,
      1771948050,
      1771948050,
      1771948110,
      1771948110,
      1771948110,
      1771948170,
      1771948170,
      1771948170,
      1771948230,
      1771948230,
      1771948350,
      1771948350,
      1771948531,
      1771948531,
      1771948531,
      1771948531,
      1771948591,
      1771948591,
      1771948591,
      1771948591,
      1771948591,
      1771948651,
      1771948651,
      1771948651,
      1771948771,
      1771948771,
      1771948771,
      1771948831,
      1771948831,
      1771948951,
      1771949011,
      1771949011,
      1771949011,
      1771949011,
      1771949011,
      1771949071,
      1771949071,
      1771949071,
      1771949071,
      1771949071,
      1771949251,
      1771949251,
      1771949251,
      1771949417,
      1771949417,
      1771949432,
      1771949432,
      1771949477,
      1771949477,
      1771949492,
      1771949492,
      1771949552,
      1771949612,
      1771949718,
      1771949718,
      1771949718,
      1771949718,
      1771949718,
      1771949718,
      1771949778,
      1771949778,
      1771949778,
      1771949778,
      1771949838,
      1771949838,
      1771949852,
      1771949898,
      1771949898,
      1771949898,
      1771950033,
      1771950033,
      1771950033,
      1771950078,
      1771950078,
      1771950138,
      1771950138,
      1771950198,
      1771950198,
      1771950198,
      1771950198,
      1771950213,
      1771950213,
      1771950213,
      1771950258,
      1771950258,
      1771950393,
      1771950393,
      1771950393,
      1771950393,
      1771950393,
      1771950453,
      1771950498,
      1771950513,
      1771950559,
      1771950559,
      1771950573,
      1771950573,
      1771950619,
      1771950619,
      1771950619,
      1771950633,
      1771950633,
      1771950633,
      1771950679,
      1771950679,
      1771950679,
      1771950679,
      1771950693,
      1771950693,
      1771950693,
      1771950859,
      1771950859,
      1771950859,
      1771950859,
      1771951099,
      1771951099,
      1771951099,
      1771951099,
      1771951099,
      1771951099,
      1771951219,
      1771951219,
      1771951219,
      1771951219,
      1771951219,
      1771951339,
      1771951339,
      1771951339,
      1771951339,
      1771951399,
      1771951399,
      1771951399,
      1771951460,
      1771951460,
      1771951483,
      1771951483,
      1771951483,
      1771951483,
      1771951520,
      1771951520,
      1771951543,
      1771951543,
      1771951580,
      1771951580,
      1771951580,
      1771951640,
      1771951640,
      1771951640,
      1771951700,
      1771951700,
      1771951700,
      1771951760,
      1771951760,
      1771951760,
      1771951784,
      1771951784,
      1771951784,
      1771951784,
      1771951820,
      1771951820,
      1771951820,
      1771951844,
      1771951844,
      1771951844,
      1771951880,
      1771951880,
      1771951880,
      1771951904,
      1771951904,
      1771952000,
      1771952000,
      1771952000,
      1771952024,
      1771952024,
      1771952024,
      1771952060,
      1771952060,
      1771952060,
      1771952120,
      1771952120,
      1771952180,
      1771952180,
      1771952240,
      1771952240,
      1771952300,
      1771952300,
      1771952300,
      1771952324,
      1771952324,
      1771952324,
      1771952361,
      1771952361,
      1771952361,
      1771952421,
      1771952421,
      1771952481,
      1771952498,
      1771952498,
      1771952541,
      1771952541,
      1771952541,
      1771952661,
      1771952661,
      1771952661,
      1771952721,
      1771952743,
      1771952781,
      1771952781,
      1771952781,
      1771952841,
      1771952841,
      1771952841,
      1771952841
    ],
    "wof:geomhash": "091e34660c5d8b8e1ce3a4901ec8bf41",
    "wof:id": 2014869859,
    "wof:repo": "sfomuseum-data-flights-2026-02"
  },
  "bbox": [
    -122.32527777777777,
    37.492222222222225,
    -87.93333333333334,
    41.983333333333334
  ],
  "geometry": {"coordinates":[[-87.93333333333334,41.983333333333334],[-87.93333333333334,41.983333333333334],[-87.93333333333334,41.983333333333334],[-87.96666666666667,41.983333333333334],[-88.03333333333333,41.983333333333334],[-88.03333333333333,41.983333333333334],[-88.03333333333333,41.983333333333334],[-88.22500000000001,41.95333333333333],[-88.31805555555555,41.928888888888885],[-88.43305555555555,41.91111111111111],[-88.43305555555555,41.91111111111111],[-88.43305555555555,41.91111111111111],[-88.43305555555555,41.91111111111111],[-88.78555555555555,41.855555555555554],[-88.78555555555555,41.855555555555554],[-89.03472222222221,41.81583333333333],[-89.03472222222221,41.81583333333333],[-89.16277777777778,41.794999999999995],[-89.31416666666667,41.769999999999996],[-89.31416666666667,41.769999999999996],[-89.52972222222222,41.735],[-89.52972222222222,41.735],[-89.52972222222222,41.735],[-89.65444444444445,41.71416666666667],[-89.68944444444445,41.7075],[-89.68944444444445,41.7075],[-89.68944444444445,41.7075],[-89.78333333333333,41.692499999999995],[-89.78333333333333,41.692499999999995],[-89.94222222222223,41.665277777777774],[-90.20805555555556,41.61972222222222],[-90.33944444444444,41.59777777777778],[-90.33944444444444,41.59777777777778],[-90.42583333333334,41.5825],[-90.42583333333334,41.5825],[-90.68305555555555,41.5375],[-90.68305555555555,41.5375],[-90.81777777777778,41.51361111111111],[-90.99527777777777,41.481388888888894],[-91.07694444444444,41.467222222222226],[-91.07694444444444,41.467222222222226],[-91.20333333333333,41.44416666666666],[-91.33361111111111,41.42055555555555],[-91.33361111111111,41.42055555555555],[-91.33361111111111,41.42055555555555],[-91.38333333333334,41.41138888888889],[-91.46333333333334,41.39694444444444],[-91.50555555555556,41.38861111111111],[-91.50555555555556,41.38861111111111],[-91.50555555555556,41.38861111111111],[-91.50555555555556,41.38861111111111],[-91.63583333333334,41.36388888888889],[-92.15916666666668,41.26611111111111],[-92.15916666666668,41.26611111111111],[-92.2925,41.24055555555556],[-92.40055555555556,41.21944444444445],[-92.40055555555556,41.21944444444445],[-92.42694444444444,41.214444444444446],[-92.42694444444444,41.214444444444446],[-92.53527777777778,41.19361111111111],[-92.53527777777778,41.19361111111111],[-92.67111111111112,41.16694444444444],[-92.67111111111112,41.16694444444444],[-92.69833333333334,41.16166666666666],[-92.83583333333333,41.13444444444444],[-92.83583333333333,41.13444444444444],[-92.83583333333333,41.13444444444444],[-92.94333333333334,41.11333333333334],[-92.97222222222223,41.1075],[-92.97222222222223,41.1075],[-93.21666666666667,41.058611111111105],[-93.3536111111111,41.030833333333334],[-93.3536111111111,41.030833333333334],[-93.3536111111111,41.030833333333334],[-93.6236111111111,40.967777777777776],[-93.67611111111111,40.95305555555556],[-93.67611111111111,40.95305555555556],[-93.67611111111111,40.95305555555556],[-93.755,40.93055555555555],[-93.755,40.93055555555555],[-93.93805555555556,40.878055555555555],[-93.93805555555556,40.878055555555555],[-94.0675,40.84055555555556],[-94.27305555555556,40.78111111111111],[-94.27305555555556,40.78111111111111],[-94.32583333333334,40.76555555555556],[-94.40361111111112,40.74277777777778],[-94.40361111111112,40.74277777777778],[-94.40361111111112,40.74277777777778],[-94.71166666666667,40.651944444444446],[-94.71166666666667,40.651944444444446],[-94.71166666666667,40.651944444444446],[-94.97444444444444,40.57361111111111],[-95.10472222222222,40.53444444444444],[-95.10472222222222,40.53444444444444],[-95.10472222222222,40.53444444444444],[-95.10472222222222,40.53444444444444],[-95.10472222222222,40.53444444444444],[-95.62694444444443,40.37583333333333],[-95.62694444444443,40.37583333333333],[-95.88472222222222,40.29611111111111],[-95.88472222222222,40.29611111111111],[-95.88472222222222,40.29611111111111],[-96.01305555555555,40.256388888888885],[-96.01305555555555,40.256388888888885],[-96.27111111111111,40.175555555555555],[-96.27111111111111,40.175555555555555],[-96.27111111111111,40.175555555555555],[-96.27111111111111,40.175555555555555],[-96.5325,40.117222222222225],[-96.5325,40.117222222222225],[-96.5325,40.117222222222225],[-96.92666666666668,40.032222222222224],[-96.92666666666668,40.032222222222224],[-97.19055555555556,39.97416666666667],[-97.32194444444444,39.94499999999999],[-97.32194444444444,39.94499999999999],[-97.32194444444444,39.94499999999999],[-97.71388888888889,39.85722222222223],[-97.71388888888889,39.85722222222223],[-97.71388888888889,39.85722222222223],[-97.76527777777778,39.845555555555556],[-97.76527777777778,39.845555555555556],[-97.84722222222221,39.82694444444445],[-97.84722222222221,39.82694444444445],[-98.16805555555555,39.75277777777778],[-98.16805555555555,39.75277777777778],[-98.30361111111111,39.72138888888889],[-98.30361111111111,39.72138888888889],[-98.30361111111111,39.72138888888889],[-98.43666666666667,39.69027777777777],[-98.51944444444445,39.670833333333334],[-98.51944444444445,39.670833333333334],[-98.70916666666668,39.62583333333333],[-98.70916666666668,39.62583333333333],[-98.92555555555556,39.57416666666667],[-98.92555555555556,39.57416666666667],[-99.11444444444444,39.529444444444444],[-99.11444444444444,39.529444444444444],[-99.2525,39.49638888888889],[-99.2525,39.49638888888889],[-99.2525,39.49638888888889],[-99.38861111111112,39.46361111111111],[-99.47111111111111,39.443888888888885],[-99.47111111111111,39.443888888888885],[-99.60583333333332,39.41111111111111],[-99.60583333333332,39.41111111111111],[-99.60583333333332,39.41111111111111],[-99.7388888888889,39.37861111111111],[-99.7388888888889,39.37861111111111],[-99.92583333333334,39.33305555555556],[-99.92583333333334,39.33305555555556],[-99.92583333333334,39.33305555555556],[-99.92583333333334,39.33305555555556],[-100.19555555555556,39.266666666666666],[-100.19555555555556,39.266666666666666],[-100.19555555555556,39.266666666666666],[-100.19555555555556,39.266666666666666],[-100.32916666666667,39.25694444444444],[-100.32916666666667,39.25694444444444],[-100.32916666666667,39.25694444444444],[-100.32916666666667,39.25694444444444],[-100.85555555555555,39.24583333333334],[-100.85555555555555,39.24583333333334],[-100.85555555555555,39.24583333333334],[-101.12222222222222,39.239444444444445],[-101.12222222222222,39.239444444444445],[-101.12222222222222,39.239444444444445],[-101.255,39.23583333333333],[-101.255,39.23583333333333],[-101.255,39.23583333333333],[-101.3875,39.23222222222223],[-101.3875,39.23222222222223],[-101.3875,39.23222222222223],[-102.45555555555556,39.1975],[-102.45555555555556,39.1975],[-102.45555555555556,39.1975],[-102.45555555555556,39.1975],[-102.45555555555556,39.1975],[-102.45555555555556,39.1975],[-102.7238888888889,39.1875],[-102.7238888888889,39.1875],[-102.99777777777778,39.17638888888889],[-102.99777777777778,39.17638888888889],[-102.99777777777778,39.17638888888889],[-102.99777777777778,39.17638888888889],[-103.26777777777778,39.164722222222224],[-103.26777777777778,39.164722222222224],[-103.26777777777778,39.164722222222224],[-103.4063888888889,39.15861111111111],[-103.4063888888889,39.15861111111111],[-103.4063888888889,39.15861111111111],[-103.4063888888889,39.15861111111111],[-103.68444444444445,39.145833333333336],[-103.68444444444445,39.145833333333336],[-104.10499999999999,39.125],[-104.10499999999999,39.125],[-104.10499999999999,39.125],[-104.10499999999999,39.125],[-104.24777777777778,39.1175],[-104.24777777777778,39.1175],[-104.24777777777778,39.1175],[-104.24777777777778,39.1175],[-104.53861111111111,39.10194444444445],[-104.53861111111111,39.10194444444445],[-104.83083333333333,39.08555555555556],[-104.83083333333333,39.08555555555556],[-104.83083333333333,39.08555555555556],[-104.83083333333333,39.08555555555556],[-104.83083333333333,39.08555555555556],[-105.08638888888889,39.06916666666667],[-105.08638888888889,39.06916666666667],[-105.09527777777777,39.07],[-105.09527777777777,39.07],[-105.23277777777778,39.059999999999995],[-105.23277777777778,39.059999999999995],[-105.23277777777778,39.059999999999995],[-105.23277777777778,39.059999999999995],[-105.24416666666667,39.06083333333333],[-105.53833333333333,39.04277777777778],[-105.53833333333333,39.04277777777778],[-105.53833333333333,39.04277777777778],[-105.68222222222222,39.03333333333333],[-105.68222222222222,39.03333333333333],[-105.68222222222222,39.03333333333333],[-105.68222222222222,39.03333333333333],[-105.81638888888888,39.02305555555555],[-105.96888888888888,39.01416666666667],[-105.96888888888888,39.01416666666667],[-105.96888888888888,39.01416666666667],[-106.115,39.004444444444445],[-106.115,39.004444444444445],[-106.115,39.004444444444445],[-106.115,39.004444444444445],[-106.24666666666667,38.99444444444445],[-106.27416666666666,38.99333333333333],[-106.41694444444445,38.983333333333334],[-106.41694444444445,38.983333333333334],[-106.56,38.973055555555554],[-106.56,38.973055555555554],[-106.56,38.973055555555554],[-106.8125,38.95416666666667],[-106.95138888888889,38.94416666666666],[-106.95138888888889,38.94416666666666],[-106.95138888888889,38.94416666666666],[-106.97972222222222,38.94166666666666],[-106.97972222222222,38.94166666666666],[-107.23277777777778,38.921388888888885],[-107.2611111111111,38.919999999999995],[-107.53833333333333,38.897777777777776],[-107.53833333333333,38.897777777777776],[-107.67750000000001,38.88638888888889],[-107.67750000000001,38.88638888888889],[-107.93194444444445,38.86388888888889],[-107.93194444444445,38.86388888888889],[-107.93194444444445,38.86388888888889],[-107.95777777777778,38.863055555555555],[-107.95777777777778,38.863055555555555],[-107.95777777777778,38.863055555555555],[-108.09944444444444,38.85111111111111],[-108.09944444444444,38.85111111111111],[-108.09944444444444,38.85111111111111],[-108.09944444444444,38.85111111111111],[-108.21416666666667,38.84055555555556],[-108.35555555555555,38.82777777777778],[-108.35555555555555,38.82777777777778],[-108.35555555555555,38.82777777777778],[-108.38361111111112,38.82611111111112],[-108.38361111111112,38.82611111111112],[-108.38361111111112,38.82611111111112],[-108.49805555555555,38.81472222222222],[-108.49805555555555,38.81472222222222],[-108.80611111111111,38.78805555555555],[-108.80611111111111,38.78805555555555],[-108.80611111111111,38.78805555555555],[-108.80611111111111,38.78805555555555],[-108.9475,38.775],[-109.06138888888889,38.76416666666667],[-109.06138888888889,38.76416666666667],[-109.06138888888889,38.76416666666667],[-109.22888888888889,38.74805555555556],[-109.22888888888889,38.74805555555556],[-109.34194444444444,38.73722222222222],[-109.34194444444444,38.73722222222222],[-109.50916666666667,38.721111111111114],[-109.50916666666667,38.721111111111114],[-109.50916666666667,38.721111111111114],[-109.64916666666667,38.70722222222223],[-109.64916666666667,38.70722222222223],[-109.76138888888889,38.696666666666665],[-109.76138888888889,38.696666666666665],[-109.90166666666667,38.69333333333333],[-109.90166666666667,38.69333333333333],[-110.0411111111111,38.689166666666665],[-110.0411111111111,38.689166666666665],[-110.0411111111111,38.689166666666665],[-110.0411111111111,38.689166666666665],[-110.06944444444444,38.68833333333333],[-110.18111111111112,38.684999999999995],[-110.32249999999999,38.68055555555555],[-110.35,38.67972222222222],[-110.35,38.67972222222222],[-110.35,38.67972222222222],[-110.46277777777777,38.67611111111111],[-110.46277777777777,38.67611111111111],[-110.46277777777777,38.67611111111111],[-110.49055555555556,38.675],[-110.49055555555556,38.675],[-110.60333333333332,38.671388888888885],[-110.60333333333332,38.671388888888885],[-110.63138888888888,38.67027777777778],[-110.63138888888888,38.67027777777778],[-111.18138888888889,38.65],[-111.18138888888889,38.65],[-111.18138888888889,38.65],[-111.18138888888889,38.65],[-111.32416666666666,38.644444444444446],[-111.32416666666666,38.644444444444446],[-111.32416666666666,38.644444444444446],[-111.61083333333333,38.632222222222225],[-111.61083333333333,38.632222222222225],[-111.61083333333333,38.632222222222225],[-111.61083333333333,38.632222222222225],[-112.30722222222222,38.60027777777778],[-112.30722222222222,38.60027777777778],[-112.30722222222222,38.60027777777778],[-112.44555555555556,38.593611111111116],[-112.44555555555556,38.593611111111116],[-112.44555555555556,38.593611111111116],[-112.58222222222221,38.586666666666666],[-112.58222222222221,38.586666666666666],[-112.58222222222221,38.586666666666666],[-112.71972222222223,38.57944444444445],[-112.71972222222223,38.57944444444445],[-112.99166666666667,38.565],[-112.99166666666667,38.565],[-113.40555555555557,38.54138888888889],[-113.40555555555557,38.54138888888889],[-113.40555555555557,38.54138888888889],[-113.40555555555557,38.54138888888889],[-113.54444444444444,38.53333333333333],[-113.54444444444444,38.53333333333333],[-113.54444444444444,38.53333333333333],[-113.54444444444444,38.53333333333333],[-113.54444444444444,38.53333333333333],[-113.6875,38.52472222222222],[-113.6875,38.52472222222222],[-113.6875,38.52472222222222],[-113.97194444444445,38.50694444444444],[-113.97194444444445,38.50694444444444],[-113.97194444444445,38.50694444444444],[-114.115,38.49777777777778],[-114.115,38.49777777777778],[-114.4,38.47916666666667],[-114.545,38.469166666666666],[-114.545,38.469166666666666],[-114.545,38.469166666666666],[-114.545,38.469166666666666],[-114.545,38.469166666666666],[-114.68611111111112,38.45944444444445],[-114.68611111111112,38.45944444444445],[-114.68611111111112,38.45944444444445],[-114.68611111111112,38.45944444444445],[-114.68611111111112,38.45944444444445],[-115.10944444444443,38.42944444444444],[-115.10944444444443,38.42944444444444],[-115.10944444444443,38.42944444444444],[-115.50027777777778,38.401111111111106],[-115.50027777777778,38.401111111111106],[-115.53694444444444,38.39722222222222],[-115.53694444444444,38.39722222222222],[-115.64305555555556,38.38972222222222],[-115.64305555555556,38.38972222222222],[-115.67722222222223,38.38638888888889],[-115.67722222222223,38.38638888888889],[-115.81888888888888,38.375],[-115.95833333333334,38.36416666666667],[-116.20972222222223,38.343611111111116],[-116.20972222222223,38.343611111111116],[-116.20972222222223,38.343611111111116],[-116.20972222222223,38.343611111111116],[-116.20972222222223,38.343611111111116],[-116.20972222222223,38.343611111111116],[-116.35194444444444,38.33027777777778],[-116.35194444444444,38.33027777777778],[-116.35194444444444,38.33027777777778],[-116.35194444444444,38.33027777777778],[-116.49277777777777,38.30638888888888],[-116.49277777777777,38.30638888888888],[-116.52305555555556,38.301111111111105],[-116.6325,38.2825],[-116.6325,38.2825],[-116.6325,38.2825],[-116.94500000000001,38.22833333333333],[-116.94500000000001,38.22833333333333],[-116.94500000000001,38.22833333333333],[-117.05361111111111,38.20944444444445],[-117.05361111111111,38.20944444444445],[-117.1863888888889,38.18583333333333],[-117.1863888888889,38.18583333333333],[-117.3236111111111,38.16166666666666],[-117.3236111111111,38.16166666666666],[-117.3236111111111,38.16166666666666],[-117.3236111111111,38.16166666666666],[-117.35638888888889,38.15611111111111],[-117.35638888888889,38.15611111111111],[-117.35638888888889,38.15611111111111],[-117.45277777777778,38.138888888888886],[-117.45277777777778,38.138888888888886],[-117.76222222222222,38.08277777777778],[-117.76222222222222,38.08277777777778],[-117.76222222222222,38.08277777777778],[-117.76222222222222,38.08277777777778],[-117.76222222222222,38.08277777777778],[-117.9,38.0575],[-118.00555555555556,38.038333333333334],[-118.03916666666666,38.03194444444444],[-118.14500000000001,38.0125],[-118.14500000000001,38.0125],[-118.17722222222223,38.006388888888885],[-118.17722222222223,38.006388888888885],[-118.28138888888888,37.98694444444445],[-118.28138888888888,37.98694444444445],[-118.28138888888888,37.98694444444445],[-118.31694444444445,37.98027777777778],[-118.31694444444445,37.98027777777778],[-118.31694444444445,37.98027777777778],[-118.42194444444445,37.96083333333333],[-118.42194444444445,37.96083333333333],[-118.42194444444445,37.96083333333333],[-118.42194444444445,37.96083333333333],[-118.45444444444445,37.95472222222222],[-118.45444444444445,37.95472222222222],[-118.45444444444445,37.95472222222222],[-118.84083333333332,37.886944444444445],[-118.84083333333332,37.886944444444445],[-118.84083333333332,37.886944444444445],[-118.84083333333332,37.886944444444445],[-119.405,37.82166666666667],[-119.405,37.82166666666667],[-119.405,37.82166666666667],[-119.405,37.82166666666667],[-119.405,37.82166666666667],[-119.405,37.82166666666667],[-119.66583333333334,37.79055555555556],[-119.66583333333334,37.79055555555556],[-119.66583333333334,37.79055555555556],[-119.66583333333334,37.79055555555556],[-119.66583333333334,37.79055555555556],[-119.92694444444444,37.75888888888889],[-119.92694444444444,37.75888888888889],[-119.92694444444444,37.75888888888889],[-119.92694444444444,37.75888888888889],[-120.05888888888889,37.7425],[-120.05888888888889,37.7425],[-120.05888888888889,37.7425],[-120.19027777777778,37.726111111111116],[-120.19027777777778,37.726111111111116],[-120.25,37.71666666666667],[-120.25,37.71666666666667],[-120.25,37.71666666666667],[-120.25,37.71666666666667],[-120.32222222222222,37.70944444444445],[-120.32222222222222,37.70944444444445],[-120.38333333333334,37.7],[-120.38333333333334,37.7],[-120.45472222222223,37.69333333333333],[-120.45472222222223,37.69333333333333],[-120.45472222222223,37.69333333333333],[-120.58444444444444,37.67833333333333],[-120.58444444444444,37.67833333333333],[-120.58444444444444,37.67833333333333],[-120.70944444444444,37.66361111111111],[-120.70944444444444,37.66361111111111],[-120.70944444444444,37.66361111111111],[-120.8236111111111,37.64972222222222],[-120.8236111111111,37.64972222222222],[-120.8236111111111,37.64972222222222],[-120.88333333333334,37.65],[-120.88333333333334,37.65],[-120.88333333333334,37.65],[-120.88333333333334,37.65],[-120.93527777777778,37.63611111111111],[-120.93527777777778,37.63611111111111],[-120.93527777777778,37.63611111111111],[-120.98333333333333,37.63333333333333],[-120.98333333333333,37.63333333333333],[-120.98333333333333,37.63333333333333],[-121.04416666666667,37.621944444444445],[-121.04416666666667,37.621944444444445],[-121.04416666666667,37.621944444444445],[-121.1,37.61666666666667],[-121.1,37.61666666666667],[-121.2525,37.594166666666666],[-121.2525,37.594166666666666],[-121.2525,37.594166666666666],[-121.3,37.583333333333336],[-121.3,37.583333333333336],[-121.3,37.583333333333336],[-121.35222222222221,37.58277777777778],[-121.35222222222221,37.58277777777778],[-121.35222222222221,37.58277777777778],[-121.44,37.57222222222222],[-121.44,37.57222222222222],[-121.5275,37.56222222222222],[-121.5275,37.56222222222222],[-121.61555555555555,37.55166666666666],[-121.61555555555555,37.55166666666666],[-121.69916666666667,37.533055555555556],[-121.69916666666667,37.533055555555556],[-121.69916666666667,37.533055555555556],[-121.73333333333333,37.516666666666666],[-121.73333333333333,37.516666666666666],[-121.73333333333333,37.516666666666666],[-121.77555555555556,37.514722222222225],[-121.77555555555556,37.514722222222225],[-121.77555555555556,37.514722222222225],[-121.85027777777778,37.496944444444445],[-121.85027777777778,37.496944444444445],[-121.92972222222222,37.492222222222225],[-121.96666666666667,37.5],[-121.96666666666667,37.5],[-122.00861111111111,37.50111111111111],[-122.00861111111111,37.50111111111111],[-122.00861111111111,37.50111111111111],[-122.15722222222223,37.54944444444444],[-122.15722222222223,37.54944444444444],[-122.15722222222223,37.54944444444444],[-122.22222222222223,37.57055555555556],[-122.25,37.583333333333336],[-122.27805555555555,37.58777777777778],[-122.27805555555555,37.58777777777778],[-122.27805555555555,37.58777777777778],[-122.32527777777777,37.60194444444445],[-122.32527777777777,37.60194444444445],[-122.32527777777777,37.60194444444445],[-122.32527777777777,37.60194444444445]],"type":"LineString"}
}
