{
  "id": 2014793601,
  "type": "Feature",
  "properties": {
    "geom:area": 0,
    "geom:bbox": "-122.516667,37.633333,-67.358056,42.541667",
    "geom:latitude": 41.30523376034894,
    "geom:longitude": -95.2945592280478,
    "src:alt_label": "swim-path",
    "src:geom": "swim",
    "swim:altitudes": [
      "009",
      "027",
      "027",
      "029",
      "036",
      "163",
      "188",
      "201",
      "230",
      "230",
      "247",
      "247",
      "265",
      "276",
      "276",
      "284",
      "290",
      "302",
      "302",
      "311",
      "312",
      "317",
      "318",
      "318",
      "322",
      "331",
      "331",
      "338",
      "344",
      "345",
      "361",
      "361",
      "361",
      "367",
      "367",
      "370C",
      "370C",
      "370C",
      "370C",
      "370C",
      "370C",
      "370C",
      "370C",
      "370C",
      "370C",
      "370C",
      "370C",
      "370C",
      "370C",
      "370C",
      "370C",
      "370C",
      "370C",
      "370C",
      "370C",
      "370C",
      "370C",
      "370C",
      "370C",
      "370C",
      "370C",
      "370C",
      "370C",
      "370C",
      "370C",
      "370C",
      "370C",
      "370C",
      "370C",
      "370C",
      "370C",
      "370C",
      "370C",
      "370C",
      "370C",
      "370C",
      "370C",
      "370C",
      "370C",
      "370C",
      "370C",
      "370C",
      "370C",
      "370C",
      "370C",
      "370C",
      "370C",
      "370C",
      "370C",
      "370C",
      "370C",
      "370C",
      "370C",
      "370C",
      "370C",
      "370C",
      "370C",
      "370C",
      "370C",
      "370C",
      "370C",
      "370C",
      "370C",
      "370C",
      "370C",
      "370C",
      "370C",
      "370C",
      "370C",
      "370C",
      "370C",
      "370C",
      "370C",
      "370C",
      "370C",
      "370C",
      "370C",
      "370C",
      "370C",
      "370C",
      "370C",
      "370C",
      "370C",
      "370C",
      "370C",
      "370C",
      "370C",
      "370C",
      "370C",
      "370C",
      "370C",
      "370C",
      "370C",
      "370C",
      "370C",
      "370C",
      "370C",
      "370C",
      "370C",
      "370C",
      "370C",
      "370C",
      "370C",
      "370C",
      "370C",
      "370C",
      "370C",
      "370C",
      "370C",
      "370C",
      "370C",
      "370C",
      "370C",
      "370C",
      "370C",
      "370C",
      "370C",
      "370C",
      "370C",
      "370C",
      "370C",
      "370C",
      "370C",
      "370C",
      "370C",
      "370C",
      "370C",
      "370C",
      "370C",
      "370C",
      "370C",
      "370C",
      "370C",
      "370C",
      "370C",
      "370C",
      "370C",
      "370C",
      "370C",
      "370C",
      "370C",
      "370C",
      "370C",
      "370C",
      "370C",
      "370C",
      "370C",
      "370C",
      "370C",
      "370C",
      "370C",
      "370C",
      "370C",
      "370C",
      "370C",
      "370C",
      "370C",
      "370C",
      "370C",
      "370C",
      "370C",
      "370C",
      "370C",
      "370C",
      "370C",
      "370C",
      "370C",
      "370C",
      "370C",
      "370C",
      "370C",
      "370C",
      "370C",
      "370C",
      "370C",
      "370C",
      "370C",
      "370C",
      "370C",
      "370C",
      "370C",
      "370C",
      "370C",
      "370C",
      "370C",
      "370C",
      "370C",
      "370C",
      "370C",
      "370C",
      "370C",
      "370C",
      "370C",
      "370C",
      "370C",
      "370C",
      "370C",
      "370C",
      "370C",
      "370C",
      "370C",
      "370C",
      "370C",
      "370C",
      "370C",
      "370C",
      "370C",
      "370C",
      "370C",
      "370",
      "370C",
      "370C",
      "370",
      "370",
      "370",
      "370C",
      "370C",
      "370C",
      "370C",
      "370C",
      "370C",
      "370C"
    ],
    "swim:geom": "path",
    "swim:speeds": [
      185,
      198,
      198,
      195,
      257,
      406,
      434,
      443,
      483,
      483,
      496,
      496,
      500,
      515,
      515,
      527,
      531,
      544,
      544,
      556,
      550,
      554,
      551,
      551,
      555,
      555,
      555,
      553,
      554,
      554,
      550,
      550,
      550,
      546,
      546,
      542,
      541,
      541,
      541,
      541,
      542,
      542,
      542,
      542,
      542,
      542,
      543,
      542,
      542,
      542,
      542,
      542,
      541,
      543,
      543,
      543,
      545,
      545,
      546,
      547,
      547,
      548,
      548,
      548,
      548,
      548,
      548,
      545,
      544,
      544,
      544,
      544,
      544,
      543,
      543,
      543,
      541,
      541,
      541,
      541,
      541,
      541,
      541,
      542,
      542,
      541,
      541,
      541,
      542,
      542,
      542,
      542,
      543,
      543,
      543,
      544,
      540,
      540,
      540,
      539,
      539,
      539,
      539,
      539,
      539,
      539,
      539,
      538,
      538,
      538,
      538,
      538,
      538,
      537,
      537,
      540,
      540,
      537,
      537,
      536,
      536,
      536,
      538,
      536,
      536,
      538,
      538,
      538,
      536,
      536,
      536,
      535,
      533,
      532,
      532,
      532,
      528,
      528,
      526,
      525,
      525,
      525,
      525,
      526,
      526,
      526,
      526,
      526,
      525,
      524,
      524,
      523,
      523,
      523,
      522,
      522,
      522,
      522,
      522,
      516,
      514,
      508,
      512,
      508,
      508,
      508,
      508,
      508,
      508,
      507,
      507,
      507,
      507,
      507,
      509,
      510,
      510,
      510,
      508,
      508,
      508,
      511,
      518,
      519,
      518,
      518,
      515,
      515,
      515,
      515,
      515,
      520,
      522,
      522,
      523,
      523,
      525,
      526,
      528,
      532,
      532,
      539,
      539,
      546,
      546,
      555,
      561,
      561,
      561,
      563,
      567,
      566,
      566,
      568,
      569,
      569,
      569,
      569,
      569,
      570,
      570,
      572,
      573,
      573,
      573,
      574,
      574,
      574,
      574,
      575,
      576,
      576,
      575,
      575,
      576,
      576,
      576,
      583,
      584,
      586,
      590,
      593,
      593,
      593,
      598,
      592,
      589,
      589,
      545,
      550,
      542,
      542,
      540,
      540,
      540,
      543,
      544,
      543,
      543,
      529,
      524,
      524
    ],
    "swim:timestamps": [
      1771122246,
      1771122312,
      1771122312,
      1771122328,
      1771122372,
      1771122868,
      1771122988,
      1771123048,
      1771123229,
      1771123229,
      1771123349,
      1771123349,
      1771123469,
      1771123589,
      1771123589,
      1771123699,
      1771123759,
      1771123889,
      1771123889,
      1771124000,
      1771124009,
      1771124060,
      1771124069,
      1771124069,
      1771124120,
      1771124180,
      1771124180,
      1771124249,
      1771124300,
      1771124310,
      1771124430,
      1771124430,
      1771124430,
      1771124480,
      1771124480,
      1771124550,
      1771124610,
      1771124670,
      1771124730,
      1771124730,
      1771124841,
      1771124841,
      1771124841,
      1771124901,
      1771124961,
      1771124961,
      1771125021,
      1771125261,
      1771125261,
      1771125261,
      1771125321,
      1771125321,
      1771125381,
      1771125441,
      1771125562,
      1771125562,
      1771125682,
      1771125682,
      1771125742,
      1771125922,
      1771125922,
      1771125982,
      1771125982,
      1771126042,
      1771126102,
      1771126102,
      1771126102,
      1771126343,
      1771126583,
      1771126583,
      1771126583,
      1771126823,
      1771126823,
      1771126883,
      1771126883,
      1771126943,
      1771127047,
      1771127063,
      1771127107,
      1771127123,
      1771127167,
      1771127183,
      1771127183,
      1771127244,
      1771127244,
      1771127304,
      1771127364,
      1771127364,
      1771127424,
      1771127468,
      1771127468,
      1771127588,
      1771127648,
      1771127648,
      1771127648,
      1771127708,
      1771127904,
      1771127964,
      1771127964,
      1771128008,
      1771128024,
      1771128024,
      1771128068,
      1771128085,
      1771128085,
      1771128309,
      1771128309,
      1771128489,
      1771128489,
      1771128489,
      1771128549,
      1771128669,
      1771128669,
      1771128969,
      1771129029,
      1771129069,
      1771129069,
      1771129090,
      1771129150,
      1771129250,
      1771129250,
      1771129370,
      1771129390,
      1771129430,
      1771129430,
      1771129450,
      1771129510,
      1771129550,
      1771129570,
      1771129570,
      1771129570,
      1771129610,
      1771129670,
      1771129730,
      1771129762,
      1771129790,
      1771129954,
      1771129970,
      1771130075,
      1771130135,
      1771130135,
      1771130135,
      1771130195,
      1771130210,
      1771130255,
      1771130255,
      1771130330,
      1771130330,
      1771130510,
      1771130570,
      1771130630,
      1771130691,
      1771130691,
      1771130691,
      1771130931,
      1771130931,
      1771131111,
      1771131111,
      1771131111,
      1771131291,
      1771131411,
      1771131457,
      1771131471,
      1771131577,
      1771131577,
      1771131637,
      1771131637,
      1771131637,
      1771131651,
      1771131697,
      1771131757,
      1771131771,
      1771131817,
      1771131817,
      1771131891,
      1771131937,
      1771131951,
      1771131997,
      1771132117,
      1771132131,
      1771132131,
      1771132177,
      1771132237,
      1771132251,
      1771132297,
      1771132311,
      1771132372,
      1771132432,
      1771132477,
      1771132492,
      1771132492,
      1771132732,
      1771132777,
      1771132777,
      1771132792,
      1771132792,
      1771132837,
      1771132897,
      1771132957,
      1771133017,
      1771133017,
      1771133137,
      1771133137,
      1771133257,
      1771133257,
      1771133437,
      1771133617,
      1771133617,
      1771133617,
      1771133677,
      1771133798,
      1771133825,
      1771133825,
      1771133884,
      1771134004,
      1771134004,
      1771134038,
      1771134064,
      1771134098,
      1771134125,
      1771134125,
      1771134243,
      1771134278,
      1771134305,
      1771134338,
      1771134398,
      1771134426,
      1771134426,
      1771134458,
      1771134486,
      1771134603,
      1771134603,
      1771134664,
      1771134758,
      1771134785,
      1771134963,
      1771134963,
      1771135385,
      1771135443,
      1771135782,
      1771135925,
      1771136022,
      1771136322,
      1771136322,
      1771136742,
      1771137283,
      1771137463,
      1771137523,
      1771138303,
      1771138550,
      1771138603,
      1771138663,
      1771138670,
      1771138790,
      1771138790,
      1771138843,
      1771138903,
      1771138963,
      1771138963,
      1771139383,
      1771139563,
      1771139563
    ],
    "wof:geomhash": "9e592a6027991569be1a4579612a74e1",
    "wof:id": 2014793601,
    "wof:repo": "sfomuseum-data-flights-2026-02"
  },
  "bbox": [
    -122.51666666666667,
    37.63333333333333,
    -67.35805555555555,
    42.541666666666664
  ],
  "geometry": {"coordinates":[[-122.4,37.63333333333333],[-122.46666666666667,37.666666666666664],[-122.46666666666667,37.666666666666664],[-122.47638888888889,37.66305555555555],[-122.51666666666667,37.7],[-121.79833333333333,38.143055555555556],[-121.53972222222222,38.26583333333333],[-121.40555555555557,38.32916666666667],[-120.9925,38.581944444444446],[-120.9925,38.581944444444446],[-120.71833333333333,38.749722222222225],[-120.71833333333333,38.749722222222225],[-120.43694444444445,38.92027777777778],[-120.1463888888889,39.094722222222224],[-120.1463888888889,39.094722222222224],[-119.89027777777778,39.24583333333334],[-119.7375,39.336666666666666],[-119.39194444444445,39.54083333333333],[-119.39194444444445,39.54083333333333],[-119.10583333333332,39.7075],[-119.07166666666666,39.727222222222224],[-118.94416666666667,39.800555555555555],[-118.91000000000001,39.82027777777778],[-118.91000000000001,39.82027777777778],[-118.77916666666667,39.89083333333333],[-118.60388888888889,39.96361111111111],[-118.60388888888889,39.96361111111111],[-118.38722222222223,40.05138888888889],[-118.25,40.10666666666667],[-118.20666666666666,40.12416666666667],[-117.84333333333333,40.25222222222222],[-117.84333333333333,40.25222222222222],[-117.84333333333333,40.25222222222222],[-117.70194444444445,40.28638888888889],[-117.70194444444445,40.28638888888889],[-117.47166666666666,40.333333333333336],[-117.28,40.37166666666667],[-117.09138888888889,40.40888888888889],[-116.8913888888889,40.44833333333333],[-116.8913888888889,40.44833333333333],[-116.53999999999999,40.51638888888889],[-116.53999999999999,40.51638888888889],[-116.53999999999999,40.51638888888889],[-116.34861111111111,40.55305555555555],[-116.155,40.58972222222222],[-116.155,40.58972222222222],[-115.96333333333334,40.62555555555556],[-115.19388888888889,40.76638888888889],[-115.19388888888889,40.76638888888889],[-115.19388888888889,40.76638888888889],[-115.00111111111111,40.800555555555555],[-115.00111111111111,40.800555555555555],[-114.80972222222222,40.83444444444444],[-114.61416666666666,40.868611111111115],[-114.21777777777778,40.93666666666666],[-114.21777777777778,40.93666666666666],[-113.8261111111111,41.0025],[-113.8261111111111,41.0025],[-113.63138888888888,41.03472222222222],[-113.04138888888889,41.13],[-113.04138888888889,41.13],[-112.84194444444444,41.16138888888889],[-112.84194444444444,41.16138888888889],[-112.64527777777778,41.19222222222222],[-112.44472222222223,41.223055555555554],[-112.44472222222223,41.223055555555554],[-112.44472222222223,41.223055555555554],[-111.68666666666667,41.33638888888889],[-110.88833333333334,41.45027777777778],[-110.88833333333334,41.45027777777778],[-110.88833333333334,41.45027777777778],[-110.08749999999999,41.558055555555555],[-110.08749999999999,41.558055555555555],[-109.88777777777779,41.58416666666667],[-109.88777777777779,41.58416666666667],[-109.6913888888889,41.60944444444445],[-109.3325,41.65472222222222],[-109.29055555555556,41.66],[-109.13361111111112,41.67916666666667],[-109.09194444444444,41.68444444444444],[-108.97,41.69916666666666],[-108.89083333333333,41.70888888888889],[-108.89083333333333,41.70888888888889],[-108.68833333333333,41.73305555555556],[-108.68833333333333,41.73305555555556],[-108.49194444444444,41.75611111111111],[-108.29138888888889,41.77916666666667],[-108.29138888888889,41.77916666666667],[-108.09333333333333,41.801944444444445],[-107.97111111111111,41.815555555555555],[-107.97111111111111,41.815555555555555],[-107.57472222222222,41.85916666666667],[-107.37166666666666,41.88111111111111],[-107.37166666666666,41.88111111111111],[-107.37166666666666,41.88111111111111],[-107.17194444444445,41.901944444444446],[-106.51861111111111,41.968611111111116],[-106.32027777777778,41.988055555555555],[-106.32027777777778,41.988055555555555],[-106.16250000000001,42.00333333333333],[-106.1211111111111,42.007222222222225],[-106.1211111111111,42.007222222222225],[-105.96416666666667,42.02194444444444],[-105.92305555555556,42.02583333333333],[-105.92305555555556,42.02583333333333],[-105.16833333333334,42.09388888888889],[-105.16833333333334,42.09388888888889],[-104.57583333333334,42.14388888888889],[-104.57583333333334,42.14388888888889],[-104.57583333333334,42.14388888888889],[-104.37944444444443,42.15972222222222],[-103.98361111111112,42.190555555555555],[-103.98361111111112,42.190555555555555],[-102.94361111111111,42.265],[-102.745,42.278055555555554],[-102.63166666666666,42.28638888888889],[-102.63166666666666,42.28638888888889],[-102.5461111111111,42.29083333333333],[-102.3436111111111,42.30361111111111],[-102.03277777777778,42.322500000000005],[-102.03277777777778,42.322500000000005],[-101.63,42.34638888888889],[-101.56527777777778,42.348888888888894],[-101.42805555555556,42.35722222222223],[-101.42805555555556,42.35722222222223],[-101.36472222222221,42.359722222222224],[-101.16194444444444,42.37027777777778],[-101.02555555555556,42.3775],[-100.96333333333334,42.38027777777778],[-100.96333333333334,42.38027777777778],[-100.96333333333334,42.38027777777778],[-100.82111111111111,42.38722222222222],[-100.61999999999999,42.39694444444444],[-100.42,42.405833333333334],[-100.32249999999999,42.41027777777778],[-100.22083333333333,42.414722222222224],[-99.66638888888889,42.43722222222222],[-99.62444444444444,42.43888888888888],[-99.30944444444444,42.45027777777778],[-99.115,42.456944444444446],[-99.115,42.456944444444446],[-99.115,42.456944444444446],[-98.91611111111112,42.46361111111111],[-98.83388888888888,42.46611111111111],[-98.71611111111112,42.469722222222224],[-98.71611111111112,42.469722222222224],[-98.43861111111111,42.481388888888894],[-98.43861111111111,42.481388888888894],[-97.84388888888888,42.50555555555555],[-97.65861111111111,42.5125],[-97.46388888888889,42.519444444444446],[-97.26527777777778,42.52611111111111],[-97.26527777777778,42.52611111111111],[-97.26527777777778,42.52611111111111],[-96.48138888888889,42.541666666666664],[-96.48138888888889,42.541666666666664],[-95.89166666666668,42.54083333333333],[-95.89166666666668,42.54083333333333],[-95.89166666666668,42.54083333333333],[-95.30749999999999,42.53666666666666],[-94.9238888888889,42.5325],[-94.79583333333333,42.53138888888889],[-94.73055555555555,42.53],[-94.41361111111112,42.525],[-94.41361111111112,42.525],[-94.22472222222223,42.52166666666667],[-94.22472222222223,42.52166666666667],[-94.22472222222223,42.52166666666667],[-94.18694444444445,42.520833333333336],[-94.03555555555555,42.51777777777777],[-93.845,42.51361111111111],[-93.80472222222222,42.51277777777778],[-93.655,42.50944444444445],[-93.655,42.50944444444445],[-93.42361111111111,42.50361111111111],[-93.27055555555556,42.49944444444444],[-93.23194444444445,42.49861111111111],[-93.07972222222222,42.494166666666665],[-92.69888888888889,42.48277777777778],[-92.66277777777778,42.481388888888894],[-92.66277777777778,42.481388888888894],[-92.50777777777778,42.47638888888889],[-92.31305555555555,42.469722222222224],[-92.23388888888888,42.466944444444444],[-92.12027777777777,42.46277777777778],[-92.04277777777777,42.459722222222226],[-91.85138888888888,42.4525],[-91.66305555555556,42.44472222222222],[-91.51055555555556,42.43833333333333],[-91.47166666666666,42.43666666666666],[-91.47166666666666,42.43666666666666],[-90.69777777777779,42.40083333333333],[-90.54444444444444,42.39277777777778],[-90.54444444444444,42.39277777777778],[-90.50194444444445,42.390277777777776],[-90.50194444444445,42.390277777777776],[-90.34444444444443,42.38166666666667],[-90.14944444444446,42.37027777777778],[-89.95055555555555,42.35861111111111],[-89.74444444444444,42.346111111111114],[-89.74444444444444,42.346111111111114],[-89.34138888888889,42.32055555555556],[-89.34138888888889,42.32055555555556],[-88.935,42.29333333333333],[-88.935,42.29333333333333],[-88.33416666666666,42.250277777777775],[-87.70055555555555,42.21638888888889],[-87.70055555555555,42.21638888888889],[-87.70055555555555,42.21638888888889],[-87.4888888888889,42.211666666666666],[-87.065,42.20111111111111],[-86.98,42.19916666666666],[-86.98,42.19916666666666],[-86.75138888888888,42.192499999999995],[-86.33805555555556,42.17944444444444],[-86.33805555555556,42.17944444444444],[-86.21333333333334,42.17527777777777],[-86.11805555555554,42.17194444444444],[-85.99888888888889,42.16777777777777],[-85.91666666666667,42.164722222222224],[-85.91666666666667,42.164722222222224],[-85.48388888888888,42.14805555555556],[-85.34972222222221,42.1425],[-85.26694444444445,42.13916666666667],[-85.13722222222223,42.13361111111111],[-84.92361111111111,42.12416666666667],[-84.83472222222221,42.12],[-84.83472222222221,42.12],[-84.71083333333334,42.11416666666667],[-84.61805555555554,42.109722222222224],[-84.19833333333334,42.066111111111105],[-84.19833333333334,42.066111111111105],[-83.98916666666666,42.03583333333333],[-83.65416666666667,41.98583333333333],[-83.57388888888889,41.97361111111111],[-82.94972222222222,41.8775],[-82.94972222222222,41.8775],[-81.45805555555556,41.632777777777775],[-81.24472222222222,41.596111111111114],[-80.05527777777777,41.382777777777775],[-79.5461111111111,41.2875],[-79.21277777777777,41.223888888888894],[-78.18333333333334,41.01861111111111],[-78.18333333333334,41.01861111111111],[-76.67305555555556,40.70166666666667],[-74.80194444444444,40.28972222222222],[-74.22472222222223,40.157222222222224],[-74.02055555555556,40.109722222222224],[-71.44361111111111,40.11527777777778],[-70.61666666666666,40.11666666666667],[-70.46694444444445,40.13027777777778],[-70.25611111111111,40.132222222222225],[-70.21666666666667,40.11666666666667],[-69.81666666666666,40.13333333333333],[-69.81666666666666,40.13333333333333],[-69.67027777777778,40.13638888888889],[-69.47083333333333,40.136944444444445],[-69.2761111111111,40.13722222222222],[-69.2761111111111,40.13722222222222],[-67.92500000000001,40.13055555555555],[-67.35805555555555,40.12305555555555],[-67.35805555555555,40.12305555555555]],"type":"LineString"}
}
