{
  "id": 2014903571,
  "type": "Feature",
  "properties": {
    "geom:area": 0,
    "geom:bbox": "-122.386389,24.534444,-92.549722,38.508889",
    "geom:latitude": 34.32970370908832,
    "geom:longitude": -106.08868480323035,
    "src:alt_label": "swim-path",
    "src:geom": "swim",
    "swim:altitudes": [
      "025",
      "025",
      "025",
      "040",
      "040",
      "061",
      "075",
      "075",
      "100",
      "114",
      "114",
      "114",
      "132",
      "132",
      "156",
      "175",
      "175",
      "186",
      "229",
      "229",
      "229",
      "240",
      "250",
      "250",
      "269",
      "269",
      "269",
      "278",
      "297",
      "306",
      "306",
      "339",
      "339",
      "350C",
      "350C",
      "350C",
      "350C",
      "350C",
      "350C",
      "350C",
      "350C",
      "350C",
      "350C",
      "350C",
      "350C",
      "350C",
      "350C",
      "350C",
      "350C",
      "350C",
      "350C",
      "350C",
      "350C",
      "350C",
      "350C",
      "350C",
      "350C",
      "350C",
      "350C",
      "350C",
      "350C",
      "350C",
      "350C",
      "350C",
      "350C",
      "350C",
      "350C",
      "350C",
      "350C",
      "350C",
      "350C",
      "350C",
      "350C",
      "350C",
      "350C",
      "350C",
      "350C",
      "350C",
      "350C",
      "350C",
      "350C",
      "350C",
      "350C",
      "350C",
      "350C",
      "350C",
      "350C",
      "350C",
      "350C",
      "350C",
      "350C",
      "350C",
      "350C",
      "350C",
      "350C",
      "350C",
      "350C",
      "350C",
      "350C",
      "350C",
      "350C",
      "350C",
      "350C",
      "350C",
      "350C",
      "350C",
      "350C",
      "350C",
      "350C",
      "350C",
      "350C",
      "350C",
      "350C",
      "350C",
      "350C",
      "350C",
      "350C",
      "350C",
      "350C",
      "350C",
      "350C",
      "350C",
      "350C",
      "350C",
      "350C",
      "350C",
      "350C",
      "350C",
      "350C",
      "350C",
      "350C",
      "350C",
      "350C",
      "350C",
      "350C",
      "350C",
      "350C",
      "350C",
      "350C",
      "350C",
      "350C",
      "347",
      "338",
      "338",
      "330C",
      "330C",
      "330C",
      "330C",
      "330C",
      "330C",
      "330C",
      "330C",
      "330C",
      "330C",
      "330C",
      "330C",
      "330C",
      "330C",
      "330C",
      "330C",
      "330C",
      "330C",
      "330C",
      "330C",
      "330C",
      "330C",
      "330C",
      "330C",
      "330C",
      "330C",
      "330C",
      "330C",
      "330C",
      "330C",
      "330C",
      "330C",
      "330C",
      "330C",
      "330C",
      "330C",
      "330C",
      "330C",
      "334",
      "334",
      "334",
      "336",
      "336",
      "345",
      "350C",
      "350C",
      "350C",
      "350C",
      "350C",
      "350C",
      "350C",
      "350C",
      "350C",
      "350C",
      "350C",
      "350C",
      "350C",
      "350C",
      "350C",
      "350C",
      "350C",
      "350C",
      "350C",
      "350C",
      "350C",
      "350C",
      "350C",
      "350C",
      "350C",
      "350C",
      "350C",
      "350C",
      "350C",
      "350C",
      "350C",
      "350C",
      "350C",
      "350C",
      "350C",
      "350C",
      "350C",
      "350C",
      "350C",
      "350C",
      "350C",
      "350C",
      "350C",
      "350C",
      "350C",
      "350C",
      "350C",
      "350C",
      "350C",
      "350C",
      "350C",
      "350C",
      "350C",
      "350C",
      "350C",
      "350C",
      "350C",
      "350C",
      "350C",
      "350C",
      "350C",
      "350C",
      "350C",
      "350C",
      "350C",
      "350C",
      "350C",
      "350C",
      "350C",
      "350C",
      "350C",
      "350C",
      "350C",
      "350C",
      "350C",
      "350C",
      "350C",
      "350C",
      "350C",
      "350C",
      "350C",
      "350C",
      "350C",
      "350C",
      "350C",
      "350C",
      "350C",
      "350C",
      "350C",
      "350C",
      "350C",
      "350C",
      "350C",
      "350C",
      "350C"
    ],
    "swim:geom": "path",
    "swim:speeds": [
      183,
      183,
      183,
      230,
      230,
      264,
      261,
      261,
      272,
      343,
      343,
      343,
      376,
      376,
      382,
      387,
      387,
      405,
      488,
      488,
      488,
      498,
      507,
      507,
      520,
      520,
      520,
      525,
      528,
      529,
      529,
      531,
      531,
      533,
      533,
      533,
      533,
      533,
      533,
      530,
      530,
      529,
      529,
      530,
      530,
      531,
      531,
      531,
      531,
      533,
      533,
      533,
      533,
      533,
      533,
      534,
      534,
      534,
      534,
      533,
      533,
      533,
      533,
      533,
      533,
      533,
      534,
      534,
      539,
      541,
      542,
      542,
      542,
      541,
      541,
      541,
      541,
      541,
      541,
      541,
      542,
      542,
      542,
      543,
      543,
      543,
      543,
      543,
      544,
      544,
      544,
      544,
      543,
      543,
      543,
      543,
      543,
      543,
      543,
      543,
      543,
      543,
      543,
      543,
      543,
      545,
      545,
      545,
      545,
      545,
      544,
      545,
      545,
      545,
      545,
      545,
      545,
      546,
      546,
      546,
      546,
      546,
      545,
      545,
      544,
      542,
      542,
      541,
      541,
      540,
      540,
      534,
      532,
      532,
      532,
      531,
      530,
      534,
      534,
      534,
      534,
      534,
      527,
      527,
      532,
      534,
      536,
      538,
      538,
      538,
      538,
      539,
      539,
      540,
      541,
      541,
      544,
      542,
      542,
      542,
      541,
      541,
      541,
      542,
      543,
      543,
      543,
      543,
      544,
      544,
      547,
      541,
      541,
      540,
      540,
      541,
      541,
      541,
      541,
      540,
      540,
      539,
      538,
      538,
      538,
      538,
      538,
      538,
      542,
      545,
      545,
      546,
      549,
      549,
      551,
      550,
      550,
      549,
      549,
      549,
      549,
      548,
      547,
      547,
      547,
      545,
      545,
      545,
      545,
      545,
      545,
      544,
      544,
      544,
      545,
      545,
      545,
      545,
      545,
      544,
      544,
      542,
      542,
      541,
      541,
      541,
      541,
      540,
      540,
      540,
      540,
      534,
      534,
      534,
      532,
      532,
      532,
      531,
      529,
      529,
      520,
      520,
      520,
      513,
      513,
      506,
      506,
      497,
      497,
      497,
      497,
      497,
      497,
      496,
      496,
      503,
      503,
      503,
      505,
      505,
      505,
      505,
      503,
      503,
      503,
      501,
      499,
      499,
      496,
      496,
      496,
      496,
      490,
      488,
      488,
      488,
      487,
      487,
      487,
      487,
      487,
      487,
      487
    ],
    "swim:timestamps": [
      1772180907,
      1772180907,
      1772180907,
      1772180967,
      1772180967,
      1772181027,
      1772181057,
      1772181057,
      1772181117,
      1772181177,
      1772181177,
      1772181177,
      1772181237,
      1772181237,
      1772181297,
      1772181357,
      1772181357,
      1772181417,
      1772181658,
      1772181658,
      1772181658,
      1772181718,
      1772181778,
      1772181778,
      1772181898,
      1772181898,
      1772181898,
      1772181958,
      1772182078,
      1772182138,
      1772182138,
      1772182378,
      1772182378,
      1772182497,
      1772182618,
      1772182618,
      1772182618,
      1772182618,
      1772182618,
      1772182798,
      1772182798,
      1772182857,
      1772182857,
      1772183098,
      1772183098,
      1772183218,
      1772183218,
      1772183218,
      1772183218,
      1772183457,
      1772183457,
      1772183517,
      1772183517,
      1772183517,
      1772183577,
      1772183757,
      1772183757,
      1772183757,
      1772183757,
      1772183817,
      1772183817,
      1772183817,
      1772184057,
      1772184117,
      1772184117,
      1772184117,
      1772184177,
      1772184177,
      1772184357,
      1772184477,
      1772184549,
      1772184549,
      1772184609,
      1772184658,
      1772184658,
      1772184669,
      1772184669,
      1772184718,
      1772184729,
      1772184729,
      1772184790,
      1772184910,
      1772184910,
      1772184958,
      1772184958,
      1772185018,
      1772185018,
      1772185078,
      1772185138,
      1772185138,
      1772185138,
      1772185150,
      1772185198,
      1772185198,
      1772185270,
      1772185318,
      1772185318,
      1772185330,
      1772185330,
      1772185378,
      1772185378,
      1772185390,
      1772185438,
      1772185438,
      1772185570,
      1772185857,
      1772185857,
      1772185917,
      1772185917,
      1772185917,
      1772185930,
      1772185977,
      1772185977,
      1772185990,
      1772185990,
      1772185990,
      1772186110,
      1772186350,
      1772186395,
      1772186410,
      1772186455,
      1772186455,
      1772186470,
      1772186470,
      1772186575,
      1772186635,
      1772186635,
      1772186755,
      1772186755,
      1772186816,
      1772186816,
      1772186936,
      1772186996,
      1772186996,
      1772186996,
      1772187056,
      1772187177,
      1772187237,
      1772187237,
      1772187237,
      1772187237,
      1772187297,
      1772187357,
      1772187357,
      1772187477,
      1772187537,
      1772187602,
      1772187717,
      1772187717,
      1772187837,
      1772187837,
      1772187962,
      1772187962,
      1772188022,
      1772188078,
      1772188078,
      1772188202,
      1772188322,
      1772188322,
      1772188322,
      1772188382,
      1772188382,
      1772188562,
      1772188622,
      1772188682,
      1772188682,
      1772188682,
      1772188682,
      1772188742,
      1772188742,
      1772188922,
      1772189176,
      1772189176,
      1772189236,
      1772189236,
      1772189297,
      1772189297,
      1772189297,
      1772189402,
      1772189463,
      1772189463,
      1772189523,
      1772189583,
      1772189583,
      1772189583,
      1772189597,
      1772189597,
      1772189657,
      1772189717,
      1772189763,
      1772189763,
      1772189777,
      1772189823,
      1772189837,
      1772190003,
      1772190018,
      1772190018,
      1772190063,
      1772190063,
      1772190063,
      1772190078,
      1772190123,
      1772190183,
      1772190198,
      1772190198,
      1772190363,
      1772190363,
      1772190423,
      1772190438,
      1772190483,
      1772190498,
      1772190543,
      1772190603,
      1772190603,
      1772190618,
      1772190618,
      1772190663,
      1772190678,
      1772190678,
      1772190739,
      1772190739,
      1772190859,
      1772190859,
      1772190919,
      1772190919,
      1772190919,
      1772190919,
      1772191039,
      1772191039,
      1772191219,
      1772191219,
      1772191396,
      1772191396,
      1772191396,
      1772191456,
      1772191456,
      1772191456,
      1772191517,
      1772191637,
      1772191637,
      1772191697,
      1772191697,
      1772191697,
      1772191757,
      1772191757,
      1772191817,
      1772191817,
      1772192057,
      1772192057,
      1772192057,
      1772192057,
      1772192057,
      1772192057,
      1772192117,
      1772192117,
      1772192358,
      1772192358,
      1772192358,
      1772192478,
      1772192478,
      1772192478,
      1772192478,
      1772192598,
      1772192598,
      1772192598,
      1772192658,
      1772192838,
      1772192838,
      1772192899,
      1772192899,
      1772192899,
      1772192899,
      1772192959,
      1772193079,
      1772193079,
      1772193079,
      1772193500,
      1772193500,
      1772193500,
      1772193500,
      1772193500,
      1772193500,
      1772193500
    ],
    "wof:geomhash": "118045b88306011be6aefb294eac82da",
    "wof:id": 2014903571,
    "wof:repo": "sfomuseum-data-flights-2026-02"
  },
  "bbox": [
    -122.3863888888889,
    24.534444444444446,
    -92.54972222222221,
    38.50888888888889
  ],
  "geometry": {"coordinates":[[-122.33333333333333,37.666666666666664],[-122.33333333333333,37.666666666666664],[-122.33333333333333,37.666666666666664],[-122.31666666666666,37.71666666666667],[-122.31666666666666,37.71666666666667],[-122.35,37.766666666666666],[-122.36527777777778,37.80166666666666],[-122.36527777777778,37.80166666666666],[-122.3863888888889,37.87388888888889],[-122.34027777777777,37.948611111111106],[-122.34027777777777,37.948611111111106],[-122.34027777777777,37.948611111111106],[-122.21472222222222,37.974722222222226],[-122.21472222222222,37.974722222222226],[-122.08138888888888,37.989444444444445],[-121.94527777777778,37.98972222222222],[-121.94527777777778,37.98972222222222],[-121.80527777777777,37.99055555555556],[-121.14805555555556,38.055],[-121.14805555555556,38.055],[-121.14805555555556,38.055],[-120.97583333333334,38.078611111111115],[-120.79972222222221,38.1025],[-120.79972222222221,38.1025],[-120.44166666666668,38.150277777777774],[-120.44166666666668,38.150277777777774],[-120.44166666666668,38.150277777777774],[-120.25777777777778,38.174166666666665],[-119.89083333333333,38.22138888888889],[-119.70611111111111,38.24444444444445],[-119.70611111111111,38.24444444444445],[-118.99083333333333,38.33166666666667],[-118.99083333333333,38.33166666666667],[-118.61694444444444,38.37444444444444],[-118.20694444444445,38.42166666666667],[-118.20694444444445,38.42166666666667],[-118.20694444444445,38.42166666666667],[-118.20694444444445,38.42166666666667],[-118.20694444444445,38.42166666666667],[-117.65333333333334,38.48222222222223],[-117.65333333333334,38.48222222222223],[-117.46833333333333,38.501666666666665],[-117.46833333333333,38.501666666666665],[-116.74694444444445,38.50888888888889],[-116.74694444444445,38.50888888888889],[-116.36638888888888,38.49916666666667],[-116.36638888888888,38.49916666666667],[-116.36638888888888,38.49916666666667],[-116.36638888888888,38.49916666666667],[-115.61194444444443,38.47638888888889],[-115.61194444444443,38.47638888888889],[-115.42472222222223,38.47],[-115.42472222222223,38.47],[-115.42472222222223,38.47],[-115.24666666666667,38.46361111111111],[-114.67861111111111,38.441111111111105],[-114.67861111111111,38.441111111111105],[-114.67861111111111,38.441111111111105],[-114.67861111111111,38.441111111111105],[-114.49027777777778,38.43333333333333],[-114.49027777777778,38.43333333333333],[-114.49027777777778,38.43333333333333],[-113.73944444444444,38.39861111111111],[-113.54833333333333,38.388888888888886],[-113.54833333333333,38.388888888888886],[-113.54833333333333,38.388888888888886],[-113.36027777777777,38.37916666666667],[-113.36027777777777,38.37916666666667],[-112.80083333333333,38.296388888888885],[-112.43972222222223,38.18611111111111],[-112.22500000000001,38.12],[-112.22500000000001,38.12],[-112.04888888888888,38.065555555555555],[-111.9038888888889,38.02027777777778],[-111.9038888888889,38.02027777777778],[-111.86888888888888,38.00944444444445],[-111.86888888888888,38.00944444444445],[-111.72722222222222,37.965],[-111.69250000000001,37.95388888888889],[-111.69250000000001,37.95388888888889],[-111.515,37.897777777777776],[-111.16277777777778,37.785555555555554],[-111.16277777777778,37.785555555555554],[-111.02722222222222,37.727222222222224],[-111.02722222222222,37.727222222222224],[-110.86305555555555,37.64944444444444],[-110.86305555555555,37.64944444444444],[-110.69833333333334,37.57166666666667],[-110.53166666666667,37.5025],[-110.53166666666667,37.5025],[-110.53166666666667,37.5025],[-110.49583333333334,37.49055555555556],[-110.3561111111111,37.44305555555555],[-110.3561111111111,37.44305555555555],[-110.14250000000001,37.368611111111115],[-110.00916666666667,37.32166666666667],[-110.00916666666667,37.32166666666667],[-109.96972222222223,37.30777777777777],[-109.96972222222223,37.30777777777777],[-109.83666666666666,37.26083333333333],[-109.83666666666666,37.26083333333333],[-109.79583333333333,37.24638888888889],[-109.66305555555556,37.19944444444444],[-109.66305555555556,37.19944444444444],[-109.27944444444444,37.0625],[-108.48555555555555,36.77333333333333],[-108.48555555555555,36.77333333333333],[-108.31277777777777,36.70944444444445],[-108.31277777777777,36.70944444444445],[-108.31277777777777,36.70944444444445],[-108.24527777777777,36.68444444444444],[-108.14,36.644999999999996],[-108.14,36.644999999999996],[-108.07249999999999,36.61972222222222],[-108.07249999999999,36.61972222222222],[-108.07249999999999,36.61972222222222],[-107.73166666666667,36.49166666666667],[-107.04916666666666,36.23111111111111],[-106.94861111111112,36.19194444444444],[-106.88055555555555,36.16555555555556],[-106.77888888888889,36.126111111111115],[-106.77888888888889,36.126111111111115],[-106.71083333333334,36.099444444444444],[-106.71083333333334,36.099444444444444],[-106.42500000000001,35.98722222222222],[-106.25444444444445,35.919999999999995],[-106.25444444444445,35.919999999999995],[-105.93944444444445,35.79472222222222],[-105.93944444444445,35.79472222222222],[-105.77444444444444,35.728611111111114],[-105.77444444444444,35.728611111111114],[-105.43972222222223,35.593333333333334],[-105.27777777777777,35.52722222222222],[-105.27777777777777,35.52722222222222],[-105.27777777777777,35.52722222222222],[-105.11638888888888,35.46138888888889],[-104.79694444444445,35.32972222222222],[-104.63472222222222,35.2625],[-104.63472222222222,35.2625],[-104.63472222222222,35.2625],[-104.63472222222222,35.2625],[-104.46166666666667,35.19],[-104.31138888888889,35.12722222222222],[-104.31138888888889,35.12722222222222],[-104.00611111111111,34.998333333333335],[-103.8461111111111,34.930277777777775],[-103.64888888888889,34.846111111111114],[-103.36166666666666,34.722500000000004],[-103.36166666666666,34.722500000000004],[-103.04277777777777,34.58388888888889],[-103.04277777777777,34.58388888888889],[-102.70611111111111,34.407777777777774],[-102.70611111111111,34.407777777777774],[-102.5625,34.31472222222222],[-102.44805555555556,34.23972222222222],[-102.44805555555556,34.23972222222222],[-102.13583333333334,34.03361111111111],[-101.845,33.84027777777778],[-101.845,33.84027777777778],[-101.845,33.84027777777778],[-101.70416666666667,33.74638888888889],[-101.70416666666667,33.74638888888889],[-101.27944444444444,33.46],[-101.13972222222223,33.365],[-101,33.26972222222222],[-101,33.26972222222222],[-101,33.26972222222222],[-101,33.26972222222222],[-100.86,33.17388888888889],[-100.86,33.17388888888889],[-100.43944444444445,32.88388888888889],[-99.86333333333333,32.48222222222223],[-99.86333333333333,32.48222222222223],[-99.71472222222222,32.39972222222222],[-99.71472222222222,32.39972222222222],[-99.56666666666666,32.31805555555556],[-99.56666666666666,32.31805555555556],[-99.56666666666666,32.31805555555556],[-99.30833333333334,32.17472222222222],[-99.16111111111111,32.0925],[-99.16111111111111,32.0925],[-99.01194444444444,32.009166666666665],[-98.86666666666666,31.92777777777778],[-98.86666666666666,31.92777777777778],[-98.86666666666666,31.92777777777778],[-98.83,31.90694444444444],[-98.83,31.90694444444444],[-98.68277777777779,31.82361111111111],[-98.53555555555555,31.740555555555556],[-98.415,31.672222222222224],[-98.415,31.672222222222224],[-98.38555555555556,31.655277777777776],[-98.26555555555555,31.586666666666666],[-98.23833333333333,31.57111111111111],[-97.81972222222223,31.330555555555556],[-97.78972222222222,31.313333333333333],[-97.78972222222222,31.313333333333333],[-97.6713888888889,31.244444444444447],[-97.6713888888889,31.244444444444447],[-97.6713888888889,31.244444444444447],[-97.64361111111111,31.22833333333333],[-97.52555555555556,31.1575],[-97.39805555555556,31.052222222222223],[-97.37527777777777,31.033055555555556],[-97.37527777777777,31.033055555555556],[-97.03555555555555,30.744722222222222],[-97.03555555555555,30.744722222222222],[-96.91111111111111,30.638333333333332],[-96.8863888888889,30.61722222222222],[-96.78611111111111,30.531388888888888],[-96.76166666666667,30.510555555555555],[-96.66111111111111,30.424166666666668],[-96.53722222222223,30.31722222222222],[-96.53722222222223,30.31722222222222],[-96.51416666666667,30.297222222222224],[-96.51416666666667,30.297222222222224],[-96.41305555555556,30.209722222222222],[-96.39055555555557,30.19],[-96.39055555555557,30.19],[-96.25055555555555,30.06861111111111],[-96.25055555555555,30.06861111111111],[-96.00472222222223,29.85388888888889],[-96.00472222222223,29.85388888888889],[-95.89611111111111,29.75861111111111],[-95.89611111111111,29.75861111111111],[-95.89611111111111,29.75861111111111],[-95.89611111111111,29.75861111111111],[-95.65527777777778,29.54638888888889],[-95.65527777777778,29.54638888888889],[-95.2975,29.22861111111111],[-95.2975,29.22861111111111],[-94.94555555555556,28.913055555555555],[-94.94555555555556,28.913055555555555],[-94.94555555555556,28.913055555555555],[-94.82666666666667,28.805833333333332],[-94.82666666666667,28.805833333333332],[-94.82666666666667,28.805833333333332],[-94.71111111111111,28.70138888888889],[-94.47833333333334,28.490000000000002],[-94.47833333333334,28.490000000000002],[-94.37666666666667,28.37611111111111],[-94.37666666666667,28.37611111111111],[-94.37666666666667,28.37611111111111],[-94.31166666666667,28.247500000000002],[-94.31166666666667,28.247500000000002],[-94.24861111111112,28.11916666666667],[-94.24861111111112,28.11916666666667],[-93.99861111111112,27.607222222222223],[-93.99861111111112,27.607222222222223],[-93.99861111111112,27.607222222222223],[-93.99861111111112,27.607222222222223],[-93.99861111111112,27.607222222222223],[-93.99861111111112,27.607222222222223],[-93.9375,27.480833333333333],[-93.9375,27.480833333333333],[-93.67722222222223,26.941388888888888],[-93.67722222222223,26.941388888888888],[-93.67722222222223,26.941388888888888],[-93.55611111111111,26.6875],[-93.55611111111111,26.6875],[-93.55611111111111,26.6875],[-93.55611111111111,26.6875],[-93.43416666666667,26.43166666666667],[-93.43416666666667,26.43166666666667],[-93.43416666666667,26.43166666666667],[-93.37333333333332,26.303333333333335],[-93.19166666666668,25.918055555555558],[-93.19166666666668,25.918055555555558],[-93.1325,25.792222222222225],[-93.1325,25.792222222222225],[-93.1325,25.792222222222225],[-93.1325,25.792222222222225],[-93.07388888888889,25.66722222222222],[-92.95722222222223,25.41638888888889],[-92.95722222222223,25.41638888888889],[-92.95722222222223,25.41638888888889],[-92.54972222222221,24.534444444444446],[-92.54972222222221,24.534444444444446],[-92.54972222222221,24.534444444444446],[-92.54972222222221,24.534444444444446],[-92.54972222222221,24.534444444444446],[-92.54972222222221,24.534444444444446],[-92.54972222222221,24.534444444444446]],"type":"LineString"}
}
