{
  "id": 2014899247,
  "type": "Feature",
  "properties": {
    "geom:area": 0,
    "geom:bbox": "-122.380000,35.870000,-115.150000,37.700000",
    "geom:latitude": 37.17612774812593,
    "geom:longitude": -118.56147609767137,
    "src:alt_label": "swim-route",
    "src:geom": "swim",
    "swim:geom": "route",
    "wof:geomhash": "d9c4d1851e24e99005af81caabd0609d",
    "wof:id": 2014899247,
    "wof:repo": "sfomuseum-data-flights-2026-02"
  },
  "bbox": [
    -122.38,
    35.87,
    -115.15,
    37.7
  ],
  "geometry": {"coordinates":[[-115.15,36.08],[-115.21,36.09],[-115.22,36.09],[-115.26,36.1],[-115.29,36.11],[-115.32,36.04],[-115.35,35.99],[-115.4,35.88],[-115.41,35.87],[-115.46,35.91],[-115.5,35.96],[-115.62,36.02],[-115.73,36.07],[-115.86,36.14],[-115.99,36.2],[-116.02,36.21],[-116.08,36.24],[-116.22,36.31],[-116.28,36.34],[-116.44,36.42],[-116.5,36.45],[-116.59,36.49],[-116.71,36.55],[-116.75,36.57],[-116.75,36.57],[-116.91,36.78],[-117.09,37.01],[-117.26,37.24],[-117.31,37.3],[-117.52,37.49],[-119.05,37.61],[-119.49,37.64],[-119.94,37.67],[-120.03,37.68],[-120.22,37.69],[-120.4,37.7],[-120.41,37.7],[-120.48,37.69],[-120.69,37.67],[-120.75,37.66],[-120.77,37.66],[-120.83,37.65],[-120.96,37.63],[-121,37.63],[-121.08,37.62],[-121.17,37.6],[-121.26,37.59],[-121.39,37.58],[-121.41,37.58],[-121.6,37.55],[-121.61,37.55],[-121.62,37.55],[-121.7,37.53],[-121.8,37.51],[-121.83,37.5],[-121.88,37.49],[-122.08,37.54],[-122.14,37.56],[-122.18,37.57],[-122.28,37.59],[-122.33,37.61],[-122.36,37.61],[-122.38,37.62]],"type":"LineString"}
}
