{
  "id": 2014876105,
  "type": "Feature",
  "properties": {
    "geom:area": 0,
    "geom:bbox": "-122.509360,36.738100,-121.448010,37.693480",
    "geom:latitude": 37.23959790067466,
    "geom:longitude": -122.05930498571013,
    "src:alt_label": "swim-takeoff",
    "src:geom": "swim",
    "swim:elevations": [
      231,
      410,
      785,
      960,
      1099,
      1103,
      1445,
      2155,
      2523,
      2763,
      3293,
      3562,
      3666,
      4070,
      4449,
      4785,
      5234,
      5367,
      5634,
      6136,
      6452,
      6740,
      6895,
      7094,
      7344,
      7533,
      7682,
      7929,
      8110,
      8236,
      8567,
      8795,
      8877,
      8957,
      9053,
      9083,
      9298
    ],
    "swim:geom": "takeoff",
    "swim:timestamps": [
      1771923777,
      1771923793,
      1771923832,
      1771923849,
      1771923878,
      1771923882,
      1771923913,
      1771923949,
      1771923978,
      1771923992,
      1771924046,
      1771924069,
      1771924076,
      1771924100,
      1771924129,
      1771924158,
      1771924193,
      1771924206,
      1771924235,
      1771924280,
      1771924307,
      1771924343,
      1771924361,
      1771924382,
      1771924405,
      1771924418,
      1771924437,
      1771924465,
      1771924484,
      1771924501,
      1771924543,
      1771924577,
      1771924586,
      1771924599,
      1771924616,
      1771924621,
      1771924656
    ],
    "wof:geomhash": "f5281fbe09017b979bf8ec66ea4a0133",
    "wof:id": 2014876105,
    "wof:repo": "sfomuseum-data-flights-2026-02"
  },
  "bbox": [
    -122.50936,
    36.7381,
    -121.44801,
    37.69348
  ],
  "geometry": {"coordinates":[[-122.36779,37.6312],[-122.36563,37.64236],[-122.36201,37.67337],[-122.36559,37.68768],[-122.39312,37.69348],[-122.3978,37.69208],[-122.43581,37.67903],[-122.48302,37.66211],[-122.50604,37.6371],[-122.50936,37.6208],[-122.50035,37.55326],[-122.46718,37.52668],[-122.45525,37.5181],[-122.41799,37.49079],[-122.37388,37.45722],[-122.3279,37.42222],[-122.27206,37.37948],[-122.25054,37.36289],[-122.20444,37.3275],[-122.12794,37.26858],[-122.0825,37.23346],[-122.02027,37.18528],[-121.98844,37.16052],[-121.95182,37.13212],[-121.90995,37.09962],[-121.88674,37.08158],[-121.85442,37.0565],[-121.8033,37.01689],[-121.76951,36.99092],[-121.73887,36.96743],[-121.66196,36.90756],[-121.59962,36.85866],[-121.58268,36.84559],[-121.55753,36.8254],[-121.526,36.79994],[-121.51475,36.79144],[-121.44801,36.7381]],"type":"LineString"}
}
