{
  "id": 2014816765,
  "type": "Feature",
  "properties": {
    "geom:area": 0,
    "geom:bbox": "-122.366190,37.619800,-121.290650,37.926620",
    "geom:latitude": 37.748831262463504,
    "geom:longitude": -121.82676839296137,
    "src:alt_label": "swim-takeoff",
    "src:geom": "swim",
    "swim:elevations": [
      152,
      713,
      735,
      1139,
      1310,
      1981,
      2289,
      2844,
      3231,
      3369,
      3481,
      3563,
      3821,
      3999,
      4435,
      5024,
      5394,
      5462,
      5730,
      5833,
      5962,
      6001,
      6467,
      6633
    ],
    "swim:geom": "takeoff",
    "swim:timestamps": [
      1771395683,
      1771395717,
      1771395720,
      1771395761,
      1771395774,
      1771395809,
      1771395830,
      1771395866,
      1771395890,
      1771395905,
      1771395920,
      1771395932,
      1771395956,
      1771395968,
      1771396000,
      1771396046,
      1771396077,
      1771396083,
      1771396124,
      1771396148,
      1771396166,
      1771396172,
      1771396223,
      1771396238
    ],
    "wof:geomhash": "58ad0cadd7163683d22818cc2b1b1ac6",
    "wof:id": 2014816765,
    "wof:repo": "sfomuseum-data-flights-2026-02"
  },
  "bbox": [
    -122.36619,
    37.6198,
    -121.29065,
    37.92662
  ],
  "geometry": {"coordinates":[[-122.36619,37.62828],[-122.33865,37.64397],[-122.33559,37.64496],[-122.28454,37.63934],[-122.26546,37.63539],[-122.21226,37.62479],[-122.17908,37.6198],[-122.12251,37.6365],[-122.08416,37.65015],[-122.0576,37.65956],[-122.03029,37.66922],[-122.0074,37.67725],[-121.95924,37.69406],[-121.93471,37.70264],[-121.86856,37.72581],[-121.77,37.76036],[-121.70087,37.78453],[-121.68721,37.78919],[-121.59171,37.82261],[-121.52966,37.84416],[-121.48313,37.86032],[-121.46737,37.86573],[-121.33105,37.91274],[-121.29065,37.92662]],"type":"LineString"}
}
