{
  "id": 2014730639,
  "type": "Feature",
  "properties": {
    "geom:area": 0,
    "geom:bbox": "-122.556450,36.722940,-122.292990,37.713270",
    "geom:latitude": 37.23521496842156,
    "geom:longitude": -122.46069843354874,
    "src:alt_label": "swim-takeoff",
    "src:geom": "swim",
    "swim:elevations": [
      91,
      522,
      791,
      924,
      1407,
      1768,
      2477,
      2620,
      3286,
      3578,
      4214,
      4660,
      5206,
      5866,
      6116,
      6639,
      7011,
      7464,
      7486,
      7772,
      8323,
      8374,
      8703,
      9022,
      9162
    ],
    "swim:geom": "takeoff",
    "swim:timestamps": [
      1770381972,
      1770382016,
      1770382046,
      1770382053,
      1770382084,
      1770382110,
      1770382166,
      1770382175,
      1770382228,
      1770382254,
      1770382290,
      1770382322,
      1770382355,
      1770382397,
      1770382414,
      1770382456,
      1770382484,
      1770382528,
      1770382531,
      1770382566,
      1770382618,
      1770382622,
      1770382659,
      1770382694,
      1770382723
    ],
    "wof:geomhash": "74b5dcd8205088cd430fe037edf31594",
    "wof:id": 2014730639,
    "wof:repo": "sfomuseum-data-flights-2026-02"
  },
  "bbox": [
    -122.55645,
    36.72294,
    -122.29299,
    37.71327
  ],
  "geometry": {"coordinates":[[-122.37086,37.62581],[-122.3628,37.65997],[-122.36113,37.69026],[-122.36426,37.69722],[-122.39595,37.71327],[-122.42274,37.6997],[-122.4391,37.63391],[-122.44094,37.62336],[-122.4534,37.55395],[-122.46127,37.51626],[-122.47212,37.46205],[-122.48136,37.40936],[-122.49249,37.35622],[-122.50776,37.28475],[-122.51384,37.25539],[-122.52892,37.18143],[-122.53898,37.13176],[-122.55539,37.04976],[-122.55645,37.04405],[-122.54255,36.97719],[-122.46799,36.89078],[-122.46145,36.8846],[-122.4015,36.82721],[-122.34198,36.76995],[-122.29299,36.72294]],"type":"LineString"}
}
