{
  "id": 2014844699,
  "type": "Feature",
  "properties": {
    "geom:area": 0,
    "geom:bbox": "-122.333889,37.652500,-71.004167,42.742778",
    "geom:latitude": 40.14348692563852,
    "geom:longitude": -96.47062500746152,
    "src:alt_label": "swim-path",
    "src:geom": "swim",
    "swim:altitudes": [
      "025",
      "025",
      "035",
      "075",
      "075",
      "075",
      "108",
      "108",
      "153",
      "153",
      "153",
      "174",
      "174",
      "192",
      "212",
      "212",
      "244",
      "244",
      "259",
      "259",
      "282",
      "282",
      "282",
      "303",
      "303",
      "313",
      "313",
      "313",
      "321",
      "321",
      "350C",
      "350C",
      "350C",
      "350C",
      "350C",
      "350C",
      "350C",
      "350C",
      "350C",
      "350C",
      "350C",
      "350C",
      "350C",
      "350C",
      "350C",
      "350C",
      "350C",
      "350C",
      "350C",
      "350C",
      "350C",
      "350C",
      "350C",
      "350C",
      "350C",
      "350C",
      "350C",
      "350C",
      "350C",
      "350C",
      "350C",
      "350C",
      "350C",
      "350C",
      "350C",
      "350C",
      "350C",
      "350C",
      "350C",
      "350C",
      "350C",
      "350C",
      "350C",
      "350C",
      "350C",
      "350C",
      "350C",
      "350C",
      "350C",
      "350C",
      "350C",
      "350C",
      "350C",
      "350C",
      "350C",
      "350C",
      "350C",
      "350C",
      "350C",
      "350C",
      "350C",
      "350C",
      "350C",
      "350C",
      "350C",
      "350C",
      "350C",
      "350C",
      "350C",
      "350C",
      "350C",
      "350C",
      "350C",
      "350C",
      "350C",
      "350C",
      "350C",
      "350C",
      "350C",
      "350C",
      "350C",
      "350C",
      "350C",
      "350C",
      "350C",
      "350C",
      "350C",
      "350C",
      "350C",
      "350C",
      "350C",
      "350C",
      "350C",
      "350C",
      "350C",
      "350C",
      "350C",
      "350C",
      "350C",
      "350C",
      "350C",
      "350C",
      "350C",
      "350C",
      "350C",
      "350C",
      "350C",
      "350C",
      "350C",
      "350C",
      "350C",
      "350C",
      "350C",
      "350C",
      "350C",
      "350C",
      "350C",
      "350C",
      "350C",
      "350C",
      "350C",
      "350C",
      "350C",
      "350C",
      "350C",
      "350C",
      "350C",
      "350C",
      "350C",
      "350C",
      "350C",
      "350C",
      "350C",
      "350C",
      "350C",
      "350C",
      "350C",
      "350C",
      "350C",
      "350C",
      "350C",
      "350C",
      "350C",
      "350C",
      "350C",
      "350C",
      "350C",
      "350C",
      "350C",
      "350C",
      "350C",
      "350C",
      "350C",
      "350C",
      "350C",
      "350C",
      "350C",
      "350C",
      "350C",
      "350C",
      "350C",
      "350C",
      "350C",
      "350C",
      "350C",
      "350C",
      "350C",
      "350C",
      "350C",
      "350C",
      "350C",
      "350C",
      "350C",
      "350C",
      "350C",
      "350C",
      "350C",
      "350C",
      "350C",
      "350C",
      "350C",
      "350C",
      "350C",
      "350C",
      "350C",
      "350C",
      "350C",
      "350C",
      "350C",
      "350C",
      "350C",
      "350C",
      "350C",
      "350C",
      "350C",
      "350C",
      "350C",
      "350C",
      "350",
      "350",
      "254",
      "254",
      "186",
      "186",
      "175",
      "175",
      "170",
      "170",
      "159",
      "153",
      "135",
      "135",
      "124",
      "124",
      "120",
      "108",
      "091",
      "076",
      "069",
      "064",
      "064",
      "057",
      "036",
      "030",
      "030",
      "016",
      "016"
    ],
    "swim:geom": "path",
    "swim:speeds": [
      182,
      182,
      193,
      282,
      282,
      282,
      317,
      317,
      350,
      350,
      350,
      361,
      361,
      378,
      386,
      386,
      396,
      396,
      401,
      401,
      421,
      421,
      421,
      437,
      437,
      471,
      471,
      471,
      478,
      478,
      501,
      502,
      504,
      504,
      504,
      512,
      512,
      512,
      512,
      511,
      511,
      510,
      509,
      509,
      509,
      509,
      509,
      507,
      507,
      507,
      507,
      514,
      517,
      517,
      517,
      517,
      519,
      519,
      517,
      515,
      513,
      512,
      512,
      511,
      511,
      511,
      506,
      507,
      507,
      507,
      507,
      507,
      510,
      510,
      510,
      511,
      511,
      519,
      520,
      521,
      520,
      520,
      514,
      514,
      513,
      512,
      512,
      524,
      524,
      524,
      521,
      521,
      519,
      515,
      515,
      509,
      509,
      508,
      508,
      510,
      510,
      515,
      514,
      513,
      513,
      513,
      513,
      513,
      531,
      541,
      541,
      537,
      534,
      534,
      534,
      535,
      539,
      541,
      541,
      541,
      543,
      544,
      544,
      545,
      545,
      545,
      545,
      545,
      545,
      545,
      545,
      546,
      546,
      545,
      546,
      546,
      546,
      547,
      547,
      548,
      548,
      548,
      549,
      552,
      552,
      556,
      556,
      554,
      550,
      550,
      550,
      552,
      554,
      554,
      554,
      554,
      555,
      557,
      558,
      558,
      557,
      556,
      554,
      552,
      549,
      548,
      547,
      548,
      547,
      544,
      546,
      548,
      552,
      552,
      552,
      553,
      555,
      555,
      556,
      552,
      540,
      540,
      540,
      540,
      537,
      537,
      535,
      535,
      534,
      534,
      533,
      532,
      532,
      531,
      529,
      529,
      529,
      531,
      534,
      536,
      536,
      536,
      536,
      536,
      533,
      533,
      531,
      531,
      531,
      531,
      531,
      532,
      532,
      532,
      532,
      532,
      530,
      530,
      528,
      528,
      528,
      527,
      525,
      525,
      525,
      525,
      527,
      527,
      532,
      532,
      488,
      488,
      402,
      402,
      391,
      391,
      382,
      382,
      384,
      379,
      374,
      374,
      373,
      373,
      364,
      350,
      321,
      301,
      296,
      289,
      289,
      276,
      213,
      189,
      189,
      135,
      135
    ],
    "swim:timestamps": [
      1771622548,
      1771622548,
      1771622572,
      1771622687,
      1771622687,
      1771622687,
      1771622788,
      1771622788,
      1771622908,
      1771622908,
      1771622908,
      1771622968,
      1771622968,
      1771623029,
      1771623089,
      1771623089,
      1771623209,
      1771623209,
      1771623269,
      1771623269,
      1771623389,
      1771623389,
      1771623389,
      1771623509,
      1771623509,
      1771623629,
      1771623629,
      1771623629,
      1771623689,
      1771623689,
      1771624110,
      1771624170,
      1771624230,
      1771624230,
      1771624230,
      1771624771,
      1771624771,
      1771624771,
      1771624771,
      1771624831,
      1771624831,
      1771624951,
      1771625011,
      1771625011,
      1771625011,
      1771625316,
      1771625316,
      1771625437,
      1771625437,
      1771625437,
      1771625437,
      1771625737,
      1771625797,
      1771625797,
      1771625797,
      1771625797,
      1771625857,
      1771625857,
      1771626098,
      1771626158,
      1771626218,
      1771626278,
      1771626278,
      1771626338,
      1771626338,
      1771626338,
      1771626518,
      1771626578,
      1771626578,
      1771626578,
      1771626578,
      1771626617,
      1771626758,
      1771626758,
      1771626758,
      1771626797,
      1771626797,
      1771626999,
      1771627037,
      1771627097,
      1771627119,
      1771627119,
      1771627299,
      1771627299,
      1771627359,
      1771627458,
      1771627479,
      1771627638,
      1771627638,
      1771627698,
      1771627939,
      1771627939,
      1771628059,
      1771628179,
      1771628179,
      1771628359,
      1771628359,
      1771628419,
      1771628599,
      1771628720,
      1771628720,
      1771628900,
      1771629020,
      1771629080,
      1771629080,
      1771629080,
      1771629260,
      1771629260,
      1771629561,
      1771629681,
      1771629681,
      1771630101,
      1771630162,
      1771630162,
      1771630162,
      1771630316,
      1771630402,
      1771630556,
      1771630556,
      1771630618,
      1771630745,
      1771630805,
      1771630805,
      1771630857,
      1771630925,
      1771630925,
      1771630977,
      1771630977,
      1771630985,
      1771631045,
      1771631045,
      1771631105,
      1771631105,
      1771631337,
      1771631397,
      1771631397,
      1771631397,
      1771631458,
      1771631458,
      1771631578,
      1771631578,
      1771631586,
      1771631758,
      1771631878,
      1771631878,
      1771631989,
      1771631989,
      1771632050,
      1771632290,
      1771632350,
      1771632479,
      1771632530,
      1771632650,
      1771632650,
      1771632719,
      1771632771,
      1771632960,
      1771633131,
      1771633200,
      1771633251,
      1771633380,
      1771633440,
      1771633552,
      1771633612,
      1771633732,
      1771633792,
      1771633921,
      1771633972,
      1771634092,
      1771634273,
      1771634358,
      1771634453,
      1771634693,
      1771634693,
      1771634839,
      1771634899,
      1771635114,
      1771635114,
      1771635234,
      1771635380,
      1771635560,
      1771635560,
      1771635620,
      1771635620,
      1771635981,
      1771635981,
      1771636101,
      1771636101,
      1771636222,
      1771636222,
      1771636282,
      1771636339,
      1771636339,
      1771636399,
      1771636579,
      1771636639,
      1771636639,
      1771636699,
      1771636820,
      1771636880,
      1771636940,
      1771636940,
      1771637033,
      1771637033,
      1771637120,
      1771637153,
      1771637180,
      1771637180,
      1771637240,
      1771637273,
      1771637300,
      1771637333,
      1771637360,
      1771637360,
      1771637541,
      1771637541,
      1771637601,
      1771637633,
      1771637693,
      1771637693,
      1771637721,
      1771637754,
      1771637841,
      1771637874,
      1771637874,
      1771637901,
      1771637994,
      1771637994,
      1771638234,
      1771638234,
      1771638594,
      1771638594,
      1771638802,
      1771638802,
      1771638834,
      1771638834,
      1771638850,
      1771638850,
      1771638894,
      1771638910,
      1771638970,
      1771638970,
      1771639015,
      1771639015,
      1771639030,
      1771639090,
      1771639195,
      1771639270,
      1771639315,
      1771639330,
      1771639330,
      1771639375,
      1771639555,
      1771639675,
      1771639675,
      1771639811,
      1771639811
    ],
    "wof:geomhash": "59621710933763ad1cf9519e175b9a99",
    "wof:id": 2014844699,
    "wof:repo": "sfomuseum-data-flights-2026-02"
  },
  "bbox": [
    -122.33388888888888,
    37.652499999999996,
    -71.00416666666666,
    42.74277777777778
  ],
  "geometry": {"coordinates":[[-122.33388888888888,37.652499999999996],[-122.33388888888888,37.652499999999996],[-122.3,37.666666666666664],[-122.16666666666667,37.75],[-122.16666666666667,37.75],[-122.16666666666667,37.75],[-122.02083333333333,37.79666666666667],[-122.02083333333333,37.79666666666667],[-121.79083333333332,37.84638888888889],[-121.79083333333332,37.84638888888889],[-121.79083333333332,37.84638888888889],[-121.6675,37.8725],[-121.6675,37.8725],[-121.52305555555556,37.90333333333333],[-121.39166666666668,37.93083333333333],[-121.39166666666668,37.93083333333333],[-121.1275,37.986111111111114],[-121.1275,37.986111111111114],[-120.98805555555556,38.00888888888889],[-120.98805555555556,38.00888888888889],[-120.7038888888889,38.05277777777778],[-120.7038888888889,38.05277777777778],[-120.7038888888889,38.05277777777778],[-120.4025,38.09805555555556],[-120.4025,38.09805555555556],[-120.08527777777778,38.14527777777778],[-120.08527777777778,38.14527777777778],[-120.08527777777778,38.14527777777778],[-119.9175,38.16972222222222],[-119.9175,38.16972222222222],[-118.70777777777778,38.33861111111111],[-118.53333333333333,38.36222222222222],[-118.35777777777777,38.38527777777778],[-118.35777777777777,38.38527777777778],[-118.35777777777777,38.38527777777778],[-116.75361111111111,38.5475],[-116.75361111111111,38.5475],[-116.75361111111111,38.5475],[-116.75361111111111,38.5475],[-116.57472222222222,38.55638888888888],[-116.57472222222222,38.55638888888888],[-116.21222222222222,38.57222222222222],[-116.03138888888888,38.580000000000005],[-116.03138888888888,38.580000000000005],[-116.03138888888888,38.580000000000005],[-115.11888888888888,38.614444444444445],[-115.11888888888888,38.614444444444445],[-114.76,38.62722222222222],[-114.76,38.62722222222222],[-114.76,38.62722222222222],[-114.76,38.62722222222222],[-113.85027777777778,38.65138888888889],[-113.66555555555556,38.655833333333334],[-113.66555555555556,38.655833333333334],[-113.66555555555556,38.655833333333334],[-113.66555555555556,38.655833333333334],[-113.47916666666667,38.66],[-113.47916666666667,38.66],[-112.74277777777777,38.67194444444444],[-112.56194444444444,38.67472222222222],[-112.37833333333333,38.67722222222222],[-112.19611111111111,38.678888888888885],[-112.19611111111111,38.678888888888885],[-112.015,38.68055555555555],[-112.015,38.68055555555555],[-112.015,38.68055555555555],[-111.47694444444444,38.683055555555555],[-111.29694444444445,38.68333333333333],[-111.29694444444445,38.68333333333333],[-111.29694444444445,38.68333333333333],[-111.29694444444445,38.68333333333333],[-111.18722222222223,38.683611111111105],[-110.76555555555555,38.683055555555555],[-110.76555555555555,38.683055555555555],[-110.76555555555555,38.683055555555555],[-110.62166666666666,38.68277777777777],[-110.62166666666666,38.68277777777777],[-110.00333333333333,38.7525],[-109.89416666666668,38.76694444444444],[-109.71277777777777,38.79083333333333],[-109.64,38.80027777777777],[-109.64,38.80027777777777],[-109.10111111111111,38.868611111111115],[-109.10111111111111,38.868611111111115],[-108.92222222222223,38.89083333333333],[-108.63805555555557,38.925],[-108.565,38.93416666666666],[-108.08694444444444,38.99],[-108.08694444444444,38.99],[-107.90138888888889,39.00222222222222],[-107.15972222222223,39.01972222222222],[-107.15972222222223,39.01972222222222],[-106.7925,39.02611111111111],[-106.42611111111111,39.03194444444444],[-106.42611111111111,39.03194444444444],[-105.86833333333333,39.03805555555555],[-105.86833333333333,39.03805555555555],[-105.68972222222223,39.03944444444444],[-105.14777777777779,39.04194444444444],[-104.78722222222223,39.04138888888889],[-104.78722222222223,39.04138888888889],[-104.23611111111111,39.038888888888884],[-103.87333333333332,39.035555555555554],[-103.69055555555556,39.03333333333333],[-103.69055555555556,39.03333333333333],[-103.69055555555556,39.03333333333333],[-103.14500000000001,39.025],[-103.14500000000001,39.025],[-102.17611111111111,39.00472222222222],[-101.83194444444445,39.028055555555554],[-101.83194444444445,39.028055555555554],[-100.49,39.24055555555556],[-100.30583333333333,39.268055555555556],[-100.30583333333333,39.268055555555556],[-100.30583333333333,39.268055555555556],[-99.83888888888889,39.33694444444445],[-99.55361111111111,39.37861111111111],[-99.06527777777778,39.448055555555555],[-99.06527777777778,39.448055555555555],[-98.84805555555555,39.47777777777778],[-98.46527777777779,39.529444444444444],[-98.27027777777778,39.55555555555555],[-98.27027777777778,39.55555555555555],[-98.10083333333333,39.57777777777778],[-97.88361111111112,39.60527777777778],[-97.88361111111112,39.60527777777778],[-97.69583333333334,39.62833333333333],[-97.69583333333334,39.62833333333333],[-97.68972222222223,39.62888888888889],[-97.47972222222222,39.653055555555554],[-97.47972222222222,39.653055555555554],[-97.28611111111111,39.675],[-97.28611111111111,39.675],[-96.56194444444444,39.755],[-96.36583333333333,39.77583333333333],[-96.36583333333333,39.77583333333333],[-96.36583333333333,39.77583333333333],[-96.16944444444445,39.796388888888885],[-96.16944444444445,39.796388888888885],[-95.77527777777777,39.836666666666666],[-95.77527777777777,39.836666666666666],[-95.72777777777777,39.84138888888889],[-95.18111111111112,39.894444444444446],[-94.78388888888888,39.93138888888889],[-94.78388888888888,39.93138888888889],[-94.39027777777778,39.96638888888889],[-94.39027777777778,39.96638888888889],[-94.18944444444445,39.98388888888889],[-93.39916666666667,40.04611111111111],[-93.2038888888889,40.06055555555555],[-92.79416666666667,40.08972222222222],[-92.6125,40.102222222222224],[-92.21583333333334,40.128055555555555],[-92.21583333333334,40.128055555555555],[-91.97694444444444,40.14277777777778],[-91.81333333333333,40.15277777777778],[-91.18916666666667,40.260555555555555],[-90.64333333333335,40.37888888888889],[-90.4075,40.42861111111111],[-90.25444444444445,40.46027777777778],[-89.81527777777778,40.55083333333333],[-89.62083333333332,40.590833333333336],[-89.25194444444445,40.664722222222224],[-89.05805555555555,40.70333333333333],[-88.68472222222222,40.77583333333333],[-88.49361111111111,40.8125],[-88.0886111111111,40.88944444444444],[-87.91250000000001,40.92222222222222],[-87.5286111111111,40.99277777777778],[-86.94972222222222,41.09666666666667],[-86.64888888888889,41.149166666666666],[-86.33333333333333,41.20333333333333],[-85.54277777777777,41.335],[-85.54277777777777,41.335],[-85.06972222222223,41.41111111111111],[-84.8711111111111,41.442499999999995],[-84.15,41.55222222222222],[-84.15,41.55222222222222],[-83.74805555555555,41.61222222222222],[-83.24444444444444,41.68444444444444],[-82.65694444444445,41.7725],[-82.65694444444445,41.7725],[-82.45916666666668,41.80222222222222],[-82.45916666666668,41.80222222222222],[-81.30833333333334,41.9675],[-81.30833333333334,41.9675],[-80.91361111111112,42.02111111111111],[-80.91361111111112,42.02111111111111],[-80.52027777777778,42.07361111111111],[-80.52027777777778,42.07361111111111],[-80.32638888888889,42.09861111111111],[-80.1325,42.12361111111111],[-80.1325,42.12361111111111],[-79.92916666666667,42.149166666666666],[-79.33944444444444,42.22166666666667],[-79.14194444444445,42.24527777777778],[-79.14194444444445,42.24527777777778],[-78.94611111111111,42.26833333333333],[-78.52944444444444,42.31638888888889],[-78.33222222222221,42.33777777777778],[-78.13527777777779,42.35944444444445],[-78.13527777777779,42.35944444444445],[-77.82055555555556,42.39333333333333],[-77.82055555555556,42.39333333333333],[-77.54805555555555,42.42222222222222],[-77.43527777777778,42.43388888888889],[-77.35416666666666,42.44194444444444],[-77.35416666666666,42.44194444444444],[-77.16083333333334,42.46138888888889],[-77.04277777777777,42.473055555555554],[-76.96305555555556,42.48111111111111],[-76.845,42.49277777777778],[-76.76638888888888,42.500277777777775],[-76.76638888888888,42.500277777777775],[-76.17111111111112,42.55638888888888],[-76.17111111111112,42.55638888888888],[-75.97500000000001,42.573888888888895],[-75.85944444444443,42.58444444444444],[-75.66277777777778,42.60194444444445],[-75.66277777777778,42.60194444444445],[-75.58583333333333,42.608333333333334],[-75.46916666666667,42.61805555555556],[-75.19277777777778,42.64138888888889],[-75.07833333333333,42.65083333333333],[-75.07833333333333,42.65083333333333],[-74.99694444444445,42.657222222222224],[-74.68527777777778,42.68222222222222],[-74.68527777777778,42.68222222222222],[-73.87583333333333,42.74277777777778],[-73.87583333333333,42.74277777777778],[-72.71611111111112,42.69444444444444],[-72.71611111111112,42.69444444444444],[-72.13333333333334,42.61666666666667],[-72.13333333333334,42.61666666666667],[-72.05833333333334,42.61611111111111],[-72.05833333333334,42.61611111111111],[-72.01666666666667,42.61666666666667],[-72.01666666666667,42.61666666666667],[-71.91777777777779,42.598888888888894],[-71.88333333333334,42.6],[-71.73333333333333,42.56666666666667],[-71.73333333333333,42.56666666666667],[-71.64250000000001,42.558055555555555],[-71.64250000000001,42.558055555555555],[-71.6,42.55],[-71.46666666666667,42.53333333333333],[-71.27666666666667,42.475],[-71.16666666666667,42.4],[-71.10222222222221,42.36805555555556],[-71.06666666666666,42.35],[-71.06666666666666,42.35],[-71.02111111111111,42.31805555555556],[-71.00416666666666,42.15083333333333],[-71.08972222222222,42.1825],[-71.08972222222222,42.1825],[-71.05,42.28333333333333],[-71.05,42.28333333333333]],"type":"LineString"}
}
