{
  "id": 2014722869,
  "type": "Feature",
  "properties": {
    "geom:area": 0,
    "geom:bbox": "-122.366500,37.628140,-121.462290,38.497670",
    "geom:latitude": 38.056483926043505,
    "geom:longitude": -121.90969434368319,
    "src:alt_label": "swim-takeoff",
    "src:geom": "swim",
    "swim:elevations": [
      183,
      498,
      707,
      959,
      1103,
      1325,
      1609,
      1931,
      2126,
      2583,
      2969,
      3291,
      3377,
      3653,
      3769,
      3801,
      3960,
      4229,
      4299,
      4746,
      4783,
      5094,
      5508,
      5931,
      6151,
      6180,
      6284,
      6367,
      6425
    ],
    "swim:geom": "takeoff",
    "swim:timestamps": [
      1770310851,
      1770310869,
      1770310883,
      1770310905,
      1770310924,
      1770310964,
      1770310997,
      1770311020,
      1770311034,
      1770311067,
      1770311095,
      1770311129,
      1770311140,
      1770311174,
      1770311190,
      1770311195,
      1770311222,
      1770311272,
      1770311284,
      1770311338,
      1770311341,
      1770311373,
      1770311423,
      1770311455,
      1770311486,
      1770311495,
      1770311521,
      1770311540,
      1770311552
    ],
    "wof:geomhash": "1bdc06d1ddcfc66304f06c368a9daa8b",
    "wof:id": 2014722869,
    "wof:repo": "sfomuseum-data-flights-2026-02"
  },
  "bbox": [
    -122.3665,
    37.62814,
    -121.46229,
    38.49767
  ],
  "geometry": {"coordinates":[[-122.3665,37.62814],[-122.35387,37.63894],[-122.34227,37.64629],[-122.32468,37.65649],[-122.30868,37.66578],[-122.2681,37.68953],[-122.22535,37.71193],[-122.20022,37.734],[-122.18622,37.74911],[-122.15416,37.78469],[-122.12586,37.81593],[-122.09063,37.85453],[-122.07849,37.86788],[-122.03995,37.91062],[-122.01984,37.93261],[-122.01347,37.93964],[-121.98039,37.97595],[-121.9106,38.0525],[-121.89396,38.07071],[-121.81335,38.159],[-121.80881,38.16395],[-121.76118,38.21579],[-121.68296,38.30119],[-121.6345,38.35366],[-121.58679,38.40551],[-121.57298,38.42034],[-121.52547,38.45899],[-121.48753,38.48214],[-121.46229,38.49767]],"type":"LineString"}
}
