{
  "id": 2014857619,
  "type": "Feature",
  "properties": {
    "geom:area": 0,
    "geom:bbox": "-122.403870,37.626970,-121.274670,37.960420",
    "geom:latitude": 37.83675164282701,
    "geom:longitude": -121.86549491793511,
    "src:alt_label": "swim-takeoff",
    "src:geom": "swim",
    "swim:elevations": [
      244,
      455,
      796,
      1144,
      1464,
      2937,
      3148,
      3314,
      3594,
      4046,
      4123,
      4701,
      4762,
      5083,
      5298,
      5840,
      6108,
      6517,
      6763
    ],
    "swim:geom": "takeoff",
    "swim:timestamps": [
      1771777309,
      1771777328,
      1771777371,
      1771777401,
      1771777422,
      1771777524,
      1771777542,
      1771777569,
      1771777613,
      1771777647,
      1771777654,
      1771777704,
      1771777711,
      1771777744,
      1771777772,
      1771777821,
      1771777849,
      1771777888,
      1771777911
    ],
    "wof:geomhash": "03a14ff51bbfc0364eb36ca4ae487391",
    "wof:id": 2014857619,
    "wof:repo": "sfomuseum-data-flights-2026-02"
  },
  "bbox": [
    -122.40387,
    37.62697,
    -121.27467,
    37.96042
  ],
  "geometry": {"coordinates":[[-122.39361,37.62697],[-122.40387,37.63974],[-122.3701,37.66574],[-122.32815,37.67693],[-122.29855,37.68981],[-122.20077,37.79001],[-122.1685,37.79588],[-122.11518,37.80612],[-122.02095,37.82389],[-121.94294,37.83841],[-121.92501,37.84172],[-121.80839,37.8633],[-121.78944,37.86679],[-121.70878,37.88159],[-121.63718,37.89471],[-121.51117,37.91773],[-121.4376,37.931],[-121.33554,37.94942],[-121.27467,37.96042]],"type":"LineString"}
}
