{
  "id": 2014816317,
  "type": "Feature",
  "properties": {
    "geom:area": 0,
    "geom:bbox": "-160.900000,19.183333,-155.083333,24.816667",
    "geom:latitude": 22.042815031274095,
    "geom:longitude": -158.02836588220794,
    "src:alt_label": "swim-path",
    "src:geom": "swim",
    "swim:altitudes": [
      "370",
      "370",
      "370",
      "370",
      "370",
      "370",
      "370",
      "370",
      "370",
      "370",
      "370",
      "370",
      "370",
      "370",
      "370",
      "370",
      "370",
      "370",
      "370",
      "370",
      "370"
    ],
    "swim:geom": "path",
    "swim:speeds": [
      510,
      510,
      500,
      500,
      490,
      480,
      480,
      480,
      480,
      480,
      480,
      480,
      520,
      480,
      480,
      480,
      470,
      470,
      470,
      480,
      480
    ],
    "swim:timestamps": [
      1771418554,
      1771419088,
      1771419328,
      1771419990,
      1771420472,
      1771420893,
      1771420952,
      1771421013,
      1771421073,
      1771421193,
      1771421254,
      1771421495,
      1771421548,
      1771421608,
      1771421615,
      1771421675,
      1771421735,
      1771421788,
      1771421855,
      1771421915,
      1771421976
    ],
    "wof:geomhash": "f930d69ab05edd476022960079cf188a",
    "wof:id": 2014816317,
    "wof:repo": "sfomuseum-data-flights-2026-02"
  },
  "bbox": [
    -160.9,
    19.183333333333334,
    -155.08333333333334,
    24.816666666666666
  ],
  "geometry": {"coordinates":[[-160.9,19.183333333333334],[-159.98333333333332,20.116666666666667],[-159.58333333333334,20.533333333333335],[-158.45,21.65],[-157.63333333333333,22.45],[-156.93333333333334,23.133333333333333],[-156.83333333333334,23.233333333333334],[-156.73333333333332,23.333333333333332],[-156.63333333333333,23.416666666666668],[-156.43333333333334,23.616666666666667],[-156.33333333333334,23.716666666666665],[-155.91666666666666,24.1],[-155.83333333333334,24.166666666666668],[-155.73333333333332,24.266666666666666],[-155.71666666666667,24.283333333333335],[-155.61666666666667,24.383333333333333],[-155.51666666666668,24.483333333333334],[-155.43333333333334,24.533333333333335],[-155.3,24.666666666666668],[-155.2,24.75],[-155.08333333333334,24.816666666666666]],"type":"LineString"}
}
