{
  "id": 2014712299,
  "type": "Feature",
  "properties": {
    "geom:area": 0,
    "geom:bbox": "-123.474530,36.991410,-122.126880,37.614700",
    "geom:latitude": 37.2783096305482,
    "geom:longitude": -122.69079334253318,
    "src:alt_label": "swim-approach",
    "src:geom": "swim",
    "swim:elevations": [
      5847,
      5515,
      5175,
      5018,
      4632,
      4332,
      4043,
      3912,
      3605,
      3416,
      3114,
      3048,
      3048,
      3048,
      3048,
      3048,
      3048,
      3048,
      3048,
      3048,
      3037,
      2925,
      2702,
      2682,
      2437,
      2438,
      2397,
      2155,
      1935,
      1686,
      1388,
      1256,
      1220,
      1219,
      1206,
      1088,
      858,
      643,
      429,
      353,
      208,
      118,
      0
    ],
    "swim:geom": "approach",
    "swim:timestamps": [
      1770272907,
      1770272936,
      1770272968,
      1770272983,
      1770273019,
      1770273046,
      1770273074,
      1770273086,
      1770273115,
      1770273132,
      1770273174,
      1770273205,
      1770273236,
      1770273263,
      1770273290,
      1770273314,
      1770273357,
      1770273380,
      1770273418,
      1770273430,
      1770273476,
      1770273503,
      1770273538,
      1770273541,
      1770273596,
      1770273613,
      1770273640,
      1770273688,
      1770273715,
      1770273738,
      1770273777,
      1770273801,
      1770273817,
      1770273860,
      1770273888,
      1770273912,
      1770273945,
      1770273971,
      1770274015,
      1770274034,
      1770274072,
      1770274093,
      1770274126
    ],
    "wof:geomhash": "223fa7a7f478e20861241131ebb16629",
    "wof:id": 2014712299,
    "wof:repo": "sfomuseum-data-flights-2026-02"
  },
  "bbox": [
    -123.47453,
    36.99141,
    -122.12688,
    37.6147
  ],
  "geometry": {"coordinates":[[-123.47453,36.99141],[-123.414,37.01774],[-123.35048,37.04554],[-123.32067,37.05865],[-123.25028,37.08954],[-123.19784,37.11237],[-123.14442,37.13551],[-123.12163,37.14557],[-123.06669,37.16951],[-123.0345,37.18344],[-122.95775,37.21678],[-122.9013,37.24115],[-122.84303,37.26212],[-122.78979,37.26856],[-122.74193,37.26156],[-122.7029,37.25574],[-122.64187,37.24683],[-122.61029,37.24218],[-122.5581,37.23453],[-122.54168,37.23211],[-122.47848,37.2247],[-122.44697,37.24076],[-122.42023,37.27587],[-122.41787,37.2789],[-122.37525,37.3336],[-122.36177,37.35105],[-122.33552,37.37339],[-122.27213,37.37031],[-122.23628,37.37332],[-122.20947,37.38413],[-122.17044,37.41161],[-122.14728,37.43039],[-122.13855,37.4453],[-122.12688,37.49242],[-122.14842,37.51955],[-122.17477,37.5367],[-122.21394,37.55312],[-122.24044,37.56449],[-122.28318,37.58227],[-122.2976,37.58816],[-122.32457,37.59993],[-122.33955,37.60608],[-122.36098,37.6147]],"type":"LineString"}
}
