{
  "id": 2014841071,
  "type": "Feature",
  "properties": {
    "geom:area": 0,
    "geom:bbox": "-122.320000,32.010833,-114.595000,37.595278",
    "geom:latitude": 34.655834689405566,
    "geom:longitude": -118.65522194386256,
    "src:alt_label": "swim-path",
    "src:geom": "swim",
    "swim:altitudes": [
      "360C",
      "360C",
      "360C",
      "360C",
      "360C",
      "360C",
      "360C",
      "360C",
      "360C",
      "360C",
      "360C",
      "360C",
      "360C",
      "360C",
      "360C",
      "360C",
      "360C",
      "360C",
      "360C",
      "360C",
      "360C",
      "360C",
      "360C",
      "360C",
      "360C",
      "360C",
      "360C",
      "360C",
      "360C",
      "360C",
      "360C",
      "360C",
      "360C",
      "360C",
      "360C",
      "360C",
      "360C",
      "360C",
      "360C",
      "360C",
      "360C",
      "360C",
      "360C",
      "360C",
      "360C",
      "360C",
      "360C",
      "360C",
      "360C",
      "360C",
      "360C",
      "360C",
      "360",
      "360",
      "358",
      "358",
      "255",
      "219",
      "176",
      "154",
      "134",
      "103",
      "103",
      "082",
      "080",
      "071",
      "071",
      "036",
      "028",
      "011",
      "007"
    ],
    "swim:geom": "path",
    "swim:speeds": [
      379,
      381,
      381,
      376,
      375,
      373,
      372,
      372,
      372,
      369,
      369,
      369,
      369,
      375,
      375,
      375,
      377,
      377,
      377,
      374,
      372,
      372,
      370,
      370,
      370,
      371,
      371,
      372,
      372,
      373,
      372,
      372,
      371,
      371,
      371,
      351,
      351,
      350,
      355,
      355,
      355,
      355,
      355,
      358,
      358,
      358,
      362,
      363,
      364,
      364,
      365,
      365,
      371,
      371,
      368,
      368,
      335,
      350,
      330,
      326,
      324,
      299,
      299,
      272,
      233,
      232,
      232,
      218,
      200,
      140,
      142
    ],
    "swim:timestamps": [
      1771629319,
      1771629499,
      1771629559,
      1771629679,
      1771629739,
      1771629799,
      1771629859,
      1771629859,
      1771629859,
      1771630160,
      1771630160,
      1771630340,
      1771630400,
      1771630520,
      1771630520,
      1771630520,
      1771630701,
      1771630701,
      1771630701,
      1771630821,
      1771630881,
      1771630881,
      1771630941,
      1771630941,
      1771631121,
      1771631181,
      1771631181,
      1771631241,
      1771631241,
      1771631302,
      1771631362,
      1771631362,
      1771631422,
      1771631422,
      1771631422,
      1771631542,
      1771631542,
      1771631602,
      1771631902,
      1771631909,
      1771631909,
      1771631962,
      1771632023,
      1771632203,
      1771632269,
      1771632269,
      1771632450,
      1771632510,
      1771632563,
      1771632570,
      1771632804,
      1771632804,
      1771633050,
      1771633104,
      1771633291,
      1771633291,
      1771633591,
      1771633679,
      1771633804,
      1771633864,
      1771633925,
      1771634045,
      1771634045,
      1771634164,
      1771634279,
      1771634399,
      1771634399,
      1771634552,
      1771634584,
      1771634698,
      1771634733
    ],
    "wof:geomhash": "61022fc373a479fad5840906b18e5a8c",
    "wof:id": 2014841071,
    "wof:repo": "sfomuseum-data-flights-2026-02"
  },
  "bbox": [
    -122.32,
    32.01083333333333,
    -114.595,
    37.59527777777778
  ],
  "geometry": {"coordinates":[[-114.595,32.01083333333333],[-114.88527777777779,32.21388888888889],[-114.98138888888889,32.280833333333334],[-115.1825,32.401666666666664],[-115.29583333333333,32.462500000000006],[-115.39722222222223,32.51694444444444],[-115.50111111111111,32.57222222222222],[-115.50111111111111,32.57222222222222],[-115.50111111111111,32.57222222222222],[-116.01472222222222,32.843333333333334],[-116.01472222222222,32.843333333333334],[-116.32083333333333,33.00333333333333],[-116.42555555555556,33.05777777777777],[-116.64250000000001,33.18833333333333],[-116.64250000000001,33.18833333333333],[-116.64250000000001,33.18833333333333],[-116.90916666666668,33.40972222222222],[-116.90916666666668,33.40972222222222],[-116.90916666666668,33.40972222222222],[-117.085,33.55472222222222],[-117.15666666666667,33.61361111111111],[-117.15666666666667,33.61361111111111],[-117.26194444444444,33.7],[-117.26194444444444,33.7],[-117.52555555555556,33.915],[-117.61194444444443,33.989444444444445],[-117.61194444444443,33.989444444444445],[-117.69861111111112,34.06388888888888],[-117.69861111111112,34.06388888888888],[-117.78361111111111,34.136944444444445],[-117.87083333333332,34.21138888888889],[-117.87083333333332,34.21138888888889],[-117.95722222222223,34.285],[-117.95722222222223,34.285],[-117.95722222222223,34.285],[-118.13333333333334,34.405833333333334],[-118.13333333333334,34.405833333333334],[-118.23361111111112,34.46527777777778],[-118.71944444444445,34.75222222222222],[-118.72972222222222,34.75944444444445],[-118.72972222222222,34.75944444444445],[-118.81694444444445,34.809444444444445],[-118.915,34.86638888888889],[-119.2038888888889,35.034166666666664],[-119.3261111111111,35.10472222222222],[-119.3261111111111,35.10472222222222],[-119.62805555555555,35.278055555555554],[-119.72972222222222,35.33583333333333],[-119.80694444444444,35.38],[-119.83055555555555,35.39333333333333],[-120.21944444444445,35.613055555555555],[-120.21944444444445,35.613055555555555],[-120.64583333333334,35.85388888888889],[-120.74472222222222,35.915277777777774],[-121.04833333333333,36.10166666666667],[-121.04833333333333,36.10166666666667],[-121.53222222222222,36.39527777777778],[-121.68333333333334,36.483333333333334],[-121.83333333333333,36.65],[-121.88333333333334,36.733333333333334],[-121.91666666666667,36.81666666666667],[-121.96666666666667,37],[-121.96666666666667,37],[-122.03333333333333,37.13333333333333],[-122.08333333333333,37.266666666666666],[-122.08333333333333,37.4],[-122.08333333333333,37.4],[-122.17222222222223,37.52027777777778],[-122.2,37.55],[-122.3,37.583333333333336],[-122.32,37.59527777777778]],"type":"LineString"}
}
