{
  "id": 2014877605,
  "type": "Feature",
  "properties": {
    "geom:area": 0,
    "geom:bbox": "-122.362900,37.492120,-121.247260,37.615720",
    "geom:latitude": 37.543299526277494,
    "geom:longitude": -121.81225948683442,
    "src:alt_label": "swim-approach",
    "src:geom": "swim",
    "swim:elevations": [
      4753,
      4737,
      4660,
      4474,
      4338,
      4136,
      4101,
      3724,
      3656,
      3342,
      3238,
      3128,
      3105,
      3047,
      2877,
      2690,
      2569,
      2314,
      2169,
      2032,
      1915,
      1861,
      1614,
      1563,
      1343,
      1314,
      1249,
      1176,
      1083,
      1036,
      760,
      667,
      482,
      364,
      275,
      214,
      165,
      0
    ],
    "swim:geom": "approach",
    "swim:timestamps": [
      1772062708,
      1772062711,
      1772062723,
      1772062745,
      1772062766,
      1772062795,
      1772062802,
      1772062856,
      1772062869,
      1772062915,
      1772062930,
      1772062947,
      1772062950,
      1772062961,
      1772062990,
      1772063019,
      1772063040,
      1772063083,
      1772063110,
      1772063131,
      1772063155,
      1772063164,
      1772063216,
      1772063228,
      1772063273,
      1772063285,
      1772063297,
      1772063313,
      1772063331,
      1772063340,
      1772063392,
      1772063413,
      1772063449,
      1772063477,
      1772063501,
      1772063516,
      1772063525,
      1772063571
    ],
    "wof:geomhash": "7310ba24115c5f9067de12570d551ce8",
    "wof:id": 2014877605,
    "wof:repo": "sfomuseum-data-flights-2026-02"
  },
  "bbox": [
    -122.3629,
    37.49212,
    -121.24726,
    37.61572
  ],
  "geometry": {"coordinates":[[-121.24726,37.59486],[-121.25269,37.59412],[-121.27468,37.59112],[-121.31369,37.5866],[-121.35007,37.58273],[-121.39839,37.57734],[-121.40945,37.57611],[-121.49583,37.56598],[-121.51695,37.56356],[-121.59246,37.55445],[-121.61616,37.55168],[-121.64145,37.54663],[-121.64597,37.54555],[-121.66308,37.54152],[-121.70467,37.53173],[-121.74702,37.52152],[-121.77617,37.51448],[-121.83624,37.5004],[-121.87262,37.49212],[-121.90273,37.49227],[-121.93591,37.4942],[-121.94792,37.49495],[-122.01489,37.49883],[-122.03005,37.49965],[-122.08688,37.50301],[-122.10138,37.506],[-122.11494,37.51118],[-122.13246,37.51847],[-122.15204,37.52682],[-122.16154,37.53086],[-122.21528,37.55394],[-122.23581,37.56257],[-122.26894,37.57644],[-122.29091,37.58564],[-122.30916,37.59343],[-122.3207,37.59823],[-122.32751,37.60113],[-122.3629,37.61572]],"type":"LineString"}
}
