{
  "id": 2014791535,
  "type": "Feature",
  "properties": {
    "geom:area": 0,
    "geom:bbox": "-122.533333,37.633333,-114.887222,47.794444",
    "geom:latitude": 42.88230059976267,
    "geom:longitude": -118.99915314937844,
    "src:alt_label": "swim-path",
    "src:geom": "swim",
    "swim:altitudes": [
      "005",
      "005",
      "010",
      "042",
      "042",
      "073",
      "076",
      "076",
      "100",
      "124",
      "124",
      "138",
      "138",
      "160",
      "160",
      "184",
      "184",
      "216",
      "216",
      "234",
      "234",
      "266",
      "266",
      "266",
      "266",
      "282",
      "282",
      "320C",
      "320C",
      "320C",
      "320C",
      "320C",
      "320C",
      "320C",
      "320C",
      "320C",
      "320C",
      "320C",
      "320C",
      "320C",
      "320C",
      "320C",
      "320C",
      "320C",
      "320C",
      "320C",
      "320C",
      "320C",
      "320C",
      "320C",
      "320C",
      "320C",
      "323",
      "329",
      "329",
      "329",
      "339C",
      "339C",
      "340C",
      "340C",
      "340C",
      "340C",
      "340C",
      "340C",
      "340C",
      "340C",
      "340C",
      "340C",
      "340C",
      "340C",
      "340C",
      "340C",
      "340C",
      "340C",
      "340C",
      "340C",
      "340C",
      "340C",
      "340C",
      "340C",
      "340",
      "330C",
      "330C",
      "330C",
      "330C",
      "330C",
      "330C",
      "330C",
      "330C",
      "330C",
      "330C",
      "330C",
      "330C"
    ],
    "swim:geom": "path",
    "swim:speeds": [
      185,
      185,
      189,
      315,
      315,
      318,
      318,
      318,
      333,
      354,
      354,
      411,
      411,
      437,
      437,
      454,
      454,
      499,
      499,
      504,
      504,
      544,
      544,
      544,
      544,
      553,
      553,
      576,
      576,
      575,
      575,
      573,
      567,
      567,
      567,
      574,
      574,
      574,
      574,
      574,
      574,
      573,
      573,
      573,
      573,
      572,
      571,
      571,
      570,
      570,
      570,
      568,
      568,
      568,
      568,
      568,
      570,
      570,
      572,
      572,
      572,
      572,
      572,
      572,
      572,
      572,
      572,
      573,
      573,
      572,
      572,
      571,
      570,
      570,
      570,
      569,
      575,
      575,
      575,
      575,
      574,
      567,
      567,
      570,
      570,
      570,
      569,
      564,
      562,
      557,
      557,
      555,
      555
    ],
    "swim:timestamps": [
      1771117313,
      1771117313,
      1771117326,
      1771117447,
      1771117447,
      1771117511,
      1771117523,
      1771117523,
      1771117583,
      1771117643,
      1771117643,
      1771117703,
      1771117703,
      1771117763,
      1771117763,
      1771117823,
      1771117823,
      1771117943,
      1771117943,
      1771118003,
      1771118003,
      1771118123,
      1771118123,
      1771118123,
      1771118123,
      1771118183,
      1771118183,
      1771118423,
      1771118423,
      1771118484,
      1771118484,
      1771118544,
      1771118581,
      1771118581,
      1771118581,
      1771118762,
      1771118783,
      1771118783,
      1771118894,
      1771118894,
      1771118894,
      1771118904,
      1771119023,
      1771119023,
      1771119023,
      1771119074,
      1771119143,
      1771119143,
      1771119203,
      1771119203,
      1771119203,
      1771119314,
      1771119444,
      1771119494,
      1771119494,
      1771119494,
      1771119564,
      1771119564,
      1771119675,
      1771119675,
      1771119675,
      1771119684,
      1771119684,
      1771119744,
      1771119744,
      1771119855,
      1771119855,
      1771119975,
      1771120104,
      1771120215,
      1771120215,
      1771120284,
      1771120395,
      1771120395,
      1771120524,
      1771120576,
      1771120704,
      1771120704,
      1771120884,
      1771120884,
      1771120972,
      1771121212,
      1771121212,
      1771121365,
      1771121365,
      1771121365,
      1771121545,
      1771121633,
      1771121693,
      1771121873,
      1771121933,
      1771121965,
      1771121993
    ],
    "wof:geomhash": "3530b69a6c5edf74467dd25a29d36976",
    "wof:id": 2014791535,
    "wof:repo": "sfomuseum-data-flights-2026-02"
  },
  "bbox": [
    -122.53333333333333,
    37.63333333333333,
    -114.88722222222223,
    47.794444444444444
  ],
  "geometry": {"coordinates":[[-122.4,37.63333333333333],[-122.4,37.63333333333333],[-122.4,37.63333333333333],[-122.53333333333333,37.71666666666667],[-122.53333333333333,37.71666666666667],[-122.5,37.8],[-122.49055555555556,37.81722222222223],[-122.49055555555556,37.81722222222223],[-122.4088888888889,37.87638888888889],[-122.35222222222221,37.964444444444446],[-122.35222222222221,37.964444444444446],[-122.29055555555556,38.06166666666666],[-122.29055555555556,38.06166666666666],[-122.22166666666666,38.16833333333333],[-122.22166666666666,38.16833333333333],[-122.14861111111112,38.28055555555555],[-122.14861111111112,38.28055555555555],[-122.00361111111111,38.49583333333334],[-122.00361111111111,38.49583333333334],[-121.91916666666667,38.630833333333335],[-121.91916666666667,38.630833333333335],[-121.75972222222222,38.89805555555556],[-121.75972222222222,38.89805555555556],[-121.75972222222222,38.89805555555556],[-121.75972222222222,38.89805555555556],[-121.6725,39.04111111111111],[-121.6725,39.04111111111111],[-121.32305555555556,39.6175],[-121.32305555555556,39.6175],[-121.23555555555555,39.75944444444445],[-121.23555555555555,39.75944444444445],[-121.1463888888889,39.903888888888886],[-121.08083333333333,40.00861111111111],[-121.08083333333333,40.00861111111111],[-121.08083333333333,40.00861111111111],[-120.80916666666667,40.44361111111111],[-120.78944444444444,40.47416666666667],[-120.78944444444444,40.47416666666667],[-120.62805555555555,40.728611111111114],[-120.62805555555555,40.728611111111114],[-120.62805555555555,40.728611111111114],[-120.58999999999999,40.78861111111111],[-120.40666666666667,41.07416666666667],[-120.40666666666667,41.07416666666667],[-120.40666666666667,41.07416666666667],[-120.3325,41.18888888888888],[-120.22333333333333,41.35722222222223],[-120.22333333333333,41.35722222222223],[-120.13083333333333,41.49888888888889],[-120.13083333333333,41.49888888888889],[-120.13083333333333,41.49888888888889],[-119.96055555555556,41.75833333333333],[-119.7575,42.064166666666665],[-119.68805555555556,42.168055555555554],[-119.68805555555556,42.168055555555554],[-119.68805555555556,42.168055555555554],[-119.56888888888888,42.34583333333334],[-119.56888888888888,42.34583333333334],[-119.40111111111112,42.593611111111116],[-119.40111111111112,42.593611111111116],[-119.40111111111112,42.593611111111116],[-119.3761111111111,42.63027777777778],[-119.3761111111111,42.63027777777778],[-119.27944444444444,42.77194444444444],[-119.27944444444444,42.77194444444444],[-119.11,43.01861111111111],[-119.11,43.01861111111111],[-118.91222222222223,43.30333333333333],[-118.69194444444445,43.6175],[-118.51527777777778,43.86638888888889],[-118.51527777777778,43.86638888888889],[-118.3888888888889,44.043055555555554],[-118.20833333333334,44.29361111111111],[-118.20833333333334,44.29361111111111],[-117.98166666666667,44.60472222222222],[-117.90027777777779,44.71527777777778],[-117.64194444444445,45.019444444444446],[-117.64194444444445,45.019444444444446],[-117.26388888888889,45.42111111111111],[-117.26388888888889,45.42111111111111],[-117.0886111111111,45.605000000000004],[-116.58666666666666,46.12388888888889],[-116.58666666666666,46.12388888888889],[-116.24972222222222,46.46555555555556],[-116.24972222222222,46.46555555555556],[-116.24972222222222,46.46555555555556],[-115.86027777777777,46.85388888888889],[-115.67444444444445,47.03638888888889],[-115.54527777777777,47.16277777777778],[-115.15194444444445,47.54277777777778],[-115.01972222222223,47.66916666666666],[-114.9388888888889,47.745555555555555],[-114.88722222222223,47.794444444444444]],"type":"LineString"}
}
