{
  "id": 2014730933,
  "type": "Feature",
  "properties": {
    "geom:area": 0,
    "geom:bbox": "-122.447260,36.732270,-121.266080,37.708570",
    "geom:latitude": 37.23877868621231,
    "geom:longitude": -121.9233218780728,
    "src:alt_label": "swim-takeoff",
    "src:geom": "swim",
    "swim:elevations": [
      183,
      598,
      894,
      1092,
      1309,
      1554,
      2215,
      2603,
      3285,
      3403,
      3640,
      3941,
      4242,
      4785,
      5023,
      5397,
      5631,
      5969,
      6147,
      6464,
      6701,
      6952,
      7284,
      7641,
      7768,
      8004,
      8023,
      8200,
      8227,
      8466,
      8646
    ],
    "swim:geom": "takeoff",
    "swim:timestamps": [
      1770440905,
      1770440933,
      1770440959,
      1770440983,
      1770441014,
      1770441035,
      1770441074,
      1770441098,
      1770441146,
      1770441164,
      1770441206,
      1770441233,
      1770441254,
      1770441296,
      1770441313,
      1770441343,
      1770441374,
      1770441406,
      1770441427,
      1770441459,
      1770441495,
      1770441519,
      1770441555,
      1770441596,
      1770441614,
      1770441650,
      1770441656,
      1770441686,
      1770441692,
      1770441737,
      1770441761
    ],
    "wof:geomhash": "8b4cc6e49e28124a0d9827ad597f4b66",
    "wof:id": 2014730933,
    "wof:repo": "sfomuseum-data-flights-2026-02"
  },
  "bbox": [
    -122.44726,
    36.73227,
    -121.26608,
    37.70857
  ],
  "geometry": {"coordinates":[[-122.36631,37.63297],[-122.36084,37.65384],[-122.36202,37.67234],[-122.36549,37.69124],[-122.39667,37.70857],[-122.4257,37.70266],[-122.44726,37.66074],[-122.44497,37.63107],[-122.40121,37.58148],[-122.37644,37.56472],[-122.31285,37.5188],[-122.26883,37.4863],[-122.2337,37.4603],[-122.16321,37.40811],[-122.13361,37.38619],[-122.08161,37.34745],[-122.02651,37.30642],[-121.96911,37.26349],[-121.93063,37.23475],[-121.87168,37.19059],[-121.80235,37.13854],[-121.75559,37.10334],[-121.68523,37.05022],[-121.60545,36.98994],[-121.56968,36.96312],[-121.49693,36.90784],[-121.48466,36.89864],[-121.42314,36.85175],[-121.41075,36.84238],[-121.31686,36.77092],[-121.26608,36.73227]],"type":"LineString"}
}
