{
  "id": 2014880345,
  "type": "Feature",
  "properties": {
    "geom:area": 0,
    "geom:bbox": "-123.290000,37.435556,-122.166667,47.437222",
    "geom:latitude": 42.53708300672014,
    "geom:longitude": -122.97848404675823,
    "src:alt_label": "swim-path",
    "src:geom": "swim",
    "swim:altitudes": [
      "009",
      "009",
      "041",
      "041",
      "056",
      "112",
      "112",
      "158",
      "158",
      "158",
      "237",
      "237",
      "237",
      "237",
      "250",
      "250",
      "250",
      "349",
      "370C",
      "370C",
      "370C",
      "370C",
      "370C",
      "370C",
      "370C",
      "370C",
      "370C",
      "370C",
      "370C",
      "370C",
      "370C",
      "370C",
      "370C",
      "370C",
      "370C",
      "370C",
      "370C",
      "370C",
      "370C",
      "370C",
      "370C",
      "370C",
      "370C",
      "370C",
      "370C",
      "370C",
      "370C",
      "370C",
      "369C",
      "370C",
      "370C",
      "370C",
      "370C",
      "371C",
      "371C",
      "371C",
      "370C",
      "370C",
      "370C",
      "370C",
      "370C",
      "370C",
      "370C",
      "370C",
      "370C",
      "370C",
      "370C",
      "370C",
      "370C",
      "370C",
      "370C",
      "370C",
      "370C",
      "370C",
      "370C",
      "370C",
      "370C",
      "370C",
      "371C",
      "370",
      "370",
      "360",
      "360",
      "347",
      "347",
      "341",
      "335",
      "320",
      "307",
      "290",
      "290",
      "290",
      "289",
      "258",
      "258",
      "200",
      "200",
      "200",
      "173",
      "166",
      "110",
      "110C",
      "110C",
      "110C",
      "099",
      "085",
      "078",
      "071",
      "040",
      "040",
      "040",
      "110",
      "110"
    ],
    "swim:geom": "path",
    "swim:speeds": [
      158,
      158,
      236,
      236,
      256,
      257,
      257,
      324,
      324,
      324,
      395,
      395,
      395,
      395,
      414,
      414,
      414,
      433,
      422,
      422,
      422,
      422,
      421,
      419,
      419,
      419,
      419,
      408,
      408,
      408,
      408,
      408,
      409,
      409,
      409,
      416,
      416,
      416,
      416,
      413,
      413,
      412,
      411,
      411,
      410,
      410,
      409,
      409,
      406,
      403,
      404,
      404,
      404,
      407,
      409,
      409,
      411,
      411,
      411,
      411,
      413,
      415,
      415,
      415,
      415,
      415,
      415,
      415,
      415,
      415,
      415,
      413,
      413,
      411,
      411,
      410,
      410,
      410,
      411,
      410,
      410,
      403,
      403,
      406,
      406,
      408,
      409,
      401,
      403,
      408,
      403,
      403,
      411,
      416,
      416,
      373,
      373,
      373,
      360,
      357,
      296,
      270,
      270,
      263,
      254,
      250,
      248,
      243,
      225,
      225,
      225,
      127,
      127
    ],
    "swim:timestamps": [
      1772040897,
      1772040897,
      1772040989,
      1772040989,
      1772041011,
      1772041109,
      1772041109,
      1772041229,
      1772041229,
      1772041229,
      1772041469,
      1772041469,
      1772041469,
      1772041469,
      1772041529,
      1772041529,
      1772041529,
      1772041950,
      1772042190,
      1772042190,
      1772042190,
      1772042190,
      1772042610,
      1772042670,
      1772042670,
      1772042670,
      1772042670,
      1772043031,
      1772043031,
      1772043031,
      1772043091,
      1772043091,
      1772043151,
      1772043151,
      1772043151,
      1772043391,
      1772043391,
      1772043391,
      1772043391,
      1772043511,
      1772043511,
      1772043571,
      1772043649,
      1772043649,
      1772043691,
      1772043691,
      1772043769,
      1772043769,
      1772043872,
      1772043889,
      1772043932,
      1772043932,
      1772043932,
      1772044069,
      1772044112,
      1772044112,
      1772044172,
      1772044172,
      1772044189,
      1772044189,
      1772044292,
      1772044352,
      1772044352,
      1772044352,
      1772044369,
      1772044369,
      1772044412,
      1772044430,
      1772044430,
      1772044472,
      1772044472,
      1772044592,
      1772044592,
      1772044670,
      1772044670,
      1772044730,
      1772044730,
      1772044772,
      1772044833,
      1772044910,
      1772044910,
      1772045013,
      1772045013,
      1772045133,
      1772045133,
      1772045193,
      1772045253,
      1772045373,
      1772045451,
      1772045631,
      1772045691,
      1772045691,
      1772045811,
      1772045991,
      1772045991,
      1772046172,
      1772046172,
      1772046172,
      1772046257,
      1772046292,
      1772046497,
      1772046532,
      1772046532,
      1772046592,
      1772046652,
      1772046712,
      1772046737,
      1772046772,
      1772047037,
      1772047037,
      1772047037,
      1772047313,
      1772047313
    ],
    "wof:geomhash": "324fa11fff956c237a92c3008506f479",
    "wof:id": 2014880345,
    "wof:repo": "sfomuseum-data-flights-2026-02"
  },
  "bbox": [
    -123.28999999999999,
    37.43555555555555,
    -122.16666666666667,
    47.43722222222222
  ],
  "geometry": {"coordinates":[[-122.30916666666667,47.43722222222222],[-122.30916666666667,47.43722222222222],[-122.30972222222222,47.3575],[-122.30972222222222,47.3575],[-122.32277777777777,47.32944444444445],[-122.48083333333334,47.315555555555555],[-122.48083333333334,47.315555555555555],[-122.72333333333333,47.31638888888889],[-122.72333333333333,47.31638888888889],[-122.72333333333333,47.31638888888889],[-123.22222222222223,47.16166666666666],[-123.22222222222223,47.16166666666666],[-123.22222222222223,47.16166666666666],[-123.22222222222223,47.16166666666666],[-123.28999999999999,47.05777777777777],[-123.28999999999999,47.05777777777777],[-123.28999999999999,47.05777777777777],[-123.25722222222223,46.200833333333335],[-123.22277777777778,45.731944444444444],[-123.22277777777778,45.731944444444444],[-123.22277777777778,45.731944444444444],[-123.22277777777778,45.731944444444444],[-123.16388888888889,44.906388888888884],[-123.15583333333333,44.788888888888884],[-123.15583333333333,44.788888888888884],[-123.15583333333333,44.788888888888884],[-123.15583333333333,44.788888888888884],[-123.12138888888889,44.10138888888889],[-123.12138888888889,44.10138888888889],[-123.12138888888889,44.10138888888889],[-123.11749999999999,43.993611111111115],[-123.11749999999999,43.993611111111115],[-123.11361111111111,43.87833333333333],[-123.11361111111111,43.87833333333333],[-123.11361111111111,43.87833333333333],[-123.0975,43.41444444444444],[-123.0975,43.41444444444444],[-123.0975,43.41444444444444],[-123.0975,43.41444444444444],[-123.08944444444444,43.18527777777778],[-123.08944444444444,43.18527777777778],[-123.08555555555554,43.07166666666667],[-123.07888888888888,42.92638888888889],[-123.07888888888888,42.92638888888889],[-123.07777777777777,42.843333333333334],[-123.07777777777777,42.843333333333334],[-123.07166666666666,42.700833333333335],[-123.07166666666666,42.700833333333335],[-123.06666666666666,42.52166666666667],[-123.06444444444445,42.477222222222224],[-123.06333333333333,42.41],[-123.06333333333333,42.41],[-123.06333333333333,42.41],[-123.05444444444444,42.13916666666667],[-123.05166666666666,42.049166666666665],[-123.05166666666666,42.049166666666665],[-123.04805555555555,41.93444444444444],[-123.04805555555555,41.93444444444444],[-123.04722222222222,41.91222222222222],[-123.04722222222222,41.91222222222222],[-123.04055555555556,41.70527777777778],[-123.03694444444444,41.59055555555556],[-123.03694444444444,41.59055555555556],[-123.03694444444444,41.59055555555556],[-123.0363888888889,41.56722222222223],[-123.0363888888889,41.56722222222223],[-123.03333333333333,41.47527777777778],[-123.03277777777778,41.45194444444445],[-123.03277777777778,41.45194444444445],[-123.03027777777778,41.37388888888889],[-123.03027777777778,41.37388888888889],[-123.02305555555556,41.144444444444446],[-123.02305555555556,41.144444444444446],[-123.01833333333333,40.985],[-123.01833333333333,40.985],[-123.015,40.86972222222222],[-123.015,40.86972222222222],[-123.01277777777777,40.800555555555555],[-123.00944444444444,40.68527777777778],[-123.00472222222223,40.52777777777778],[-123.00472222222223,40.52777777777778],[-122.99944444444445,40.349444444444444],[-122.99944444444445,40.349444444444444],[-122.99277777777777,40.11944444444445],[-122.99277777777777,40.11944444444445],[-122.98944444444444,40.005833333333335],[-122.98611111111111,39.89083333333333],[-122.97944444444444,39.66833333333333],[-122.97527777777778,39.52027777777778],[-122.96555555555555,39.17944444444444],[-122.9625,39.06861111111112],[-122.9625,39.06861111111112],[-122.94861111111112,38.84305555555556],[-122.84944444444444,38.50416666666667],[-122.84944444444444,38.50416666666667],[-122.75611111111111,38.18722222222222],[-122.75611111111111,38.18722222222222],[-122.75611111111111,38.18722222222222],[-122.71666666666667,38.03333333333333],[-122.69916666666667,37.99138888888889],[-122.46666666666667,37.71666666666667],[-122.43833333333333,37.678888888888885],[-122.43833333333333,37.678888888888885],[-122.37944444444443,37.62277777777778],[-122.33944444444444,37.56111111111111],[-122.30166666666666,37.499722222222225],[-122.28333333333333,37.46666666666667],[-122.28861111111111,37.43555555555555],[-122.16666666666667,37.483333333333334],[-122.16666666666667,37.483333333333334],[-122.16666666666667,37.483333333333334],[-122.36166666666666,37.61527777777778],[-122.36166666666666,37.61527777777778]],"type":"LineString"}
}
