{
  "id": 2014812017,
  "type": "Feature",
  "properties": {
    "geom:area": 0,
    "geom:bbox": "-122.527610,37.628250,-121.259500,37.973390",
    "geom:latitude": 37.866840090445116,
    "geom:longitude": -121.98688987369077,
    "src:alt_label": "swim-takeoff",
    "src:geom": "swim",
    "swim:elevations": [
      183,
      320,
      642,
      793,
      1159,
      1411,
      2216,
      2331,
      3230,
      3364,
      3803,
      3885,
      4136,
      4493,
      4575,
      5103,
      5260,
      5654,
      5992,
      6309,
      6482,
      6894,
      7209,
      7674,
      7937,
      8002,
      8090,
      8150,
      8444,
      8457
    ],
    "swim:geom": "takeoff",
    "swim:timestamps": [
      1771240854,
      1771240864,
      1771240888,
      1771240899,
      1771240937,
      1771240971,
      1771241032,
      1771241043,
      1771241121,
      1771241144,
      1771241187,
      1771241195,
      1771241218,
      1771241241,
      1771241250,
      1771241299,
      1771241314,
      1771241343,
      1771241374,
      1771241398,
      1771241412,
      1771241450,
      1771241484,
      1771241538,
      1771241578,
      1771241595,
      1771241604,
      1771241617,
      1771241668,
      1771241671
    ],
    "wof:geomhash": "fe92268e8c7b3f16d620f9952d6e2a25",
    "wof:id": 2014812017,
    "wof:repo": "sfomuseum-data-flights-2026-02"
  },
  "bbox": [
    -122.52761,
    37.62825,
    -121.2595,
    37.97339
  ],
  "geometry": {"coordinates":[[-122.39806,37.62825],[-122.4078,37.63221],[-122.4303,37.6419],[-122.44154,37.64669],[-122.47825,37.6628],[-122.51648,37.68262],[-122.52717,37.75272],[-122.52761,37.76773],[-122.44243,37.83522],[-122.40124,37.84263],[-122.31468,37.85315],[-122.29885,37.85484],[-122.25129,37.85962],[-122.20368,37.8652],[-122.18518,37.86744],[-122.0829,37.87963],[-122.05078,37.88358],[-121.9872,37.89117],[-121.92091,37.89888],[-121.86728,37.90501],[-121.83721,37.90841],[-121.75644,37.91759],[-121.68262,37.92643],[-121.56547,37.93972],[-121.47679,37.94932],[-121.43701,37.95343],[-121.41628,37.95579],[-121.38625,37.95926],[-121.26648,37.97244],[-121.2595,37.97339]],"type":"LineString"}
}
