{
  "id": 2014721521,
  "type": "Feature",
  "properties": {
    "geom:area": 0,
    "geom:bbox": "-123.380250,37.630060,-122.396310,38.500060",
    "geom:latitude": 38.03207148792117,
    "geom:longitude": -122.91181104900858,
    "src:alt_label": "swim-takeoff",
    "src:geom": "swim",
    "swim:elevations": [
      152,
      437,
      822,
      991,
      1232,
      1638,
      1854,
      2098,
      2344,
      2654,
      2747,
      3106,
      3250,
      3522,
      3688,
      3823,
      4040,
      4204,
      4446,
      4884,
      5212,
      5297,
      5582,
      5842,
      6018,
      6118,
      6401,
      6614
    ],
    "swim:geom": "takeoff",
    "swim:timestamps": [
      1770333416,
      1770333437,
      1770333465,
      1770333480,
      1770333520,
      1770333568,
      1770333586,
      1770333607,
      1770333628,
      1770333656,
      1770333664,
      1770333695,
      1770333722,
      1770333773,
      1770333791,
      1770333803,
      1770333824,
      1770333843,
      1770333873,
      1770333918,
      1770333953,
      1770333961,
      1770333997,
      1770334025,
      1770334046,
      1770334058,
      1770334096,
      1770334120
    ],
    "wof:geomhash": "3e987bc82fd8650a334a25e0b9493bae",
    "wof:id": 2014721521,
    "wof:repo": "sfomuseum-data-flights-2026-02"
  },
  "bbox": [
    -123.38025,
    37.63006,
    -122.39631,
    38.50006
  ],
  "geometry": {"coordinates":[[-122.39631,37.63006],[-122.41784,37.63917],[-122.44817,37.65169],[-122.46508,37.65885],[-122.5158,37.68173],[-122.58035,37.7202],[-122.6055,37.73512],[-122.63567,37.75272],[-122.666,37.77057],[-122.70595,37.79392],[-122.71864,37.80126],[-122.76164,37.83116],[-122.79148,37.86568],[-122.85244,37.93902],[-122.8752,37.9665],[-122.89055,37.98497],[-122.91846,38.01849],[-122.94309,38.048],[-122.98349,38.09658],[-123.04734,38.17031],[-123.10176,38.22715],[-123.11455,38.24007],[-123.1733,38.29816],[-123.21998,38.34381],[-123.25428,38.37718],[-123.2746,38.39685],[-123.33922,38.45997],[-123.38025,38.50006]],"type":"LineString"}
}
