{
  "id": 2014880363,
  "type": "Feature",
  "properties": {
    "geom:area": 0,
    "geom:bbox": "-122.359220,37.491140,-121.255460,37.614580",
    "geom:latitude": 37.54658322232677,
    "geom:longitude": -121.8123009127321,
    "src:alt_label": "swim-approach",
    "src:geom": "swim",
    "swim:elevations": [
      4761,
      4473,
      4230,
      3959,
      3729,
      3645,
      3408,
      3269,
      3171,
      3107,
      3056,
      2842,
      2751,
      2586,
      2499,
      2268,
      2071,
      2066,
      1909,
      1841,
      1829,
      1762,
      1642,
      1466,
      1250,
      1029,
      932,
      799,
      697,
      576,
      484,
      402,
      255,
      246,
      183,
      58,
      0
    ],
    "swim:geom": "approach",
    "swim:timestamps": [
      1772046956,
      1772046986,
      1772047013,
      1772047044,
      1772047068,
      1772047080,
      1772047106,
      1772047124,
      1772047156,
      1772047183,
      1772047201,
      1772047238,
      1772047252,
      1772047276,
      1772047294,
      1772047341,
      1772047377,
      1772047380,
      1772047407,
      1772047422,
      1772047436,
      1772047455,
      1772047473,
      1772047503,
      1772047531,
      1772047570,
      1772047588,
      1772047617,
      1772047636,
      1772047669,
      1772047703,
      1772047725,
      1772047768,
      1772047771,
      1772047787,
      1772047819,
      1772047830
    ],
    "wof:geomhash": "1f740c60a08d04297c45477c090771f2",
    "wof:id": 2014880363,
    "wof:repo": "sfomuseum-data-flights-2026-02"
  },
  "bbox": [
    -122.35922,
    37.49114,
    -121.25546,
    37.61458
  ],
  "geometry": {"coordinates":[[-121.25546,37.59391],[-121.3074,37.58739],[-121.35603,37.58196],[-121.40668,37.57619],[-121.44762,37.57154],[-121.46567,37.56944],[-121.50733,37.56446],[-121.53456,37.56123],[-121.58197,37.55567],[-121.62086,37.55097],[-121.64693,37.54565],[-121.70064,37.53272],[-121.72027,37.52806],[-121.75487,37.51976],[-121.78075,37.51354],[-121.84363,37.49836],[-121.89053,37.49114],[-121.8945,37.49123],[-121.93028,37.49242],[-121.95023,37.49285],[-121.96873,37.49332],[-121.99226,37.4963],[-122.01325,37.50284],[-122.04943,37.51456],[-122.08079,37.52468],[-122.12614,37.53959],[-122.14542,37.54586],[-122.17665,37.5558],[-122.19551,37.56202],[-122.22792,37.57249],[-122.2583,37.58221],[-122.27621,37.58744],[-122.31108,37.59771],[-122.31349,37.59844],[-122.32671,37.60239],[-122.35114,37.61108],[-122.35922,37.61458]],"type":"LineString"}
}
