{
  "id": 2014817883,
  "type": "Feature",
  "properties": {
    "geom:area": 0,
    "geom:bbox": "-122.561111,32.956389,-117.500833,37.660000",
    "geom:latitude": 35.1496028977918,
    "geom:longitude": -120.38216998925496,
    "src:alt_label": "swim-path",
    "src:geom": "swim",
    "swim:altitudes": [
      "016",
      "016",
      "016",
      "035",
      "035",
      "035",
      "035",
      "062",
      "062",
      "062",
      "087",
      "087",
      "087",
      "128",
      "128",
      "128",
      "156",
      "156",
      "196",
      "196",
      "196",
      "196",
      "196",
      "196",
      "227",
      "227",
      "227",
      "248",
      "248",
      "248",
      "248",
      "248",
      "248",
      "284",
      "299",
      "299",
      "299",
      "309",
      "309",
      "309",
      "323",
      "323",
      "323",
      "323",
      "342",
      "342",
      "342",
      "342",
      "346",
      "346",
      "350C",
      "350C",
      "350C",
      "350C",
      "350C",
      "350C",
      "350C",
      "350C",
      "350C",
      "350C",
      "350C",
      "350C",
      "350C",
      "350C",
      "350C",
      "350C",
      "350C",
      "350C",
      "350C",
      "350C",
      "350C",
      "350C",
      "350C",
      "350C",
      "350C",
      "350C",
      "350C",
      "350C",
      "350C",
      "350C",
      "350C",
      "350C",
      "350C",
      "350C",
      "350C",
      "350C",
      "350C",
      "350C",
      "350C",
      "350C",
      "350C",
      "350C",
      "350C",
      "350C",
      "350C",
      "350C",
      "350C",
      "350C",
      "350C",
      "350C",
      "350C",
      "350C",
      "350C",
      "350C",
      "350C",
      "350C",
      "350C",
      "350C",
      "350C",
      "350C",
      "350C",
      "350C",
      "350C",
      "350C",
      "350C"
    ],
    "swim:geom": "path",
    "swim:speeds": [
      172,
      172,
      172,
      212,
      212,
      212,
      212,
      231,
      231,
      231,
      253,
      253,
      253,
      286,
      286,
      286,
      340,
      340,
      362,
      362,
      362,
      362,
      362,
      362,
      414,
      414,
      414,
      426,
      426,
      426,
      426,
      426,
      426,
      463,
      465,
      465,
      465,
      465,
      465,
      465,
      463,
      463,
      463,
      463,
      472,
      472,
      472,
      472,
      491,
      491,
      506,
      506,
      506,
      506,
      500,
      500,
      500,
      500,
      498,
      498,
      498,
      498,
      502,
      502,
      502,
      502,
      502,
      502,
      505,
      505,
      505,
      505,
      505,
      505,
      505,
      507,
      509,
      509,
      509,
      509,
      505,
      505,
      505,
      505,
      504,
      504,
      504,
      504,
      502,
      502,
      502,
      502,
      498,
      498,
      498,
      498,
      499,
      499,
      499,
      502,
      502,
      502,
      502,
      504,
      504,
      504,
      506,
      506,
      506,
      504,
      504,
      504,
      504,
      504,
      504
    ],
    "swim:timestamps": [
      1771353970,
      1771353970,
      1771353970,
      1771354030,
      1771354030,
      1771354030,
      1771354030,
      1771354090,
      1771354090,
      1771354090,
      1771354150,
      1771354150,
      1771354150,
      1771354274,
      1771354274,
      1771354274,
      1771354335,
      1771354335,
      1771354455,
      1771354455,
      1771354455,
      1771354455,
      1771354455,
      1771354455,
      1771354570,
      1771354570,
      1771354570,
      1771354635,
      1771354635,
      1771354635,
      1771354635,
      1771354635,
      1771354635,
      1771354815,
      1771354875,
      1771354875,
      1771354875,
      1771354931,
      1771354931,
      1771354931,
      1771354991,
      1771354991,
      1771354991,
      1771354991,
      1771355111,
      1771355111,
      1771355111,
      1771355111,
      1771355171,
      1771355171,
      1771355291,
      1771355291,
      1771355291,
      1771355291,
      1771355416,
      1771355416,
      1771355416,
      1771355416,
      1771355476,
      1771355476,
      1771355476,
      1771355476,
      1771355712,
      1771355712,
      1771355712,
      1771355712,
      1771355712,
      1771355712,
      1771355957,
      1771355957,
      1771355957,
      1771355957,
      1771356012,
      1771356012,
      1771356012,
      1771356077,
      1771356137,
      1771356137,
      1771356137,
      1771356137,
      1771356318,
      1771356318,
      1771356318,
      1771356318,
      1771356378,
      1771356378,
      1771356378,
      1771356378,
      1771356438,
      1771356438,
      1771356438,
      1771356438,
      1771356618,
      1771356618,
      1771356618,
      1771356618,
      1771356678,
      1771356678,
      1771356678,
      1771356798,
      1771356798,
      1771356798,
      1771356798,
      1771356858,
      1771356858,
      1771356858,
      1771356979,
      1771356979,
      1771356979,
      1771357099,
      1771357099,
      1771357099,
      1771357099,
      1771357099,
      1771357099
    ],
    "wof:geomhash": "edbd94f609da19922391fb8d6d315dbd",
    "wof:id": 2014817883,
    "wof:repo": "sfomuseum-data-flights-2026-02"
  },
  "bbox": [
    -122.5611111111111,
    32.95638888888889,
    -117.50083333333333,
    37.66
  ],
  "geometry": {"coordinates":[[-122.4075,37.63333333333333],[-122.4075,37.63333333333333],[-122.4075,37.63333333333333],[-122.46916666666667,37.66],[-122.46916666666667,37.66],[-122.46916666666667,37.66],[-122.46916666666667,37.66],[-122.53583333333333,37.64666666666667],[-122.53583333333333,37.64666666666667],[-122.53583333333333,37.64666666666667],[-122.54444444444444,37.578611111111115],[-122.54444444444444,37.578611111111115],[-122.54444444444444,37.578611111111115],[-122.54888888888888,37.42027777777778],[-122.54888888888888,37.42027777777778],[-122.54888888888888,37.42027777777778],[-122.55416666666666,37.30583333333333],[-122.55416666666666,37.30583333333333],[-122.5611111111111,37.10666666666667],[-122.5611111111111,37.10666666666667],[-122.5611111111111,37.10666666666667],[-122.5611111111111,37.10666666666667],[-122.5611111111111,37.10666666666667],[-122.5611111111111,37.10666666666667],[-122.50222222222222,36.92194444444444],[-122.50222222222222,36.92194444444444],[-122.50222222222222,36.92194444444444],[-122.41250000000001,36.80027777777777],[-122.41250000000001,36.80027777777777],[-122.41250000000001,36.80027777777777],[-122.41250000000001,36.80027777777777],[-122.41250000000001,36.80027777777777],[-122.41250000000001,36.80027777777777],[-122.17944444444444,36.48083333333334],[-122.09694444444445,36.367777777777775],[-122.09694444444445,36.367777777777775],[-122.09694444444445,36.367777777777775],[-122.03166666666667,36.276944444444446],[-122.03166666666667,36.276944444444446],[-122.03166666666667,36.276944444444446],[-121.9525,36.16611111111111],[-121.9525,36.16611111111111],[-121.9525,36.16611111111111],[-121.9525,36.16611111111111],[-121.77638888888889,35.96361111111111],[-121.77638888888889,35.96361111111111],[-121.77638888888889,35.96361111111111],[-121.77638888888889,35.96361111111111],[-121.64305555555556,35.88027777777778],[-121.64305555555556,35.88027777777778],[-121.37055555555555,35.70888888888889],[-121.37055555555555,35.70888888888889],[-121.37055555555555,35.70888888888889],[-121.37055555555555,35.70888888888889],[-121.08,35.52305555555555],[-121.08,35.52305555555555],[-121.08,35.52305555555555],[-121.08,35.52305555555555],[-120.95138888888889,35.43583333333333],[-120.95138888888889,35.43583333333333],[-120.95138888888889,35.43583333333333],[-120.95138888888889,35.43583333333333],[-120.45666666666666,35.094722222222224],[-120.45666666666666,35.094722222222224],[-120.45666666666666,35.094722222222224],[-120.45666666666666,35.094722222222224],[-120.45666666666666,35.094722222222224],[-120.45666666666666,35.094722222222224],[-119.91583333333334,34.71805555555556],[-119.91583333333334,34.71805555555556],[-119.91583333333334,34.71805555555556],[-119.91583333333334,34.71805555555556],[-119.78277777777778,34.62388888888889],[-119.78277777777778,34.62388888888889],[-119.78277777777778,34.62388888888889],[-119.6613888888889,34.53805555555555],[-119.53083333333333,34.44472222222222],[-119.53083333333333,34.44472222222222],[-119.53083333333333,34.44472222222222],[-119.53083333333333,34.44472222222222],[-119.14444444444445,34.168055555555554],[-119.14444444444445,34.168055555555554],[-119.14444444444445,34.168055555555554],[-119.14444444444445,34.168055555555554],[-119.01611111111112,34.07527777777778],[-119.01611111111112,34.07527777777778],[-119.01611111111112,34.07527777777778],[-119.01611111111112,34.07527777777778],[-118.89055555555557,33.985],[-118.89055555555557,33.985],[-118.89055555555557,33.985],[-118.89055555555557,33.985],[-118.49583333333334,33.69694444444444],[-118.49583333333334,33.69694444444444],[-118.49583333333334,33.69694444444444],[-118.49583333333334,33.69694444444444],[-118.37305555555555,33.60666666666667],[-118.37305555555555,33.60666666666667],[-118.37305555555555,33.60666666666667],[-118.12583333333333,33.42361111111111],[-118.12583333333333,33.42361111111111],[-118.12583333333333,33.42361111111111],[-118.12583333333333,33.42361111111111],[-118.00027777777778,33.33083333333334],[-118.00027777777778,33.33083333333334],[-118.00027777777778,33.33083333333334],[-117.75083333333333,33.14472222222222],[-117.75083333333333,33.14472222222222],[-117.75083333333333,33.14472222222222],[-117.50083333333333,32.95638888888889],[-117.50083333333333,32.95638888888889],[-117.50083333333333,32.95638888888889],[-117.50083333333333,32.95638888888889],[-117.50083333333333,32.95638888888889],[-117.50083333333333,32.95638888888889]],"type":"LineString"}
}
