{
  "id": 2014720001,
  "type": "Feature",
  "properties": {
    "geom:area": 0,
    "geom:bbox": "-122.384430,37.635090,-121.284110,38.402160",
    "geom:latitude": 38.07841884730708,
    "geom:longitude": -121.94361784571822,
    "src:alt_label": "swim-takeoff",
    "src:geom": "swim",
    "swim:elevations": [
      281,
      595,
      806,
      947,
      1006,
      1156,
      1488,
      1812,
      2452,
      2513,
      3177,
      3297,
      3471,
      3566,
      3831,
      4225,
      4528,
      4914,
      5056,
      5529,
      5617,
      6040,
      6317,
      6385,
      6703,
      6830,
      7101,
      7203,
      7387
    ],
    "swim:geom": "takeoff",
    "swim:timestamps": [
      1770360323,
      1770360350,
      1770360377,
      1770360402,
      1770360408,
      1770360420,
      1770360441,
      1770360462,
      1770360506,
      1770360512,
      1770360566,
      1770360596,
      1770360628,
      1770360646,
      1770360675,
      1770360711,
      1770360738,
      1770360774,
      1770360792,
      1770360839,
      1770360848,
      1770360898,
      1770360925,
      1770360937,
      1770360987,
      1770361000,
      1770361047,
      1770361062,
      1770361084
    ],
    "wof:geomhash": "f4d14ecbb350799f2f8ea7834d2aaff0",
    "wof:id": 2014720001,
    "wof:repo": "sfomuseum-data-flights-2026-02"
  },
  "bbox": [
    -122.38443,
    37.63509,
    -121.28411,
    38.40216
  ],
  "geometry": {"coordinates":[[-122.36146,37.63509],[-122.34212,37.6527],[-122.31908,37.6719],[-122.31137,37.69955],[-122.31378,37.70677],[-122.32122,37.7208],[-122.3354,37.74529],[-122.34948,37.76998],[-122.37601,37.82422],[-122.37981,37.83172],[-122.38443,37.90747],[-122.35922,37.94818],[-122.30029,37.97357],[-122.26443,37.98833],[-122.20321,38.01334],[-122.12663,38.04424],[-122.06854,38.06751],[-121.99001,38.0989],[-121.95003,38.11482],[-121.84646,38.1561],[-121.82487,38.16464],[-121.71187,38.20943],[-121.65,38.2339],[-121.62222,38.24488],[-121.5057,38.29072],[-121.47307,38.30352],[-121.36555,38.35164],[-121.33214,38.3724],[-121.28411,38.40216]],"type":"LineString"}
}
