{
  "id": 2014840589,
  "type": "Feature",
  "properties": {
    "geom:area": 0,
    "geom:bbox": "-122.757400,37.581050,-122.107780,38.508200",
    "geom:latitude": 37.92497007909437,
    "geom:longitude": -122.49208194795189,
    "src:alt_label": "swim-approach",
    "src:geom": "swim",
    "swim:elevations": [
      8276,
      7907,
      7730,
      7516,
      7195,
      6707,
      6601,
      6389,
      6077,
      5871,
      5557,
      5362,
      4845,
      4608,
      4371,
      4092,
      3799,
      3714,
      3491,
      3407,
      3353,
      3353,
      3353,
      3276,
      3015,
      2782,
      2394,
      2100,
      1994,
      1777,
      1680,
      1522,
      1409,
      1343,
      1108,
      1049,
      913,
      863,
      662,
      519,
      343,
      271,
      212,
      167,
      88,
      0
    ],
    "swim:geom": "approach",
    "swim:timestamps": [
      1771630519,
      1771630555,
      1771630570,
      1771630594,
      1771630627,
      1771630676,
      1771630686,
      1771630707,
      1771630738,
      1771630757,
      1771630786,
      1771630810,
      1771630858,
      1771630886,
      1771630912,
      1771630945,
      1771630978,
      1771630987,
      1771631010,
      1771631038,
      1771631047,
      1771631071,
      1771631080,
      1771631116,
      1771631146,
      1771631170,
      1771631212,
      1771631242,
      1771631254,
      1771631275,
      1771631290,
      1771631329,
      1771631368,
      1771631382,
      1771631425,
      1771631434,
      1771631456,
      1771631465,
      1771631493,
      1771631521,
      1771631562,
      1771631587,
      1771631605,
      1771631617,
      1771631640,
      1771631662
    ],
    "wof:geomhash": "412900425b86d6e349b53d22a7682424",
    "wof:id": 2014840589,
    "wof:repo": "sfomuseum-data-flights-2026-02"
  },
  "bbox": [
    -122.7574,
    37.58105,
    -122.10778,
    38.5082
  ],
  "geometry": {"coordinates":[[-122.47609,38.5082],[-122.52584,38.4602],[-122.54649,38.43987],[-122.57948,38.40764],[-122.62364,38.36459],[-122.68948,38.3005],[-122.70364,38.28669],[-122.7322,38.25878],[-122.7574,38.20855],[-122.75308,38.17338],[-122.73823,38.12091],[-122.72533,38.07913],[-122.70051,37.99696],[-122.68793,37.95252],[-122.67465,37.91176],[-122.63892,37.86721],[-122.59693,37.82728],[-122.58541,37.81656],[-122.55691,37.78983],[-122.52268,37.75764],[-122.51191,37.74754],[-122.48354,37.72111],[-122.47162,37.71355],[-122.41856,37.69754],[-122.37691,37.68616],[-122.34428,37.67717],[-122.2889,37.66366],[-122.25065,37.65436],[-122.23559,37.65041],[-122.20965,37.64377],[-122.19147,37.63927],[-122.14442,37.62803],[-122.10853,37.61175],[-122.10778,37.60093],[-122.14435,37.58392],[-122.15425,37.58348],[-122.17899,37.58267],[-122.18831,37.5824],[-122.21913,37.5815],[-122.25004,37.58105],[-122.28829,37.59097],[-122.30736,37.59644],[-122.32033,37.60032],[-122.32917,37.60301],[-122.34595,37.6089],[-122.36145,37.61498]],"type":"LineString"}
}
