{
  "id": 2014703897,
  "type": "Feature",
  "properties": {
    "geom:area": 0,
    "geom:bbox": "-122.359470,37.493440,-121.973140,37.614750",
    "geom:latitude": 37.5524049432466,
    "geom:longitude": -122.16678021722103,
    "src:alt_label": "swim-approach",
    "src:geom": "swim",
    "swim:elevations": [
      1859,
      1753,
      1534,
      1400,
      1231,
      1066,
      973,
      954,
      750,
      566,
      471,
      346,
      242,
      204,
      43
    ],
    "swim:geom": "approach",
    "swim:timestamps": [
      1770141628,
      1770141648,
      1770141680,
      1770141702,
      1770141731,
      1770141759,
      1770141777,
      1770141782,
      1770141824,
      1770141859,
      1770141877,
      1770141904,
      1770141926,
      1770141937,
      1770141979
    ],
    "wof:geomhash": "e895c1760a17f521d8fcd88e9db08b6a",
    "wof:id": 2014703897,
    "wof:repo": "sfomuseum-data-flights-2026-02"
  },
  "bbox": [
    -122.35947,
    37.49344,
    -121.97314,
    37.61475
  ],
  "geometry": {"coordinates":[[-121.97314,37.49344],[-122.0029,37.49935],[-122.04548,37.5133],[-122.07426,37.52257],[-122.11073,37.53437],[-122.14406,37.54503],[-122.16458,37.55177],[-122.16995,37.55347],[-122.21422,37.56796],[-122.25032,37.57987],[-122.26891,37.58558],[-122.29514,37.59284],[-122.31522,37.59879],[-122.32414,37.60155],[-122.35947,37.61475]],"type":"LineString"}
}
