{
  "id": 2014888789,
  "type": "Feature",
  "properties": {
    "geom:area": 0,
    "geom:bbox": "-122.803180,37.400890,-122.154690,38.500560",
    "geom:latitude": 37.825568184466256,
    "geom:longitude": -122.50379539334604,
    "src:alt_label": "swim-approach",
    "src:geom": "swim",
    "swim:elevations": [
      7750,
      7431,
      6998,
      6971,
      6689,
      6386,
      6079,
      5780,
      5647,
      5369,
      5098,
      4899,
      4672,
      4427,
      4101,
      3983,
      3654,
      3483,
      3403,
      3355,
      3353,
      3353,
      3353,
      3360,
      3356,
      3149,
      3049,
      2903,
      2839,
      2507,
      2350,
      2197,
      2001,
      1707,
      1630,
      1465,
      1271,
      1207,
      926,
      855,
      784,
      726,
      520,
      397,
      286,
      196,
      30,
      242
    ],
    "swim:geom": "approach",
    "swim:timestamps": [
      1772146723,
      1772146754,
      1772146797,
      1772146800,
      1772146827,
      1772146857,
      1772146887,
      1772146918,
      1772146930,
      1772146967,
      1772146993,
      1772147014,
      1772147038,
      1772147063,
      1772147096,
      1772147108,
      1772147143,
      1772147164,
      1772147176,
      1772147197,
      1772147218,
      1772147236,
      1772147272,
      1772147290,
      1772147333,
      1772147361,
      1772147376,
      1772147397,
      1772147410,
      1772147457,
      1772147483,
      1772147504,
      1772147532,
      1772147576,
      1772147586,
      1772147622,
      1772147663,
      1772147672,
      1772147724,
      1772147736,
      1772147762,
      1772147776,
      1772147818,
      1772147848,
      1772147875,
      1772147900,
      1772147938,
      1772147947
    ],
    "wof:geomhash": "a3e22b97656872baf3c5ff1dd56edf52",
    "wof:id": 2014888789,
    "wof:repo": "sfomuseum-data-flights-2026-02"
  },
  "bbox": [
    -122.80318,
    37.40089,
    -122.15469,
    38.50056
  ],
  "geometry": {"coordinates":[[-122.80318,38.50056],[-122.79549,38.44289],[-122.78587,38.36732],[-122.7852,38.362],[-122.77903,38.31456],[-122.77226,38.26247],[-122.76328,38.20996],[-122.74821,38.15774],[-122.7423,38.13772],[-122.72466,38.07685],[-122.7124,38.0348],[-122.70237,38.00012],[-122.69119,37.9615],[-122.67946,37.92267],[-122.64677,37.87458],[-122.62988,37.85874],[-122.58285,37.81433],[-122.55454,37.78797],[-122.53875,37.77305],[-122.51212,37.74774],[-122.48635,37.72316],[-122.46609,37.70418],[-122.42898,37.66902],[-122.41101,37.65204],[-122.36838,37.61193],[-122.34531,37.58182],[-122.3364,37.56471],[-122.32563,37.54049],[-122.31844,37.52622],[-122.28781,37.47602],[-122.27088,37.44825],[-122.25722,37.426],[-122.23412,37.40089],[-122.1825,37.40909],[-122.17803,37.41785],[-122.16727,37.45128],[-122.15595,37.48669],[-122.15469,37.49425],[-122.1815,37.53166],[-122.18941,37.53949],[-122.21013,37.55272],[-122.22314,37.55675],[-122.26102,37.57298],[-122.28451,37.58286],[-122.30455,37.59144],[-122.32375,37.59954],[-122.35412,37.61228],[-122.36097,37.61485]],"type":"LineString"}
}
