{
  "id": 2014771651,
  "type": "Feature",
  "properties": {
    "geom:area": 0,
    "geom:bbox": "-122.770000,37.620000,-73.620000,45.150000",
    "geom:latitude": 43.11057423993085,
    "geom:longitude": -98.37400594784057,
    "src:alt_label": "swim-route",
    "src:geom": "swim",
    "swim:geom": "route",
    "wof:geomhash": "c6aaeb52b8792e2d5ca23028b26d2bad",
    "wof:id": 2014771651,
    "wof:repo": "sfomuseum-data-flights-2026-02"
  },
  "bbox": [
    -122.77,
    37.62,
    -73.62,
    45.15
  ],
  "geometry": {"coordinates":[[-73.78,40.64],[-73.86,40.75],[-73.88,40.77],[-73.93,40.85],[-73.95,40.87],[-73.97,40.9],[-73.99,40.92],[-73.62,40.92],[-73.89,41.1],[-74.36,41.41],[-74.36,41.41],[-74.43,41.44],[-74.49,41.47],[-74.5,41.47],[-74.55,41.49],[-74.58,41.5],[-74.76,41.58],[-74.8,41.6],[-74.94,41.66],[-75.06,41.71],[-75.26,41.79],[-75.27,41.8],[-75.53,41.91],[-75.61,41.94],[-75.66,41.96],[-75.81,42.02],[-76.1,42.14],[-76.14,42.16],[-76.59,42.3],[-76.65,42.32],[-77.03,42.44],[-77.74,42.66],[-78.74,42.93],[-79.04,43.03],[-79.66,43.23],[-80.04,43.35],[-81.82,43.87],[-82.02,43.92],[-82.2,43.98],[-82.2,43.98],[-82.2,43.98],[-82.81,44.08],[-83.12,44.13],[-83.73,44.22],[-84.32,44.3],[-86.19,44.55],[-87.12,44.66],[-87.25,44.67],[-88.55,44.81],[-88.97,44.84],[-89.39,44.87],[-90.37,44.93],[-90.69,44.94],[-91.97,45.05],[-93.1,45.13],[-93.37,45.15],[-93.61,45.14],[-94.32,45.11],[-95.17,45.06],[-97.46,45.09],[-97.92,45.07],[-99,45],[-100.23,44.93],[-101.15,44.86],[-102.07,44.79],[-102.43,44.76],[-103.05,44.66],[-103.36,44.6],[-103.44,44.59],[-106.44,44],[-106.85,43.89],[-107.27,43.78],[-107.8,43.63],[-108.06,43.55],[-108.59,43.4],[-109.12,43.25],[-109.38,43.17],[-109.64,43.09],[-110.17,42.93],[-110.4,42.86],[-112.05,42.33],[-112.45,42.2],[-113.42,41.98],[-114.52,41.73],[-115.04,41.6],[-116.92,40.57],[-118.03,40.27],[-118.58,40.13],[-120.5,39.53],[-120.85,39.42],[-121.1,39.34],[-121.1,39.33],[-121.38,39.17],[-121.46,39.12],[-121.55,39.07],[-121.63,39.03],[-121.86,38.89],[-121.93,38.85],[-122.08,38.76],[-122.26,38.65],[-122.26,38.65],[-122.44,38.54],[-122.44,38.54],[-122.68,38.31],[-122.69,38.3],[-122.77,38.22],[-122.75,38.16],[-122.69,37.96],[-122.69,37.95],[-122.67,37.9],[-122.65,37.87],[-122.63,37.86],[-122.62,37.85],[-122.59,37.82],[-122.58,37.81],[-122.51,37.74],[-122.51,37.74],[-122.5,37.73],[-122.44,37.68],[-122.37,37.62],[-122.38,37.62]],"type":"LineString"}
}
