{
  "id": 2014888889,
  "type": "Feature",
  "properties": {
    "geom:area": 0,
    "geom:bbox": "-122.819390,37.558410,-122.103700,38.496230",
    "geom:latitude": 37.89024814048688,
    "geom:longitude": -122.51421742271327,
    "src:alt_label": "swim-approach",
    "src:geom": "swim",
    "swim:elevations": [
      7794,
      7595,
      7371,
      6957,
      6581,
      6403,
      5948,
      5777,
      5424,
      4873,
      4557,
      4291,
      3962,
      3893,
      3471,
      3382,
      3334,
      3287,
      3151,
      2929,
      2787,
      2573,
      2217,
      2028,
      1853,
      1710,
      1584,
      1449,
      1339,
      989,
      850,
      699,
      576,
      457,
      313,
      233
    ],
    "swim:geom": "approach",
    "swim:timestamps": [
      1772144247,
      1772144260,
      1772144288,
      1772144327,
      1772144364,
      1772144382,
      1772144426,
      1772144444,
      1772144487,
      1772144542,
      1772144574,
      1772144602,
      1772144637,
      1772144643,
      1772144692,
      1772144721,
      1772144757,
      1772144784,
      1772144812,
      1772144848,
      1772144866,
      1772144889,
      1772144923,
      1772144943,
      1772144961,
      1772144979,
      1772145017,
      1772145042,
      1772145060,
      1772145116,
      1772145146,
      1772145177,
      1772145203,
      1772145231,
      1772145264,
      1772145288
    ],
    "wof:geomhash": "19abbb1bd15fbeb1c798f3950ca074fe",
    "wof:id": 2014888889,
    "wof:repo": "sfomuseum-data-flights-2026-02"
  },
  "bbox": [
    -122.81939,
    37.55841,
    -122.1037,
    38.49623
  ],
  "geometry": {"coordinates":[[-122.81939,38.49623],[-122.81508,38.47332],[-122.80587,38.42319],[-122.79243,38.35372],[-122.77982,38.28916],[-122.77403,38.25873],[-122.75594,38.18437],[-122.74734,38.1546],[-122.72733,38.08634],[-122.70142,37.9967],[-122.68684,37.94636],[-122.66938,37.90252],[-122.62749,37.8562],[-122.61951,37.84859],[-122.55533,37.78817],[-122.51871,37.75366],[-122.47267,37.71612],[-122.42957,37.70305],[-122.38844,37.6911],[-122.33745,37.67538],[-122.3128,37.66777],[-122.28225,37.65807],[-122.23681,37.64321],[-122.2109,37.63461],[-122.18803,37.62698],[-122.16462,37.6192],[-122.12118,37.60476],[-122.1037,37.58703],[-122.10737,37.5704],[-122.15963,37.55841],[-122.19074,37.56589],[-122.22199,37.57315],[-122.24611,37.57898],[-122.27173,37.58581],[-122.29855,37.59413],[-122.31799,37.5998]],"type":"LineString"}
}
