{
  "id": 2014888889,
  "type": "Feature",
  "properties": {
    "geom:area": 0,
    "geom:bbox": "-123.323611,37.557500,-122.155000,47.412778",
    "geom:latitude": 42.45793212156846,
    "geom:longitude": -123.04334112354911,
    "src:alt_label": "swim-path",
    "src:geom": "swim",
    "swim:altitudes": [
      "026",
      "026",
      "058",
      "071",
      "071",
      "070",
      "204",
      "204",
      "223",
      "278",
      "353",
      "353",
      "370C",
      "370C",
      "370C",
      "370C",
      "370C",
      "370C",
      "370C",
      "370C",
      "370C",
      "370C",
      "370C",
      "370C",
      "370C",
      "370C",
      "370C",
      "370C",
      "370C",
      "370C",
      "370C",
      "370C",
      "370C",
      "370C",
      "370C",
      "370C",
      "370C",
      "370C",
      "370C",
      "370C",
      "370C",
      "370C",
      "370C",
      "370C",
      "370C",
      "370C",
      "370C",
      "370",
      "370",
      "292",
      "249",
      "147",
      "102",
      "087",
      "033",
      "006"
    ],
    "swim:geom": "path",
    "swim:speeds": [
      190,
      190,
      257,
      245,
      245,
      249,
      389,
      389,
      409,
      440,
      414,
      414,
      406,
      406,
      410,
      410,
      410,
      410,
      410,
      410,
      423,
      423,
      425,
      424,
      428,
      429,
      430,
      425,
      425,
      424,
      424,
      418,
      417,
      417,
      418,
      418,
      418,
      419,
      419,
      420,
      421,
      421,
      421,
      421,
      422,
      422,
      422,
      423,
      423,
      412,
      399,
      350,
      266,
      250,
      192,
      150
    ],
    "swim:timestamps": [
      1772168096,
      1772168096,
      1772168176,
      1772168216,
      1772168216,
      1772168237,
      1772168657,
      1772168657,
      1772168717,
      1772168897,
      1772169137,
      1772169137,
      1772169257,
      1772169317,
      1772169498,
      1772169498,
      1772169618,
      1772169678,
      1772169738,
      1772169798,
      1772170038,
      1772170038,
      1772170158,
      1772170218,
      1772170578,
      1772170638,
      1772170670,
      1772171059,
      1772171059,
      1772171091,
      1772171091,
      1772171331,
      1772171391,
      1772171419,
      1772171511,
      1772171539,
      1772171571,
      1772171599,
      1772171599,
      1772171691,
      1772171751,
      1772171871,
      1772171899,
      1772171959,
      1772171991,
      1772171991,
      1772171991,
      1772172472,
      1772172532,
      1772172952,
      1772173072,
      1772173383,
      1772173623,
      1772173683,
      1772173913,
      1772174093
    ],
    "wof:geomhash": "b8f82fa7e784701a2f59ce73c174376c",
    "wof:id": 2014888889,
    "wof:repo": "sfomuseum-data-flights-2026-02"
  },
  "bbox": [
    -123.3236111111111,
    37.5575,
    -122.155,
    47.41277777777778
  ],
  "geometry": {"coordinates":[[-122.30972222222222,47.41277777777778],[-122.30972222222222,47.41277777777778],[-122.32305555555556,47.32888888888889],[-122.38861111111112,47.31055555555555],[-122.38861111111112,47.31055555555555],[-122.41833333333334,47.30833333333333],[-122.9875,47.009166666666665],[-122.9875,47.009166666666665],[-123.00333333333333,46.894999999999996],[-123.05416666666666,46.53444444444444],[-123.11972222222222,46.06083333333333],[-123.11972222222222,46.06083333333333],[-123.15083333333334,45.836111111111116],[-123.16611111111112,45.724444444444444],[-123.21194444444444,45.38333333333333],[-123.21194444444444,45.38333333333333],[-123.2425,45.15611111111111],[-123.25777777777778,45.04138888888889],[-123.27305555555556,44.926944444444445],[-123.28527777777778,44.834722222222226],[-123.3236111111111,44.37083333333334],[-123.3236111111111,44.37083333333334],[-123.31444444444445,44.13444444444444],[-123.30888888888889,43.998333333333335],[-123.28083333333333,43.285555555555554],[-123.27638888888889,43.16694444444444],[-123.27361111111111,43.11638888888889],[-123.24555555555555,42.35472222222222],[-123.24555555555555,42.35472222222222],[-123.24361111111111,42.28527777777778],[-123.24361111111111,42.28527777777778],[-123.22611111111111,41.82138888888889],[-123.22194444444445,41.70666666666667],[-123.21944444444445,41.636944444444445],[-123.21388888888889,41.47555555555556],[-123.21138888888889,41.40611111111111],[-123.20972222222223,41.35916666666667],[-123.20777777777778,41.29722222222222],[-123.20777777777778,41.29722222222222],[-123.20333333333333,41.11472222222223],[-123.20027777777779,40.993611111111115],[-123.19444444444444,40.76361111111111],[-123.19333333333334,40.71138888888889],[-123.19027777777778,40.59305555555556],[-123.18861111111111,40.53],[-123.18861111111111,40.53],[-123.18861111111111,40.53],[-123.03666666666666,39.600833333333334],[-123.01361111111112,39.48583333333333],[-122.85583333333332,38.68222222222222],[-122.81333333333333,38.461666666666666],[-122.68333333333334,37.93333333333333],[-122.36666666666666,37.68333333333333],[-122.28333333333333,37.666666666666664],[-122.155,37.5575],[-122.32194444444444,37.600833333333334]],"type":"LineString"}
}
