{
  "id": 2014725153,
  "type": "Feature",
  "properties": {
    "geom:area": 0,
    "geom:bbox": "-122.846170,37.550550,-122.122700,38.492920",
    "geom:latitude": 37.889450283039466,
    "geom:longitude": -122.5186978426534,
    "src:alt_label": "swim-approach",
    "src:geom": "swim",
    "swim:elevations": [
      7498,
      7172,
      7044,
      6770,
      6575,
      6346,
      6207,
      5939,
      5717,
      5419,
      5363,
      5030,
      4884,
      4709,
      4535,
      4048,
      3764,
      3538,
      3395,
      3353,
      3353,
      3309,
      2957,
      2802,
      2741,
      2607,
      2463,
      2252,
      2035,
      1867,
      1675,
      1534,
      1219,
      1180,
      922,
      828,
      617,
      361,
      248,
      107,
      11
    ],
    "swim:geom": "approach",
    "swim:timestamps": [
      1770401571,
      1770401606,
      1770401621,
      1770401649,
      1770401670,
      1770401696,
      1770401716,
      1770401745,
      1770401770,
      1770401814,
      1770401821,
      1770401859,
      1770401874,
      1770401894,
      1770401914,
      1770401965,
      1770401996,
      1770402021,
      1770402045,
      1770402068,
      1770402113,
      1770402125,
      1770402176,
      1770402203,
      1770402210,
      1770402232,
      1770402253,
      1770402286,
      1770402316,
      1770402343,
      1770402373,
      1770402397,
      1770402447,
      1770402452,
      1770402506,
      1770402520,
      1770402550,
      1770402592,
      1770402616,
      1770402654,
      1770402674
    ],
    "wof:geomhash": "1ec5ab4043fad91ec9385c7f7d7f1c91",
    "wof:id": 2014725153,
    "wof:repo": "sfomuseum-data-flights-2026-02"
  },
  "bbox": [
    -122.84617,
    37.55055,
    -122.1227,
    38.49292
  ],
  "geometry": {"coordinates":[[-122.84617,38.49292],[-122.82561,38.42287],[-122.81737,38.39483],[-122.80136,38.34025],[-122.79049,38.30286],[-122.77695,38.25695],[-122.7672,38.22364],[-122.75345,38.17619],[-122.74164,38.1356],[-122.72174,38.0671],[-122.71875,38.05662],[-122.70196,37.99886],[-122.6955,37.9765],[-122.68683,37.94645],[-122.67738,37.91615],[-122.62368,37.85258],[-122.5864,37.81758],[-122.55664,37.78945],[-122.52883,37.76296],[-122.50354,37.73914],[-122.45135,37.70782],[-122.43545,37.70412],[-122.37001,37.6887],[-122.33576,37.68009],[-122.32731,37.67796],[-122.29962,37.67114],[-122.27345,37.66471],[-122.23195,37.65454],[-122.19423,37.64452],[-122.16109,37.63542],[-122.13287,37.61535],[-122.1227,37.59302],[-122.15317,37.55158],[-122.15933,37.55055],[-122.21356,37.56792],[-122.22802,37.57169],[-122.25653,37.58176],[-122.29276,37.59218],[-122.31334,37.59841],[-122.34229,37.60721],[-122.35695,37.61348]],"type":"LineString"}
}
