{
  "id": 2014881317,
  "type": "Feature",
  "properties": {
    "geom:area": 0,
    "geom:bbox": "-122.366667,32.901944,-97.050000,38.431667",
    "geom:latitude": 36.79693060022668,
    "geom:longitude": -109.41973958923865,
    "src:alt_label": "swim-path",
    "src:geom": "swim",
    "swim:altitudes": [
      "009",
      "032",
      "032",
      "032",
      "103",
      "103",
      "151",
      "151",
      "163",
      "163",
      "163",
      "176",
      "202",
      "202",
      "230",
      "230",
      "230",
      "247",
      "256",
      "256",
      "269",
      "269",
      "269",
      "278",
      "291",
      "291",
      "302",
      "302",
      "310",
      "311",
      "311",
      "327",
      "327",
      "327",
      "330",
      "330",
      "330",
      "330",
      "330",
      "338",
      "345",
      "350C",
      "350C",
      "350C",
      "350C",
      "350C",
      "350C",
      "350C",
      "350C",
      "350C",
      "350C",
      "350C",
      "350C",
      "350C",
      "350C",
      "350C",
      "350C",
      "350C",
      "350C",
      "350C",
      "350C",
      "350C",
      "350C",
      "350C",
      "350C",
      "350C",
      "350C",
      "350C",
      "350C",
      "350C",
      "350C",
      "350C",
      "350C",
      "351C",
      "351C",
      "350C",
      "350C",
      "350C",
      "350C",
      "350C",
      "350C",
      "350C",
      "350C",
      "350C",
      "350C",
      "350C",
      "350C",
      "350C",
      "351C",
      "351C",
      "351C",
      "350C",
      "350C",
      "350C",
      "350C",
      "350C",
      "350C",
      "350C",
      "350C",
      "350C",
      "350C",
      "350C",
      "350C",
      "350C",
      "350C",
      "350C",
      "350C",
      "350C",
      "350C",
      "350C",
      "351C",
      "350C",
      "350C",
      "350C",
      "338",
      "298",
      "288",
      "288",
      "269",
      "249",
      "249",
      "229",
      "229",
      "165",
      "151",
      "130",
      "099",
      "099",
      "050",
      "050",
      "050",
      "047",
      "040",
      "036",
      "031",
      "031",
      "030",
      "030",
      "030",
      "025",
      "025",
      "016",
      "006",
      "006"
    ],
    "swim:geom": "path",
    "swim:speeds": [
      168,
      237,
      237,
      237,
      300,
      300,
      446,
      446,
      471,
      471,
      471,
      485,
      508,
      508,
      538,
      538,
      538,
      550,
      552,
      552,
      557,
      557,
      557,
      552,
      554,
      553,
      555,
      555,
      557,
      559,
      559,
      561,
      561,
      561,
      560,
      560,
      561,
      561,
      561,
      562,
      561,
      560,
      560,
      560,
      560,
      559,
      559,
      559,
      559,
      556,
      556,
      555,
      555,
      554,
      553,
      553,
      553,
      553,
      551,
      551,
      551,
      554,
      554,
      555,
      555,
      560,
      561,
      561,
      561,
      561,
      559,
      559,
      558,
      557,
      557,
      556,
      556,
      555,
      555,
      555,
      555,
      556,
      557,
      557,
      557,
      557,
      557,
      557,
      557,
      557,
      558,
      557,
      557,
      557,
      555,
      555,
      554,
      554,
      554,
      560,
      560,
      547,
      547,
      543,
      543,
      546,
      541,
      544,
      542,
      540,
      541,
      543,
      543,
      521,
      512,
      522,
      521,
      521,
      486,
      459,
      459,
      432,
      432,
      382,
      373,
      368,
      317,
      317,
      270,
      253,
      253,
      247,
      221,
      203,
      200,
      200,
      197,
      199,
      200,
      176,
      176,
      151,
      138,
      138
    ],
    "swim:timestamps": [
      1772059295,
      1772059389,
      1772059389,
      1772059389,
      1772059569,
      1772059569,
      1772059810,
      1772059810,
      1772059870,
      1772059870,
      1772059870,
      1772059930,
      1772060050,
      1772060050,
      1772060230,
      1772060230,
      1772060230,
      1772060350,
      1772060403,
      1772060403,
      1772060463,
      1772060463,
      1772060463,
      1772060531,
      1772060583,
      1772060591,
      1772060704,
      1772060704,
      1772060764,
      1772060771,
      1772060771,
      1772060884,
      1772060884,
      1772060884,
      1772061004,
      1772061004,
      1772061071,
      1772061124,
      1772061124,
      1772061244,
      1772061304,
      1772061372,
      1772061425,
      1772061425,
      1772061432,
      1772061492,
      1772061492,
      1772061492,
      1772061545,
      1772061725,
      1772061725,
      1772061785,
      1772061785,
      1772061845,
      1772061905,
      1772061905,
      1772061965,
      1772061965,
      1772062025,
      1772062025,
      1772062025,
      1772062386,
      1772062386,
      1772062446,
      1772062446,
      1772062626,
      1772062636,
      1772062636,
      1772062756,
      1772062756,
      1772062816,
      1772062867,
      1772062876,
      1772062927,
      1772062927,
      1772062987,
      1772062987,
      1772063047,
      1772063047,
      1772063107,
      1772063107,
      1772063167,
      1772063177,
      1772063177,
      1772063227,
      1772063237,
      1772063237,
      1772063297,
      1772063527,
      1772063527,
      1772063537,
      1772063588,
      1772063657,
      1772063657,
      1772063778,
      1772063778,
      1772063958,
      1772063958,
      1772063958,
      1772064500,
      1772064500,
      1772065039,
      1772065039,
      1772065342,
      1772065342,
      1772065582,
      1772065645,
      1772065822,
      1772065886,
      1772066006,
      1772066126,
      1772066487,
      1772066487,
      1772066667,
      1772066787,
      1772067027,
      1772067088,
      1772067088,
      1772067208,
      1772067328,
      1772067328,
      1772067448,
      1772067448,
      1772067688,
      1772067749,
      1772067824,
      1772067989,
      1772067989,
      1772068229,
      1772068244,
      1772068244,
      1772068289,
      1772068358,
      1772068409,
      1772068470,
      1772068470,
      1772068479,
      1772068530,
      1772068544,
      1772068604,
      1772068604,
      1772068664,
      1772068770,
      1772068770
    ],
    "wof:geomhash": "5579f0faf11af29c5fb2646acb96a190",
    "wof:id": 2014881317,
    "wof:repo": "sfomuseum-data-flights-2026-02"
  },
  "bbox": [
    -122.36666666666666,
    32.901944444444446,
    -97.05,
    38.431666666666665
  ],
  "geometry": {"coordinates":[[-122.36666666666666,37.63333333333333],[-122.28083333333333,37.683055555555555],[-122.28083333333333,37.683055555555555],[-122.28083333333333,37.683055555555555],[-122.03111111111112,37.812777777777775],[-122.03111111111112,37.812777777777775],[-121.48388888888888,37.9225],[-121.48388888888888,37.9225],[-121.32277777777777,37.95166666666667],[-121.32277777777777,37.95166666666667],[-121.32277777777777,37.95166666666667],[-121.15833333333335,37.981388888888894],[-120.8125,38.038888888888884],[-120.8125,38.038888888888884],[-120.30694444444444,38.2175],[-120.30694444444444,38.2175],[-120.30694444444444,38.2175],[-119.95472222222223,38.34],[-119.76972222222223,38.367777777777775],[-119.76972222222223,38.367777777777775],[-119.57333333333332,38.38027777777778],[-119.57333333333332,38.38027777777778],[-119.57333333333332,38.38027777777778],[-119.37972222222221,38.39555555555555],[-119.1863888888889,38.408055555555556],[-119.18361111111112,38.40888888888889],[-118.79472222222222,38.4175],[-118.79472222222222,38.4175],[-118.59805555555555,38.420833333333334],[-118.55777777777777,38.42222222222222],[-118.55777777777777,38.42222222222222],[-118.20666666666666,38.42611111111111],[-118.20666666666666,38.42611111111111],[-118.20666666666666,38.42611111111111],[-117.80972222222222,38.42944444444444],[-117.80972222222222,38.42944444444444],[-117.565,38.43055555555555],[-117.4075,38.43111111111111],[-117.4075,38.43111111111111],[-117.00194444444445,38.431666666666665],[-116.80138888888888,38.43138888888889],[-116.59972222222221,38.43055555555555],[-116.40166666666667,38.42972222222222],[-116.40166666666667,38.42972222222222],[-116.40027777777779,38.42972222222222],[-116.20138888888889,38.42861111111111],[-116.20138888888889,38.42861111111111],[-116.20138888888889,38.42861111111111],[-116.00805555555556,38.426944444444445],[-115.41444444444446,38.42027777777778],[-115.41444444444446,38.42027777777778],[-115.23333333333333,38.4175],[-115.23333333333333,38.4175],[-115.03916666666666,38.41444444444444],[-114.84166666666667,38.41083333333333],[-114.84166666666667,38.41083333333333],[-114.64750000000001,38.4075],[-114.64750000000001,38.4075],[-114.45222222222222,38.419999999999995],[-114.45222222222222,38.419999999999995],[-114.45222222222222,38.419999999999995],[-113.30388888888889,38.250277777777775],[-113.30388888888889,38.250277777777775],[-113.11444444444444,38.21194444444445],[-113.11444444444444,38.21194444444445],[-112.53444444444445,38.092222222222226],[-112.49805555555555,38.08444444444444],[-112.49805555555555,38.08444444444444],[-112.11361111111111,38.003055555555555],[-112.11361111111111,38.003055555555555],[-111.92305555555556,37.96222222222222],[-111.77388888888889,37.93],[-111.73583333333333,37.92166666666667],[-111.58361111111111,37.88861111111111],[-111.58361111111111,37.88861111111111],[-111.39750000000001,37.84777777777778],[-111.39750000000001,37.84777777777778],[-111.20861111111111,37.80583333333333],[-111.20861111111111,37.80583333333333],[-111.02055555555556,37.763888888888886],[-111.02055555555556,37.763888888888886],[-110.83361111111111,37.721944444444446],[-110.7961111111111,37.71333333333334],[-110.7961111111111,37.71333333333334],[-110.64333333333335,37.67861111111111],[-110.60916666666667,37.670833333333334],[-110.60916666666667,37.670833333333334],[-110.45055555555555,37.63444444444444],[-109.73222222222222,37.466944444444444],[-109.73222222222222,37.466944444444444],[-109.70305555555557,37.46],[-109.5436111111111,37.42194444444444],[-109.33138888888888,37.37111111111111],[-109.33138888888888,37.37111111111111],[-108.96055555555556,37.28111111111111],[-108.96055555555556,37.28111111111111],[-108.40611111111112,37.14388888888889],[-108.40611111111112,37.14388888888889],[-108.40611111111112,37.14388888888889],[-106.72805555555556,36.76972222222222],[-106.72805555555556,36.76972222222222],[-105.10749999999999,36.2725],[-105.10749999999999,36.2725],[-104.235,35.98833333333334],[-104.235,35.98833333333334],[-103.53916666666666,35.755833333333335],[-103.38833333333334,35.70527777777778],[-102.85444444444444,35.52166666666667],[-102.67222222222223,35.45861111111111],[-102.33722222222222,35.34138888888889],[-102.00166666666667,35.22277777777778],[-101.00361111111111,34.86277777777778],[-101.00361111111111,34.86277777777778],[-100.51055555555556,34.68055555555555],[-100.19666666666667,34.56305555555555],[-99.54833333333333,34.314166666666665],[-99.39750000000001,34.2425],[-99.39750000000001,34.2425],[-99.1061111111111,34.10333333333333],[-98.835,33.972500000000004],[-98.835,33.972500000000004],[-98.56805555555555,33.87166666666667],[-98.56805555555555,33.87166666666667],[-98.09972222222221,33.66555555555556],[-98.00361111111111,33.60666666666667],[-97.86666666666666,33.53333333333333],[-97.62555555555555,33.37416666666667],[-97.62555555555555,33.37416666666667],[-97.27361111111111,33.2625],[-97.25,33.266666666666666],[-97.25,33.266666666666666],[-97.19277777777778,33.25555555555555],[-97.11666666666666,33.21666666666667],[-97.07694444444444,33.187777777777775],[-97.05388888888889,33.136944444444445],[-97.05388888888889,33.136944444444445],[-97.05,33.13333333333333],[-97.05361111111111,33.081944444444446],[-97.05,33.06666666666667],[-97.05,33.016666666666666],[-97.05,33.016666666666666],[-97.05,32.96666666666667],[-97.05472222222222,32.901944444444446],[-97.05472222222222,32.901944444444446]],"type":"LineString"}
}
