{
  "id": 2014689581,
  "type": "Feature",
  "properties": {
    "geom:area": 0,
    "geom:bbox": "-122.354950,36.747090,-121.893300,37.610290",
    "geom:latitude": 37.223077495959345,
    "geom:longitude": -122.0740185404912,
    "src:alt_label": "swim-approach",
    "src:geom": "swim",
    "swim:elevations": [
      5276,
      5104,
      4800,
      4570,
      4207,
      3975,
      3589,
      3373,
      3210,
      3050,
      2976,
      2790,
      2570,
      2478,
      2000,
      1877,
      1686,
      1559,
      1358,
      1220,
      1123,
      1048,
      896,
      637,
      549,
      465,
      270,
      207,
      88,
      28
    ],
    "swim:geom": "approach",
    "swim:timestamps": [
      1769965971,
      1769965987,
      1769966023,
      1769966048,
      1769966086,
      1769966110,
      1769966152,
      1769966174,
      1769966192,
      1769966241,
      1769966267,
      1769966292,
      1769966329,
      1769966342,
      1769966398,
      1769966423,
      1769966458,
      1769966486,
      1769966518,
      1769966543,
      1769966563,
      1769966581,
      1769966610,
      1769966664,
      1769966682,
      1769966703,
      1769966757,
      1769966776,
      1769966812,
      1769966824
    ],
    "wof:geomhash": "72f8ad8a1758d097b05bf224ae0ec014",
    "wof:id": 2014689581,
    "wof:repo": "sfomuseum-data-flights-2026-02"
  },
  "bbox": [
    -122.35495,
    36.74709,
    -121.8933,
    37.61029
  ],
  "geometry": {"coordinates":[[-121.8933,36.74709],[-121.90261,36.77199],[-121.9183,36.8282],[-121.92901,36.86632],[-121.94573,36.92621],[-121.95761,36.96337],[-121.98167,37.02483],[-121.99418,37.05699],[-122.00426,37.08283],[-122.02971,37.14813],[-122.04154,37.17885],[-122.05365,37.20942],[-122.07034,37.25161],[-122.07621,37.2668],[-122.10172,37.33207],[-122.11301,37.36104],[-122.12711,37.39917],[-122.13698,37.42818],[-122.14834,37.46101],[-122.15684,37.48561],[-122.16256,37.50331],[-122.16793,37.51879],[-122.18435,37.53833],[-122.23374,37.5595],[-122.2506,37.5666],[-122.26863,37.57405],[-122.30858,37.59082],[-122.32197,37.59641],[-122.34689,37.60687],[-122.35495,37.61029]],"type":"LineString"}
}
