{
  "id": 2014699573,
  "type": "Feature",
  "properties": {
    "date:inception_lower": "2026-02-02",
    "date:inception_upper": "2026-02-02",
    "edtf:cessation": "",
    "edtf:inception": "2026-02-02",
    "flysfo:actual_timestamp": -1,
    "flysfo:airline": "NZ",
    "flysfo:base_airline": "",
    "flysfo:base_flight_number": "4414",
    "flysfo:date": "2026-02-02",
    "flysfo:estimated_timestamp": 1770050700,
    "flysfo:event": "D",
    "flysfo:flight_number": "NZ9597",
    "flysfo:gate": "G6",
    "flysfo:journey": "SFO-RNO",
    "flysfo:scheduled_timestamp": 1770049680,
    "flysfo:timestamp": 1770050700,
    "geom:area": 0,
    "geom:bbox": "-122.370943,37.617990,-119.772167,39.505219",
    "geom:latitude": 38.5616045,
    "geom:longitude": -121.07155499999999,
    "iata:airline": "NZ",
    "iata:base_airline": "",
    "icao:airline": "ANZ",
    "icao:base_airline": "ACA",
    "lbl:latitude": 37.618209,
    "lbl:longitude": -122.391665,
    "sfomuseum:airline_id": 1159283697,
    "sfomuseum:arrival_id": 102525535,
    "sfomuseum:base_flight_id": "20260202-D-ACA-4414",
    "sfomuseum:departure_id": 102527513,
    "sfomuseum:flight_id": "20260202-D-ANZ-9597",
    "sfomuseum:flight_number": [
      "ANZ9597",
      "NZ9597"
    ],
    "sfomuseum:placetype": "flight",
    "src:geom": "flysfo",
    "wof:belongsto": [
      1947304067,
      102527513,
      1947304129,
      102191575,
      85633793,
      102087579,
      85922583,
      554784711,
      85688637,
      1947304151,
      1947304069,
      102085387
    ],
    "wof:country": "US",
    "wof:created": 1770135034,
    "wof:geomhash": "414447526a1ddeb77713c60c4ab5a7e4",
    "wof:hierarchy": [
      {
        "building_id": 1947304067,
        "campus_id": 102527513,
        "concourse_id": 1947304129,
        "continent_id": 102191575,
        "country_id": 85633793,
        "county_id": 102087579,
        "custom_id": 2014699573,
        "flight_id": 2014699573,
        "locality_id": 85922583,
        "postalcode_id": 554784711,
        "region_id": 85688637,
        "venue_id": 1947304151,
        "wing_id": 1947304069
      },
      {
        "building_id": 1947304067,
        "campus_id": 102527513,
        "concourse_id": 1947304129,
        "continent_id": 102191575,
        "country_id": 85633793,
        "county_id": 102085387,
        "custom_id": 2014699573,
        "flight_id": 2014699573,
        "region_id": 85688637,
        "venue_id": 1947304151,
        "wing_id": 1947304069
      }
    ],
    "wof:id": 2014699573,
    "wof:involves": [
      102525535,
      102527513,
      1159283697,
      1947304151,
      1159283597
    ],
    "wof:lastmodified": 1770135034,
    "wof:name": "NZ9597 (SFO-RNO)",
    "wof:parent_id": 1947304151,
    "wof:placetype": "custom",
    "wof:placetype_alt": [
      "flight"
    ],
    "wof:repo": "sfomuseum-data-flights-2026-02",
    "wof:superseded_by": [],
    "wof:supersedes": []
  },
  "bbox": [
    -122.370943,
    37.61799,
    -119.772167,
    39.505219
  ],
  "geometry": {"coordinates":[[-122.370943,37.61799],[-119.772167,39.505219]],"type":"MultiPoint"}
}
