{
  "id": 2014907825,
  "type": "Feature",
  "properties": {
    "geom:area": 0,
    "geom:bbox": "-122.755790,37.566130,-122.113940,38.454810",
    "geom:latitude": 37.877369430259876,
    "geom:longitude": -122.49539826457003,
    "src:alt_label": "swim-approach",
    "src:geom": "swim",
    "swim:elevations": [
      7529,
      7143,
      6943,
      6779,
      6390,
      5516,
      5171,
      4280,
      3444,
      3350,
      3101,
      2815,
      2671,
      2354,
      2005,
      1590,
      1329,
      1007,
      912,
      831,
      710,
      547,
      473,
      364,
      335,
      60
    ],
    "swim:geom": "approach",
    "swim:timestamps": [
      1772294597,
      1772294638,
      1772294657,
      1772294674,
      1772294713,
      1772294805,
      1772294842,
      1772294937,
      1772295043,
      1772295078,
      1772295162,
      1772295194,
      1772295210,
      1772295250,
      1772295280,
      1772295314,
      1772295338,
      1772295382,
      1772295401,
      1772295446,
      1772295469,
      1772295507,
      1772295531,
      1772295563,
      1772295571,
      1772295654
    ],
    "wof:geomhash": "e30598709a3eed9c51f315ea67b083bf",
    "wof:id": 2014907825,
    "wof:repo": "sfomuseum-data-flights-2026-02"
  },
  "bbox": [
    -122.75579,
    37.56613,
    -122.11394,
    38.45481
  ],
  "geometry": {"coordinates":[[-122.70308,38.45481],[-122.72161,38.38873],[-122.73063,38.35637],[-122.73802,38.32985],[-122.75579,38.26659],[-122.73561,38.11431],[-122.71803,38.05499],[-122.671,37.90367],[-122.539,37.77294],[-122.48905,37.74271],[-122.35015,37.70294],[-122.30016,37.68888],[-122.27791,37.68159],[-122.22807,37.65992],[-122.19376,37.64419],[-122.15621,37.62586],[-122.12974,37.61338],[-122.11394,37.58183],[-122.12423,37.568],[-122.17157,37.56613],[-122.19591,37.57029],[-122.23545,37.57749],[-122.25918,37.58242],[-122.28583,37.59034],[-122.29155,37.59201],[-122.35038,37.61064]],"type":"LineString"}
}
