{
  "id": 2014871937,
  "type": "Feature",
  "properties": {
    "geom:area": 0,
    "geom:bbox": "-122.333333,33.805556,-118.615833,37.600000",
    "geom:latitude": 35.558611928080865,
    "geom:longitude": -120.64079705707833,
    "src:alt_label": "swim-path",
    "src:geom": "swim",
    "swim:altitudes": [
      "095",
      "095",
      "149",
      "149",
      "175",
      "200",
      "200",
      "200",
      "200",
      "262",
      "320C",
      "320C",
      "320C",
      "320C",
      "320C",
      "320C",
      "320C",
      "320C",
      "320C",
      "320C",
      "320C",
      "320C",
      "320",
      "320",
      "320",
      "320",
      "320",
      "320",
      "320",
      "320",
      "320",
      "320",
      "320",
      "309",
      "291",
      "291",
      "255",
      "235",
      "203",
      "200",
      "200",
      "200",
      "200",
      "170",
      "166",
      "166",
      "135",
      "133",
      "133",
      "087",
      "087",
      "077",
      "077",
      "077",
      "044",
      "044",
      "037",
      "016",
      "016",
      "016",
      "008",
      "006",
      "006",
      "006",
      "006",
      "006"
    ],
    "swim:geom": "path",
    "swim:speeds": [
      277,
      277,
      337,
      337,
      355,
      375,
      375,
      375,
      375,
      428,
      440,
      441,
      441,
      441,
      441,
      440,
      440,
      438,
      437,
      436,
      436,
      436,
      435,
      435,
      435,
      434,
      434,
      434,
      434,
      432,
      432,
      432,
      432,
      416,
      409,
      409,
      407,
      396,
      375,
      369,
      369,
      369,
      369,
      369,
      357,
      357,
      354,
      348,
      348,
      280,
      280,
      280,
      280,
      280,
      267,
      267,
      257,
      166,
      166,
      166,
      155,
      155,
      155,
      155,
      155,
      155
    ],
    "swim:timestamps": [
      1771921897,
      1771921897,
      1771922017,
      1771922017,
      1771922077,
      1771922137,
      1771922137,
      1771922137,
      1771922137,
      1771922310,
      1771922610,
      1771922730,
      1771922790,
      1771922850,
      1771922850,
      1771922910,
      1771922910,
      1771923038,
      1771923090,
      1771923150,
      1771923158,
      1771923158,
      1771923210,
      1771923210,
      1771923218,
      1771923270,
      1771923270,
      1771923278,
      1771923278,
      1771923390,
      1771923390,
      1771923390,
      1771923390,
      1771923510,
      1771923570,
      1771923570,
      1771923690,
      1771923757,
      1771923870,
      1771923877,
      1771923877,
      1771923877,
      1771923877,
      1771923990,
      1771923997,
      1771923997,
      1771924110,
      1771924117,
      1771924117,
      1771924357,
      1771924357,
      1771924410,
      1771924410,
      1771924410,
      1771924549,
      1771924549,
      1771924590,
      1771924710,
      1771924710,
      1771924710,
      1771924770,
      1771924783,
      1771924783,
      1771924783,
      1771924783,
      1771924783
    ],
    "wof:geomhash": "6dfacdea6ce3f821839d974b6e833b32",
    "wof:id": 2014871937,
    "wof:repo": "sfomuseum-data-flights-2026-02"
  },
  "bbox": [
    -122.33333333333333,
    33.80555555555555,
    -118.61583333333333,
    37.6
  ],
  "geometry": {"coordinates":[[-118.61583333333333,33.80555555555555],[-118.61583333333333,33.80555555555555],[-118.80666666666666,33.825833333333335],[-118.80666666666666,33.825833333333335],[-118.8875,33.89555555555555],[-118.97111111111111,33.972500000000004],[-118.97111111111111,33.972500000000004],[-118.97111111111111,33.972500000000004],[-118.97111111111111,33.972500000000004],[-119.22416666666666,34.20138888888889],[-119.73444444444445,34.6575],[-119.9375,34.83722222222222],[-120.03861111111111,34.92611111111111],[-120.14027777777778,35.01555555555556],[-120.14027777777778,35.01555555555556],[-120.24333333333334,35.105555555555554],[-120.24333333333334,35.105555555555554],[-120.46194444444444,35.29611111111111],[-120.55416666666666,35.37583333333333],[-120.65722222222223,35.46472222222223],[-120.66583333333334,35.47222222222222],[-120.66583333333334,35.47222222222222],[-120.75861111111111,35.551944444444445],[-120.75861111111111,35.551944444444445],[-120.76694444444445,35.559444444444445],[-120.86138888888888,35.640277777777776],[-120.86138888888888,35.640277777777776],[-120.87944444444443,35.655833333333334],[-120.87944444444443,35.655833333333334],[-121.06555555555555,35.81472222222222],[-121.06555555555555,35.81472222222222],[-121.06555555555555,35.81472222222222],[-121.06555555555555,35.81472222222222],[-121.26611111111112,35.985],[-121.36083333333333,36.06777777777778],[-121.36083333333333,36.06777777777778],[-121.5125,36.257777777777775],[-121.6,36.36666666666667],[-121.72722222222222,36.530833333333334],[-121.73333333333333,36.55],[-121.73333333333333,36.55],[-121.73333333333333,36.55],[-121.73333333333333,36.55],[-121.86027777777777,36.69888888888889],[-121.86666666666666,36.71666666666667],[-121.86666666666666,36.71666666666667],[-121.93583333333333,36.89083333333333],[-121.93333333333334,36.9],[-121.93333333333334,36.9],[-122.06666666666666,37.233333333333334],[-122.06666666666666,37.233333333333334],[-122.08527777777778,37.290277777777774],[-122.08527777777778,37.290277777777774],[-122.08527777777778,37.290277777777774],[-122.15,37.46666666666667],[-122.15,37.46666666666667],[-122.16361111111112,37.50833333333333],[-122.26833333333333,37.57611111111112],[-122.26833333333333,37.57611111111112],[-122.26833333333333,37.57611111111112],[-122.31555555555555,37.596111111111114],[-122.33333333333333,37.6],[-122.33333333333333,37.6],[-122.33333333333333,37.6],[-122.33333333333333,37.6],[-122.33333333333333,37.6]],"type":"LineString"}
}
