{
  "id": 2014780523,
  "type": "Feature",
  "properties": {
    "geom:area": 0,
    "geom:bbox": "-122.358320,37.492870,-121.277330,37.613900",
    "geom:latitude": 37.54168242849714,
    "geom:longitude": -121.82479187959703,
    "src:alt_label": "swim-approach",
    "src:geom": "swim",
    "swim:elevations": [
      4516,
      4277,
      3943,
      3868,
      3569,
      3495,
      3227,
      3137,
      3049,
      2900,
      2617,
      2505,
      2347,
      2188,
      2043,
      1998,
      1660,
      1557,
      1272,
      1187,
      1081,
      1057,
      935,
      760,
      640,
      567,
      458,
      399,
      222,
      156,
      37
    ],
    "swim:geom": "approach",
    "swim:timestamps": [
      1771027796,
      1771027820,
      1771027856,
      1771027863,
      1771027895,
      1771027904,
      1771027938,
      1771027967,
      1771028000,
      1771028024,
      1771028063,
      1771028084,
      1771028118,
      1771028148,
      1771028181,
      1771028193,
      1771028241,
      1771028256,
      1771028307,
      1771028328,
      1771028363,
      1771028375,
      1771028414,
      1771028443,
      1771028467,
      1771028485,
      1771028508,
      1771028521,
      1771028564,
      1771028582,
      1771028616
    ],
    "wof:geomhash": "fa6a8a6b85367e29e535d96f9596691a",
    "wof:id": 2014780523,
    "wof:repo": "sfomuseum-data-flights-2026-02"
  },
  "bbox": [
    -122.35832,
    37.49287,
    -121.27733,
    37.6139
  ],
  "geometry": {"coordinates":[[-121.27733,37.59082],[-121.32334,37.58522],[-121.39005,37.57809],[-121.40227,37.57679],[-121.46337,37.56989],[-121.48007,37.56801],[-121.5412,37.56073],[-121.59259,37.55458],[-121.64709,37.54548],[-121.68402,37.53661],[-121.74414,37.5223],[-121.77619,37.51455],[-121.82565,37.50273],[-121.86933,37.49287],[-121.91612,37.49308],[-121.93285,37.494],[-122.00054,37.4982],[-122.02212,37.49949],[-122.08763,37.50313],[-122.10961,37.50921],[-122.14289,37.52342],[-122.15422,37.52813],[-122.1909,37.54353],[-122.21872,37.55531],[-122.24126,37.56483],[-122.25725,37.57153],[-122.27654,37.57967],[-122.28679,37.58396],[-122.31955,37.59773],[-122.33291,37.60338],[-122.35832,37.6139]],"type":"LineString"}
}
