{
  "id": 2014811673,
  "type": "Feature",
  "properties": {
    "geom:area": 0,
    "geom:bbox": "-122.551620,36.723410,-122.234690,37.711820",
    "geom:latitude": 37.2287357405606,
    "geom:longitude": -122.44717527047759,
    "src:alt_label": "swim-takeoff",
    "src:geom": "swim",
    "swim:elevations": [
      274,
      579,
      718,
      1039,
      1198,
      1640,
      1921,
      2332,
      2869,
      3409,
      3590,
      4188,
      4497,
      4572,
      4775,
      4878,
      4877,
      4877,
      4877,
      4880,
      5311,
      5627,
      5984,
      6046,
      6175,
      6385,
      6578,
      6963,
      7274,
      7585,
      7683,
      7864
    ],
    "swim:geom": "takeoff",
    "swim:timestamps": [
      1771246766,
      1771246789,
      1771246801,
      1771246836,
      1771246868,
      1771246919,
      1771246937,
      1771246961,
      1771246993,
      1771247028,
      1771247051,
      1771247089,
      1771247110,
      1771247138,
      1771247185,
      1771247198,
      1771247235,
      1771247252,
      1771247277,
      1771247280,
      1771247331,
      1771247356,
      1771247392,
      1771247398,
      1771247411,
      1771247432,
      1771247454,
      1771247488,
      1771247515,
      1771247548,
      1771247560,
      1771247587
    ],
    "wof:geomhash": "f08ed83add98e5eae5b421c194548888",
    "wof:id": 2014811673,
    "wof:repo": "sfomuseum-data-flights-2026-02"
  },
  "bbox": [
    -122.55162,
    36.72341,
    -122.23469,
    37.71182
  ],
  "geometry": {"coordinates":[[-122.36383,37.63811],[-122.36292,37.65633],[-122.36275,37.66548],[-122.36509,37.69238],[-122.39036,37.71182],[-122.44308,37.68514],[-122.44601,37.66229],[-122.45167,37.63112],[-122.45894,37.5897],[-122.46632,37.54206],[-122.47139,37.50918],[-122.48125,37.4514],[-122.48744,37.41962],[-122.49566,37.37609],[-122.50925,37.30397],[-122.513,37.2835],[-122.52379,37.22495],[-122.52877,37.19806],[-122.536,37.15891],[-122.53689,37.15425],[-122.55162,37.07351],[-122.54154,37.03437],[-122.49377,36.98487],[-122.4857,36.97683],[-122.46826,36.9593],[-122.43992,36.93094],[-122.41084,36.90162],[-122.36505,36.85509],[-122.32947,36.81902],[-122.28663,36.77581],[-122.27087,36.7599],[-122.23469,36.72341]],"type":"LineString"}
}
