{
  "id": 2014809815,
  "type": "Feature",
  "properties": {
    "date:cessation_lower": "2026-02-17",
    "date:cessation_upper": "2026-02-17",
    "date:inception_lower": "2026-02-16",
    "date:inception_upper": "2026-02-16",
    "edtf:cessation": "2026-02-17T06:53:00Z",
    "edtf:inception": "2026-02-16T13:44:27-08:00",
    "flysfo:actual_timestamp": -1,
    "flysfo:airline": "AS",
    "flysfo:base_airline": "",
    "flysfo:base_flight_number": "7493",
    "flysfo:date": "2026-02-16",
    "flysfo:estimated_timestamp": 1771306320,
    "flysfo:event": "D",
    "flysfo:flight_number": "AS571",
    "flysfo:gate": "B13",
    "flysfo:journey": "SFO-LAS",
    "flysfo:scheduled_timestamp": 1771306320,
    "flysfo:timestamp": 1771306320,
    "geom:area": 0,
    "geom:bbox": "-122.370943,36.081003,-115.156440,37.617990",
    "geom:latitude": 36.8494965,
    "geom:longitude": -118.7636915,
    "iata:airline": "AS",
    "iata:base_airline": "",
    "icao:aircraft": "B738",
    "icao:airline": "ASA",
    "icao:base_airline": "AAL",
    "lbl:latitude": 37.61799,
    "lbl:longitude": -122.370943,
    "sfomuseum:aircraft_id": 1159289871,
    "sfomuseum:airline_id": 1159283813,
    "sfomuseum:arrival_id": 102527209,
    "sfomuseum:base_flight_id": "20260216-D-AAL-7493",
    "sfomuseum:departure_id": 102527513,
    "sfomuseum:flight_id": "20260216-D-ASA-571",
    "sfomuseum:flight_number": [
      "ASA571",
      "AS571"
    ],
    "sfomuseum:placetype": "flight",
    "src:geom": "flysfo",
    "src:geom_alt": [
      "swim-route",
      "swim-path",
      "swim-takeoff"
    ],
    "swim:tail_number": "N596AS",
    "wof:belongsto": [
      1947304067,
      102527513,
      1947304261,
      102191575,
      85633793,
      102087579,
      85922583,
      554784711,
      85688637,
      1947304267,
      1947304259,
      102085387
    ],
    "wof:concordances": {
      "swim:gufi": "KO162163XT"
    },
    "wof:country": "US",
    "wof:created": 1771344767,
    "wof:geomhash": "ccf694144ef1f7a2823fe9bc7c6018ea",
    "wof:hierarchy": [
      {
        "building_id": 1947304067,
        "campus_id": 102527513,
        "concourse_id": 1947304261,
        "continent_id": 102191575,
        "country_id": 85633793,
        "county_id": 102087579,
        "custom_id": 2014809815,
        "flight_id": 2014809815,
        "locality_id": 85922583,
        "postalcode_id": 554784711,
        "region_id": 85688637,
        "venue_id": 1947304267,
        "wing_id": 1947304259
      },
      {
        "building_id": 1947304067,
        "campus_id": 102527513,
        "concourse_id": 1947304261,
        "continent_id": 102191575,
        "country_id": 85633793,
        "county_id": 102085387,
        "custom_id": 2014809815,
        "flight_id": 2014809815,
        "region_id": 85688637,
        "venue_id": 1947304267,
        "wing_id": 1947304259
      }
    ],
    "wof:id": 2014809815,
    "wof:involves": [
      102527513,
      1159283813,
      1947304267,
      1159283849,
      1159289871,
      102527209
    ],
    "wof:lastmodified": 1771345115,
    "wof:name": "AS571 (SFO-LAS)",
    "wof:parent_id": 1947304267,
    "wof:placetype": "custom",
    "wof:placetype_alt": [
      "flight"
    ],
    "wof:repo": "sfomuseum-data-flights-2026-02",
    "wof:superseded_by": [],
    "wof:supersedes": []
  },
  "bbox": [
    -122.370943,
    36.081003,
    -115.15644,
    37.61799
  ],
  "geometry": {"coordinates":[[-122.370943,37.61799],[-115.15644,36.081003]],"type":"MultiPoint"}
}
