{
  "id": 2014782617,
  "type": "Feature",
  "properties": {
    "geom:area": 0,
    "geom:bbox": "-122.986290,37.382270,-122.093590,38.507810",
    "geom:latitude": 37.95970034643058,
    "geom:longitude": -122.62342840341063,
    "src:alt_label": "swim-approach",
    "src:geom": "swim",
    "swim:elevations": [
      7224,
      7019,
      6913,
      6741,
      6524,
      6416,
      6271,
      6135,
      6039,
      5909,
      5832,
      5794,
      5791,
      5791,
      5791,
      5791,
      5791,
      5791,
      5791,
      5791,
      5791,
      5791,
      5791,
      5791,
      5791,
      5791,
      5791,
      5791,
      5791,
      5746,
      5655,
      5423,
      5229,
      4697,
      4652,
      4336,
      4238,
      3854,
      3700,
      3591,
      3382,
      3353,
      3353,
      3353,
      3353,
      3353,
      3341,
      3079,
      2971,
      2829,
      2527,
      2419,
      2319,
      2072,
      2003,
      1939,
      1833,
      1614,
      1395,
      1309,
      1288,
      1249,
      1190,
      1134,
      1033,
      975,
      862,
      668,
      569,
      456,
      327,
      233,
      179,
      54
    ],
    "swim:geom": "approach",
    "swim:timestamps": [
      1770974041,
      1770974061,
      1770974073,
      1770974092,
      1770974120,
      1770974144,
      1770974180,
      1770974204,
      1770974224,
      1770974251,
      1770974270,
      1770974281,
      1770974319,
      1770974352,
      1770974390,
      1770974424,
      1770974437,
      1770974447,
      1770974471,
      1770974513,
      1770974521,
      1770974576,
      1770974599,
      1770974621,
      1770974661,
      1770974679,
      1770974727,
      1770974756,
      1770974761,
      1770974785,
      1770974795,
      1770974829,
      1770974858,
      1770974907,
      1770974910,
      1770974943,
      1770974956,
      1770974993,
      1770975007,
      1770975031,
      1770975076,
      1770975101,
      1770975116,
      1770975137,
      1770975159,
      1770975180,
      1770975216,
      1770975260,
      1770975275,
      1770975307,
      1770975354,
      1770975383,
      1770975405,
      1770975439,
      1770975453,
      1770975463,
      1770975484,
      1770975524,
      1770975563,
      1770975581,
      1770975584,
      1770975596,
      1770975628,
      1770975636,
      1770975675,
      1770975700,
      1770975732,
      1770975773,
      1770975798,
      1770975828,
      1770975864,
      1770975892,
      1770975909,
      1770975946
    ],
    "wof:geomhash": "d7721f2b4631641498a34efd8057dd45",
    "wof:id": 2014782617,
    "wof:repo": "sfomuseum-data-flights-2026-02"
  },
  "bbox": [
    -122.98629,
    37.38227,
    -122.09359,
    38.50781
  ],
  "geometry": {"coordinates":[[-122.7839,38.50781],[-122.78145,38.4686],[-122.78016,38.44592],[-122.77788,38.40818],[-122.77478,38.35561],[-122.77216,38.31095],[-122.7684,38.24823],[-122.76659,38.20866],[-122.7797,38.17855],[-122.82133,38.1518],[-122.85476,38.14686],[-122.87447,38.1488],[-122.9287,38.1801],[-122.94629,38.22317],[-122.9622,38.27527],[-122.97644,38.32229],[-122.98186,38.34017],[-122.98629,38.35477],[-122.98543,38.38831],[-122.93438,38.43433],[-122.91872,38.43809],[-122.82236,38.40028],[-122.8088,38.36264],[-122.79863,38.3281],[-122.77853,38.26157],[-122.76941,38.23137],[-122.79431,38.15923],[-122.84243,38.13829],[-122.85039,38.13331],[-122.87704,38.10289],[-122.88179,38.08667],[-122.86025,38.0344],[-122.81534,38.00168],[-122.73418,37.94362],[-122.72911,37.93999],[-122.67573,37.90103],[-122.65754,37.88484],[-122.60731,37.83767],[-122.58833,37.81973],[-122.5576,37.7906],[-122.50202,37.73794],[-122.47306,37.71051],[-122.4568,37.69528],[-122.43574,37.67554],[-122.4134,37.65447],[-122.39262,37.635],[-122.36154,37.59717],[-122.33182,37.5483],[-122.32183,37.53212],[-122.29983,37.49651],[-122.26934,37.44648],[-122.25099,37.41652],[-122.23549,37.397],[-122.19743,37.38565],[-122.18104,37.38227],[-122.16959,37.38228],[-122.15051,37.39314],[-122.12535,37.42172],[-122.10084,37.44986],[-122.09364,37.46286],[-122.09359,37.46551],[-122.0978,37.47473],[-122.11627,37.49485],[-122.12109,37.49989],[-122.14611,37.52133],[-122.16711,37.53108],[-122.19386,37.54252],[-122.22857,37.55714],[-122.24833,37.56542],[-122.27122,37.57511],[-122.29747,37.58615],[-122.31553,37.5937],[-122.32694,37.59852],[-122.35181,37.60897]],"type":"LineString"}
}
