{
  "id": 2014824917,
  "type": "Feature",
  "properties": {
    "geom:area": 0,
    "geom:bbox": "-122.380000,37.620000,8.570000,54.350000",
    "geom:latitude": 47.26674940045941,
    "geom:longitude": -56.82489164938642,
    "src:alt_label": "swim-route",
    "src:geom": "swim",
    "swim:geom": "route",
    "wof:geomhash": "499533abb5e9dfddd073172ea9d079a1",
    "wof:id": 2014824917,
    "wof:repo": "sfomuseum-data-flights-2026-02"
  },
  "bbox": [
    -122.38,
    37.62,
    8.57,
    54.35
  ],
  "geometry": {"coordinates":[[8.57,50.03],[8.46,50.12],[8.38,50.19],[8.29,50.27],[8.18,50.36],[8.02,50.5],[7.68,50.77],[7.47,50.94],[7.23,51.14],[7.07,51.26],[7.01,51.31],[6.88,51.42],[6.72,51.54],[6.58,51.65],[6.15,51.97],[3.66,53.76],[2.79,54.35],[-120.61,40.01],[-120.82,39.74],[-120.92,39.6],[-121.09,39.38],[-121.14,39.31],[-121.18,39.26],[-121.32,39.08],[-121.36,39.03],[-121.51,38.82],[-121.54,38.77],[-121.6,38.69],[-121.68,38.59],[-121.75,38.49],[-121.79,38.44],[-121.83,38.38],[-121.85,38.35],[-121.87,38.33],[-121.88,38.31],[-121.96,38.2],[-121.98,38.17],[-122.04,38.09],[-122.07,38.04],[-122.11,37.99],[-122.12,37.98],[-122.14,37.94],[-122.19,37.88],[-122.22,37.84],[-122.27,37.76],[-122.32,37.69],[-122.38,37.62]],"type":"LineString"}
}
