{
  "id": 2014880745,
  "type": "Feature",
  "properties": {
    "geom:area": 0,
    "geom:bbox": "-122.358360,37.476940,-121.246760,37.611830",
    "geom:latitude": 37.53822399054367,
    "geom:longitude": -121.81065352367908,
    "src:alt_label": "swim-approach",
    "src:geom": "swim",
    "swim:elevations": [
      5674,
      5481,
      4973,
      4574,
      4263,
      3853,
      2469,
      2279,
      1999,
      1560,
      1115,
      1029,
      883,
      794,
      726,
      578,
      484,
      423,
      260,
      174,
      130,
      0
    ],
    "swim:geom": "approach",
    "swim:timestamps": [
      1772068516,
      1772068531,
      1772068570,
      1772068597,
      1772068618,
      1772068651,
      1772068841,
      1772068874,
      1772068940,
      1772069062,
      1772069158,
      1772069179,
      1772069209,
      1772069227,
      1772069242,
      1772069276,
      1772069302,
      1772069323,
      1772069365,
      1772069391,
      1772069402,
      1772069435
    ],
    "wof:geomhash": "2785ea4d783ff58d0674298e22b959de",
    "wof:id": 2014880745,
    "wof:repo": "sfomuseum-data-flights-2026-02"
  },
  "bbox": [
    -122.35836,
    37.47694,
    -121.24676,
    37.61183
  ],
  "geometry": {"coordinates":[[-121.24676,37.59487],[-121.27518,37.59102],[-121.34915,37.58295],[-121.40062,37.57699],[-121.43991,37.57207],[-121.49906,37.56527],[-121.79869,37.50925],[-121.84345,37.4985],[-121.92773,37.47694],[-122.04925,37.48134],[-122.13691,37.51856],[-122.15639,37.52679],[-122.18469,37.53867],[-122.20121,37.54571],[-122.21469,37.55137],[-122.24422,37.56397],[-122.26416,37.57222],[-122.27895,37.57837],[-122.30957,37.59125],[-122.32792,37.59899],[-122.33513,37.602],[-122.35836,37.61183]],"type":"LineString"}
}
