{
  "id": 2014859195,
  "type": "Feature",
  "properties": {
    "geom:area": 0,
    "geom:bbox": "-122.386310,37.630860,-122.116240,38.499080",
    "geom:latitude": 38.05719030742149,
    "geom:longitude": -122.26507106429302,
    "src:alt_label": "swim-takeoff",
    "src:geom": "swim",
    "swim:elevations": [
      213,
      542,
      864,
      1203,
      1573,
      1937,
      2125,
      2590,
      2930,
      3066,
      3264,
      3553,
      3794,
      4272,
      4589,
      5159,
      5352,
      5522,
      6125,
      6535,
      6641,
      7214,
      7348
    ],
    "swim:geom": "takeoff",
    "swim:timestamps": [
      1771826985,
      1771827012,
      1771827056,
      1771827086,
      1771827107,
      1771827134,
      1771827147,
      1771827175,
      1771827201,
      1771827212,
      1771827240,
      1771827273,
      1771827290,
      1771827324,
      1771827346,
      1771827388,
      1771827403,
      1771827422,
      1771827471,
      1771827507,
      1771827516,
      1771827567,
      1771827581
    ],
    "wof:geomhash": "460ec2ab2471656dedf5937935ea105a",
    "wof:id": 2014859195,
    "wof:repo": "sfomuseum-data-flights-2026-02"
  },
  "bbox": [
    -122.38631,
    37.63086,
    -122.11624,
    38.49908
  ],
  "geometry": {"coordinates":[[-122.36453,37.63086],[-122.34814,37.64736],[-122.31418,37.68138],[-122.31978,37.71602],[-122.33305,37.74053],[-122.34994,37.7721],[-122.35812,37.78825],[-122.37507,37.82269],[-122.38593,37.85651],[-122.38631,37.87095],[-122.38455,37.9133],[-122.36693,37.96548],[-122.34932,37.99162],[-122.31423,38.04207],[-122.28973,38.0776],[-122.24327,38.14533],[-122.22638,38.17012],[-122.20452,38.20229],[-122.14667,38.2867],[-122.11751,38.3541],[-122.11624,38.37171],[-122.12247,38.47166],[-122.12429,38.49908]],"type":"LineString"}
}
