{
  "id": 2014793737,
  "type": "Feature",
  "properties": {
    "geom:area": 0,
    "geom:bbox": "-177.960000,1.360000,180.000000,39.000000",
    "geom:latitude": 19.592858445731373,
    "geom:longitude": 5.002015415686969,
    "src:alt_label": "swim-route",
    "src:geom": "swim",
    "swim:geom": "route",
    "wof:geomhash": "b6e3776490600fadfaa3a82eb18116d3",
    "wof:id": 2014793737,
    "wof:repo": "sfomuseum-data-flights-2026-02"
  },
  "bbox": [
    -177.96,
    1.36,
    180,
    39
  ],
  "geometry": {"coordinates":[[[-122.38,37.62],[-122.5,37.67],[-122.5,37.67],[-122.5,37.67],[-122.61,37.68],[-122.61,37.68],[-122.66,37.68],[-122.74,37.69],[-122.75,37.69],[-122.86,37.7],[-122.88,37.7],[-123,37.7],[-123.09,37.71],[-123.53,37.73],[-123.54,37.73],[-123.8,37.75],[-124.01,37.76],[-124.12,37.76],[-124.32,37.77],[-124.4,37.78],[-124.57,37.78],[-124.69,37.79],[-125.83,37.83],[-127,38.18],[-127.29,38.26],[-130,39],[-135,39],[-140,38],[-141.95,37.31],[-143.63,36.68],[-147.6,35.07],[-150,34],[-151.9,33.15],[-153.76,32.27],[-156.49,30.91],[-157.38,30.44],[-160,29],[-163.77,26.89],[-165.96,25.58],[-167.19,24.82],[-168.4,24.05],[-170,23],[-170.07,22.98],[-173.39,21.73],[-174.02,21.49],[-175.9,20.74],[-177.96,19.88]],[[180,19],[178.52,18.6],[178.16,18.49],[175.41,17.7],[174.63,17.46],[170,16],[160,13],[158.86,12.91],[157.72,12.81],[157,12.74],[154.82,12.53],[151.6,12.19],[150,12],[148.96,12.02],[148.07,12.03],[145.38,12.04],[144.03,12.04],[142.69,12.03],[140,12],[137.66,11.8],[136.1,11.65],[134.54,11.5],[130,11],[127.74,9.99],[125.49,8.96],[124.63,8.45],[123.77,7.94],[122.06,6.92],[121.65,6.82],[121,6.66],[119.77,6.34],[118.54,6.03],[118.07,5.91],[114.88,4.88],[111.63,3.84],[110.01,3.32],[107.32,2.45],[105.97,2.01],[105.92,1.99],[105.84,1.96],[105.79,1.95],[105.59,1.88],[105.3,1.79],[105.05,1.71],[104.75,1.61],[104.59,1.56],[104.39,1.49],[104.35,1.47],[104.23,1.44],[104.15,1.41],[104.07,1.38],[103.99,1.36]]],"type":"MultiLineString"}
}
