{
  "id": 2014757959,
  "type": "Feature",
  "properties": {
    "date:cessation_lower": "2026-02-10",
    "date:cessation_upper": "2026-02-10",
    "date:inception_lower": "1970-01-01",
    "date:inception_upper": "1970-01-01",
    "edtf:cessation": "2026-02-10T06:40:04-08:00",
    "edtf:inception": "1970-01-01T00:00:00Z",
    "flysfo:actual_timestamp": -1,
    "flysfo:airline": "UA",
    "flysfo:base_airline": "",
    "flysfo:base_flight_number": "9280",
    "flysfo:date": "2026-02-10",
    "flysfo:estimated_timestamp": 1770765660,
    "flysfo:event": "A",
    "flysfo:flight_number": "UA2226",
    "flysfo:gate": "E4",
    "flysfo:journey": "LAX-SFO",
    "flysfo:scheduled_timestamp": 1770765120,
    "flysfo:timestamp": 1770765660,
    "geom:area": 0,
    "geom:bbox": "-122.370943,33.942593,-118.389510,37.617990",
    "geom:latitude": 35.780291500000004,
    "geom:longitude": -120.38022649999999,
    "iata:airline": "UA",
    "iata:base_airline": "",
    "icao:aircraft": "B739",
    "icao:airline": "UAL",
    "icao:base_airline": "ANZ",
    "lbl:latitude": 37.618161,
    "lbl:longitude": -122.384735,
    "sfomuseum:aircraft_id": 1377564285,
    "sfomuseum:airline_id": 1159285413,
    "sfomuseum:arrival_id": 102527513,
    "sfomuseum:base_flight_id": "20260210-A-ANZ-9280",
    "sfomuseum:departure_id": 102533795,
    "sfomuseum:flight_id": "20260210-A-UAL-2226",
    "sfomuseum:flight_number": [
      "UAL2226",
      "UA2226"
    ],
    "sfomuseum:placetype": "flight",
    "src:geom": "flysfo",
    "src:geom_alt": [
      "swim-approach"
    ],
    "swim:tail_number": "N28478",
    "wof:belongsto": [
      1763588121,
      102527513,
      1763588335,
      102191575,
      85633793,
      102087579,
      85922583,
      554784711,
      85688637,
      1763588337,
      1763588269,
      102085387
    ],
    "wof:country": "US",
    "wof:created": 1770826017,
    "wof:geomhash": "f16008bc2ad68c6d1bc593247c6c74a9",
    "wof:hierarchy": [
      {
        "building_id": 1763588121,
        "campus_id": 102527513,
        "concourse_id": 1763588335,
        "continent_id": 102191575,
        "country_id": 85633793,
        "county_id": 102087579,
        "custom_id": 2014757959,
        "flight_id": 2014757959,
        "locality_id": 85922583,
        "postalcode_id": 554784711,
        "region_id": 85688637,
        "venue_id": 1763588337,
        "wing_id": 1763588269
      },
      {
        "building_id": 1763588121,
        "campus_id": 102527513,
        "concourse_id": 1763588335,
        "continent_id": 102191575,
        "country_id": 85633793,
        "county_id": 102085387,
        "custom_id": 2014757959,
        "flight_id": 2014757959,
        "region_id": 85688637,
        "venue_id": 1763588337,
        "wing_id": 1763588269
      }
    ],
    "wof:id": 2014757959,
    "wof:involves": [
      1159285413,
      1763588337,
      1159283697,
      1377564285,
      102527513,
      102533795
    ],
    "wof:lastmodified": 1770826545,
    "wof:name": "UA2226 (LAX-SFO)",
    "wof:parent_id": 1763588337,
    "wof:placetype": "custom",
    "wof:placetype_alt": [
      "flight"
    ],
    "wof:repo": "sfomuseum-data-flights-2026-02",
    "wof:superseded_by": [],
    "wof:supersedes": []
  },
  "bbox": [
    -122.370943,
    33.942593,
    -118.38951,
    37.61799
  ],
  "geometry": {"coordinates":[[-118.38951,33.942593],[-122.370943,37.61799]],"type":"MultiPoint"}
}
