{
  "id": 2014746239,
  "type": "Feature",
  "properties": {
    "geom:area": 0,
    "geom:bbox": "-122.420080,36.721150,-121.283830,37.697870",
    "geom:latitude": 37.197330326083176,
    "geom:longitude": -121.94177344448495,
    "src:alt_label": "swim-takeoff",
    "src:geom": "swim",
    "swim:elevations": [
      244,
      755,
      926,
      1239,
      1338,
      1369,
      1604,
      1817,
      2134,
      2838,
      3444,
      3531,
      3790,
      3900,
      4162,
      4467,
      4675,
      5047,
      5402,
      5716,
      5791,
      5791,
      5791,
      5791,
      5791,
      5791,
      5791,
      5791,
      5798,
      6199,
      6279,
      6662,
      7284,
      7535,
      7622,
      8022
    ],
    "swim:geom": "takeoff",
    "swim:timestamps": [
      1770571909,
      1770571945,
      1770571958,
      1770571993,
      1770572007,
      1770572011,
      1770572035,
      1770572054,
      1770572071,
      1770572110,
      1770572149,
      1770572158,
      1770572180,
      1770572190,
      1770572214,
      1770572238,
      1770572259,
      1770572286,
      1770572312,
      1770572357,
      1770572375,
      1770572390,
      1770572400,
      1770572446,
      1770572466,
      1770572513,
      1770572546,
      1770572550,
      1770572559,
      1770572605,
      1770572612,
      1770572643,
      1770572697,
      1770572727,
      1770572741,
      1770572787
    ],
    "wof:geomhash": "7d4ce3eab91bcdb5d73ae7069b99c988",
    "wof:id": 2014746239,
    "wof:repo": "sfomuseum-data-flights-2026-02"
  },
  "bbox": [
    -122.42008,
    36.72115,
    -121.28383,
    37.69787
  ],
  "geometry": {"coordinates":[[-122.36553,37.63436],[-122.36186,37.66113],[-122.36204,37.67048],[-122.37214,37.69451],[-122.38738,37.69787],[-122.39149,37.69756],[-122.41553,37.68366],[-122.42008,37.66254],[-122.41584,37.64167],[-122.40542,37.59337],[-122.39323,37.54551],[-122.39016,37.53331],[-122.38235,37.50204],[-122.37886,37.48819],[-122.36096,37.45511],[-122.32357,37.4281],[-122.28661,37.40394],[-122.24069,37.37303],[-122.19599,37.34261],[-122.11522,37.28857],[-122.08104,37.26573],[-122.05237,37.24654],[-122.03351,37.2339],[-121.9464,37.17525],[-121.90738,37.14885],[-121.81956,37.08877],[-121.75812,37.04683],[-121.75098,37.04193],[-121.73405,37.03038],[-121.6454,36.96993],[-121.63139,36.9603],[-121.57178,36.91949],[-121.46603,36.84687],[-121.40626,36.80571],[-121.37917,36.7871],[-121.28383,36.72115]],"type":"LineString"}
}
