{
  "id": 2014761229,
  "type": "Feature",
  "properties": {
    "geom:area": 0,
    "geom:bbox": "-122.367390,37.591290,-121.266270,37.958140",
    "geom:latitude": 37.788386671556935,
    "geom:longitude": -121.87152518983616,
    "src:alt_label": "swim-takeoff",
    "src:geom": "swim",
    "swim:elevations": [
      152,
      360,
      657,
      709,
      1152,
      1328,
      1640,
      2010,
      2222,
      2503,
      2904,
      3321,
      3415,
      3784,
      4050,
      4118,
      4372,
      4660,
      4839,
      5354,
      5593,
      5811,
      6122,
      6297,
      6458,
      244,
      418,
      616,
      967,
      1174,
      1408,
      1577,
      1844,
      2407,
      3046,
      3116,
      3227
    ],
    "swim:geom": "takeoff",
    "swim:timestamps": [
      1770711477,
      1770711490,
      1770711510,
      1770711517,
      1770711558,
      1770711588,
      1770711621,
      1770711645,
      1770711657,
      1770711676,
      1770711702,
      1770711738,
      1770711751,
      1770711795,
      1770711830,
      1770711843,
      1770711870,
      1770711894,
      1770711910,
      1770711955,
      1770711984,
      1770712008,
      1770712045,
      1770712066,
      1770712086,
      1770794157,
      1770794174,
      1770794195,
      1770794220,
      1770794247,
      1770794278,
      1770794296,
      1770794315,
      1770794352,
      1770794396,
      1770794402,
      1770794411
    ],
    "wof:geomhash": "e4fc820056eb445b5d11982aada422c1",
    "wof:id": 2014761229,
    "wof:repo": "sfomuseum-data-flights-2026-02"
  },
  "bbox": [
    -122.36739,
    37.59129,
    -121.26627,
    37.95814
  ],
  "geometry": {"coordinates":[[-122.36739,37.62703],[-122.36111,37.63625],[-122.34798,37.64629],[-122.34197,37.64953],[-122.30738,37.66828],[-122.27769,37.68425],[-122.23651,37.70652],[-122.20402,37.72319],[-122.1876,37.7316],[-122.16182,37.74488],[-122.12441,37.76468],[-122.07061,37.78929],[-122.04911,37.79535],[-121.96621,37.81343],[-121.89363,37.82899],[-121.86509,37.83491],[-121.80216,37.84818],[-121.74651,37.85991],[-121.7085,37.86751],[-121.60136,37.88954],[-121.52978,37.90406],[-121.46936,37.91656],[-121.37265,37.93648],[-121.31709,37.94782],[-121.26627,37.95814],[-122.35644,37.61339],[-122.34238,37.60785],[-122.32461,37.59988],[-122.30167,37.59129],[-122.2734,37.59635],[-122.24697,37.62494],[-122.23257,37.64498],[-122.21692,37.66716],[-122.17687,37.70585],[-122.11113,37.73458],[-122.1019,37.73867],[-122.08788,37.74501]],"type":"LineString"}
}
