{
  "id": 2014810467,
  "type": "Feature",
  "properties": {
    "geom:area": 0,
    "geom:bbox": "-122.390000,33.640000,-84.040000,38.680000",
    "geom:latitude": 37.19998818766428,
    "geom:longitude": -103.04448207394621,
    "src:alt_label": "swim-route",
    "src:geom": "swim",
    "swim:geom": "route",
    "wof:geomhash": "02dffb8b6b39ebac73c88358601078bc",
    "wof:id": 2014810467,
    "wof:repo": "sfomuseum-data-flights-2026-02"
  },
  "bbox": [
    -122.39,
    33.64,
    -84.04,
    38.68
  ],
  "geometry": {"coordinates":[[-122.38,37.62],[-122.3,37.68],[-122.34,37.75],[-122.34,37.75],[-122.34,37.75],[-122.38,37.83],[-122.38,37.84],[-122.39,37.85],[-122.39,37.87],[-122.38,37.93],[-122.38,37.94],[-122.31,37.96],[-122.15,37.99],[-122.1,37.99],[-121.96,37.99],[-121.83,37.99],[-121.81,37.99],[-121.77,37.99],[-121.53,37.99],[-121.52,37.99],[-121.36,37.99],[-121.24,37.99],[-121.1,37.99],[-121.05,38],[-121.01,38.01],[-120.89,38.02],[-120.47,38.09],[-120.31,38.11],[-120.16,38.13],[-120,38.16],[-119.5,38.23],[-119.31,38.26],[-119.18,38.27],[-117.29,38.52],[-117.28,38.52],[-117,38.54],[-116.16,38.57],[-113.64,38.66],[-113.18,38.67],[-111.8,38.68],[-109.98,38.68],[-109.94,38.68],[-108.13,38.58],[-106.34,38.45],[-105.75,38.4],[-105.59,38.38],[-105.42,38.37],[-105.09,38.34],[-103.41,38.13],[-102.34,37.99],[-101.81,37.91],[-99.89,37.58],[-99.08,37.43],[-98.81,37.38],[-97.74,37.17],[-97.61,37.15],[-96.01,36.81],[-94.69,36.43],[-94.11,36.25],[-93.85,36.18],[-93.09,35.94],[-92.14,35.64],[-91.9,35.56],[-91.19,35.36],[-89.98,35.02],[-89.54,34.95],[-88.37,34.78],[-88.34,34.78],[-88.29,34.77],[-87.43,34.63],[-87.1,34.57],[-87,34.55],[-86.94,34.54],[-86.71,34.48],[-86.15,34.34],[-85.75,34.23],[-85.4,34.14],[-85.05,34.05],[-84.92,33.92],[-84.9,33.9],[-84.88,33.88],[-84.8,33.81],[-84.72,33.73],[-84.58,33.73],[-84.43,33.73],[-84.39,33.73],[-84.31,33.73],[-84.14,33.73],[-84.05,33.73],[-84.04,33.73],[-84.22,33.69],[-84.32,33.66],[-84.41,33.64],[-84.43,33.64]],"type":"LineString"}
}
