{
  "id": 2014727407,
  "type": "Feature",
  "properties": {
    "geom:area": 0,
    "geom:bbox": "-123.501350,36.826670,-122.108320,37.615460",
    "geom:latitude": 37.256225281048295,
    "geom:longitude": -122.72626788999395,
    "src:alt_label": "swim-approach",
    "src:geom": "swim",
    "swim:elevations": [
      5795,
      5639,
      5486,
      5395,
      5018,
      4498,
      4255,
      4026,
      3622,
      3472,
      3396,
      3203,
      3048,
      3047,
      3048,
      3048,
      3048,
      3048,
      3048,
      3048,
      3048,
      3048,
      3048,
      2953,
      2921,
      2805,
      2728,
      2537,
      2334,
      2206,
      1991,
      1857,
      1845,
      1796,
      1581,
      1517,
      1247,
      1221,
      1170,
      1027,
      983,
      862,
      750,
      535,
      460,
      310,
      152,
      99,
      0
    ],
    "swim:geom": "approach",
    "swim:timestamps": [
      1770365637,
      1770365656,
      1770365668,
      1770365673,
      1770365712,
      1770365756,
      1770365778,
      1770365800,
      1770365835,
      1770365848,
      1770365852,
      1770365868,
      1770365907,
      1770365920,
      1770365942,
      1770365983,
      1770366008,
      1770366038,
      1770366053,
      1770366073,
      1770366109,
      1770366140,
      1770366158,
      1770366207,
      1770366213,
      1770366235,
      1770366246,
      1770366280,
      1770366315,
      1770366339,
      1770366374,
      1770366407,
      1770366417,
      1770366427,
      1770366474,
      1770366487,
      1770366529,
      1770366551,
      1770366568,
      1770366598,
      1770366609,
      1770366652,
      1770366672,
      1770366712,
      1770366727,
      1770366761,
      1770366802,
      1770366814,
      1770366842
    ],
    "wof:geomhash": "5c258cbd463ec36b93750be71353c64b",
    "wof:id": 2014727407,
    "wof:repo": "sfomuseum-data-flights-2026-02"
  },
  "bbox": [
    -123.50135,
    36.82667,
    -122.10832,
    37.61546
  ],
  "geometry": {"coordinates":[[-123.50135,36.82667],[-123.46628,36.85108],[-123.44433,36.86594],[-123.43558,36.87197],[-123.36544,36.92018],[-123.28916,36.9712],[-123.24981,36.99789],[-123.21242,37.02331],[-123.15262,37.06351],[-123.13187,37.07746],[-123.12382,37.08284],[-123.09634,37.10116],[-123.03233,37.14435],[-123.01359,37.15691],[-122.98065,37.1791],[-122.92446,37.21652],[-122.89123,37.23879],[-122.84909,37.26059],[-122.8235,37.26695],[-122.79077,37.27455],[-122.73195,37.28833],[-122.68112,37.30018],[-122.65072,37.30734],[-122.57045,37.32584],[-122.56065,37.32812],[-122.52521,37.33631],[-122.50641,37.34069],[-122.45324,37.35291],[-122.39668,37.36604],[-122.36032,37.37432],[-122.30709,37.38665],[-122.25813,37.39774],[-122.24369,37.40104],[-122.22879,37.40445],[-122.16436,37.41908],[-122.14652,37.42523],[-122.11431,37.46594],[-122.10832,37.48911],[-122.11726,37.50536],[-122.14541,37.52448],[-122.15688,37.52916],[-122.20001,37.54743],[-122.22011,37.55588],[-122.25865,37.57212],[-122.27291,37.57809],[-122.30152,37.59015],[-122.33173,37.60284],[-122.3408,37.60663],[-122.36189,37.61546]],"type":"LineString"}
}
