{
  "id": 2014802175,
  "type": "Feature",
  "properties": {
    "geom:area": 0,
    "geom:bbox": "-122.380000,37.620000,-70.930000,44.470000",
    "geom:latitude": 42.83059180665052,
    "geom:longitude": -96.97637615373746,
    "src:alt_label": "swim-route",
    "src:geom": "swim",
    "swim:geom": "route",
    "wof:geomhash": "fee7b2d3d895269eba4e1556000d9ce7",
    "wof:id": 2014802175,
    "wof:repo": "sfomuseum-data-flights-2026-02"
  },
  "bbox": [
    -122.38,
    37.62,
    -70.93,
    44.47
  ],
  "geometry": {"coordinates":[[-122.38,37.62],[-122.27,37.69],[-122.26,37.69],[-122.26,37.69],[-122.21,37.72],[-122.2,37.73],[-122.2,37.73],[-122.18,37.75],[-122.14,37.8],[-122.13,37.81],[-122.07,37.88],[-122.03,37.92],[-121.9,38.06],[-121.9,38.06],[-121.84,38.13],[-121.78,38.19],[-121.73,38.25],[-121.66,38.32],[-121.66,38.33],[-121.64,38.35],[-121.55,38.44],[-121.53,38.46],[-121.47,38.5],[-121.42,38.53],[-121.39,38.54],[-121.32,38.59],[-121.07,38.74],[-121,38.78],[-120.98,38.79],[-120.9,38.84],[-120.81,38.89],[-120.35,39.16],[-119.73,39.53],[-119.1,39.89],[-118.92,39.98],[-118.72,40.07],[-118.12,40.32],[-114.49,41.57],[-113.34,41.93],[-112.9,42.07],[-112.45,42.2],[-112.04,42.33],[-111.34,42.56],[-110.14,42.93],[-108.83,43.31],[-108.3,43.46],[-108.04,43.54],[-107.26,43.77],[-106.85,43.88],[-106.44,44],[-106.12,44],[-103.01,43.98],[-101.44,44.12],[-101.14,44.14],[-98.18,44.34],[-95.13,44.47],[-94.59,44.39],[-94.42,44.37],[-93.91,44.3],[-93.58,44.25],[-92.14,44.02],[-91.47,43.91],[-90.7,43.75],[-90.22,43.65],[-89.76,43.55],[-88.28,43.12],[-87,43.17],[-85,43.24],[-82.71,43.26],[-82.29,43.27],[-82.28,43.27],[-82.26,43.27],[-79.97,43.29],[-79.1,43.28],[-79.09,43.28],[-78.93,43.28],[-78.92,43.28],[-78.65,43.24],[-78.39,43.21],[-77.85,43.13],[-76.78,42.97],[-76.71,42.96],[-74.54,42.81],[-73.81,42.75],[-73.68,42.75],[-73.51,42.74],[-73.11,42.74],[-72.94,42.72],[-72.63,42.68],[-72.38,42.65],[-72.32,42.65],[-72.16,42.63],[-72.04,42.61],[-71.84,42.59],[-71.82,42.59],[-71.72,42.57],[-71.71,42.57],[-71.61,42.55],[-71.59,42.55],[-71.37,42.5],[-71.35,42.5],[-71.25,42.48],[-71.16,42.46],[-71.16,42.46],[-71.06,42.45],[-71.03,42.45],[-70.99,42.39],[-70.96,42.35],[-70.95,42.34],[-70.93,42.31],[-70.95,42.27],[-70.97,42.24],[-70.98,42.21],[-70.99,42.18],[-70.99,42.2],[-71,42.28],[-71.01,42.35],[-71.01,42.36]],"type":"LineString"}
}
