{
  "id": 2014847429,
  "type": "Feature",
  "properties": {
    "geom:area": 0,
    "geom:bbox": "-122.380000,37.620000,-83.350000,43.460000",
    "geom:latitude": 41.18120480601742,
    "geom:longitude": -102.96856778719591,
    "src:alt_label": "swim-route",
    "src:geom": "swim",
    "swim:geom": "route",
    "wof:geomhash": "2718e95d3d5eb33a7c33cb7dcc77d800",
    "wof:id": 2014847429,
    "wof:repo": "sfomuseum-data-flights-2026-02"
  },
  "bbox": [
    -122.38,
    37.62,
    -83.35,
    43.46
  ],
  "geometry": {"coordinates":[[-83.35,42.21],[-83.37,42.27],[-83.87,42.28],[-84.12,42.36],[-84.13,42.37],[-84.32,42.43],[-84.33,42.43],[-84.48,42.44],[-84.56,42.44],[-84.59,42.44],[-84.62,42.44],[-84.8,42.44],[-84.91,42.45],[-84.96,42.45],[-85,42.45],[-85.1,42.45],[-85.22,42.45],[-86.13,42.47],[-86.34,42.53],[-86.46,42.56],[-87,42.67],[-87.01,42.69],[-89.33,43.13],[-90.09,43.24],[-91.07,43.38],[-91.11,43.38],[-91.68,43.46],[-93.86,43.36],[-93.92,43.34],[-95.97,43.21],[-96.35,43.16],[-99.52,42.86],[-99.71,42.83],[-99.72,42.83],[-99.97,42.74],[-100.7,42.48],[-101.56,42.16],[-101.97,42.01],[-102,42],[-102.09,41.98],[-102.14,41.97],[-102.55,41.9],[-103.34,41.74],[-103.65,41.68],[-103.69,41.67],[-104.57,41.49],[-104.65,41.47],[-106.14,41.14],[-106.96,40.95],[-107.24,40.89],[-107.47,40.83],[-108.44,40.59],[-108.97,40.45],[-109.14,40.41],[-109.64,40.28],[-110.13,40.15],[-110.26,40.12],[-111.79,39.73],[-112.01,39.67],[-113.32,39.31],[-113.85,39.16],[-114.65,38.93],[-114.91,38.85],[-116.23,38.45],[-116.49,38.37],[-117.27,38.12],[-117.27,38.12],[-118.76,37.9],[-119.1,37.86],[-119.97,37.75],[-120.15,37.73],[-120.21,37.72],[-120.4,37.7],[-120.42,37.7],[-120.44,37.69],[-120.54,37.68],[-120.69,37.67],[-120.75,37.66],[-120.94,37.64],[-120.96,37.63],[-121,37.64],[-121.22,37.68],[-121.24,37.69],[-121.34,37.7],[-121.5,37.73],[-121.55,37.74],[-121.56,37.74],[-121.7,37.77],[-121.71,37.77],[-121.77,37.78],[-121.98,37.82],[-121.99,37.82],[-122.01,37.83],[-122.04,37.83],[-122.08,37.84],[-122.21,37.86],[-122.23,37.84],[-122.26,37.79],[-122.28,37.77],[-122.28,37.76],[-122.33,37.69],[-122.38,37.62]],"type":"LineString"}
}
