{
  "id": 2014882477,
  "type": "Feature",
  "properties": {
    "geom:area": 0,
    "geom:bbox": "-122.745000,37.652222,-122.260000,45.580556",
    "geom:latitude": 41.738410095194084,
    "geom:longitude": -122.5208323409126,
    "src:alt_label": "swim-path",
    "src:geom": "swim",
    "swim:altitudes": [
      "018",
      "018",
      "108",
      "108",
      "130",
      "156",
      "176",
      "220",
      "234",
      "234",
      "280",
      "280",
      "280",
      "315",
      "315",
      "327",
      "361",
      "361",
      "370",
      "380C",
      "380C",
      "380C",
      "380C",
      "380C",
      "380C",
      "380C",
      "380C",
      "380C",
      "380C",
      "380C",
      "380C",
      "380C",
      "380C",
      "380C",
      "380C",
      "380C",
      "380",
      "380",
      "335",
      "335",
      "253",
      "253",
      "231",
      "213",
      "180",
      "162",
      "162",
      "155",
      "155",
      "145",
      "138",
      "138",
      "106",
      "063",
      "063",
      "039",
      "039",
      "026",
      "024",
      "024",
      "020",
      "016",
      "012",
      "004",
      "001"
    ],
    "swim:geom": "path",
    "swim:speeds": [
      208,
      208,
      290,
      290,
      329,
      347,
      359,
      381,
      389,
      389,
      438,
      438,
      438,
      440,
      440,
      450,
      450,
      450,
      449,
      447,
      447,
      447,
      447,
      444,
      440,
      440,
      425,
      425,
      425,
      426,
      430,
      430,
      432,
      432,
      432,
      436,
      434,
      434,
      422,
      422,
      395,
      395,
      392,
      382,
      340,
      339,
      339,
      335,
      335,
      332,
      322,
      322,
      281,
      267,
      267,
      255,
      255,
      249,
      167,
      167,
      152,
      144,
      146,
      143,
      149
    ],
    "swim:timestamps": [
      1772074323,
      1772074323,
      1772074503,
      1772074503,
      1772074563,
      1772074623,
      1772074683,
      1772074803,
      1772074863,
      1772074863,
      1772075104,
      1772075104,
      1772075224,
      1772075464,
      1772075464,
      1772075524,
      1772075704,
      1772075704,
      1772075764,
      1772075945,
      1772075945,
      1772076064,
      1772076064,
      1772076185,
      1772076245,
      1772076245,
      1772076485,
      1772076485,
      1772076545,
      1772076605,
      1772076725,
      1772076725,
      1772076785,
      1772076785,
      1772076845,
      1772076965,
      1772077326,
      1772077326,
      1772077506,
      1772077506,
      1772077746,
      1772077746,
      1772077806,
      1772077866,
      1772077986,
      1772078046,
      1772078046,
      1772078070,
      1772078070,
      1772078106,
      1772078130,
      1772078130,
      1772078287,
      1772078467,
      1772078467,
      1772078587,
      1772078587,
      1772078647,
      1772078792,
      1772078792,
      1772078827,
      1772078858,
      1772078887,
      1772078947,
      1772078972
    ],
    "wof:geomhash": "7c87ca29db49c0b3de1c327ac676e1cc",
    "wof:id": 2014882477,
    "wof:repo": "sfomuseum-data-flights-2026-02"
  },
  "bbox": [
    -122.745,
    37.65222222222222,
    -122.26,
    45.580555555555556
  ],
  "geometry": {"coordinates":[[-122.33166666666666,37.65222222222222],[-122.33166666666666,37.65222222222222],[-122.26,37.853611111111114],[-122.26,37.853611111111114],[-122.265,37.94472222222222],[-122.27277777777778,38.04055555555556],[-122.27944444444444,38.1275],[-122.29888888888888,38.35166666666667],[-122.30611111111111,38.44694444444444],[-122.30611111111111,38.44694444444444],[-122.3425,38.92194444444444],[-122.3425,38.92194444444444],[-122.35944444444443,39.16444444444444],[-122.39611111111111,39.65138888888889],[-122.39611111111111,39.65138888888889],[-122.40666666666667,39.78722222222222],[-122.43472222222222,40.15861111111111],[-122.43472222222222,40.15861111111111],[-122.44444444444444,40.28722222222222],[-122.47277777777778,40.66138888888889],[-122.47277777777778,40.66138888888889],[-122.49138888888889,40.90833333333333],[-122.49138888888889,40.90833333333333],[-122.51027777777777,41.155],[-122.51972222222223,41.275],[-122.51972222222223,41.275],[-122.55555555555556,41.73555555555556],[-122.55555555555556,41.73555555555556],[-122.56527777777778,41.855000000000004],[-122.57444444444444,41.97416666666667],[-122.5936111111111,42.215],[-122.5936111111111,42.215],[-122.60333333333332,42.33638888888889],[-122.60333333333332,42.33638888888889],[-122.61333333333333,42.45777777777778],[-122.63277777777778,42.70166666666667],[-122.69250000000001,43.430277777777775],[-122.69250000000001,43.430277777777775],[-122.72222222222223,43.78444444444444],[-122.72222222222223,43.78444444444444],[-122.745,44.233333333333334],[-122.745,44.233333333333334],[-122.73305555555555,44.35527777777778],[-122.7238888888889,44.44611111111111],[-122.70305555555557,44.65611111111111],[-122.69333333333334,44.74916666666667],[-122.69333333333334,44.74916666666667],[-122.69166666666668,44.7875],[-122.69166666666668,44.7875],[-122.68444444444445,44.84055555555556],[-122.6825,44.87888888888889],[-122.6825,44.87888888888889],[-122.65972222222223,45.08555555555556],[-122.59861111111111,45.29861111111111],[-122.59861111111111,45.29861111111111],[-122.44388888888889,45.388333333333335],[-122.44388888888889,45.388333333333335],[-122.36361111111111,45.42666666666666],[-122.43305555555555,45.52166666666667],[-122.43305555555555,45.52166666666667],[-122.46472222222222,45.53388888888889],[-122.49166666666667,45.544444444444444],[-122.51361111111112,45.55305555555555],[-122.56277777777777,45.57222222222222],[-122.58472222222221,45.580555555555556]],"type":"LineString"}
}
