{
  "id": 2014843343,
  "type": "Feature",
  "properties": {
    "geom:area": 0,
    "geom:bbox": "-122.366667,37.501111,-83.255000,42.415833",
    "geom:latitude": 38.696773361624864,
    "geom:longitude": -102.43311337205265,
    "src:alt_label": "swim-path",
    "src:geom": "swim",
    "swim:altitudes": [
      "009",
      "016",
      "016",
      "019",
      "030",
      "060",
      "060",
      "060",
      "110",
      "110",
      "110",
      "110",
      "110",
      "162",
      "162",
      "162",
      "180",
      "180",
      "180",
      "211",
      "211",
      "227",
      "227",
      "241",
      "264",
      "264",
      "264",
      "264",
      "290",
      "290",
      "310",
      "310",
      "310",
      "316",
      "316",
      "321",
      "321",
      "321",
      "325",
      "325",
      "330C",
      "330C",
      "330C",
      "330C",
      "330C",
      "330C",
      "330C",
      "330C",
      "330C",
      "330C",
      "330C",
      "330C",
      "330C",
      "330C",
      "330C",
      "330C",
      "330C",
      "330C",
      "330C",
      "330C",
      "330C",
      "330C",
      "330C",
      "330C",
      "330C",
      "330C",
      "330C",
      "330C",
      "330C",
      "330C",
      "330C",
      "330C",
      "330C",
      "330C",
      "330C",
      "330C",
      "330C",
      "330C",
      "330C",
      "330C",
      "330C",
      "330C",
      "330C",
      "330C",
      "330C",
      "330C",
      "330C",
      "330C",
      "330C",
      "330C",
      "330C",
      "330C",
      "330C",
      "330C",
      "330C",
      "330C",
      "330C",
      "330C",
      "330C",
      "330C",
      "330C",
      "330C",
      "330C",
      "330C",
      "330C",
      "330C",
      "330C",
      "330C",
      "330C",
      "330C",
      "330C",
      "330C",
      "330C",
      "330C",
      "330C",
      "330C",
      "330C",
      "330C",
      "330C",
      "330C",
      "330C",
      "330C",
      "330C",
      "330C",
      "330C",
      "330C",
      "330C",
      "330C",
      "330C",
      "330C",
      "330C",
      "330C",
      "330C",
      "330C",
      "330C",
      "330C",
      "330C",
      "330C",
      "330C",
      "330C",
      "330C",
      "330C",
      "330C",
      "330C",
      "330C",
      "330C",
      "330C",
      "330C",
      "330C",
      "330C",
      "330C",
      "330C",
      "330C",
      "330C",
      "330C",
      "330C",
      "330C",
      "330C",
      "330C",
      "330C",
      "330C",
      "330C",
      "330C",
      "330C",
      "330C",
      "330C",
      "330C",
      "330C",
      "330C",
      "330C",
      "330C",
      "330C",
      "330C",
      "330C",
      "330C",
      "330C",
      "330C",
      "330C",
      "330C",
      "330C",
      "330C",
      "330C",
      "330C",
      "330C",
      "330C",
      "330C",
      "330C",
      "330C",
      "330C",
      "330C",
      "330C",
      "330C",
      "330C",
      "330C",
      "330C",
      "330C",
      "330C",
      "330C",
      "330C",
      "330C",
      "330C",
      "330C",
      "330C",
      "330C",
      "330C",
      "330C",
      "330C",
      "330C",
      "330C",
      "330C",
      "330C",
      "330C",
      "330C",
      "330C",
      "330C",
      "330C",
      "330C",
      "330C",
      "330C",
      "330C",
      "330C",
      "330C",
      "330C",
      "330C",
      "330C",
      "330C",
      "330C",
      "330C",
      "330C",
      "330C",
      "330C",
      "330C",
      "330C",
      "330C",
      "330C",
      "330C",
      "330C",
      "330C",
      "330C",
      "330C",
      "330C",
      "330C",
      "330C",
      "330C",
      "330C",
      "330C",
      "330C",
      "330C",
      "330C",
      "330C",
      "330C",
      "330C",
      "330C",
      "330C",
      "330",
      "330",
      "330",
      "330",
      "330",
      "261",
      "241",
      "241",
      "241",
      "241",
      "238",
      "238",
      "231",
      "227",
      "227",
      "210C",
      "210C",
      "210C",
      "210C",
      "210",
      "210",
      "210",
      "210",
      "210",
      "210",
      "192",
      "192",
      "172",
      "160",
      "160",
      "160",
      "139",
      "139",
      "103",
      "103",
      "103",
      "101",
      "083",
      "083",
      "072",
      "072",
      "045",
      "041",
      "032",
      "030",
      "030",
      "030",
      "030",
      "030",
      "026",
      "026",
      "015",
      "015",
      "015"
    ],
    "swim:geom": "path",
    "swim:speeds": [
      173,
      180,
      180,
      219,
      252,
      260,
      260,
      260,
      283,
      283,
      283,
      283,
      283,
      386,
      386,
      386,
      400,
      400,
      400,
      437,
      437,
      445,
      445,
      456,
      480,
      480,
      480,
      480,
      497,
      497,
      503,
      503,
      503,
      506,
      506,
      514,
      514,
      514,
      515,
      515,
      514,
      515,
      513,
      513,
      512,
      512,
      508,
      508,
      508,
      508,
      507,
      507,
      507,
      506,
      506,
      506,
      506,
      506,
      505,
      504,
      504,
      504,
      511,
      511,
      513,
      513,
      514,
      514,
      514,
      514,
      514,
      514,
      515,
      515,
      514,
      513,
      513,
      513,
      513,
      513,
      512,
      512,
      512,
      510,
      506,
      502,
      502,
      502,
      502,
      500,
      497,
      497,
      497,
      496,
      500,
      500,
      500,
      500,
      500,
      500,
      502,
      502,
      502,
      500,
      500,
      500,
      500,
      499,
      499,
      499,
      499,
      505,
      505,
      505,
      507,
      509,
      509,
      510,
      510,
      510,
      511,
      511,
      511,
      511,
      519,
      519,
      523,
      523,
      523,
      524,
      524,
      526,
      526,
      526,
      529,
      529,
      529,
      529,
      528,
      528,
      528,
      530,
      530,
      530,
      530,
      531,
      531,
      529,
      527,
      527,
      532,
      533,
      533,
      533,
      533,
      533,
      533,
      534,
      534,
      534,
      536,
      537,
      538,
      537,
      537,
      537,
      537,
      541,
      541,
      541,
      541,
      541,
      541,
      547,
      547,
      547,
      547,
      549,
      557,
      558,
      558,
      558,
      558,
      557,
      557,
      557,
      558,
      558,
      558,
      558,
      558,
      557,
      557,
      557,
      556,
      556,
      556,
      557,
      557,
      557,
      579,
      579,
      579,
      579,
      580,
      580,
      580,
      580,
      579,
      580,
      580,
      583,
      583,
      583,
      583,
      585,
      585,
      587,
      589,
      589,
      589,
      589,
      592,
      592,
      592,
      592,
      595,
      596,
      596,
      596,
      596,
      596,
      596,
      597,
      597,
      597,
      597,
      597,
      597,
      597,
      597,
      597,
      597,
      597,
      597,
      596,
      596,
      596,
      596,
      594,
      594,
      594,
      593,
      593,
      593,
      593,
      593,
      593,
      592,
      574,
      524,
      524,
      524,
      524,
      512,
      512,
      505,
      504,
      504,
      480,
      480,
      480,
      480,
      478,
      478,
      473,
      473,
      462,
      462,
      438,
      438,
      414,
      401,
      401,
      401,
      389,
      389,
      358,
      358,
      358,
      336,
      280,
      280,
      280,
      280,
      255,
      253,
      248,
      208,
      208,
      208,
      153,
      153,
      151,
      151,
      128,
      128,
      128
    ],
    "swim:timestamps": [
      1771595937,
      1771595959,
      1771595959,
      1771595979,
      1771596019,
      1771596079,
      1771596079,
      1771596079,
      1771596199,
      1771596199,
      1771596199,
      1771596199,
      1771596199,
      1771596380,
      1771596380,
      1771596380,
      1771596440,
      1771596440,
      1771596440,
      1771596560,
      1771596560,
      1771596620,
      1771596620,
      1771596680,
      1771596800,
      1771596800,
      1771596800,
      1771596800,
      1771596947,
      1771596947,
      1771597067,
      1771597067,
      1771597067,
      1771597127,
      1771597127,
      1771597160,
      1771597160,
      1771597160,
      1771597187,
      1771597187,
      1771597220,
      1771597247,
      1771597280,
      1771597280,
      1771597340,
      1771597340,
      1771597520,
      1771597580,
      1771597608,
      1771597608,
      1771597668,
      1771597668,
      1771597700,
      1771597728,
      1771597728,
      1771597728,
      1771597760,
      1771597760,
      1771597788,
      1771597941,
      1771597941,
      1771597941,
      1771598001,
      1771598001,
      1771598028,
      1771598028,
      1771598088,
      1771598121,
      1771598148,
      1771598181,
      1771598181,
      1771598181,
      1771598208,
      1771598208,
      1771598241,
      1771598301,
      1771598301,
      1771598301,
      1771598329,
      1771598329,
      1771598389,
      1771598389,
      1771598389,
      1771598449,
      1771598509,
      1771598569,
      1771598569,
      1771598569,
      1771598569,
      1771598689,
      1771598749,
      1771598749,
      1771598749,
      1771598809,
      1771598929,
      1771598929,
      1771598929,
      1771598989,
      1771598989,
      1771598989,
      1771599109,
      1771599109,
      1771599109,
      1771599290,
      1771599350,
      1771599350,
      1771599350,
      1771599470,
      1771599470,
      1771599470,
      1771599470,
      1771599650,
      1771599650,
      1771599650,
      1771599713,
      1771599770,
      1771599770,
      1771599830,
      1771599830,
      1771599830,
      1771600011,
      1771600011,
      1771600011,
      1771600011,
      1771600134,
      1771600134,
      1771600314,
      1771600314,
      1771600314,
      1771600371,
      1771600371,
      1771601095,
      1771601095,
      1771601095,
      1771601215,
      1771601215,
      1771601215,
      1771601215,
      1771601395,
      1771601395,
      1771601395,
      1771601756,
      1771601756,
      1771601756,
      1771601876,
      1771601936,
      1771601936,
      1771602176,
      1771602236,
      1771602236,
      1771602657,
      1771602717,
      1771602717,
      1771602897,
      1771602897,
      1771602897,
      1771602897,
      1771603198,
      1771603198,
      1771603198,
      1771603317,
      1771603378,
      1771603437,
      1771603557,
      1771603617,
      1771603617,
      1771603617,
      1771603918,
      1771603918,
      1771603918,
      1771603918,
      1771604098,
      1771604098,
      1771604339,
      1771604339,
      1771604339,
      1771604339,
      1771604399,
      1771604699,
      1771604759,
      1771604759,
      1771604759,
      1771604759,
      1771604939,
      1771604939,
      1771604939,
      1771605060,
      1771605120,
      1771605120,
      1771605120,
      1771605120,
      1771605360,
      1771605360,
      1771605360,
      1771605420,
      1771605420,
      1771605420,
      1771605540,
      1771605540,
      1771605540,
      1771605781,
      1771605781,
      1771605781,
      1771605781,
      1771605961,
      1771605961,
      1771605961,
      1771605961,
      1771606141,
      1771606201,
      1771606201,
      1771606322,
      1771606322,
      1771606322,
      1771606322,
      1771606382,
      1771606382,
      1771606442,
      1771606502,
      1771606502,
      1771606502,
      1771606502,
      1771606682,
      1771606682,
      1771606682,
      1771606682,
      1771606862,
      1771606923,
      1771606923,
      1771606923,
      1771606923,
      1771606983,
      1771606983,
      1771607043,
      1771607043,
      1771607103,
      1771607163,
      1771607163,
      1771607163,
      1771607223,
      1771607223,
      1771607283,
      1771607283,
      1771607283,
      1771607343,
      1771607403,
      1771607403,
      1771607403,
      1771607403,
      1771607583,
      1771607583,
      1771607583,
      1771607704,
      1771607704,
      1771607764,
      1771607764,
      1771607764,
      1771607764,
      1771607788,
      1771608064,
      1771608124,
      1771608124,
      1771608124,
      1771608124,
      1771608149,
      1771608149,
      1771608184,
      1771608209,
      1771608209,
      1771608364,
      1771608389,
      1771608389,
      1771608389,
      1771608425,
      1771608425,
      1771608485,
      1771608485,
      1771608509,
      1771608509,
      1771608605,
      1771608605,
      1771608665,
      1771608725,
      1771608725,
      1771608725,
      1771608810,
      1771608810,
      1771608965,
      1771608965,
      1771608965,
      1771608990,
      1771609104,
      1771609104,
      1771609170,
      1771609170,
      1771609291,
      1771609300,
      1771609351,
      1771609360,
      1771609360,
      1771609360,
      1771609426,
      1771609426,
      1771609489,
      1771609489,
      1771609591,
      1771609591,
      1771609591
    ],
    "wof:geomhash": "19372c915595579f7300b4f13307391f",
    "wof:id": 2014843343,
    "wof:repo": "sfomuseum-data-flights-2026-02"
  },
  "bbox": [
    -122.36666666666666,
    37.50111111111111,
    -83.255,
    42.41583333333333
  ],
  "geometry": {"coordinates":[[-122.36666666666666,37.63333333333333],[-122.34694444444445,37.64388888888889],[-122.34694444444445,37.64388888888889],[-122.31666666666666,37.65],[-122.26972222222223,37.652499999999996],[-122.17805555555556,37.64611111111111],[-122.17805555555556,37.64611111111111],[-122.17805555555556,37.64611111111111],[-121.99444444444444,37.69611111111111],[-121.99444444444444,37.69611111111111],[-121.99444444444444,37.69611111111111],[-121.99444444444444,37.69611111111111],[-121.99444444444444,37.69611111111111],[-121.64527777777778,37.812777777777775],[-121.64527777777778,37.812777777777775],[-121.64527777777778,37.812777777777775],[-121.51611111111112,37.855555555555554],[-121.51611111111112,37.855555555555554],[-121.51611111111112,37.855555555555554],[-121.2475,37.915],[-121.2475,37.915],[-121.09472222222222,37.94083333333333],[-121.09472222222222,37.94083333333333],[-120.93833333333333,37.967222222222226],[-120.61,38.02222222222222],[-120.61,38.02222222222222],[-120.61,38.02222222222222],[-120.61,38.02222222222222],[-120.18722222222223,38.09027777777778],[-120.18722222222223,38.09027777777778],[-119.83888888888889,38.146388888888886],[-119.83888888888889,38.146388888888886],[-119.83888888888889,38.146388888888886],[-119.66361111111112,38.17388888888889],[-119.66361111111112,38.17388888888889],[-119.57055555555556,38.18888888888888],[-119.57055555555556,38.18888888888888],[-119.57055555555556,38.18888888888888],[-119.48416666666667,38.200833333333335],[-119.48416666666667,38.200833333333335],[-119.37972222222221,38.218333333333334],[-119.30722222222222,38.228611111111114],[-119.2025,38.245555555555555],[-119.2025,38.245555555555555],[-119.02583333333334,38.27166666666667],[-119.02583333333334,38.27166666666667],[-118.49944444444445,38.35],[-118.32333333333332,38.375],[-118.23861111111111,38.3875],[-118.23861111111111,38.3875],[-118.06,38.413333333333334],[-118.06,38.413333333333334],[-117.95555555555556,38.42833333333333],[-117.88444444444445,38.43833333333333],[-117.88444444444445,38.43833333333333],[-117.88444444444445,38.43833333333333],[-117.81027777777777,38.448611111111106],[-117.81027777777777,38.448611111111106],[-117.70722222222223,38.463055555555556],[-117.27777777777777,38.51638888888889],[-117.27777777777777,38.51638888888889],[-117.27777777777777,38.51638888888889],[-117.09388888888888,38.50472222222222],[-117.09388888888888,38.50472222222222],[-116.98611111111111,38.49583333333334],[-116.98611111111111,38.49583333333334],[-116.83999999999999,38.483333333333334],[-116.72666666666667,38.47361111111111],[-116.65694444444445,38.467777777777776],[-116.54555555555555,38.45805555555556],[-116.54555555555555,38.45805555555556],[-116.54555555555555,38.45805555555556],[-116.4738888888889,38.45166666666667],[-116.4738888888889,38.45166666666667],[-116.36472222222221,38.44194444444444],[-116.18361111111112,38.42583333333333],[-116.18361111111112,38.42583333333333],[-116.18361111111112,38.42583333333333],[-116.11361111111111,38.419444444444444],[-116.11361111111111,38.419444444444444],[-115.93444444444445,38.40333333333333],[-115.93444444444445,38.40333333333333],[-115.93444444444445,38.40333333333333],[-115.7538888888889,38.38638888888889],[-115.57666666666667,38.36944444444445],[-115.40166666666667,38.352222222222224],[-115.40166666666667,38.352222222222224],[-115.40166666666667,38.352222222222224],[-115.40166666666667,38.352222222222224],[-115.05055555555555,38.31777777777778],[-114.87916666666666,38.30027777777777],[-114.87916666666666,38.30027777777777],[-114.87916666666666,38.30027777777777],[-114.70444444444445,38.2825],[-114.35499999999999,38.24638888888889],[-114.35499999999999,38.24638888888889],[-114.35499999999999,38.24638888888889],[-114.18166666666667,38.230000000000004],[-114.18166666666667,38.230000000000004],[-114.18166666666667,38.230000000000004],[-113.82777777777777,38.19583333333333],[-113.82777777777777,38.19583333333333],[-113.82777777777777,38.19583333333333],[-113.30027777777778,38.14222222222222],[-113.12638888888888,38.12388888888889],[-113.12638888888888,38.12388888888889],[-113.12638888888888,38.12388888888889],[-112.77388888888889,38.08638888888889],[-112.77388888888889,38.08638888888889],[-112.77388888888889,38.08638888888889],[-112.77388888888889,38.08638888888889],[-112.24305555555556,38.02777777777778],[-112.24305555555556,38.02777777777778],[-112.24305555555556,38.02777777777778],[-112.06388888888888,38.007222222222225],[-111.88722222222223,37.98777777777778],[-111.88722222222223,37.98777777777778],[-111.70722222222223,37.968333333333334],[-111.70722222222223,37.968333333333334],[-111.70722222222223,37.968333333333334],[-111.17500000000001,37.90833333333333],[-111.17500000000001,37.90833333333333],[-111.17500000000001,37.90833333333333],[-111.17500000000001,37.90833333333333],[-110.81222222222222,37.86666666666667],[-110.81222222222222,37.86666666666667],[-110.26027777777777,37.8],[-110.26027777777777,37.8],[-110.26027777777777,37.8],[-110.06805555555555,37.77638888888889],[-110.06805555555555,37.77638888888889],[-107.90444444444445,37.50111111111111],[-107.90444444444445,37.50111111111111],[-107.90444444444445,37.50111111111111],[-107.53194444444445,37.50277777777778],[-107.53194444444445,37.50277777777778],[-107.53194444444445,37.50277777777778],[-107.53194444444445,37.50277777777778],[-106.97777777777777,37.50416666666667],[-106.97777777777777,37.50416666666667],[-106.97777777777777,37.50416666666667],[-105.86999999999999,37.513333333333335],[-105.86999999999999,37.513333333333335],[-105.86999999999999,37.513333333333335],[-105.495,37.550555555555555],[-105.31166666666667,37.56805555555556],[-105.31166666666667,37.56805555555556],[-104.57055555555556,37.63722222222222],[-104.38833333333334,37.653888888888886],[-104.38833333333334,37.653888888888886],[-103.1211111111111,37.75805555555556],[-102.89527777777778,37.775555555555556],[-102.89527777777778,37.775555555555556],[-102.34277777777777,37.816111111111105],[-102.34277777777777,37.816111111111105],[-102.34277777777777,37.816111111111105],[-102.34277777777777,37.816111111111105],[-101.40777777777778,37.87833333333333],[-101.40777777777778,37.87833333333333],[-101.40777777777778,37.87833333333333],[-101.07,37.89861111111111],[-100.87666666666667,37.91],[-100.68666666666667,37.921388888888885],[-100.30666666666666,37.93416666666666],[-100.11833333333333,37.941111111111105],[-100.11833333333333,37.941111111111105],[-100.11833333333333,37.941111111111105],[-99.16861111111112,37.97027777777778],[-99.16861111111112,37.97027777777778],[-99.16861111111112,37.97027777777778],[-99.16861111111112,37.97027777777778],[-98.59722222222221,37.98416666666667],[-98.59722222222221,37.98416666666667],[-97.84638888888888,38.019999999999996],[-97.84638888888888,38.019999999999996],[-97.84638888888888,38.019999999999996],[-97.84638888888888,38.019999999999996],[-97.64805555555556,38.07222222222222],[-96.7088888888889,38.31388888888888],[-96.52166666666666,38.36083333333333],[-96.52166666666666,38.36083333333333],[-96.52166666666666,38.36083333333333],[-96.52166666666666,38.36083333333333],[-95.94861111111112,38.50277777777778],[-95.94861111111112,38.50277777777778],[-95.94861111111112,38.50277777777778],[-95.57166666666666,38.59388888888889],[-95.38583333333334,38.638888888888886],[-95.38583333333334,38.638888888888886],[-95.38583333333334,38.638888888888886],[-95.38583333333334,38.638888888888886],[-94.63305555555554,38.815555555555555],[-94.63305555555554,38.815555555555555],[-94.63305555555554,38.815555555555555],[-94.44444444444444,38.85888888888889],[-94.44444444444444,38.85888888888889],[-94.44444444444444,38.85888888888889],[-94.06555555555555,38.945277777777775],[-94.06555555555555,38.945277777777775],[-94.06555555555555,38.945277777777775],[-93.26222222222222,39.12222222222222],[-93.26222222222222,39.12222222222222],[-93.26222222222222,39.12222222222222],[-93.26222222222222,39.12222222222222],[-92.66416666666667,39.250277777777775],[-92.66416666666667,39.250277777777775],[-92.66416666666667,39.250277777777775],[-92.66416666666667,39.250277777777775],[-92.06638888888888,39.376111111111115],[-91.86833333333333,39.41555555555556],[-91.86833333333333,39.41555555555556],[-91.4725,39.51694444444444],[-91.4725,39.51694444444444],[-91.4725,39.51694444444444],[-91.4725,39.51694444444444],[-91.27194444444444,39.56805555555556],[-91.27194444444444,39.56805555555556],[-91.06805555555555,39.62],[-90.86805555555554,39.670833333333334],[-90.86805555555554,39.670833333333334],[-90.86805555555554,39.670833333333334],[-90.86805555555554,39.670833333333334],[-90.2625,39.82194444444445],[-90.2625,39.82194444444445],[-90.2625,39.82194444444445],[-90.2625,39.82194444444445],[-89.65277777777779,39.970555555555556],[-89.44722222222222,40.01972222222222],[-89.44722222222222,40.01972222222222],[-89.44722222222222,40.01972222222222],[-89.44722222222222,40.01972222222222],[-89.24333333333334,40.06805555555556],[-89.24333333333334,40.06805555555556],[-89.03666666666666,40.11611111111111],[-89.03666666666666,40.11611111111111],[-88.82972222222222,40.16444444444444],[-88.62416666666665,40.211666666666666],[-88.62416666666665,40.211666666666666],[-88.62416666666665,40.211666666666666],[-88.3963888888889,40.26361111111111],[-88.3963888888889,40.26361111111111],[-88.21166666666667,40.305277777777775],[-88.21166666666667,40.305277777777775],[-88.21166666666667,40.305277777777775],[-87.98361111111112,40.35638888888889],[-87.7775,40.40222222222222],[-87.7775,40.40222222222222],[-87.7775,40.40222222222222],[-87.7775,40.40222222222222],[-87.15694444444445,40.5375],[-87.15694444444445,40.5375],[-87.15694444444445,40.5375],[-86.73527777777778,40.583333333333336],[-86.73527777777778,40.583333333333336],[-86.5213888888889,40.60027777777778],[-86.5213888888889,40.60027777777778],[-86.5213888888889,40.60027777777778],[-86.5213888888889,40.60027777777778],[-86.40805555555556,40.60916666666667],[-85.45111111111112,40.82666666666667],[-85.26361111111112,40.87277777777778],[-85.26361111111112,40.87277777777778],[-85.26361111111112,40.87277777777778],[-85.26361111111112,40.87277777777778],[-85.20361111111112,40.90361111111111],[-85.20361111111112,40.90361111111111],[-85.11999999999999,40.95944444444445],[-85.06583333333333,40.995],[-85.06583333333333,40.995],[-84.71805555555555,41.227222222222224],[-84.66583333333334,41.265],[-84.66583333333334,41.265],[-84.66583333333334,41.265],[-84.59277777777777,41.318333333333335],[-84.59277777777777,41.318333333333335],[-84.46833333333333,41.40888888888889],[-84.46833333333333,41.40888888888889],[-84.42055555555557,41.44944444444444],[-84.42055555555557,41.44944444444444],[-84.28305555555555,41.61083333333333],[-84.28305555555555,41.61083333333333],[-84.20027777777779,41.70888888888889],[-84.10055555555554,41.78944444444444],[-84.10055555555554,41.78944444444444],[-84.10055555555554,41.78944444444444],[-83.95861111111111,41.8875],[-83.95861111111111,41.8875],[-83.67972222222222,42.081388888888895],[-83.67972222222222,42.081388888888895],[-83.67972222222222,42.081388888888895],[-83.64555555555556,42.10444444444445],[-83.50555555555556,42.228611111111114],[-83.50555555555556,42.228611111111114],[-83.46027777777778,42.29111111111111],[-83.46027777777778,42.29111111111111],[-83.36027777777777,42.41555555555556],[-83.33749999999999,42.41583333333333],[-83.27055555555556,42.40361111111111],[-83.255,42.39277777777778],[-83.255,42.39277777777778],[-83.255,42.39277777777778],[-83.27694444444444,42.34722222222222],[-83.27694444444444,42.34722222222222],[-83.30555555555556,42.309444444444445],[-83.30555555555556,42.309444444444445],[-83.34305555555555,42.257777777777775],[-83.34305555555555,42.257777777777775],[-83.34305555555555,42.257777777777775]],"type":"LineString"}
}
