{
  "id": 2014807803,
  "type": "Feature",
  "properties": {
    "geom:area": 0,
    "geom:bbox": "-123.348611,37.428056,-122.100000,44.146389",
    "geom:latitude": 40.544628942595565,
    "geom:longitude": -123.01454154889656,
    "src:alt_label": "swim-path",
    "src:geom": "swim",
    "swim:altitudes": [
      "016",
      "016",
      "016",
      "016",
      "016",
      "096",
      "096",
      "096",
      "096",
      "096",
      "096",
      "096",
      "163",
      "163",
      "163",
      "186",
      "186",
      "186",
      "186",
      "186",
      "186",
      "186",
      "284",
      "284",
      "284",
      "284",
      "284",
      "299",
      "308",
      "308",
      "308",
      "318",
      "318",
      "318",
      "318",
      "318",
      "318",
      "318",
      "328",
      "338",
      "338",
      "338",
      "351",
      "354",
      "354",
      "354",
      "355",
      "350C",
      "350C",
      "350C",
      "350C",
      "350C",
      "350C",
      "350C",
      "350C",
      "350C",
      "351C",
      "351C",
      "351C",
      "350C",
      "350C",
      "350C",
      "350C",
      "350C",
      "350C",
      "350C",
      "350C",
      "350C",
      "351C",
      "351C",
      "351C",
      "351C",
      "351C",
      "351C",
      "350C",
      "350C",
      "350C",
      "350C",
      "350C",
      "350C",
      "350C",
      "350C",
      "350C",
      "350C",
      "350C",
      "351C",
      "351C",
      "351C",
      "351C",
      "351C",
      "351C",
      "351C",
      "351C",
      "351C",
      "351C",
      "350C",
      "350C",
      "350",
      "350",
      "350",
      "350",
      "350",
      "350",
      "350",
      "350",
      "350",
      "350",
      "350",
      "350",
      "334",
      "334",
      "334",
      "334",
      "334",
      "324",
      "324",
      "324",
      "324",
      "260",
      "260",
      "260",
      "260",
      "260",
      "237",
      "237",
      "176",
      "176",
      "176",
      "176",
      "172",
      "172",
      "172",
      "172",
      "139",
      "139",
      "132",
      "119",
      "119",
      "119",
      "119",
      "119",
      "112",
      "112",
      "109",
      "109",
      "109",
      "110",
      "110",
      "110",
      "110",
      "107",
      "107",
      "087",
      "087",
      "087",
      "087",
      "087",
      "087",
      "043",
      "040",
      "040",
      "040",
      "040",
      "040",
      "040",
      "040",
      "040",
      "032",
      "032",
      "032",
      "030",
      "030",
      "030",
      "028",
      "028",
      "024",
      "024",
      "024",
      "011",
      "011",
      "011",
      "011",
      "004",
      "004",
      "004",
      "004",
      "004",
      "004",
      "004"
    ],
    "swim:geom": "path",
    "swim:speeds": [
      148,
      148,
      148,
      148,
      148,
      256,
      256,
      256,
      256,
      256,
      256,
      256,
      331,
      331,
      331,
      351,
      351,
      351,
      351,
      351,
      351,
      351,
      318,
      318,
      318,
      318,
      318,
      345,
      370,
      370,
      370,
      378,
      378,
      378,
      378,
      378,
      378,
      378,
      389,
      384,
      384,
      384,
      382,
      387,
      387,
      387,
      387,
      401,
      401,
      407,
      407,
      408,
      408,
      408,
      408,
      408,
      406,
      406,
      406,
      406,
      406,
      406,
      407,
      407,
      407,
      407,
      407,
      407,
      407,
      406,
      406,
      406,
      406,
      406,
      404,
      402,
      402,
      400,
      400,
      400,
      400,
      400,
      400,
      400,
      402,
      405,
      405,
      405,
      405,
      403,
      403,
      403,
      395,
      395,
      395,
      388,
      388,
      383,
      383,
      383,
      383,
      383,
      383,
      383,
      383,
      383,
      383,
      383,
      383,
      377,
      377,
      377,
      377,
      377,
      376,
      376,
      376,
      376,
      306,
      306,
      306,
      306,
      306,
      311,
      311,
      310,
      310,
      310,
      310,
      309,
      309,
      309,
      309,
      331,
      331,
      329,
      310,
      310,
      310,
      310,
      310,
      291,
      291,
      270,
      270,
      270,
      248,
      248,
      248,
      248,
      246,
      246,
      246,
      246,
      246,
      246,
      246,
      246,
      190,
      193,
      193,
      193,
      193,
      196,
      196,
      196,
      196,
      187,
      187,
      187,
      182,
      182,
      182,
      179,
      179,
      179,
      179,
      179,
      145,
      145,
      145,
      145,
      147,
      147,
      147,
      147,
      147,
      147,
      147
    ],
    "swim:timestamps": [
      1771251563,
      1771251563,
      1771251563,
      1771251563,
      1771251563,
      1771251756,
      1771251756,
      1771251756,
      1771251756,
      1771251756,
      1771251756,
      1771251756,
      1771251936,
      1771251936,
      1771251936,
      1771251996,
      1771251996,
      1771251996,
      1771251996,
      1771251996,
      1771251996,
      1771251996,
      1771252236,
      1771252236,
      1771252236,
      1771252236,
      1771252236,
      1771252363,
      1771252423,
      1771252423,
      1771252423,
      1771252483,
      1771252483,
      1771252483,
      1771252483,
      1771252483,
      1771252483,
      1771252483,
      1771252536,
      1771252596,
      1771252596,
      1771252596,
      1771252656,
      1771252717,
      1771252717,
      1771252717,
      1771252723,
      1771252837,
      1771252837,
      1771252843,
      1771252843,
      1771252957,
      1771252963,
      1771252963,
      1771252963,
      1771252963,
      1771253137,
      1771253137,
      1771253137,
      1771253257,
      1771253257,
      1771253257,
      1771253324,
      1771253324,
      1771253377,
      1771253377,
      1771253437,
      1771253437,
      1771253444,
      1771253497,
      1771253504,
      1771253504,
      1771253504,
      1771253504,
      1771253557,
      1771253617,
      1771253617,
      1771253677,
      1771253677,
      1771253677,
      1771253744,
      1771253744,
      1771253744,
      1771253744,
      1771253804,
      1771253864,
      1771253864,
      1771253864,
      1771253864,
      1771253977,
      1771253977,
      1771253977,
      1771254037,
      1771254037,
      1771254037,
      1771254097,
      1771254097,
      1771254164,
      1771254164,
      1771254164,
      1771254164,
      1771254164,
      1771254284,
      1771254284,
      1771254284,
      1771254284,
      1771254284,
      1771254284,
      1771254284,
      1771254645,
      1771254645,
      1771254645,
      1771254645,
      1771254645,
      1771254705,
      1771254705,
      1771254705,
      1771254705,
      1771254885,
      1771254885,
      1771254885,
      1771254885,
      1771254885,
      1771254945,
      1771254945,
      1771255185,
      1771255185,
      1771255185,
      1771255185,
      1771255198,
      1771255198,
      1771255198,
      1771255198,
      1771255378,
      1771255378,
      1771255425,
      1771255485,
      1771255485,
      1771255485,
      1771255485,
      1771255485,
      1771255504,
      1771255504,
      1771255545,
      1771255545,
      1771255545,
      1771255605,
      1771255605,
      1771255605,
      1771255605,
      1771255630,
      1771255630,
      1771255726,
      1771255726,
      1771255726,
      1771255726,
      1771255726,
      1771255726,
      1771255870,
      1771255906,
      1771255906,
      1771255906,
      1771255906,
      1771255990,
      1771255990,
      1771255990,
      1771255990,
      1771256050,
      1771256050,
      1771256050,
      1771256086,
      1771256086,
      1771256086,
      1771256110,
      1771256110,
      1771256146,
      1771256146,
      1771256146,
      1771256230,
      1771256230,
      1771256230,
      1771256230,
      1771256284,
      1771256284,
      1771256284,
      1771256284,
      1771256284,
      1771256284,
      1771256284
    ],
    "wof:geomhash": "3223ec34cf02a9dc01153d3e78507949",
    "wof:id": 2014807803,
    "wof:repo": "sfomuseum-data-flights-2026-02"
  },
  "bbox": [
    -123.34861111111111,
    37.42805555555555,
    -122.1,
    44.146388888888886
  ],
  "geometry": {"coordinates":[[-123.21861111111112,44.146388888888886],[-123.21861111111112,44.146388888888886],[-123.21861111111112,44.146388888888886],[-123.21861111111112,44.146388888888886],[-123.21861111111112,44.146388888888886],[-123.3261111111111,44.04388888888889],[-123.3261111111111,44.04388888888889],[-123.3261111111111,44.04388888888889],[-123.3261111111111,44.04388888888889],[-123.3261111111111,44.04388888888889],[-123.3261111111111,44.04388888888889],[-123.3261111111111,44.04388888888889],[-123.33416666666666,43.78444444444444],[-123.33416666666666,43.78444444444444],[-123.33416666666666,43.78444444444444],[-123.33694444444444,43.68805555555555],[-123.33694444444444,43.68805555555555],[-123.33694444444444,43.68805555555555],[-123.33694444444444,43.68805555555555],[-123.33694444444444,43.68805555555555],[-123.33694444444444,43.68805555555555],[-123.33694444444444,43.68805555555555],[-123.34861111111111,43.301111111111105],[-123.34861111111111,43.301111111111105],[-123.34861111111111,43.301111111111105],[-123.34861111111111,43.301111111111105],[-123.34861111111111,43.301111111111105],[-123.34305555555555,43.10333333333333],[-123.33361111111111,42.99888888888889],[-123.33361111111111,42.99888888888889],[-123.33361111111111,42.99888888888889],[-123.32277777777777,42.89277777777778],[-123.32277777777777,42.89277777777778],[-123.32277777777777,42.89277777777778],[-123.32277777777777,42.89277777777778],[-123.32277777777777,42.89277777777778],[-123.32277777777777,42.89277777777778],[-123.32277777777777,42.89277777777778],[-123.31416666666667,42.78972222222222],[-123.30611111111111,42.70583333333334],[-123.30611111111111,42.70583333333334],[-123.30611111111111,42.70583333333334],[-123.29527777777777,42.59444444444445],[-123.285,42.48722222222222],[-123.285,42.48722222222222],[-123.285,42.48722222222222],[-123.28222222222222,42.46527777777778],[-123.26416666666667,42.26777777777777],[-123.26416666666667,42.26777777777777],[-123.26194444444444,42.24305555555556],[-123.26194444444444,42.24305555555556],[-123.24305555555556,42.041666666666664],[-123.24055555555556,42.01833333333333],[-123.24055555555556,42.01833333333333],[-123.24055555555556,42.01833333333333],[-123.24055555555556,42.01833333333333],[-123.21138888888889,41.70527777777778],[-123.21138888888889,41.70527777777778],[-123.21138888888889,41.70527777777778],[-123.18833333333333,41.458333333333336],[-123.18833333333333,41.458333333333336],[-123.18833333333333,41.458333333333336],[-123.17805555555556,41.345555555555556],[-123.17805555555556,41.345555555555556],[-123.16833333333334,41.24],[-123.16833333333334,41.24],[-123.15777777777778,41.126666666666665],[-123.15777777777778,41.126666666666665],[-123.1563888888889,41.108333333333334],[-123.14750000000001,41.01416666666667],[-123.14750000000001,41.015],[-123.14750000000001,41.015],[-123.14750000000001,41.015],[-123.14750000000001,41.015],[-123.1375,40.90361111111111],[-123.12805555555555,40.79888888888889],[-123.12805555555555,40.79888888888889],[-123.11805555555554,40.6875],[-123.11805555555554,40.6875],[-123.11805555555554,40.6875],[-123.1061111111111,40.55472222222222],[-123.1061111111111,40.55472222222222],[-123.1061111111111,40.55472222222222],[-123.1061111111111,40.55472222222222],[-123.0961111111111,40.44333333333333],[-123.08611111111111,40.331388888888895],[-123.08611111111111,40.331388888888895],[-123.08611111111111,40.331388888888895],[-123.08611111111111,40.331388888888895],[-123.0675,40.12027777777778],[-123.0675,40.12027777777778],[-123.0675,40.12027777777778],[-123.05749999999999,40.00944444444445],[-123.05749999999999,40.00944444444445],[-123.05749999999999,40.00944444444445],[-123.04833333333333,39.903055555555554],[-123.04833333333333,39.903055555555554],[-123.03805555555556,39.78861111111111],[-123.03805555555556,39.78861111111111],[-123.03805555555556,39.78861111111111],[-123.03805555555556,39.78861111111111],[-123.03805555555556,39.78861111111111],[-123.01972222222223,39.57805555555556],[-123.01972222222223,39.57805555555556],[-123.01972222222223,39.57805555555556],[-123.01972222222223,39.57805555555556],[-123.01972222222223,39.57805555555556],[-123.01972222222223,39.57805555555556],[-123.01972222222223,39.57805555555556],[-122.96388888888889,38.93555555555555],[-122.96388888888889,38.93555555555555],[-122.96388888888889,38.93555555555555],[-122.96388888888889,38.93555555555555],[-122.96388888888889,38.93555555555555],[-122.94666666666667,38.83388888888889],[-122.94666666666667,38.83388888888889],[-122.94666666666667,38.83388888888889],[-122.94666666666667,38.83388888888889],[-122.86944444444444,38.573055555555555],[-122.86944444444444,38.573055555555555],[-122.86944444444444,38.573055555555555],[-122.86944444444444,38.573055555555555],[-122.86944444444444,38.573055555555555],[-122.84472222222222,38.48972222222222],[-122.84472222222222,38.48972222222222],[-122.7461111111111,38.151944444444446],[-122.7461111111111,38.151944444444446],[-122.7461111111111,38.151944444444446],[-122.7461111111111,38.151944444444446],[-122.73333333333333,38.13333333333333],[-122.73333333333333,38.13333333333333],[-122.73333333333333,38.13333333333333],[-122.73333333333333,38.13333333333333],[-122.65,37.88333333333333],[-122.65,37.88333333333333],[-122.59916666666666,37.82972222222222],[-122.52805555555555,37.76277777777778],[-122.52805555555555,37.76277777777778],[-122.52805555555555,37.76277777777778],[-122.52805555555555,37.76277777777778],[-122.52805555555555,37.76277777777778],[-122.5,37.733333333333334],[-122.5,37.733333333333334],[-122.46472222222222,37.70305555555556],[-122.46472222222222,37.70305555555556],[-122.46472222222222,37.70305555555556],[-122.40861111111111,37.650277777777774],[-122.40861111111111,37.650277777777774],[-122.40861111111111,37.650277777777774],[-122.40861111111111,37.650277777777774],[-122.38333333333334,37.61666666666667],[-122.38333333333334,37.61666666666667],[-122.32249999999999,37.53361111111111],[-122.32249999999999,37.53361111111111],[-122.32249999999999,37.53361111111111],[-122.32249999999999,37.53361111111111],[-122.32249999999999,37.53361111111111],[-122.32249999999999,37.53361111111111],[-122.18333333333334,37.43333333333333],[-122.15027777777779,37.42805555555555],[-122.15027777777779,37.42805555555555],[-122.15027777777779,37.42805555555555],[-122.15027777777779,37.42805555555555],[-122.1,37.483333333333334],[-122.1,37.483333333333334],[-122.1,37.483333333333334],[-122.1,37.483333333333334],[-122.13333333333334,37.516666666666666],[-122.13333333333334,37.516666666666666],[-122.13333333333334,37.516666666666666],[-122.16583333333334,37.53055555555555],[-122.16583333333334,37.53055555555555],[-122.16583333333334,37.53055555555555],[-122.2,37.55],[-122.2,37.55],[-122.22027777777778,37.55361111111111],[-122.22027777777778,37.55361111111111],[-122.22027777777778,37.55361111111111],[-122.3,37.583333333333336],[-122.3,37.583333333333336],[-122.3,37.583333333333336],[-122.3,37.583333333333336],[-122.33333333333333,37.6],[-122.33333333333333,37.6],[-122.33333333333333,37.6],[-122.33333333333333,37.6],[-122.33333333333333,37.6],[-122.33333333333333,37.6],[-122.33333333333333,37.6]],"type":"LineString"}
}
