{
  "id": 2014828347,
  "type": "Feature",
  "properties": {
    "geom:area": 0,
    "geom:bbox": "-122.341290,37.650160,-122.036390,38.519030",
    "geom:latitude": 38.06393544947242,
    "geom:longitude": -122.16466976149607,
    "src:alt_label": "swim-takeoff",
    "src:geom": "swim",
    "swim:elevations": [
      648,
      1047,
      1164,
      1392,
      1734,
      2019,
      2603,
      3136,
      3325,
      3935,
      4310,
      4902,
      5114,
      5365,
      5916,
      6487,
      6857,
      7010,
      7010,
      7010,
      7515,
      7557
    ],
    "swim:geom": "takeoff",
    "swim:timestamps": [
      1771432488,
      1771432522,
      1771432541,
      1771432564,
      1771432587,
      1771432603,
      1771432638,
      1771432669,
      1771432698,
      1771432734,
      1771432755,
      1771432796,
      1771432813,
      1771432839,
      1771432879,
      1771432915,
      1771432945,
      1771432988,
      1771433017,
      1771433040,
      1771433098,
      1771433102
    ],
    "wof:geomhash": "e82cf1a36dc35391e2d260f064f250fa",
    "wof:id": 2014828347,
    "wof:repo": "sfomuseum-data-flights-2026-02"
  },
  "bbox": [
    -122.34129,
    37.65016,
    -122.03639,
    38.51903
  ],
  "geometry": {"coordinates":[[-122.34129,37.65016],[-122.31216,37.66553],[-122.29243,37.67653],[-122.26523,37.6918],[-122.23438,37.70825],[-122.21768,37.72358],[-122.20617,37.76744],[-122.1993,37.80878],[-122.19288,37.84955],[-122.18347,37.9057],[-122.17835,37.93663],[-122.1686,37.99891],[-122.16443,38.02534],[-122.15734,38.06831],[-122.14615,38.13445],[-122.13573,38.19619],[-122.12764,38.24621],[-122.11533,38.32262],[-122.11544,38.37258],[-122.11207,38.41164],[-122.04231,38.51096],[-122.03639,38.51903]],"type":"LineString"}
}
