{
  "id": 2014909843,
  "type": "Feature",
  "properties": {
    "geom:area": 0,
    "geom:bbox": "-122.384167,33.648611,-84.500000,39.057778",
    "geom:latitude": 37.61481114263153,
    "geom:longitude": -103.31839960634557,
    "src:alt_label": "swim-path",
    "src:geom": "swim",
    "swim:altitudes": [
      "011",
      "028",
      "075",
      "075",
      "101",
      "101",
      "112",
      "164",
      "185",
      "185",
      "185",
      "201",
      "247",
      "273",
      "291",
      "306",
      "312",
      "321",
      "323",
      "323",
      "323",
      "329C",
      "330C",
      "330C",
      "330C",
      "330C",
      "330C",
      "330C",
      "330C",
      "330C",
      "330C",
      "330C",
      "330C",
      "330C",
      "330C",
      "330C",
      "330C",
      "330C",
      "330C",
      "330C",
      "330C",
      "330C",
      "330C",
      "330C",
      "330C",
      "330C",
      "330C",
      "330C",
      "330C",
      "330C",
      "330C",
      "330C",
      "330C",
      "330C",
      "330C",
      "330C",
      "330C",
      "330C",
      "330C",
      "330C",
      "330C",
      "330C",
      "330C",
      "330C",
      "330C",
      "339",
      "346",
      "350C",
      "350C",
      "350C",
      "350C",
      "350C",
      "350C",
      "350C",
      "350C",
      "350C",
      "350C",
      "350C",
      "350C",
      "350C",
      "350C",
      "350C",
      "350C",
      "350C",
      "350C",
      "350C",
      "350C",
      "350C",
      "350C",
      "350C",
      "350C",
      "350C",
      "350C",
      "350C",
      "350C",
      "350C",
      "350C",
      "350C",
      "350C",
      "350C",
      "350C",
      "350C",
      "350C",
      "350C",
      "350C",
      "350C",
      "350C",
      "350C",
      "350C",
      "350C",
      "350C",
      "350C",
      "350C",
      "350C",
      "350C",
      "350C",
      "350C",
      "350C",
      "350C",
      "350C",
      "350C",
      "350C",
      "350C",
      "350C",
      "350C",
      "350C",
      "350C",
      "350C",
      "350C",
      "350C",
      "350C",
      "350C",
      "350C",
      "350C",
      "350C",
      "350C",
      "350C",
      "350C",
      "350C",
      "350C",
      "350C",
      "350C",
      "350C",
      "350C",
      "350C",
      "350C",
      "350C",
      "350C",
      "350C",
      "350C",
      "350C",
      "350C",
      "350C",
      "350C",
      "350C",
      "350C",
      "350C",
      "350C",
      "350C",
      "350C",
      "350C",
      "350C",
      "350C",
      "350C",
      "350C",
      "350C",
      "350C",
      "350C",
      "350C",
      "350C",
      "350C",
      "350C",
      "350C",
      "350C",
      "350C",
      "350C",
      "350C",
      "350C",
      "350C",
      "350C",
      "350C",
      "350C",
      "350C",
      "350C",
      "350C",
      "350C",
      "350C",
      "350C",
      "350C",
      "350C",
      "350C",
      "350C",
      "350C",
      "350C",
      "350C",
      "350C",
      "350C",
      "350C",
      "350C",
      "350C",
      "350C",
      "350C",
      "350C",
      "350C",
      "350C",
      "350C",
      "350C",
      "350C",
      "350C",
      "350C",
      "350C",
      "350C",
      "350C",
      "350C",
      "350C",
      "350C",
      "350C",
      "350C",
      "350C",
      "350C",
      "350",
      "342",
      "342",
      "333",
      "333",
      "330C",
      "330C",
      "330C",
      "330C",
      "330C",
      "330C",
      "330C",
      "330C",
      "330C",
      "330C",
      "306",
      "306",
      "296",
      "291",
      "291",
      "291",
      "225",
      "225",
      "225",
      "152",
      "152",
      "140",
      "140",
      "111",
      "105",
      "105",
      "105",
      "078",
      "078",
      "074",
      "074",
      "067",
      "067",
      "067",
      "050",
      "050",
      "050",
      "050",
      "049",
      "046",
      "046",
      "046",
      "039",
      "037",
      "020",
      "020",
      "020"
    ],
    "swim:geom": "path",
    "swim:speeds": [
      189,
      229,
      280,
      280,
      293,
      293,
      341,
      423,
      435,
      435,
      435,
      447,
      469,
      527,
      520,
      500,
      499,
      500,
      504,
      504,
      504,
      510,
      515,
      517,
      517,
      516,
      516,
      516,
      505,
      503,
      503,
      500,
      499,
      497,
      497,
      497,
      496,
      495,
      495,
      496,
      496,
      496,
      496,
      500,
      503,
      507,
      509,
      509,
      509,
      512,
      511,
      511,
      511,
      509,
      509,
      510,
      510,
      514,
      514,
      516,
      516,
      516,
      520,
      520,
      521,
      526,
      527,
      532,
      532,
      535,
      537,
      535,
      535,
      536,
      536,
      534,
      534,
      532,
      532,
      532,
      533,
      533,
      533,
      534,
      534,
      536,
      538,
      541,
      541,
      542,
      543,
      543,
      544,
      544,
      544,
      545,
      545,
      544,
      544,
      544,
      546,
      546,
      546,
      544,
      544,
      541,
      542,
      542,
      542,
      543,
      543,
      542,
      542,
      542,
      541,
      533,
      534,
      534,
      531,
      529,
      529,
      529,
      526,
      528,
      528,
      528,
      526,
      526,
      525,
      526,
      524,
      524,
      525,
      524,
      524,
      523,
      523,
      519,
      520,
      520,
      517,
      517,
      516,
      516,
      514,
      513,
      513,
      513,
      512,
      511,
      511,
      511,
      508,
      508,
      506,
      503,
      503,
      504,
      504,
      504,
      503,
      503,
      503,
      503,
      503,
      503,
      506,
      506,
      505,
      505,
      507,
      509,
      509,
      509,
      516,
      516,
      516,
      513,
      513,
      513,
      510,
      510,
      511,
      511,
      511,
      511,
      512,
      512,
      511,
      511,
      511,
      509,
      506,
      506,
      507,
      507,
      507,
      508,
      508,
      508,
      508,
      509,
      509,
      509,
      508,
      509,
      508,
      504,
      501,
      501,
      501,
      498,
      496,
      493,
      493,
      490,
      491,
      491,
      498,
      498,
      495,
      494,
      494,
      497,
      497,
      497,
      496,
      496,
      492,
      492,
      492,
      492,
      489,
      489,
      489,
      487,
      487,
      489,
      489,
      489,
      489,
      448,
      448,
      448,
      392,
      392,
      382,
      382,
      302,
      305,
      305,
      305,
      283,
      283,
      282,
      282,
      265,
      265,
      265,
      205,
      205,
      205,
      208,
      180,
      183,
      183,
      183,
      188,
      187,
      162,
      162,
      162
    ],
    "swim:timestamps": [
      1772288136,
      1772288196,
      1772288316,
      1772288316,
      1772288376,
      1772288376,
      1772288436,
      1772288616,
      1772288676,
      1772288676,
      1772288676,
      1772288736,
      1772288916,
      1772289096,
      1772289138,
      1772289216,
      1772289258,
      1772289319,
      1772289337,
      1772289337,
      1772289337,
      1772289397,
      1772289517,
      1772289619,
      1772289619,
      1772289637,
      1772289637,
      1772289697,
      1772289799,
      1772289859,
      1772289859,
      1772289937,
      1772289979,
      1772290039,
      1772290039,
      1772290039,
      1772290099,
      1772290159,
      1772290177,
      1772290219,
      1772290219,
      1772290237,
      1772290237,
      1772290357,
      1772290400,
      1772290477,
      1772290520,
      1772290520,
      1772290520,
      1772290700,
      1772290760,
      1772290760,
      1772290760,
      1772290820,
      1772290820,
      1772291000,
      1772291000,
      1772291301,
      1772291301,
      1772291421,
      1772291421,
      1772291421,
      1772291721,
      1772291721,
      1772291781,
      1772291901,
      1772291961,
      1772292003,
      1772292003,
      1772292142,
      1772292243,
      1772292262,
      1772292262,
      1772292363,
      1772292363,
      1772292442,
      1772292442,
      1772292562,
      1772292604,
      1772292604,
      1772292664,
      1772292664,
      1772292724,
      1772292742,
      1772292742,
      1772292844,
      1772292904,
      1772292983,
      1772292983,
      1772293043,
      1772293084,
      1772293084,
      1772293144,
      1772293144,
      1772293204,
      1772293385,
      1772293385,
      1772293505,
      1772293505,
      1772293505,
      1772293745,
      1772293745,
      1772293745,
      1772293985,
      1772293985,
      1772294307,
      1772294346,
      1772294346,
      1772294346,
      1772294406,
      1772294406,
      1772294547,
      1772294547,
      1772294547,
      1772294586,
      1772294766,
      1772294787,
      1772294787,
      1772294827,
      1772294908,
      1772294968,
      1772294968,
      1772295007,
      1772295028,
      1772295028,
      1772295028,
      1772295088,
      1772295088,
      1772295127,
      1772295148,
      1772295187,
      1772295187,
      1772295208,
      1772295268,
      1772295328,
      1772295367,
      1772295367,
      1772295487,
      1772295508,
      1772295508,
      1772295548,
      1772295548,
      1772295608,
      1772295608,
      1772295689,
      1772295806,
      1772295806,
      1772295806,
      1772295866,
      1772295926,
      1772295986,
      1772295986,
      1772296166,
      1772296166,
      1772296227,
      1772296347,
      1772296347,
      1772296407,
      1772296407,
      1772296407,
      1772296527,
      1772296527,
      1772296587,
      1772296587,
      1772296647,
      1772296647,
      1772296828,
      1772296828,
      1772296951,
      1772296951,
      1772297008,
      1772297191,
      1772297191,
      1772297191,
      1772297429,
      1772297429,
      1772297429,
      1772297669,
      1772297669,
      1772297669,
      1772297912,
      1772297912,
      1772297972,
      1772298030,
      1772298030,
      1772298030,
      1772298152,
      1772298152,
      1772298333,
      1772298333,
      1772298333,
      1772298393,
      1772298570,
      1772298570,
      1772298693,
      1772298693,
      1772298693,
      1772299047,
      1772299047,
      1772299047,
      1772299114,
      1772299174,
      1772299174,
      1772299294,
      1772299354,
      1772299408,
      1772299414,
      1772299528,
      1772299594,
      1772299594,
      1772299594,
      1772299654,
      1772299714,
      1772299775,
      1772299775,
      1772299828,
      1772299835,
      1772299835,
      1772300008,
      1772300008,
      1772300129,
      1772300195,
      1772300195,
      1772300249,
      1772300249,
      1772300309,
      1772300369,
      1772300375,
      1772300429,
      1772300435,
      1772300435,
      1772300435,
      1772300556,
      1772300556,
      1772300556,
      1772300736,
      1772300736,
      1772300790,
      1772300796,
      1772300796,
      1772300796,
      1772300976,
      1772300976,
      1772300976,
      1772301210,
      1772301210,
      1772301245,
      1772301245,
      1772301420,
      1772301450,
      1772301450,
      1772301450,
      1772301599,
      1772301599,
      1772301631,
      1772301631,
      1772301660,
      1772301660,
      1772301660,
      1772301780,
      1772301780,
      1772301780,
      1772301811,
      1772301840,
      1772301871,
      1772301871,
      1772301871,
      1772301900,
      1772301931,
      1772302020,
      1772302020,
      1772302020
    ],
    "wof:geomhash": "e5df0dcfd0ff6c50a031308a7e80da5d",
    "wof:id": 2014909843,
    "wof:repo": "sfomuseum-data-flights-2026-02"
  },
  "bbox": [
    -122.38416666666667,
    33.64861111111111,
    -84.5,
    39.05777777777777
  ],
  "geometry": {"coordinates":[[-122.3586111111111,37.63972222222222],[-122.31444444444445,37.68416666666666],[-122.37583333333333,37.822500000000005],[-122.37583333333333,37.822500000000005],[-122.38416666666667,37.903888888888886],[-122.38416666666667,37.903888888888886],[-122.30083333333333,37.95611111111111],[-121.88972222222223,38.010555555555555],[-121.72722222222222,38.033055555555556],[-121.72722222222222,38.033055555555556],[-121.72722222222222,38.033055555555556],[-121.57333333333332,38.053888888888885],[-121.09305555555555,38.11666666666667],[-120.56361111111111,38.18555555555555],[-120.44944444444445,38.19833333333333],[-120.21388888888889,38.22888888888889],[-120.10388888888889,38.24111111111111],[-119.92861111111111,38.2625],[-119.8611111111111,38.27166666666667],[-119.8611111111111,38.27166666666667],[-119.8611111111111,38.27166666666667],[-119.68388888888889,38.29277777777778],[-119.31833333333333,38.33555555555556],[-119.03166666666667,38.36694444444444],[-119.03166666666667,38.36694444444444],[-118.9588888888889,38.376111111111115],[-118.9588888888889,38.376111111111115],[-118.78,38.39611111111111],[-118.49861111111112,38.426944444444445],[-118.28999999999999,38.44944444444444],[-118.28999999999999,38.44944444444444],[-118.0786111111111,38.47138888888889],[-117.97500000000001,38.48222222222223],[-117.80277777777778,38.5],[-117.80277777777778,38.5],[-117.80277777777778,38.5],[-117.625,38.518055555555556],[-117.45166666666667,38.535],[-117.37833333333333,38.54222222222222],[-117.27583333333334,38.551944444444445],[-117.27583333333334,38.551944444444445],[-117.20166666666667,38.559444444444445],[-117.20166666666667,38.559444444444445],[-116.8425,38.593611111111116],[-116.73916666666666,38.60305555555556],[-116.48333333333333,38.626666666666665],[-116.37583333333333,38.63583333333333],[-116.37583333333333,38.63583333333333],[-116.37583333333333,38.63583333333333],[-115.83361111111111,38.681666666666665],[-115.65083333333334,38.69694444444444],[-115.65083333333334,38.69694444444444],[-115.65083333333334,38.69694444444444],[-115.47222222222223,38.711666666666666],[-115.47222222222223,38.711666666666666],[-114.94527777777778,38.753055555555555],[-114.94527777777778,38.753055555555555],[-114.03555555555555,38.81916666666667],[-114.03555555555555,38.81916666666667],[-113.66555555555556,38.84388888888889],[-113.66555555555556,38.84388888888889],[-113.66555555555556,38.84388888888889],[-112.74277777777777,38.900555555555556],[-112.74277777777777,38.900555555555556],[-112.5586111111111,38.91083333333333],[-112.18333333333334,38.93111111111111],[-111.99388888888889,38.94083333333333],[-111.8425,38.947222222222216],[-111.8425,38.947222222222216],[-111.42416666666666,38.968333333333334],[-111.09166666666667,38.983333333333334],[-111.01361111111112,38.986666666666665],[-111.01361111111112,38.986666666666665],[-110.71111111111111,38.99916666666667],[-110.71111111111111,38.99916666666667],[-110.44527777777778,39.00944444444445],[-110.44527777777778,39.00944444444445],[-110.06638888888888,39.02305555555555],[-109.95583333333333,39.026666666666664],[-109.95583333333333,39.026666666666664],[-109.76472222222222,39.032777777777774],[-109.76472222222222,39.032777777777774],[-109.57444444444444,39.03861111111111],[-109.49722222222222,39.04111111111111],[-109.49722222222222,39.04111111111111],[-109.19388888888889,39.04944444444444],[-109.00194444444445,39.05444444444444],[-108.7325,39.05777777777777],[-108.7325,39.05777777777777],[-108.54277777777777,39.05305555555555],[-108.4263888888889,39.05],[-108.4263888888889,39.05],[-108.23388888888888,39.044444444444444],[-108.23388888888888,39.044444444444444],[-108.03999999999999,39.03861111111111],[-107.46138888888889,39.01916666666666],[-107.46138888888889,39.01916666666666],[-107.07249999999999,39.00472222222222],[-107.07249999999999,39.00472222222222],[-107.07249999999999,39.00472222222222],[-106.26833333333333,38.94194444444444],[-106.26833333333333,38.94194444444444],[-106.26833333333333,38.94194444444444],[-105.55222222222221,38.775],[-105.55222222222221,38.775],[-104.55638888888889,38.63583333333333],[-104.42611111111111,38.621944444444445],[-104.42611111111111,38.621944444444445],[-104.42611111111111,38.621944444444445],[-104.23555555555555,38.60305555555556],[-104.23555555555555,38.60305555555556],[-103.79166666666667,38.55833333333333],[-103.79166666666667,38.55833333333333],[-103.79166666666667,38.55833333333333],[-103.64361111111111,38.54277777777778],[-103.07888888888888,38.4825],[-103.04333333333334,38.478611111111114],[-103.04333333333334,38.478611111111114],[-102.89500000000001,38.46222222222222],[-102.67972222222222,38.437777777777775],[-102.49361111111111,38.416666666666664],[-102.49361111111111,38.416666666666664],[-102.34055555555555,38.39888888888889],[-102.30749999999999,38.39527777777778],[-102.30749999999999,38.39527777777778],[-102.30749999999999,38.39527777777778],[-102.12583333333333,38.37388888888889],[-102.12583333333333,38.37388888888889],[-101.97444444444444,38.35611111111111],[-101.94222222222223,38.352222222222224],[-101.7911111111111,38.33388888888889],[-101.7911111111111,38.33388888888889],[-101.75833333333334,38.330000000000005],[-101.57472222222222,38.3075],[-101.39333333333335,38.28527777777778],[-101.24333333333334,38.26638888888889],[-101.24333333333334,38.26638888888889],[-100.88027777777778,38.219722222222224],[-100.84472222222222,38.21527777777778],[-100.84472222222222,38.21527777777778],[-100.70055555555555,38.196666666666665],[-100.70055555555555,38.196666666666665],[-100.51861111111111,38.172777777777775],[-100.51861111111111,38.172777777777775],[-100.30722222222222,38.14472222222222],[-99.95055555555555,38.09583333333334],[-99.95055555555555,38.09583333333334],[-99.95055555555555,38.09583333333334],[-99.77222222222223,38.07138888888889],[-99.59583333333333,38.04666666666667],[-99.41722222222222,38.021388888888886],[-99.41722222222222,38.021388888888886],[-98.89,37.94555555555555],[-98.89,37.94555555555555],[-98.7175,37.919999999999995],[-98.3711111111111,37.867777777777775],[-98.3711111111111,37.867777777777775],[-98.19666666666667,37.840833333333336],[-98.19666666666667,37.840833333333336],[-98.19666666666667,37.840833333333336],[-97.85722222222222,37.788333333333334],[-97.85722222222222,37.788333333333334],[-97.68527777777778,37.76138888888889],[-97.68527777777778,37.76138888888889],[-97.51166666666667,37.731388888888894],[-97.51166666666667,37.731388888888894],[-96.96916666666667,37.626111111111115],[-96.96916666666667,37.626111111111115],[-96.61444444444444,37.55555555555555],[-96.61444444444444,37.55555555555555],[-96.45305555555557,37.52333333333333],[-95.95527777777778,37.42194444444444],[-95.95527777777778,37.42194444444444],[-95.95527777777778,37.42194444444444],[-95.25277777777778,37.27444444444444],[-95.25277777777778,37.27444444444444],[-95.25277777777778,37.27444444444444],[-94.56,37.12444444444444],[-94.56,37.12444444444444],[-94.56,37.12444444444444],[-93.87666666666667,36.961111111111116],[-93.87666666666667,36.961111111111116],[-93.71055555555556,36.90888888888889],[-93.55583333333333,36.86],[-93.55583333333333,36.86],[-93.55583333333333,36.86],[-93.20805555555556,36.74861111111111],[-93.20805555555556,36.74861111111111],[-92.73111111111112,36.594166666666666],[-92.73111111111112,36.594166666666666],[-92.73111111111112,36.594166666666666],[-92.57055555555556,36.54138888888889],[-92.08694444444444,36.38111111111111],[-92.08694444444444,36.38111111111111],[-91.76222222222222,36.27222222222222],[-91.76222222222222,36.27222222222222],[-91.76222222222222,36.27222222222222],[-90.76944444444445,36.03805555555555],[-90.76944444444445,36.03805555555555],[-90.76944444444445,36.03805555555555],[-90.60222222222221,35.96805555555556],[-90.44833333333334,35.905277777777776],[-90.44833333333334,35.905277777777776],[-90.13805555555557,35.77833333333333],[-89.98305555555555,35.71416666666667],[-89.8386111111111,35.655],[-89.82666666666667,35.649166666666666],[-89.53472222222221,35.526944444444446],[-89.36944444444444,35.45777777777778],[-89.36944444444444,35.45777777777778],[-89.36944444444444,35.45777777777778],[-89.21916666666667,35.39416666666666],[-89.06888888888888,35.33027777777778],[-88.91972222222223,35.266666666666666],[-88.91972222222223,35.266666666666666],[-88.79027777777777,35.211666666666666],[-88.77388888888889,35.20416666666667],[-88.77388888888889,35.20416666666667],[-88.345,35.01916666666666],[-88.345,35.01916666666666],[-88.04888888888888,34.88944444444444],[-87.90138888888889,34.82555555555556],[-87.90138888888889,34.82555555555556],[-87.75222222222222,34.75861111111111],[-87.75222222222222,34.75861111111111],[-87.60277777777777,34.692499999999995],[-87.45333333333333,34.62833333333333],[-87.45111111111112,34.62777777777778],[-87.28916666666666,34.59638888888889],[-87.28916666666666,34.59638888888889],[-87.28916666666666,34.59638888888889],[-87.28916666666666,34.59638888888889],[-86.96555555555555,34.547777777777775],[-86.96555555555555,34.547777777777775],[-86.96555555555555,34.547777777777775],[-86.49388888888889,34.427499999999995],[-86.49388888888889,34.427499999999995],[-86.36861111111111,34.394999999999996],[-86.33666666666666,34.38666666666666],[-86.33666666666666,34.38666666666666],[-86.33666666666666,34.38666666666666],[-85.89111111111112,34.269444444444446],[-85.89111111111112,34.269444444444446],[-85.89111111111112,34.269444444444446],[-85.37833333333333,34.13472222222222],[-85.37833333333333,34.13472222222222],[-85.3,34.11666666666667],[-85.3,34.11666666666667],[-85,34.016666666666666],[-84.96027777777778,33.98833333333334],[-84.96027777777778,33.98833333333334],[-84.96027777777778,33.98833333333334],[-84.83333333333333,33.81666666666667],[-84.83333333333333,33.81666666666667],[-84.82,33.79361111111111],[-84.82,33.79361111111111],[-84.81666666666666,33.75],[-84.81666666666666,33.75],[-84.81666666666666,33.75],[-84.75,33.65],[-84.75,33.65],[-84.75,33.65],[-84.71694444444445,33.64861111111111],[-84.68333333333334,33.65],[-84.6563888888889,33.649166666666666],[-84.6563888888889,33.649166666666666],[-84.6563888888889,33.649166666666666],[-84.61666666666666,33.65],[-84.595,33.64944444444444],[-84.5,33.65],[-84.5,33.65],[-84.5,33.65]],"type":"LineString"}
}
