{
  "id": 2014811621,
  "type": "Feature",
  "properties": {
    "date:cessation_lower": "2026-02-17",
    "date:cessation_upper": "2026-02-17",
    "date:inception_lower": "2026-02-16",
    "date:inception_upper": "2026-02-16",
    "edtf:cessation": "2026-02-17T04:23:00Z",
    "edtf:inception": "2026-02-16T11:48:41-08:00",
    "flysfo:actual_timestamp": -1,
    "flysfo:airline": "UA",
    "flysfo:base_airline": "",
    "flysfo:base_flight_number": "4053",
    "flysfo:date": "2026-02-16",
    "flysfo:estimated_timestamp": 1771297380,
    "flysfo:event": "D",
    "flysfo:flight_number": "UA1944",
    "flysfo:gate": "E8",
    "flysfo:journey": "SFO-RNO",
    "flysfo:scheduled_timestamp": 1771297500,
    "flysfo:timestamp": 1771297500,
    "geom:area": 0,
    "geom:bbox": "-122.370943,37.617990,-119.772167,39.505219",
    "geom:latitude": 38.5616045,
    "geom:longitude": -121.07155499999999,
    "iata:airline": "UA",
    "iata:base_airline": "",
    "icao:aircraft": "B738",
    "icao:airline": "UAL",
    "icao:base_airline": "ACA",
    "lbl:latitude": 37.619197,
    "lbl:longitude": -122.384496,
    "sfomuseum:aircraft_id": 1159289871,
    "sfomuseum:airline_id": 1159285413,
    "sfomuseum:arrival_id": 102525535,
    "sfomuseum:base_flight_id": "20260216-D-ACA-4053",
    "sfomuseum:departure_id": 102527513,
    "sfomuseum:flight_id": "20260216-D-UAL-1944",
    "sfomuseum:flight_number": [
      "UAL1944",
      "UA1944"
    ],
    "sfomuseum:placetype": "flight",
    "src:geom": "flysfo",
    "src:geom_alt": [
      "swim-route",
      "swim-path",
      "swim-takeoff"
    ],
    "swim:tail_number": "N34222",
    "wof:belongsto": [
      1947304067,
      102527513,
      1947304511,
      102191575,
      85633793,
      102087579,
      85922583,
      554784711,
      85688637,
      1947304515,
      1947304447,
      102085387
    ],
    "wof:concordances": {
      "swim:gufi": "KO081563gW"
    },
    "wof:country": "US",
    "wof:created": 1771344979,
    "wof:geomhash": "414447526a1ddeb77713c60c4ab5a7e4",
    "wof:hierarchy": [
      {
        "building_id": 1947304067,
        "campus_id": 102527513,
        "concourse_id": 1947304511,
        "continent_id": 102191575,
        "country_id": 85633793,
        "county_id": 102087579,
        "custom_id": 2014811621,
        "flight_id": 2014811621,
        "locality_id": 85922583,
        "postalcode_id": 554784711,
        "region_id": 85688637,
        "venue_id": 1947304515,
        "wing_id": 1947304447
      },
      {
        "building_id": 1947304067,
        "campus_id": 102527513,
        "concourse_id": 1947304511,
        "continent_id": 102191575,
        "country_id": 85633793,
        "county_id": 102085387,
        "custom_id": 2014811621,
        "flight_id": 2014811621,
        "region_id": 85688637,
        "venue_id": 1947304515,
        "wing_id": 1947304447
      }
    ],
    "wof:id": 2014811621,
    "wof:involves": [
      1159285413,
      1947304515,
      1159283597,
      1159289871,
      102525535,
      102527513
    ],
    "wof:lastmodified": 1771345107,
    "wof:name": "UA1944 (SFO-RNO)",
    "wof:parent_id": 1947304515,
    "wof:placetype": "custom",
    "wof:placetype_alt": [
      "flight"
    ],
    "wof:repo": "sfomuseum-data-flights-2026-02",
    "wof:superseded_by": [],
    "wof:supersedes": []
  },
  "bbox": [
    -122.370943,
    37.61799,
    -119.772167,
    39.505219
  ],
  "geometry": {"coordinates":[[-122.370943,37.61799],[-119.772167,39.505219]],"type":"MultiPoint"}
}
