{
  "id": 2014741225,
  "type": "Feature",
  "properties": {
    "geom:area": 0,
    "geom:bbox": "-122.350230,37.433270,-121.263540,37.638330",
    "geom:latitude": 37.54459424066541,
    "geom:longitude": -121.81490155532755,
    "src:alt_label": "swim-approach",
    "src:geom": "swim",
    "swim:elevations": [
      5349,
      4984,
      4609,
      4325,
      4219,
      4093,
      3780,
      3737,
      3383,
      3327,
      3140,
      3071,
      3048,
      3048,
      3021,
      2793,
      2620,
      2479,
      2438,
      2438,
      2438,
      2413,
      2165,
      2157,
      2135,
      2044,
      1891,
      1829,
      1739,
      1615,
      1409,
      1360,
      1288,
      1150,
      965,
      913,
      796,
      548,
      503,
      454,
      422,
      352,
      256,
      146,
      67
    ],
    "swim:geom": "approach",
    "swim:timestamps": [
      1770580992,
      1770581023,
      1770581064,
      1770581095,
      1770581105,
      1770581120,
      1770581156,
      1770581162,
      1770581214,
      1770581241,
      1770581275,
      1770581286,
      1770581307,
      1770581334,
      1770581361,
      1770581395,
      1770581421,
      1770581443,
      1770581471,
      1770581480,
      1770581512,
      1770581537,
      1770581577,
      1770581589,
      1770581622,
      1770581644,
      1770581668,
      1770581696,
      1770581728,
      1770581746,
      1770581785,
      1770581817,
      1770581843,
      1770581872,
      1770581907,
      1770581920,
      1770581944,
      1770581995,
      1770582007,
      1770582023,
      1770582032,
      1770582055,
      1770582076,
      1770582113,
      1770582130
    ],
    "wof:geomhash": "69b4c84fc847522eeebff5f34399b4b6",
    "wof:id": 2014741225,
    "wof:repo": "sfomuseum-data-flights-2026-02"
  },
  "bbox": [
    -122.35023,
    37.43327,
    -121.26354,
    37.63833
  ],
  "geometry": {"coordinates":[[-121.26354,37.59227],[-121.3213,37.58497],[-121.39779,37.57677],[-121.45258,37.57037],[-121.47096,37.5683],[-121.49745,37.56542],[-121.55971,37.55817],[-121.56978,37.55699],[-121.65104,37.56087],[-121.67887,37.58471],[-121.70959,37.61235],[-121.72153,37.61987],[-121.74739,37.62694],[-121.78139,37.63512],[-121.81464,37.63833],[-121.83767,37.61163],[-121.83069,37.58321],[-121.82447,37.56068],[-121.81644,37.52998],[-121.81387,37.52023],[-121.80471,37.48603],[-121.80178,37.4593],[-121.83983,37.43808],[-121.85451,37.43694],[-121.89607,37.4335],[-121.92346,37.43327],[-121.95062,37.44184],[-121.98252,37.4554],[-122.01485,37.4691],[-122.03178,37.4763],[-122.0681,37.49176],[-122.09867,37.50464],[-122.12256,37.51472],[-122.1496,37.52613],[-122.18044,37.53919],[-122.19237,37.5442],[-122.21371,37.55323],[-122.25816,37.5719],[-122.26714,37.57563],[-122.27768,37.58006],[-122.28357,37.58262],[-122.29858,37.58887],[-122.31308,37.59509],[-122.33813,37.60555],[-122.35023,37.61066]],"type":"LineString"}
}
