{
  "id": 2014694071,
  "type": "Feature",
  "properties": {
    "geom:area": 0,
    "geom:bbox": "-122.448090,36.726390,-121.250900,37.708510",
    "geom:latitude": 37.24608080713859,
    "geom:longitude": -121.91218526570783,
    "src:alt_label": "swim-takeoff",
    "src:geom": "swim",
    "swim:elevations": [
      152,
      652,
      1144,
      1317,
      1802,
      2042,
      2779,
      3375,
      3416,
      4274,
      4724,
      4990,
      5506,
      5556,
      6169,
      6298,
      6784,
      6941,
      7201,
      7554,
      8088,
      8361,
      8834,
      9046,
      9172,
      9516,
      9742,
      9817,
      9907,
      10076
    ],
    "swim:geom": "takeoff",
    "swim:timestamps": [
      1769944482,
      1769944512,
      1769944554,
      1769944582,
      1769944618,
      1769944631,
      1769944671,
      1769944708,
      1769944712,
      1769944790,
      1769944822,
      1769944838,
      1769944887,
      1769944891,
      1769944938,
      1769944952,
      1769945002,
      1769945017,
      1769945041,
      1769945071,
      1769945118,
      1769945150,
      1769945217,
      1769945243,
      1769945255,
      1769945283,
      1769945310,
      1769945326,
      1769945347,
      1769945382
    ],
    "wof:geomhash": "5150588a1adb8b2fe8ba9a85490c4cd2",
    "wof:id": 2014694071,
    "wof:repo": "sfomuseum-data-flights-2026-02"
  },
  "bbox": [
    -122.44809,
    36.72639,
    -121.2509,
    37.70851
  ],
  "geometry": {"coordinates":[[-122.36892,37.62894],[-122.36352,37.6524],[-122.36289,37.68555],[-122.38354,37.70851],[-122.43419,37.70369],[-122.44809,37.69046],[-122.44075,37.64147],[-122.39546,37.60771],[-122.39041,37.60388],[-122.27507,37.51671],[-122.22584,37.47945],[-122.20089,37.46025],[-122.12171,37.40002],[-122.11519,37.39501],[-122.03745,37.33556],[-122.01382,37.31743],[-121.92824,37.25184],[-121.90157,37.23138],[-121.85895,37.19865],[-121.80542,37.15754],[-121.72208,37.09303],[-121.66761,37.0506],[-121.54573,36.95651],[-121.49845,36.91998],[-121.47635,36.90293],[-121.42727,36.86478],[-121.37926,36.8271],[-121.35136,36.80521],[-121.31499,36.77635],[-121.2509,36.72639]],"type":"LineString"}
}
