{
  "id": 2014896137,
  "type": "Feature",
  "properties": {
    "geom:area": 0,
    "geom:bbox": "-122.380000,37.490000,-87.910000,41.980000",
    "geom:latitude": 40.33130643527219,
    "geom:longitude": -105.2393535923036,
    "src:alt_label": "swim-route",
    "src:geom": "swim",
    "swim:geom": "route",
    "wof:geomhash": "b197b0f73c3910343622d9a5367aff5f",
    "wof:id": 2014896137,
    "wof:repo": "sfomuseum-data-flights-2026-02"
  },
  "bbox": [
    -122.38,
    37.49,
    -87.91,
    41.98
  ],
  "geometry": {"coordinates":[[-87.91,41.98],[-87.99,41.97],[-88.02,41.97],[-88.11,41.96],[-88.12,41.96],[-88.22,41.96],[-88.24,41.95],[-88.44,41.94],[-88.67,41.92],[-88.71,41.92],[-88.75,41.92],[-88.81,41.91],[-88.82,41.91],[-88.84,41.91],[-89.11,41.9],[-89.21,41.9],[-89.24,41.9],[-89.36,41.89],[-89.64,41.86],[-89.72,41.85],[-89.74,41.85],[-89.9,41.83],[-89.95,41.83],[-90.11,41.81],[-90.28,41.79],[-91.29,41.68],[-91.51,41.65],[-91.56,41.65],[-93.11,41.62],[-93.48,41.61],[-93.6,41.61],[-93.72,41.6],[-96.02,41.51],[-96.15,41.51],[-97.27,41.45],[-98.35,41.38],[-98.59,41.37],[-98.66,41.37],[-99.03,41.36],[-99.88,41.33],[-101.3,41.28],[-102.34,41.22],[-102.57,41.21],[-102.7,41.21],[-103.27,41.17],[-103.59,41.16],[-104.56,41.09],[-105.14,41.05],[-105.52,41.02],[-105.65,41.01],[-105.9,40.99],[-106.26,40.96],[-107.83,40.66],[-109.14,40.35],[-109.49,40.27],[-110.1,40.12],[-112.47,39.49],[-113.32,39.25],[-113.4,39.23],[-113.65,39.17],[-115,38.86],[-117.28,38.29],[-117.53,38.23],[-118.76,37.9],[-119.1,37.86],[-119.27,37.84],[-119.38,37.82],[-119.94,37.76],[-120.04,37.75],[-120.22,37.72],[-120.4,37.7],[-120.41,37.7],[-120.48,37.69],[-120.69,37.67],[-120.75,37.66],[-120.77,37.66],[-120.83,37.65],[-120.96,37.63],[-121,37.63],[-121.08,37.62],[-121.17,37.6],[-121.26,37.59],[-121.39,37.58],[-121.41,37.58],[-121.6,37.55],[-121.61,37.55],[-121.62,37.55],[-121.7,37.53],[-121.8,37.51],[-121.83,37.5],[-121.88,37.49],[-122.08,37.54],[-122.14,37.56],[-122.18,37.57],[-122.28,37.59],[-122.33,37.61],[-122.36,37.61],[-122.38,37.62]],"type":"LineString"}
}
