{
  "id": 2014799155,
  "type": "Feature",
  "properties": {
    "geom:area": 0,
    "geom:bbox": "-122.385100,37.638310,-121.253500,38.421220",
    "geom:latitude": 38.08724240111616,
    "geom:longitude": -121.92719602000373,
    "src:alt_label": "swim-takeoff",
    "src:geom": "swim",
    "swim:elevations": [
      484,
      638,
      839,
      896,
      923,
      1039,
      1278,
      1846,
      2338,
      2685,
      3059,
      3304,
      3477,
      3674,
      3948,
      4015,
      4264,
      4640,
      4912,
      5260,
      5382,
      5587,
      5737,
      6077,
      6285,
      6390,
      6602,
      7101,
      7295,
      7546,
      7680,
      7848,
      7989,
      8065
    ],
    "swim:geom": "takeoff",
    "swim:timestamps": [
      1771223278,
      1771223295,
      1771223325,
      1771223337,
      1771223346,
      1771223358,
      1771223376,
      1771223415,
      1771223452,
      1771223476,
      1771223506,
      1771223525,
      1771223543,
      1771223555,
      1771223578,
      1771223585,
      1771223611,
      1771223655,
      1771223693,
      1771223723,
      1771223738,
      1771223750,
      1771223771,
      1771223814,
      1771223844,
      1771223872,
      1771223896,
      1771223936,
      1771223963,
      1771223994,
      1771224025,
      1771224058,
      1771224088,
      1771224100
    ],
    "wof:geomhash": "4f5cb300389b27346e37f0e3b4c532c0",
    "wof:id": 2014799155,
    "wof:repo": "sfomuseum-data-flights-2026-02"
  },
  "bbox": [
    -122.3851,
    37.63831,
    -121.2535,
    38.42122
  ],
  "geometry": {"coordinates":[[-122.35669,37.63831],[-122.34539,37.64834],[-122.322,37.6689],[-122.3134,37.67951],[-122.31015,37.68928],[-122.31231,37.70324],[-122.32312,37.72334],[-122.34774,37.76725],[-122.36819,37.81156],[-122.38298,37.84078],[-122.3851,37.88119],[-122.38422,37.90573],[-122.37645,37.93012],[-122.36343,37.94472],[-122.33084,37.96181],[-122.31861,37.96671],[-122.27533,37.984],[-122.19992,38.01442],[-122.12873,38.04317],[-122.07257,38.06578],[-122.04332,38.07749],[-122.01967,38.08697],[-121.97616,38.10431],[-121.88669,38.14003],[-121.82295,38.16536],[-121.76168,38.18961],[-121.70707,38.21128],[-121.61767,38.24684],[-121.55708,38.27063],[-121.48562,38.29872],[-121.41616,38.32654],[-121.34388,38.3646],[-121.27992,38.40506],[-121.2535,38.42122]],"type":"LineString"}
}
