{
  "id": 2014842169,
  "type": "Feature",
  "properties": {
    "date:cessation_lower": "2026-02-20",
    "date:cessation_upper": "2026-02-20",
    "date:inception_lower": "2026-02-20",
    "date:inception_upper": "2026-02-20",
    "edtf:cessation": "2026-02-20T21:17:00Z",
    "edtf:inception": "2026-02-20T16:35:00Z",
    "flysfo:actual_timestamp": -1,
    "flysfo:airline": "AC",
    "flysfo:base_airline": "",
    "flysfo:base_flight_number": "4700",
    "flysfo:date": "2026-02-20",
    "flysfo:estimated_timestamp": 1771605900,
    "flysfo:event": "D",
    "flysfo:flight_number": "AC760",
    "flysfo:gate": "C7",
    "flysfo:journey": "SFO-YUL",
    "flysfo:scheduled_timestamp": 1771604700,
    "flysfo:timestamp": 1771605900,
    "geom:area": 0,
    "geom:bbox": "-122.370943,37.617990,-73.744749,45.462004",
    "geom:latitude": 41.539997,
    "geom:longitude": -98.057846,
    "iata:airline": "AC",
    "iata:base_airline": "",
    "icao:aircraft": "B38M",
    "icao:airline": "ACA",
    "icao:base_airline": "ANZ",
    "lbl:latitude": 37.61799,
    "lbl:longitude": -122.370943,
    "sfomuseum:aircraft_id": 1528104575,
    "sfomuseum:airline_id": 1159283597,
    "sfomuseum:arrival_id": 102554351,
    "sfomuseum:base_flight_id": "20260220-D-ANZ-4700",
    "sfomuseum:departure_id": 102527513,
    "sfomuseum:flight_id": "20260220-D-ACA-760",
    "sfomuseum:flight_number": [
      "ACA760",
      "AC760"
    ],
    "sfomuseum:placetype": "flight",
    "src:geom": "flysfo",
    "src:geom_alt": [
      "swim-route",
      "swim-path"
    ],
    "swim:tail_number": "CGEPG",
    "wof:belongsto": [
      1947304067,
      102527513,
      1947304663,
      102191575,
      85633793,
      102087579,
      85922583,
      554784711,
      85688637,
      1947304669,
      1947304591,
      102085387
    ],
    "wof:concordances": {
      "swim:flight_ref": "139826610",
      "swim:gufi": "KO468626VN"
    },
    "wof:country": "US",
    "wof:created": 1771690282,
    "wof:geomhash": "60b8ec845b4af47518c8aaafc3d98633",
    "wof:hierarchy": [
      {
        "building_id": 1947304067,
        "campus_id": 102527513,
        "concourse_id": 1947304663,
        "continent_id": 102191575,
        "country_id": 85633793,
        "county_id": 102087579,
        "custom_id": 2014842169,
        "flight_id": 2014842169,
        "locality_id": 85922583,
        "postalcode_id": 554784711,
        "region_id": 85688637,
        "venue_id": 1947304669,
        "wing_id": 1947304591
      },
      {
        "building_id": 1947304067,
        "campus_id": 102527513,
        "concourse_id": 1947304663,
        "continent_id": 102191575,
        "country_id": 85633793,
        "county_id": 102085387,
        "custom_id": 2014842169,
        "flight_id": 2014842169,
        "region_id": 85688637,
        "venue_id": 1947304669,
        "wing_id": 1947304591
      }
    ],
    "wof:id": 2014842169,
    "wof:involves": [
      102527513,
      1159283597,
      1947304669,
      1159283697,
      1528104575,
      102554351
    ],
    "wof:lastmodified": 1771690727,
    "wof:name": "AC760 (SFO-YUL)",
    "wof:parent_id": 1947304669,
    "wof:placetype": "custom",
    "wof:placetype_alt": [
      "flight"
    ],
    "wof:repo": "sfomuseum-data-flights-2026-02",
    "wof:superseded_by": [],
    "wof:supersedes": []
  },
  "bbox": [
    -122.370943,
    37.61799,
    -73.744749,
    45.462004
  ],
  "geometry": {"coordinates":[[-122.370943,37.61799],[-73.744749,45.462004]],"type":"MultiPoint"}
}
