{
  "id": 2014861759,
  "type": "Feature",
  "properties": {
    "geom:area": 0,
    "geom:bbox": "-122.268889,33.391944,-112.033333,37.574167",
    "geom:latitude": 34.80191359126959,
    "geom:longitude": -117.55286934586186,
    "src:alt_label": "swim-path",
    "src:geom": "swim",
    "swim:altitudes": [
      "018",
      "024",
      "061",
      "088",
      "108",
      "108",
      "108",
      "163",
      "291",
      "291",
      "291",
      "310",
      "340C",
      "340C",
      "340C",
      "340C",
      "340C",
      "360C",
      "360C",
      "360C",
      "360C",
      "360C",
      "360C",
      "360C",
      "360C",
      "360C",
      "360C",
      "360C",
      "360C",
      "360C",
      "360C",
      "360C",
      "360C",
      "360C",
      "360C",
      "360C",
      "360C",
      "360C",
      "360C",
      "360C",
      "360C",
      "360C",
      "360C",
      "360C",
      "360C",
      "360C",
      "360C",
      "360C",
      "360C",
      "360C",
      "360C",
      "360C",
      "360C",
      "360C",
      "360C",
      "360C",
      "360C",
      "360C",
      "360C",
      "360C",
      "360C",
      "360",
      "348",
      "334",
      "334",
      "330",
      "324",
      "324",
      "311",
      "311",
      "311",
      "291",
      "280",
      "280",
      "264",
      "239",
      "239",
      "217",
      "177",
      "177",
      "103",
      "103",
      "060",
      "015"
    ],
    "swim:geom": "path",
    "swim:speeds": [
      183,
      182,
      272,
      287,
      287,
      287,
      287,
      393,
      427,
      427,
      427,
      435,
      412,
      409,
      408,
      408,
      408,
      396,
      396,
      395,
      394,
      394,
      393,
      393,
      393,
      391,
      390,
      390,
      390,
      391,
      391,
      390,
      390,
      388,
      388,
      388,
      384,
      384,
      383,
      383,
      385,
      385,
      385,
      384,
      374,
      374,
      366,
      366,
      366,
      366,
      365,
      365,
      365,
      365,
      365,
      366,
      364,
      364,
      363,
      363,
      359,
      358,
      364,
      369,
      369,
      370,
      371,
      371,
      379,
      379,
      379,
      387,
      411,
      411,
      411,
      405,
      405,
      394,
      367,
      367,
      330,
      330,
      219,
      171
    ],
    "swim:timestamps": [
      1771910079,
      1771910102,
      1771910223,
      1771910283,
      1771910343,
      1771910343,
      1771910343,
      1771910523,
      1771910944,
      1771910944,
      1771910944,
      1771911124,
      1771911305,
      1771911485,
      1771911605,
      1771911605,
      1771911605,
      1771911845,
      1771911845,
      1771911965,
      1771912025,
      1771912025,
      1771912085,
      1771912085,
      1771912085,
      1771912206,
      1771912266,
      1771912506,
      1771912506,
      1771912566,
      1771912566,
      1771912746,
      1771912746,
      1771912806,
      1771912806,
      1771912806,
      1771912986,
      1771913046,
      1771913197,
      1771913197,
      1771913227,
      1771913317,
      1771913317,
      1771913347,
      1771913377,
      1771913377,
      1771913467,
      1771913467,
      1771913497,
      1771913497,
      1771913527,
      1771913617,
      1771913617,
      1771913767,
      1771913767,
      1771914097,
      1771914188,
      1771914188,
      1771914218,
      1771914218,
      1771914278,
      1771914308,
      1771914398,
      1771914488,
      1771914488,
      1771914518,
      1771914548,
      1771914548,
      1771914638,
      1771914638,
      1771914638,
      1771914758,
      1771914852,
      1771914878,
      1771914938,
      1771914998,
      1771914998,
      1771915058,
      1771915178,
      1771915178,
      1771915418,
      1771915418,
      1771915657,
      1771915959
    ],
    "wof:geomhash": "16de9ecc10f6b571c7d4d3ccf4f5e0e0",
    "wof:id": 2014861759,
    "wof:repo": "sfomuseum-data-flights-2026-02"
  },
  "bbox": [
    -122.26888888888888,
    33.39194444444444,
    -112.03333333333333,
    37.57416666666667
  ],
  "geometry": {"coordinates":[[-112.03333333333333,33.43333333333333],[-112.05277777777778,33.42972222222222],[-112.20833333333334,33.39194444444444],[-112.30111111111111,33.40833333333333],[-112.3938888888889,33.419999999999995],[-112.3938888888889,33.419999999999995],[-112.3938888888889,33.419999999999995],[-112.7538888888889,33.4525],[-113.69,33.6175],[-113.69,33.6175],[-113.69,33.6175],[-114.11472222222221,33.69555555555555],[-114.5425,33.77222222222222],[-114.92888888888889,33.794999999999995],[-115.19916666666667,33.81111111111111],[-115.19916666666667,33.81111111111111],[-115.19916666666667,33.81111111111111],[-115.7425,33.91555555555556],[-115.7425,33.91555555555556],[-115.98833333333333,33.994166666666665],[-116.10972222222222,34.0325],[-116.10972222222222,34.0325],[-116.23194444444445,34.071111111111115],[-116.23194444444445,34.071111111111115],[-116.23194444444445,34.071111111111115],[-116.46527777777779,34.144444444444446],[-116.58833333333332,34.18277777777777],[-117.0786111111111,34.33444444444444],[-117.0786111111111,34.33444444444444],[-117.2063888888889,34.37361111111111],[-117.2063888888889,34.37361111111111],[-117.57277777777777,34.484722222222224],[-117.57277777777777,34.484722222222224],[-117.69472222222223,34.521388888888886],[-117.69472222222223,34.521388888888886],[-117.69472222222223,34.521388888888886],[-118.06138888888889,34.63138888888889],[-118.17555555555556,34.68444444444444],[-118.4525,34.81527777777777],[-118.4525,34.81527777777777],[-118.51388888888889,34.84444444444445],[-118.685,34.92472222222222],[-118.685,34.92472222222222],[-118.74916666666667,34.95472222222222],[-118.79527777777777,34.97638888888889],[-118.79527777777777,34.97638888888889],[-118.96416666666667,35.05472222222222],[-118.96416666666667,35.05472222222222],[-119.01027777777777,35.07611111111112],[-119.01027777777777,35.07611111111112],[-119.07055555555556,35.10416666666667],[-119.22555555555556,35.17583333333333],[-119.22555555555556,35.17583333333333],[-119.50333333333333,35.30333333333333],[-119.50333333333333,35.30333333333333],[-120.09166666666667,35.569722222222225],[-120.24666666666667,35.63916666666667],[-120.24666666666667,35.63916666666667],[-120.30527777777777,35.665277777777774],[-120.30527777777777,35.665277777777774],[-120.41388888888889,35.70944444444445],[-120.47555555555556,35.73305555555556],[-120.63305555555554,35.793055555555554],[-120.81361111111111,35.861666666666665],[-120.81361111111111,35.861666666666665],[-120.86361111111111,35.88055555555555],[-120.92972222222222,35.905277777777776],[-120.92972222222222,35.905277777777776],[-121.09805555555555,35.96888888888889],[-121.09805555555555,35.96888888888889],[-121.09805555555555,35.96888888888889],[-121.33916666666666,36.06027777777778],[-121.48333333333333,36.21666666666667],[-121.50194444444445,36.24388888888889],[-121.5775,36.34055555555556],[-121.65222222222222,36.43611111111111],[-121.65222222222222,36.43611111111111],[-121.72500000000001,36.52833333333333],[-121.875,36.716944444444444],[-121.875,36.716944444444444],[-122.00805555555556,37.09305555555556],[-122.00805555555556,37.09305555555556],[-122.11666666666666,37.36666666666667],[-122.26888888888888,37.57416666666667]],"type":"LineString"}
}
