{
  "id": 2014769417,
  "type": "Feature",
  "properties": {
    "geom:area": 0,
    "geom:bbox": "-122.275833,37.483611,-111.488611,38.335278",
    "geom:latitude": 37.940144891411485,
    "geom:longitude": -116.85832565807273,
    "src:alt_label": "swim-path",
    "src:geom": "swim",
    "swim:altitudes": [
      "320C",
      "320C",
      "320C",
      "320C",
      "320C",
      "320C",
      "320C",
      "320C",
      "320C",
      "320C",
      "320C",
      "320C",
      "320C",
      "321C",
      "321C",
      "320C",
      "320C",
      "320C",
      "320C",
      "320C",
      "320C",
      "320C",
      "321C",
      "321C",
      "321C",
      "321C",
      "320C",
      "320C",
      "321C",
      "321C",
      "320C",
      "320C",
      "320C",
      "320C",
      "320C",
      "320C",
      "319C",
      "319C",
      "320C",
      "320C",
      "320C",
      "320C",
      "320C",
      "320C",
      "320C",
      "320C",
      "320C",
      "320C",
      "320C",
      "320C",
      "320C",
      "320C",
      "320C",
      "320C",
      "320C",
      "320C",
      "319C",
      "320C",
      "320C",
      "320C",
      "320C",
      "320C",
      "320C",
      "320C",
      "321C",
      "321C",
      "321C",
      "320C",
      "320C",
      "320C",
      "320C",
      "320C",
      "320C",
      "320C",
      "320C",
      "320C",
      "320C",
      "320C",
      "320C",
      "320C",
      "320C",
      "320C",
      "320C",
      "320C",
      "320C",
      "320C",
      "320C",
      "320C",
      "320C",
      "320C",
      "320C",
      "320C",
      "320C",
      "320C",
      "320C",
      "320C",
      "320C",
      "320C",
      "320C",
      "320C",
      "320C",
      "320C",
      "320C",
      "320C",
      "320C",
      "315",
      "315",
      "315",
      "293",
      "293",
      "293",
      "284",
      "248",
      "248",
      "208",
      "208",
      "208",
      "174",
      "174",
      "174",
      "174",
      "174",
      "158",
      "141",
      "141",
      "114",
      "114",
      "114",
      "114",
      "095",
      "095",
      "095",
      "080",
      "080",
      "036",
      "036",
      "036",
      "036",
      "036",
      "013",
      "013",
      "013"
    ],
    "swim:geom": "path",
    "swim:speeds": [
      369,
      369,
      369,
      369,
      369,
      365,
      365,
      365,
      365,
      364,
      364,
      364,
      362,
      366,
      366,
      367,
      367,
      367,
      382,
      395,
      395,
      395,
      399,
      399,
      399,
      399,
      401,
      401,
      402,
      402,
      410,
      410,
      410,
      407,
      407,
      404,
      407,
      407,
      406,
      412,
      411,
      411,
      411,
      414,
      414,
      414,
      414,
      420,
      420,
      420,
      420,
      421,
      421,
      420,
      420,
      420,
      420,
      420,
      420,
      420,
      420,
      421,
      421,
      426,
      426,
      426,
      426,
      427,
      427,
      427,
      427,
      428,
      428,
      432,
      432,
      432,
      433,
      433,
      435,
      435,
      437,
      439,
      439,
      439,
      439,
      439,
      439,
      442,
      442,
      442,
      442,
      442,
      442,
      442,
      442,
      447,
      447,
      447,
      447,
      447,
      460,
      460,
      460,
      460,
      460,
      457,
      457,
      457,
      460,
      460,
      460,
      461,
      447,
      447,
      392,
      392,
      392,
      376,
      376,
      376,
      376,
      376,
      368,
      353,
      353,
      315,
      315,
      315,
      315,
      302,
      302,
      302,
      286,
      286,
      211,
      211,
      211,
      211,
      211,
      149,
      149,
      149
    ],
    "swim:timestamps": [
      1770939054,
      1770939054,
      1770939054,
      1770939054,
      1770939054,
      1770939235,
      1770939235,
      1770939235,
      1770939355,
      1770939475,
      1770939475,
      1770939475,
      1770939595,
      1770939775,
      1770939775,
      1770939836,
      1770939836,
      1770939836,
      1770940316,
      1770940376,
      1770940376,
      1770940376,
      1770940436,
      1770940436,
      1770940436,
      1770940436,
      1770940617,
      1770940617,
      1770940677,
      1770940677,
      1770940691,
      1770940691,
      1770940691,
      1770940751,
      1770940751,
      1770940797,
      1770940811,
      1770940811,
      1770940857,
      1770940931,
      1770940977,
      1770940977,
      1770940977,
      1770941037,
      1770941037,
      1770941037,
      1770941052,
      1770941112,
      1770941112,
      1770941112,
      1770941112,
      1770941172,
      1770941172,
      1770941232,
      1770941232,
      1770941232,
      1770941277,
      1770941292,
      1770941292,
      1770941292,
      1770941292,
      1770941352,
      1770941352,
      1770941458,
      1770941472,
      1770941472,
      1770941472,
      1770941518,
      1770941518,
      1770941518,
      1770941518,
      1770941578,
      1770941578,
      1770941758,
      1770941758,
      1770941758,
      1770941773,
      1770941773,
      1770941833,
      1770941833,
      1770941938,
      1770941953,
      1770941953,
      1770941953,
      1770941998,
      1770941998,
      1770941998,
      1770942073,
      1770942073,
      1770942119,
      1770942133,
      1770942133,
      1770942193,
      1770942193,
      1770942193,
      1770942373,
      1770942373,
      1770942373,
      1770942373,
      1770942373,
      1770942554,
      1770942554,
      1770942554,
      1770942554,
      1770942674,
      1770942734,
      1770942734,
      1770942734,
      1770942794,
      1770942794,
      1770942794,
      1770942816,
      1770942914,
      1770942914,
      1770943034,
      1770943034,
      1770943034,
      1770943155,
      1770943155,
      1770943155,
      1770943155,
      1770943155,
      1770943215,
      1770943275,
      1770943275,
      1770943395,
      1770943395,
      1770943395,
      1770943395,
      1770943455,
      1770943455,
      1770943455,
      1770943515,
      1770943515,
      1770943759,
      1770943759,
      1770943759,
      1770943759,
      1770943759,
      1770943936,
      1770943936,
      1770943936
    ],
    "wof:geomhash": "3f070883ca249809800b03ac3b6278b4",
    "wof:id": 2014769417,
    "wof:repo": "sfomuseum-data-flights-2026-02"
  },
  "bbox": [
    -122.27583333333334,
    37.48361111111111,
    -111.48861111111111,
    38.33527777777778
  ],
  "geometry": {"coordinates":[[-111.48861111111111,37.48361111111111],[-111.48861111111111,37.48361111111111],[-111.48861111111111,37.48361111111111],[-111.48861111111111,37.48361111111111],[-111.48861111111111,37.48361111111111],[-111.84916666666666,37.58361111111111],[-111.84916666666666,37.58361111111111],[-111.84916666666666,37.58361111111111],[-112.10138888888888,37.65277777777778],[-112.34277777777777,37.718333333333334],[-112.34277777777777,37.718333333333334],[-112.34277777777777,37.718333333333334],[-112.58,37.78194444444444],[-112.95222222222222,37.880833333333335],[-112.95222222222222,37.880833333333335],[-113.07083333333333,37.911944444444444],[-113.07083333333333,37.911944444444444],[-113.07083333333333,37.911944444444444],[-114.07,38.169444444444444],[-114.205,38.20277777777778],[-114.205,38.20277777777778],[-114.205,38.20277777777778],[-114.33999999999999,38.23638888888889],[-114.33999999999999,38.23638888888889],[-114.33999999999999,38.23638888888889],[-114.33999999999999,38.23638888888889],[-114.7575,38.30083333333333],[-114.7575,38.30083333333333],[-114.89861111111112,38.321111111111115],[-114.89861111111112,38.321111111111115],[-114.95111111111112,38.32944444444445],[-114.95111111111112,38.32944444444445],[-114.95111111111112,38.32944444444445],[-115.09416666666667,38.331388888888895],[-115.09416666666667,38.331388888888895],[-115.2125,38.33111111111111],[-115.23805555555556,38.331388888888895],[-115.23805555555556,38.331388888888895],[-115.35472222222222,38.331944444444446],[-115.5275,38.33388888888889],[-115.64250000000001,38.333333333333336],[-115.64250000000001,38.333333333333336],[-115.64250000000001,38.333333333333336],[-115.7911111111111,38.33361111111111],[-115.7911111111111,38.33361111111111],[-115.7911111111111,38.33361111111111],[-115.82222222222222,38.33527777777778],[-115.97166666666666,38.33388888888889],[-115.97166666666666,38.33388888888889],[-115.97166666666666,38.33388888888889],[-115.97166666666666,38.33388888888889],[-116.1211111111111,38.33388888888889],[-116.1211111111111,38.33388888888889],[-116.26833333333333,38.333333333333336],[-116.26833333333333,38.333333333333336],[-116.26833333333333,38.333333333333336],[-116.38611111111112,38.32083333333334],[-116.415,38.315],[-116.415,38.315],[-116.415,38.315],[-116.415,38.315],[-116.55972222222222,38.282777777777774],[-116.55972222222222,38.282777777777774],[-116.81944444444444,38.22416666666667],[-116.85111111111111,38.21666666666667],[-116.85111111111111,38.21666666666667],[-116.85111111111111,38.21666666666667],[-116.96694444444445,38.19027777777777],[-116.96694444444445,38.19027777777777],[-116.96694444444445,38.19027777777777],[-116.96694444444445,38.19027777777777],[-117.11138888888888,38.157222222222224],[-117.11138888888888,38.157222222222224],[-117.53583333333333,38.058611111111105],[-117.53583333333333,38.058611111111105],[-117.53583333333333,38.058611111111105],[-117.5675,38.05138888888889],[-117.5675,38.05138888888889],[-117.71583333333334,38.01638888888889],[-117.71583333333334,38.01638888888889],[-117.9888888888889,37.98027777777778],[-118.02055555555556,37.97694444444445],[-118.02055555555556,37.97694444444445],[-118.02055555555556,37.97694444444445],[-118.14333333333335,37.96388888888889],[-118.14333333333335,37.96388888888889],[-118.14333333333335,37.96388888888889],[-118.32888888888888,37.943888888888885],[-118.32888888888888,37.943888888888885],[-118.45027777777779,37.93055555555555],[-118.48472222222222,37.92666666666666],[-118.48472222222222,37.92666666666666],[-118.63805555555557,37.91],[-118.63805555555557,37.91],[-118.63805555555557,37.91],[-119.10972222222222,37.85611111111111],[-119.10972222222222,37.85611111111111],[-119.10972222222222,37.85611111111111],[-119.10972222222222,37.85611111111111],[-119.10972222222222,37.85611111111111],[-119.5925,37.79944444444444],[-119.5925,37.79944444444444],[-119.5925,37.79944444444444],[-119.5925,37.79944444444444],[-119.91111111111111,37.76083333333333],[-120.06805555555555,37.74138888888889],[-120.06805555555555,37.74138888888889],[-120.06805555555555,37.74138888888889],[-120.23055555555555,37.72138888888889],[-120.23055555555555,37.72138888888889],[-120.23055555555555,37.72138888888889],[-120.3,37.71666666666667],[-120.54194444444444,37.68333333333333],[-120.54194444444444,37.68333333333333],[-120.83027777777778,37.64888888888889],[-120.83027777777778,37.64888888888889],[-120.83027777777778,37.64888888888889],[-121.09138888888889,37.615833333333335],[-121.09138888888889,37.615833333333335],[-121.09138888888889,37.615833333333335],[-121.09138888888889,37.615833333333335],[-121.09138888888889,37.615833333333335],[-121.20611111111111,37.60055555555556],[-121.32972222222222,37.584722222222226],[-121.32972222222222,37.584722222222226],[-121.56083333333333,37.558055555555555],[-121.56083333333333,37.558055555555555],[-121.56083333333333,37.558055555555555],[-121.56083333333333,37.558055555555555],[-121.66277777777778,37.541666666666664],[-121.66277777777778,37.541666666666664],[-121.66277777777778,37.541666666666664],[-121.76083333333334,37.518055555555556],[-121.76083333333334,37.518055555555556],[-122.1,37.53333333333333],[-122.1,37.53333333333333],[-122.1,37.53333333333333],[-122.1,37.53333333333333],[-122.1,37.53333333333333],[-122.27583333333334,37.58694444444445],[-122.27583333333334,37.58694444444445],[-122.27583333333334,37.58694444444445]],"type":"LineString"}
}
