{
  "id": 2014868653,
  "type": "Feature",
  "properties": {
    "geom:area": 0,
    "geom:bbox": "-122.370000,33.951944,-118.295000,37.672500",
    "geom:latitude": 35.74256365395606,
    "geom:longitude": -120.35666228308092,
    "src:alt_label": "swim-path",
    "src:geom": "swim",
    "swim:altitudes": [
      "004",
      "032",
      "140",
      "140",
      "140",
      "161",
      "239",
      "239",
      "266",
      "266",
      "289",
      "299",
      "310",
      "310",
      "336",
      "336",
      "350C",
      "350C",
      "350C",
      "350C",
      "350",
      "350",
      "350",
      "320",
      "320",
      "320",
      "243",
      "243",
      "229",
      "229",
      "209",
      "209",
      "209",
      "178",
      "178",
      "162",
      "150",
      "150",
      "134",
      "120",
      "120",
      "120",
      "093",
      "093",
      "091",
      "080",
      "080",
      "079",
      "079",
      "071",
      "054",
      "040",
      "039",
      "039",
      "016",
      "016",
      "016",
      "002",
      "002",
      "002"
    ],
    "swim:geom": "path",
    "swim:speeds": [
      154,
      158,
      383,
      383,
      383,
      399,
      432,
      432,
      466,
      466,
      489,
      497,
      504,
      504,
      503,
      503,
      503,
      503,
      503,
      493,
      486,
      486,
      486,
      487,
      487,
      487,
      426,
      426,
      414,
      414,
      410,
      410,
      410,
      386,
      386,
      382,
      374,
      374,
      373,
      330,
      330,
      330,
      305,
      305,
      307,
      295,
      295,
      295,
      295,
      259,
      243,
      234,
      234,
      234,
      173,
      173,
      173,
      136,
      136,
      136
    ],
    "swim:timestamps": [
      1771904670,
      1771904741,
      1771905041,
      1771905041,
      1771905041,
      1771905101,
      1771905343,
      1771905343,
      1771905462,
      1771905462,
      1771905582,
      1771905642,
      1771905704,
      1771905704,
      1771905822,
      1771905822,
      1771906065,
      1771906065,
      1771906065,
      1771906125,
      1771906182,
      1771906182,
      1771906182,
      1771906425,
      1771906425,
      1771906425,
      1771906665,
      1771906665,
      1771906723,
      1771906723,
      1771906786,
      1771906786,
      1771906786,
      1771906906,
      1771906906,
      1771906966,
      1771907009,
      1771907009,
      1771907071,
      1771907146,
      1771907146,
      1771907146,
      1771907251,
      1771907251,
      1771907266,
      1771907311,
      1771907311,
      1771907326,
      1771907326,
      1771907371,
      1771907447,
      1771907491,
      1771907507,
      1771907507,
      1771907687,
      1771907687,
      1771907687,
      1771907807,
      1771907807,
      1771907807
    ],
    "wof:geomhash": "88b6a214c6fce46acc87922e211fcf1d",
    "wof:id": 2014868653,
    "wof:repo": "sfomuseum-data-flights-2026-02"
  },
  "bbox": [
    -122.36999999999999,
    33.95194444444445,
    -118.295,
    37.6725
  ],
  "geometry": {"coordinates":[[-122.36666666666666,37.61666666666667],[-122.36222222222221,37.6725],[-122.36999999999999,37.41277777777778],[-122.36999999999999,37.41277777777778],[-122.36999999999999,37.41277777777778],[-122.26944444444445,37.33888888888889],[-121.83805555555556,37.01277777777778],[-121.83805555555556,37.01277777777778],[-121.60222222222221,36.84111111111111],[-121.60222222222221,36.84111111111111],[-121.35027777777778,36.65083333333333],[-121.22500000000001,36.555277777777775],[-121.10249999999999,36.46194444444445],[-121.10249999999999,36.46194444444445],[-120.83916666666666,36.27611111111111],[-120.83916666666666,36.27611111111111],[-120.32055555555556,35.909166666666664],[-120.32055555555556,35.909166666666664],[-120.32055555555556,35.909166666666664],[-120.2125,35.80333333333333],[-120.12305555555555,35.68555555555555],[-120.12305555555555,35.68555555555555],[-120.12305555555555,35.68555555555555],[-119.76666666666667,35.227222222222224],[-119.76666666666667,35.227222222222224],[-119.76666666666667,35.227222222222224],[-119.39583333333334,34.825],[-119.39583333333334,34.825],[-119.32777777777777,34.74916666666667],[-119.32777777777777,34.74916666666667],[-119.23388888888888,34.64138888888889],[-119.23388888888888,34.64138888888889],[-119.23388888888888,34.64138888888889],[-119.07805555555555,34.46361111111111],[-119.07805555555555,34.46361111111111],[-119.00361111111111,34.378055555555555],[-118.95,34.31666666666667],[-118.95,34.31666666666667],[-118.86666666666666,34.233333333333334],[-118.78055555555555,34.1375],[-118.78055555555555,34.1375],[-118.78055555555555,34.1375],[-118.65,34.03333333333333],[-118.65,34.03333333333333],[-118.64055555555557,34.027499999999996],[-118.55,34.016666666666666],[-118.55,34.016666666666666],[-118.54083333333332,34.01833333333333],[-118.54083333333332,34.01833333333333],[-118.46666666666667,34.016666666666666],[-118.37194444444444,34.025],[-118.3,34.03333333333333],[-118.295,34.03361111111111],[-118.295,34.03361111111111],[-118.31194444444444,33.961111111111116],[-118.31194444444444,33.961111111111116],[-118.31194444444444,33.961111111111116],[-118.40333333333334,33.95194444444445],[-118.40333333333334,33.95194444444445],[-118.40333333333334,33.95194444444445]],"type":"LineString"}
}
