{
  "id": 2014839817,
  "type": "Feature",
  "properties": {
    "geom:area": 0,
    "geom:bbox": "-122.770000,37.620000,-73.780000,45.170000",
    "geom:latitude": 42.82945948595919,
    "geom:longitude": -98.41176085054315,
    "src:alt_label": "swim-route",
    "src:geom": "swim",
    "swim:geom": "route",
    "wof:geomhash": "4d1a9c4b1a352f7cec226c2324f81b53",
    "wof:id": 2014839817,
    "wof:repo": "sfomuseum-data-flights-2026-02"
  },
  "bbox": [
    -122.77,
    37.62,
    -73.78,
    45.17
  ],
  "geometry": {"coordinates":[[-73.78,40.64],[-73.91,40.71],[-73.94,40.73],[-74.04,40.78],[-74.06,40.79],[-74.06,40.8],[-74.1,40.82],[-74.12,40.83],[-74.16,40.85],[-74.19,40.87],[-74.23,40.88],[-74.26,40.9],[-74.29,40.92],[-74.31,40.93],[-74.35,40.95],[-74.38,40.97],[-74.4,40.98],[-74.41,40.98],[-74.47,41.02],[-74.51,41.04],[-74.13,41.04],[-74.26,41.07],[-74.42,41.09],[-74.49,41.1],[-74.57,41.12],[-74.65,41.13],[-74.7,41.14],[-74.74,41.15],[-74.8,41.18],[-74.86,41.21],[-74.87,41.21],[-74.95,41.25],[-75.13,41.32],[-75.31,41.4],[-75.43,41.45],[-75.48,41.48],[-75.64,41.52],[-75.65,41.53],[-75.86,41.58],[-75.92,41.6],[-76.06,41.64],[-76.22,41.69],[-76.52,41.77],[-76.54,41.77],[-76.7,41.82],[-76.93,41.88],[-77.18,41.95],[-77.35,41.99],[-77.41,42.01],[-77.68,42.08],[-77.74,42.1],[-78.05,42.18],[-78.27,42.24],[-78.91,42.4],[-79.62,42.57],[-79.79,42.61],[-80,42.62],[-80.5,42.64],[-80.6,42.65],[-81.27,42.67],[-82.48,42.8],[-82.55,42.81],[-82.71,42.83],[-83.3,42.91],[-84.11,42.98],[-84.57,43.02],[-84.59,43.02],[-85,43.2],[-85.49,43.42],[-86,43.64],[-87.39,44.23],[-87.94,44.45],[-88.19,44.56],[-90.27,44.82],[-93.11,45.12],[-93.37,45.15],[-93.68,45.17],[-94.45,45.13],[-94.74,45.11],[-98,44.87],[-101.13,44.55],[-101.47,44.51],[-103.73,44.21],[-104.03,44.17],[-104.44,44.11],[-105.01,44.02],[-105.29,43.98],[-105.85,43.89],[-106.69,43.75],[-107.25,43.65],[-107.77,43.56],[-108.3,43.46],[-108.57,43.39],[-110.14,42.93],[-110.86,42.71],[-111.1,42.63],[-111.57,42.48],[-112.04,42.33],[-112.45,42.2],[-113.3,41.91],[-113.47,41.85],[-113.7,41.77],[-114.49,41.49],[-116.64,40.68],[-116.92,40.57],[-117.2,40.5],[-117.5,40.42],[-117.58,40.4],[-118.03,40.27],[-118.58,40.13],[-118.76,40.07],[-119.3,39.91],[-120.41,39.56],[-120.5,39.52],[-120.68,39.44],[-120.79,39.38],[-120.81,39.37],[-121.1,39.2],[-121.29,39.1],[-121.37,39.05],[-121.62,38.91],[-121.99,38.69],[-122.11,38.62],[-122.17,38.58],[-122.18,38.58],[-122.35,38.47],[-122.66,38.29],[-122.67,38.28],[-122.77,38.22],[-122.75,38.16],[-122.69,37.96],[-122.69,37.95],[-122.67,37.9],[-122.65,37.87],[-122.63,37.86],[-122.62,37.85],[-122.59,37.82],[-122.58,37.81],[-122.51,37.74],[-122.51,37.74],[-122.5,37.73],[-122.44,37.68],[-122.37,37.62],[-122.38,37.62]],"type":"LineString"}
}
