{
  "id": 2014839817,
  "type": "Feature",
  "properties": {
    "geom:area": 0,
    "geom:bbox": "-122.750000,37.547500,-73.724444,45.173889",
    "geom:latitude": 42.796763631455455,
    "geom:longitude": -98.91344252824744,
    "src:alt_label": "swim-path",
    "src:geom": "swim",
    "swim:altitudes": [
      "021",
      "021",
      "162",
      "162",
      "162",
      "182",
      "182",
      "182",
      "182",
      "256",
      "256",
      "313",
      "313",
      "313",
      "320C",
      "320C",
      "320C",
      "320C",
      "320C",
      "320C",
      "320C",
      "320C",
      "320C",
      "320C",
      "320C",
      "320C",
      "320C",
      "320C",
      "320C",
      "320C",
      "320C",
      "320C",
      "320C",
      "320C",
      "320C",
      "320C",
      "320C",
      "320C",
      "320C",
      "320C",
      "321C",
      "321C",
      "323",
      "323",
      "326",
      "336",
      "336",
      "336",
      "339C",
      "339C",
      "340C",
      "340C",
      "340C",
      "340C",
      "340C",
      "340C",
      "340C",
      "341C",
      "340C",
      "340C",
      "340C",
      "340C",
      "340C",
      "340C",
      "340C",
      "340C",
      "340C",
      "340C",
      "340C",
      "340C",
      "340C",
      "340C",
      "340C",
      "340C",
      "340C",
      "340C",
      "340C",
      "340C",
      "340C",
      "340C",
      "340C",
      "340C",
      "340C",
      "340C",
      "340C",
      "340C",
      "340C",
      "340C",
      "340C",
      "340C",
      "340C",
      "340C",
      "340C",
      "340C",
      "340C",
      "340C",
      "340C",
      "340C",
      "340C",
      "340C",
      "340C",
      "340C",
      "340C",
      "340C",
      "340C",
      "340C",
      "340C",
      "340C",
      "340C",
      "340C",
      "340C",
      "340C",
      "340C",
      "340C",
      "340C",
      "340C",
      "340C",
      "340C",
      "340C",
      "340C",
      "340C",
      "340C",
      "340C",
      "340C",
      "340C",
      "340C",
      "340C",
      "340C",
      "340C",
      "340C",
      "340C",
      "340C",
      "340C",
      "340C",
      "340C",
      "340C",
      "340C",
      "340C",
      "340C",
      "340C",
      "340C",
      "340C",
      "340C",
      "340C",
      "340C",
      "340C",
      "340C",
      "340C",
      "340C",
      "340C",
      "340C",
      "340C",
      "340C",
      "340C",
      "340C",
      "340C",
      "340C",
      "340C",
      "340C",
      "340C",
      "340C",
      "340C",
      "340C",
      "340C",
      "340C",
      "340C",
      "340C",
      "340C",
      "340C",
      "340C",
      "340C",
      "340C",
      "340C",
      "340C",
      "340C",
      "340C",
      "340C",
      "340C",
      "340C",
      "340C",
      "340C",
      "340C",
      "340C",
      "340C",
      "346",
      "360C",
      "360C",
      "360C",
      "360C",
      "360C",
      "360C",
      "360C",
      "360C",
      "361C",
      "361C",
      "360C",
      "360C",
      "360C",
      "361C",
      "360C",
      "360C",
      "360C",
      "360C",
      "360C",
      "360C",
      "360C",
      "361C",
      "360C",
      "360C",
      "360C",
      "360C",
      "360C",
      "360C",
      "360C",
      "360C",
      "360C",
      "360C",
      "360C",
      "360C",
      "360C",
      "360C",
      "360C",
      "360C",
      "360C",
      "360C",
      "360C",
      "360C",
      "361C",
      "360C",
      "360C",
      "360C",
      "360C",
      "360C",
      "360C",
      "360C",
      "360C",
      "360C",
      "360C",
      "360C",
      "360C",
      "360C",
      "360C",
      "360C",
      "360C",
      "360C",
      "360C",
      "360C",
      "360C",
      "360C",
      "360C",
      "360C",
      "360C",
      "360C",
      "360C",
      "360C",
      "360C",
      "360C",
      "360C",
      "360C",
      "360C",
      "360C",
      "360C",
      "360C",
      "354",
      "344",
      "344",
      "335",
      "306",
      "296",
      "281",
      "281",
      "266",
      "250",
      "234",
      "234",
      "193",
      "175",
      "175",
      "158",
      "158",
      "145",
      "109",
      "110",
      "110",
      "108",
      "104",
      "090",
      "074",
      "067",
      "067",
      "062",
      "053",
      "049",
      "042",
      "029",
      "023",
      "009",
      "009",
      "002"
    ],
    "swim:geom": "path",
    "swim:speeds": [
      166,
      166,
      328,
      328,
      328,
      338,
      338,
      338,
      338,
      330,
      330,
      348,
      348,
      348,
      354,
      353,
      353,
      353,
      345,
      342,
      341,
      341,
      340,
      340,
      335,
      335,
      335,
      335,
      343,
      343,
      343,
      344,
      344,
      348,
      348,
      348,
      348,
      352,
      352,
      352,
      353,
      353,
      353,
      353,
      357,
      375,
      375,
      375,
      376,
      376,
      381,
      381,
      385,
      388,
      388,
      388,
      388,
      389,
      387,
      387,
      387,
      387,
      387,
      387,
      388,
      389,
      389,
      389,
      388,
      388,
      387,
      387,
      387,
      387,
      386,
      386,
      385,
      385,
      385,
      388,
      388,
      388,
      390,
      390,
      391,
      391,
      391,
      392,
      392,
      395,
      395,
      395,
      396,
      396,
      396,
      393,
      393,
      390,
      390,
      390,
      393,
      394,
      394,
      395,
      395,
      397,
      401,
      402,
      402,
      403,
      405,
      408,
      409,
      409,
      409,
      418,
      420,
      420,
      422,
      423,
      429,
      429,
      429,
      431,
      428,
      428,
      428,
      433,
      433,
      433,
      432,
      430,
      430,
      430,
      431,
      431,
      431,
      430,
      430,
      430,
      431,
      431,
      432,
      432,
      431,
      431,
      431,
      431,
      433,
      433,
      431,
      431,
      431,
      430,
      430,
      429,
      429,
      432,
      432,
      431,
      431,
      428,
      428,
      429,
      429,
      427,
      427,
      432,
      432,
      431,
      431,
      431,
      426,
      426,
      424,
      424,
      424,
      423,
      423,
      422,
      424,
      426,
      427,
      426,
      428,
      431,
      431,
      426,
      426,
      427,
      429,
      433,
      433,
      434,
      434,
      434,
      438,
      438,
      432,
      431,
      431,
      430,
      432,
      432,
      435,
      435,
      437,
      436,
      436,
      435,
      433,
      433,
      436,
      436,
      436,
      439,
      439,
      436,
      429,
      429,
      422,
      422,
      423,
      423,
      422,
      418,
      418,
      418,
      418,
      417,
      416,
      414,
      414,
      416,
      416,
      417,
      421,
      421,
      425,
      425,
      424,
      425,
      425,
      413,
      413,
      411,
      411,
      412,
      412,
      413,
      414,
      414,
      414,
      414,
      416,
      416,
      413,
      411,
      410,
      410,
      413,
      414,
      414,
      424,
      422,
      422,
      421,
      412,
      397,
      397,
      397,
      394,
      388,
      376,
      376,
      369,
      375,
      375,
      366,
      366,
      366,
      289,
      264,
      264,
      250,
      242,
      243,
      245,
      232,
      232,
      228,
      225,
      211,
      196,
      189,
      190,
      148,
      148,
      140
    ],
    "swim:timestamps": [
      1771622588,
      1771622588,
      1771623069,
      1771623069,
      1771623069,
      1771623129,
      1771623129,
      1771623129,
      1771623129,
      1771623429,
      1771623429,
      1771623790,
      1771623790,
      1771623790,
      1771623850,
      1771623910,
      1771623910,
      1771623910,
      1771623970,
      1771624144,
      1771624204,
      1771624204,
      1771624210,
      1771624210,
      1771624330,
      1771624330,
      1771624330,
      1771624330,
      1771624625,
      1771624625,
      1771624625,
      1771624631,
      1771624631,
      1771624751,
      1771624751,
      1771624751,
      1771624751,
      1771624871,
      1771624871,
      1771624871,
      1771624931,
      1771624931,
      1771624991,
      1771624991,
      1771625046,
      1771625172,
      1771625172,
      1771625172,
      1771625226,
      1771625226,
      1771625286,
      1771625286,
      1771625407,
      1771625467,
      1771625467,
      1771625467,
      1771625467,
      1771625527,
      1771625644,
      1771625644,
      1771625764,
      1771625764,
      1771625764,
      1771625764,
      1771625884,
      1771625944,
      1771625944,
      1771625944,
      1771626004,
      1771626004,
      1771626065,
      1771626125,
      1771626125,
      1771626125,
      1771626245,
      1771626245,
      1771626305,
      1771626305,
      1771626305,
      1771626545,
      1771626545,
      1771626545,
      1771626666,
      1771626666,
      1771626726,
      1771626726,
      1771626726,
      1771626786,
      1771626786,
      1771626966,
      1771626966,
      1771626966,
      1771627086,
      1771627086,
      1771627086,
      1771627483,
      1771627483,
      1771627543,
      1771627627,
      1771627627,
      1771627868,
      1771627928,
      1771627928,
      1771627988,
      1771627988,
      1771628024,
      1771628210,
      1771628264,
      1771628264,
      1771628324,
      1771628390,
      1771628505,
      1771628570,
      1771628649,
      1771628709,
      1771628925,
      1771628985,
      1771628985,
      1771629051,
      1771629105,
      1771629346,
      1771629346,
      1771629346,
      1771629531,
      1771629651,
      1771629772,
      1771629772,
      1771630132,
      1771630192,
      1771630192,
      1771630252,
      1771630493,
      1771630493,
      1771630493,
      1771630673,
      1771630733,
      1771630733,
      1771630973,
      1771630973,
      1771630973,
      1771631093,
      1771631093,
      1771631153,
      1771631153,
      1771631274,
      1771631274,
      1771631274,
      1771631334,
      1771631514,
      1771631514,
      1771631754,
      1771631754,
      1771631754,
      1771631995,
      1771632175,
      1771632355,
      1771632355,
      1771632595,
      1771632595,
      1771632776,
      1771632776,
      1771633016,
      1771633016,
      1771633196,
      1771633196,
      1771633376,
      1771633376,
      1771633812,
      1771633812,
      1771633917,
      1771634052,
      1771634052,
      1771634157,
      1771634175,
      1771634352,
      1771634458,
      1771634458,
      1771634638,
      1771634638,
      1771634698,
      1771634833,
      1771634939,
      1771635076,
      1771635179,
      1771635437,
      1771635557,
      1771635557,
      1771635975,
      1771635975,
      1771636095,
      1771636155,
      1771636335,
      1771636335,
      1771636578,
      1771636578,
      1771636816,
      1771636936,
      1771636936,
      1771637248,
      1771637308,
      1771637308,
      1771637489,
      1771637549,
      1771637549,
      1771637669,
      1771637669,
      1771637729,
      1771637789,
      1771637789,
      1771637969,
      1771638089,
      1771638089,
      1771638270,
      1771638270,
      1771638330,
      1771638390,
      1771638390,
      1771638630,
      1771638810,
      1771638810,
      1771638931,
      1771638931,
      1771639051,
      1771639051,
      1771639171,
      1771639231,
      1771639231,
      1771639291,
      1771639351,
      1771639411,
      1771639471,
      1771639591,
      1771639651,
      1771639712,
      1771639712,
      1771639779,
      1771639899,
      1771639959,
      1771640019,
      1771640019,
      1771640560,
      1771640620,
      1771640620,
      1771640980,
      1771640980,
      1771641100,
      1771641100,
      1771641226,
      1771641226,
      1771641346,
      1771641400,
      1771641406,
      1771641406,
      1771641461,
      1771641581,
      1771641581,
      1771641761,
      1771641821,
      1771641881,
      1771641881,
      1771641941,
      1771642001,
      1771642001,
      1771642181,
      1771642241,
      1771642241,
      1771642301,
      1771642542,
      1771642602,
      1771642662,
      1771642662,
      1771642722,
      1771642782,
      1771642902,
      1771642902,
      1771643086,
      1771643152,
      1771643152,
      1771643213,
      1771643213,
      1771643262,
      1771643443,
      1771643459,
      1771643459,
      1771643503,
      1771643513,
      1771643573,
      1771643633,
      1771643683,
      1771643683,
      1771643693,
      1771643743,
      1771643753,
      1771643803,
      1771643879,
      1771643923,
      1771643998,
      1771643998,
      1771644058
    ],
    "wof:geomhash": "1fe47dddf0ce9e74e91fcefb14b5e627",
    "wof:id": 2014839817,
    "wof:repo": "sfomuseum-data-flights-2026-02"
  },
  "bbox": [
    -122.75,
    37.5475,
    -73.72444444444444,
    45.17388888888889
  ],
  "geometry": {"coordinates":[[-73.72444444444444,40.66611111111111],[-73.72444444444444,40.66611111111111],[-73.76222222222222,40.98361111111111],[-73.76222222222222,40.98361111111111],[-73.76222222222222,40.98361111111111],[-73.88472222222222,41.00416666666667],[-73.88472222222222,41.00416666666667],[-73.88472222222222,41.00416666666667],[-73.88472222222222,41.00416666666667],[-74.48222222222222,41.102222222222224],[-74.48222222222222,41.102222222222224],[-75.18694444444445,41.349444444444444],[-75.18694444444445,41.349444444444444],[-75.18694444444445,41.349444444444444],[-75.29916666666666,41.397777777777776],[-75.41416666666667,41.44638888888888],[-75.41416666666667,41.44638888888888],[-75.41416666666667,41.44638888888888],[-75.52638888888889,41.48888888888889],[-75.86,41.58416666666667],[-75.97694444444444,41.6175],[-75.97694444444444,41.6175],[-75.99555555555555,41.62277777777778],[-75.99555555555555,41.62277777777778],[-76.22444444444444,41.68694444444444],[-76.22444444444444,41.68694444444444],[-76.22444444444444,41.68694444444444],[-76.22444444444444,41.68694444444444],[-76.78555555555555,41.8425],[-76.78555555555555,41.8425],[-76.78555555555555,41.8425],[-76.8086111111111,41.848888888888894],[-76.8086111111111,41.848888888888894],[-77.05333333333333,41.91555555555556],[-77.05333333333333,41.91555555555556],[-77.05333333333333,41.91555555555556],[-77.05333333333333,41.91555555555556],[-77.30138888888888,41.98222222222223],[-77.30138888888888,41.98222222222223],[-77.30138888888888,41.98222222222223],[-77.42666666666668,42.01583333333333],[-77.42666666666668,42.01583333333333],[-77.54944444444445,42.04944444444444],[-77.54944444444445,42.04944444444444],[-77.6538888888889,42.0775],[-77.94194444444445,42.155],[-77.94194444444445,42.155],[-77.94194444444445,42.155],[-78.05138888888888,42.18416666666666],[-78.05138888888888,42.18416666666666],[-78.18777777777778,42.220555555555556],[-78.18777777777778,42.220555555555556],[-78.46083333333334,42.28944444444444],[-78.60194444444444,42.32472222222223],[-78.60194444444444,42.32472222222223],[-78.60194444444444,42.32472222222223],[-78.60194444444444,42.32472222222223],[-78.74138888888889,42.35888888888889],[-79.03083333333333,42.42916666666667],[-79.03083333333333,42.42916666666667],[-79.29194444444444,42.49277777777778],[-79.29194444444444,42.49277777777778],[-79.29194444444444,42.49277777777778],[-79.29194444444444,42.49277777777778],[-79.57027777777778,42.56027777777778],[-79.70916666666668,42.59305555555556],[-79.70916666666668,42.59305555555556],[-79.70916666666668,42.59305555555556],[-79.85305555555556,42.615],[-79.85305555555556,42.615],[-79.99694444444445,42.62111111111111],[-80.14361111111111,42.6275],[-80.14361111111111,42.6275],[-80.14361111111111,42.6275],[-80.43444444444445,42.63944444444444],[-80.43444444444445,42.63944444444444],[-80.57805555555555,42.64527777777778],[-80.57805555555555,42.64527777777778],[-80.57805555555555,42.64527777777778],[-81.16166666666668,42.66361111111111],[-81.16166666666668,42.66361111111111],[-81.16166666666668,42.66361111111111],[-81.4538888888889,42.68861111111111],[-81.4538888888889,42.68861111111111],[-81.59916666666666,42.705555555555556],[-81.59916666666666,42.705555555555556],[-81.59916666666666,42.705555555555556],[-81.7425,42.72138888888889],[-81.7425,42.72138888888889],[-82.19666666666667,42.77166666666667],[-82.19666666666667,42.77166666666667],[-82.19666666666667,42.77166666666667],[-82.49277777777777,42.80333333333333],[-82.49277777777777,42.80333333333333],[-82.49277777777777,42.80333333333333],[-83.48111111111112,42.92472222222222],[-83.48111111111112,42.92472222222222],[-83.6261111111111,42.939166666666665],[-83.81583333333333,42.955000000000005],[-83.81583333333333,42.955000000000005],[-84.42027777777778,43.004444444444445],[-84.56916666666666,43.025],[-84.56916666666666,43.025],[-84.70472222222223,43.071111111111115],[-84.70472222222223,43.071111111111115],[-84.7825,43.10666666666667],[-85.17361111111111,43.28055555555555],[-85.30361111111111,43.33833333333334],[-85.30361111111111,43.33833333333334],[-85.4325,43.39555555555555],[-85.56666666666666,43.45472222222222],[-85.83416666666666,43.57138888888889],[-85.995,43.64083333333333],[-86.15138888888889,43.708333333333336],[-86.28805555555556,43.76694444444444],[-86.78694444444444,43.97805555555556],[-86.92777777777778,44.036944444444444],[-86.92777777777778,44.036944444444444],[-87.09833333333333,44.108333333333334],[-87.21111111111111,44.15555555555555],[-87.79805555555555,44.39611111111111],[-87.79805555555555,44.39611111111111],[-87.79805555555555,44.39611111111111],[-88.24638888888889,44.56083333333333],[-88.57083333333333,44.60666666666667],[-88.89694444444446,44.65],[-88.89694444444446,44.65],[-89.92583333333334,44.780277777777776],[-90.08944444444444,44.80027777777777],[-90.08944444444444,44.80027777777777],[-90.25416666666666,44.82],[-90.915,44.89611111111111],[-90.915,44.89611111111111],[-90.915,44.89611111111111],[-91.42027777777778,44.9525],[-91.58611111111111,44.97027777777778],[-91.58611111111111,44.97027777777778],[-92.25,45.03861111111111],[-92.25,45.03861111111111],[-92.25,45.03861111111111],[-92.58305555555555,45.07138888888889],[-92.58305555555555,45.07138888888889],[-92.7475,45.087500000000006],[-92.7475,45.087500000000006],[-93.08027777777778,45.11888888888889],[-93.08027777777778,45.11888888888889],[-93.08027777777778,45.11888888888889],[-93.24638888888889,45.13444444444444],[-93.74861111111112,45.17388888888889],[-93.74861111111112,45.17388888888889],[-94.42083333333333,45.13861111111111],[-94.42083333333333,45.13861111111111],[-94.42083333333333,45.13861111111111],[-95.09805555555555,45.09722222222222],[-95.60194444444444,45.06444444444444],[-96.10333333333332,45.02861111111111],[-96.10333333333332,45.02861111111111],[-96.77111111111111,44.978611111111114],[-96.77111111111111,44.978611111111114],[-97.2713888888889,44.93861111111111],[-97.2713888888889,44.93861111111111],[-97.96638888888889,44.87861111111111],[-97.96638888888889,44.87861111111111],[-98.435,44.83583333333333],[-98.435,44.83583333333333],[-98.93388888888889,44.788333333333334],[-98.93388888888889,44.788333333333334],[-100.1363888888889,44.66444444444444],[-100.1363888888889,44.66444444444444],[-100.43944444444445,44.630833333333335],[-100.79888888888888,44.589444444444446],[-100.79888888888888,44.589444444444446],[-101.095,44.55555555555555],[-101.13333333333334,44.551111111111105],[-101.61999999999999,44.49194444444444],[-101.90805555555556,44.45666666666667],[-101.90805555555556,44.45666666666667],[-102.39250000000001,44.394999999999996],[-102.39250000000001,44.394999999999996],[-102.55194444444444,44.37444444444444],[-102.90972222222223,44.32694444444445],[-103.20138888888889,44.28722222222222],[-103.5911111111111,44.23305555555556],[-103.84666666666666,44.196666666666665],[-104.55722222222222,44.092222222222226],[-104.88333333333334,44.04277777777778],[-104.88333333333334,44.04277777777778],[-106.00444444444445,43.86527777777778],[-106.00444444444445,43.86527777777778],[-106.3236111111111,43.8125],[-106.48555555555555,43.78527777777778],[-106.95861111111111,43.70444444444445],[-106.95861111111111,43.70444444444445],[-107.60583333333332,43.59027777777778],[-107.60583333333332,43.59027777777778],[-108.25166666666667,43.47222222222222],[-108.56555555555555,43.388333333333335],[-108.56555555555555,43.388333333333335],[-109.36083333333333,43.159444444444446],[-109.51166666666667,43.115833333333335],[-109.51166666666667,43.115833333333335],[-109.96138888888889,42.98166666666667],[-110.11305555555555,42.93666666666666],[-110.11305555555555,42.93666666666666],[-110.41888888888889,42.843333333333334],[-110.41888888888889,42.843333333333334],[-110.57333333333332,42.796388888888885],[-110.72416666666666,42.750277777777775],[-110.72416666666666,42.750277777777775],[-111.1713888888889,42.611111111111114],[-111.47027777777778,42.51694444444444],[-111.47027777777778,42.51694444444444],[-111.91777777777779,42.37361111111111],[-111.91777777777779,42.37361111111111],[-112.06972222222223,42.32472222222223],[-112.21944444444445,42.27583333333333],[-112.21944444444445,42.27583333333333],[-112.84166666666667,42.06777777777778],[-113.27888888888889,41.91722222222222],[-113.27888888888889,41.91722222222222],[-113.56194444444444,41.81861111111112],[-113.56194444444444,41.81861111111112],[-113.84444444444443,41.71944444444445],[-113.84444444444443,41.71944444444445],[-114.12694444444443,41.618611111111115],[-114.2675,41.56805555555556],[-114.2675,41.56805555555556],[-114.40583333333333,41.51833333333333],[-114.54472222222222,41.46805555555556],[-114.68444444444445,41.41722222222222],[-114.82138888888889,41.367222222222225],[-115.08749999999999,41.269444444444446],[-115.22416666666666,41.218611111111116],[-115.36333333333333,41.16722222222222],[-115.36333333333333,41.16722222222222],[-115.53027777777778,41.10638888888889],[-115.80888888888889,41.00055555555556],[-115.94638888888889,40.94777777777777],[-116.08749999999999,40.89388888888889],[-116.08749999999999,40.89388888888889],[-117.34138888888889,40.459722222222226],[-117.48722222222223,40.42111111111111],[-117.48722222222223,40.42111111111111],[-118.34833333333333,40.18861111111111],[-118.34833333333333,40.18861111111111],[-118.62694444444443,40.11194444444445],[-118.62694444444443,40.11194444444445],[-118.92888888888889,40.019444444444446],[-118.92888888888889,40.019444444444446],[-119.20527777777778,39.93555555555555],[-119.31722222222221,39.901111111111106],[-119.34388888888888,39.893055555555556],[-119.34388888888888,39.893055555555556],[-119.45583333333333,39.858333333333334],[-119.73305555555555,39.772777777777776],[-119.73305555555555,39.772777777777776],[-120.14444444444445,39.643055555555556],[-120.28277777777778,39.599444444444444],[-120.41944444444445,39.55555555555555],[-120.41944444444445,39.55555555555555],[-120.55,39.50361111111111],[-120.67750000000001,39.440555555555555],[-120.67750000000001,39.440555555555555],[-121.04777777777778,39.23972222222222],[-121.16694444444445,39.171388888888885],[-121.16694444444445,39.171388888888885],[-121.2875,39.10166666666667],[-121.79416666666667,38.80583333333333],[-121.90555555555557,38.74027777777778],[-122.0175,38.67388888888889],[-122.0175,38.67388888888889],[-122.12805555555555,38.608333333333334],[-122.23666666666666,38.54333333333333],[-122.44861111111112,38.41694444444444],[-122.44861111111112,38.41694444444444],[-122.75,38.21666666666667],[-122.73333333333333,38.1],[-122.73333333333333,38.1],[-122.7,38],[-122.7,38],[-122.68277777777779,37.931666666666665],[-122.47638888888889,37.71611111111111],[-122.43333333333334,37.7],[-122.43333333333334,37.7],[-122.39111111111112,37.69222222222222],[-122.36666666666666,37.68333333333333],[-122.28333333333333,37.666666666666664],[-122.2,37.63333333333333],[-122.15222222222222,37.625277777777775],[-122.15222222222222,37.625277777777775],[-122.13333333333334,37.61666666666667],[-122.08166666666666,37.59777777777778],[-122.06666666666666,37.583333333333336],[-122.09333333333333,37.5475],[-122.18333333333334,37.56666666666667],[-122.22027777777778,37.572500000000005],[-122.3,37.6],[-122.3,37.6],[-122.35,37.61666666666667]],"type":"LineString"}
}
