{
  "id": 2014864761,
  "type": "Feature",
  "properties": {
    "geom:area": 0,
    "geom:bbox": "-122.380000,33.640000,-84.280000,37.810000",
    "geom:latitude": 35.238625411648684,
    "geom:longitude": -103.41408245559515,
    "src:alt_label": "swim-route",
    "src:geom": "swim",
    "swim:geom": "route",
    "wof:geomhash": "f782c15bffd96c1bab5bc1600eb02415",
    "wof:id": 2014864761,
    "wof:repo": "sfomuseum-data-flights-2026-02"
  },
  "bbox": [
    -122.38,
    33.64,
    -84.28,
    37.81
  ],
  "geometry": {"coordinates":[[-84.43,33.64],[-84.28,33.68],[-84.28,33.81],[-84.53,33.81],[-84.61,33.8],[-84.62,33.8],[-84.82,33.79],[-85.02,33.77],[-85.14,33.77],[-85.22,33.76],[-85.34,33.75],[-85.41,33.76],[-85.56,33.77],[-85.64,33.77],[-85.89,33.79],[-85.98,33.8],[-86.12,33.81],[-86.17,33.81],[-86.47,33.83],[-86.54,33.83],[-87.57,33.89],[-87.57,33.89],[-89.73,33.99],[-90,34],[-90.01,34],[-90.79,34.07],[-90.88,34.08],[-91.97,33.93],[-92.24,33.88],[-93.11,33.98],[-93.55,34.04],[-93.75,34.06],[-93.92,34.08],[-93.97,34.08],[-95.84,34.26],[-95.95,34.29],[-98.25,34.48],[-98.41,34.5],[-98.7,34.54],[-99.16,34.61],[-99.41,34.65],[-100.4,34.79],[-102,35],[-103.1,35.12],[-104.58,35.25],[-105.46,35.33],[-105.58,35.34],[-106.29,35.39],[-106.52,35.41],[-107,35.44],[-107.44,35.47],[-108,35.5],[-109.05,35.44],[-109.81,35.46],[-110.03,35.47],[-111.48,35.49],[-111.96,35.5],[-112,35.5],[-112.48,35.54],[-113.54,35.62],[-113.75,35.68],[-113.77,35.69],[-114.76,35.97],[-114.86,36],[-115.39,36.23],[-115.52,36.28],[-116.01,36.49],[-116.64,36.76],[-116.72,36.79],[-116.75,36.8],[-116.79,36.84],[-117.15,37.17],[-117.24,37.25],[-117.52,37.49],[-117.6,37.72],[-118.08,37.81],[-118.58,37.79],[-119.08,37.76],[-120.13,37.7],[-120.22,37.7],[-120.4,37.7],[-120.41,37.7],[-120.48,37.69],[-120.69,37.67],[-120.75,37.66],[-120.77,37.66],[-120.83,37.65],[-120.96,37.63],[-121,37.63],[-121.08,37.62],[-121.17,37.6],[-121.26,37.59],[-121.39,37.58],[-121.41,37.58],[-121.6,37.55],[-121.61,37.55],[-121.62,37.55],[-121.7,37.53],[-121.8,37.51],[-121.83,37.5],[-121.88,37.49],[-122.08,37.54],[-122.14,37.56],[-122.18,37.57],[-122.28,37.59],[-122.33,37.61],[-122.36,37.61],[-122.38,37.62]],"type":"LineString"}
}
