{
  "id": 2014782249,
  "type": "Feature",
  "properties": {
    "geom:area": 0,
    "geom:bbox": "-122.283333,34.127222,-118.435556,37.583333",
    "geom:latitude": 35.79287871597195,
    "geom:longitude": -120.45387965064504,
    "src:alt_label": "swim-path",
    "src:geom": "swim",
    "swim:altitudes": [
      "054",
      "054",
      "085",
      "151",
      "166",
      "166",
      "180",
      "180",
      "240",
      "253",
      "253",
      "267",
      "292",
      "292",
      "300C",
      "300C",
      "300C",
      "300C",
      "300",
      "300",
      "300",
      "300",
      "300",
      "300",
      "300",
      "241",
      "241",
      "201",
      "201",
      "133",
      "133",
      "118",
      "061",
      "061",
      "033",
      "033",
      "014",
      "014"
    ],
    "swim:geom": "path",
    "swim:speeds": [
      245,
      245,
      265,
      283,
      342,
      342,
      381,
      381,
      418,
      441,
      441,
      453,
      439,
      439,
      428,
      429,
      429,
      433,
      435,
      434,
      434,
      433,
      433,
      433,
      432,
      367,
      367,
      358,
      358,
      281,
      281,
      272,
      220,
      220,
      191,
      191,
      147,
      147
    ],
    "swim:timestamps": [
      1771023342,
      1771023342,
      1771023402,
      1771023522,
      1771023584,
      1771023584,
      1771023642,
      1771023642,
      1771023824,
      1771023883,
      1771023883,
      1771023943,
      1771024004,
      1771024004,
      1771024063,
      1771024545,
      1771024545,
      1771024604,
      1771024664,
      1771024725,
      1771024725,
      1771024784,
      1771024966,
      1771024966,
      1771025026,
      1771025266,
      1771025266,
      1771025386,
      1771025386,
      1771025626,
      1771025626,
      1771025687,
      1771025987,
      1771025987,
      1771026167,
      1771026167,
      1771026285,
      1771026285
    ],
    "wof:geomhash": "5f02408be30772349abc09e5b6bba6f2",
    "wof:id": 2014782249,
    "wof:repo": "sfomuseum-data-flights-2026-02"
  },
  "bbox": [
    -122.28333333333333,
    34.12722222222222,
    -118.43555555555555,
    37.583333333333336
  ],
  "geometry": {"coordinates":[[-118.43555555555555,34.12722222222222],[-118.43555555555555,34.12722222222222],[-118.47805555555556,34.18555555555555],[-118.53999999999999,34.327222222222225],[-118.60777777777777,34.400277777777774],[-118.60777777777777,34.400277777777774],[-118.68416666666667,34.476111111111116],[-118.68416666666667,34.476111111111116],[-118.91555555555556,34.76583333333333],[-119.01277777777777,34.84444444444445],[-119.01277777777777,34.84444444444445],[-119.1363888888889,34.926944444444445],[-119.25833333333334,35.005],[-119.25833333333334,35.005],[-119.36777777777777,35.07472222222223],[-120.28833333333333,35.64833333333333],[-120.28833333333333,35.64833333333333],[-120.41055555555556,35.708333333333336],[-120.56944444444444,35.77166666666667],[-120.66722222222222,35.83305555555556],[-120.66722222222222,35.83305555555556],[-120.80027777777778,35.919444444444444],[-121.15222222222222,36.14666666666667],[-121.15222222222222,36.14666666666667],[-121.26888888888888,36.22166666666667],[-121.68916666666667,36.490833333333335],[-121.68916666666667,36.490833333333335],[-121.82888888888888,36.659444444444446],[-121.82888888888888,36.659444444444446],[-121.96722222222222,36.98833333333334],[-121.96722222222222,36.98833333333334],[-121.99527777777777,37.059444444444445],[-122.11722222222221,37.37027777777778],[-122.11722222222221,37.37027777777778],[-122.17805555555556,37.52638888888889],[-122.17805555555556,37.52638888888889],[-122.28333333333333,37.583333333333336],[-122.28333333333333,37.583333333333336]],"type":"LineString"}
}
