{
  "id": 2014793873,
  "type": "Feature",
  "properties": {
    "geom:area": 0,
    "geom:bbox": "-122.543300,36.724790,-121.425220,37.668970",
    "geom:latitude": 37.22738526410646,
    "geom:longitude": -122.0449982481358,
    "src:alt_label": "swim-takeoff",
    "src:geom": "swim",
    "swim:elevations": [
      91,
      431,
      868,
      1020,
      1264,
      1449,
      1729,
      2102,
      2536,
      2866,
      3290,
      3648,
      4106,
      4368,
      4483,
      4721,
      5095,
      5470,
      5553,
      5894,
      6086,
      6460,
      6749,
      6954,
      7148,
      7343,
      7377,
      7555,
      7742,
      7921,
      8185,
      8264,
      8529,
      8648
    ],
    "swim:geom": "takeoff",
    "swim:timestamps": [
      1771097636,
      1771097663,
      1771097698,
      1771097711,
      1771097747,
      1771097765,
      1771097780,
      1771097803,
      1771097836,
      1771097857,
      1771097899,
      1771097929,
      1771097962,
      1771097992,
      1771098014,
      1771098037,
      1771098070,
      1771098103,
      1771098112,
      1771098143,
      1771098161,
      1771098200,
      1771098236,
      1771098261,
      1771098293,
      1771098325,
      1771098330,
      1771098355,
      1771098382,
      1771098406,
      1771098445,
      1771098457,
      1771098496,
      1771098520
    ],
    "wof:geomhash": "0bba9c21bf7930ffd915b8db76767918",
    "wof:id": 2014793873,
    "wof:repo": "sfomuseum-data-flights-2026-02"
  },
  "bbox": [
    -122.5433,
    36.72479,
    -121.42522,
    37.66897
  ],
  "geometry": {"coordinates":[[-122.39053,37.62519],[-122.41606,37.63644],[-122.45045,37.65124],[-122.46371,37.65722],[-122.50732,37.66897],[-122.53026,37.66136],[-122.54272,37.64848],[-122.5433,37.62452],[-122.51466,37.59405],[-122.49366,37.57517],[-122.44925,37.53544],[-122.41288,37.50376],[-122.36868,37.46997],[-122.32742,37.43792],[-122.29484,37.41248],[-122.25904,37.38465],[-122.20744,37.34442],[-122.15524,37.30342],[-122.14085,37.29213],[-122.09031,37.2524],[-122.06147,37.2298],[-121.99735,37.17935],[-121.937,37.13171],[-121.89507,37.0986],[-121.84007,37.05509],[-121.78259,37.00944],[-121.77405,37.00258],[-121.72865,36.96672],[-121.67945,36.92803],[-121.63562,36.89294],[-121.56409,36.83593],[-121.54202,36.81813],[-121.4706,36.76158],[-121.42522,36.72479]],"type":"LineString"}
}
