{
  "id": 2014776937,
  "type": "Feature",
  "properties": {
    "geom:area": 0,
    "geom:bbox": "-123.318850,37.626310,-122.393330,38.493870",
    "geom:latitude": 38.018623339625925,
    "geom:longitude": -122.88930082322922,
    "src:alt_label": "swim-takeoff",
    "src:geom": "swim",
    "swim:elevations": [
      152,
      331,
      616,
      1039,
      1045,
      1399,
      1750,
      2115,
      2503,
      2893,
      3137,
      3279,
      3522,
      3980,
      4343,
      4384,
      5385,
      5763,
      6546,
      6800,
      6980,
      7071,
      7181
    ],
    "swim:geom": "takeoff",
    "swim:timestamps": [
      1770941541,
      1770941552,
      1770941582,
      1770941638,
      1770941642,
      1770941692,
      1770941725,
      1770941755,
      1770941785,
      1770941816,
      1770941837,
      1770941852,
      1770941886,
      1770941936,
      1770941966,
      1770941972,
      1770942069,
      1770942115,
      1770942205,
      1770942235,
      1770942262,
      1770942274,
      1770942291
    ],
    "wof:geomhash": "86c846762ab48eb8d1e53616c07a8807",
    "wof:id": 2014776937,
    "wof:repo": "sfomuseum-data-flights-2026-02"
  },
  "bbox": [
    -123.31885,
    37.62631,
    -122.39333,
    38.49387
  ],
  "geometry": {"coordinates":[[-122.39333,37.62631],[-122.4038,37.63075],[-122.43304,37.64343],[-122.49137,37.6697],[-122.49622,37.67187],[-122.55714,37.70625],[-122.60116,37.73293],[-122.64327,37.75713],[-122.686,37.78209],[-122.73135,37.80903],[-122.75966,37.82915],[-122.77667,37.84627],[-122.81191,37.8893],[-122.86908,37.95889],[-122.90425,38.00145],[-122.91027,38.00865],[-123.03,38.15199],[-123.08801,38.22128],[-123.20364,38.35875],[-123.24315,38.40547],[-123.27892,38.448],[-123.29575,38.46667],[-123.31885,38.49387]],"type":"LineString"}
}
