{
  "id": 2014721543,
  "type": "Feature",
  "properties": {
    "geom:area": 0,
    "geom:bbox": "-122.385310,37.640060,-121.251930,38.422400",
    "geom:latitude": 38.089164556791225,
    "geom:longitude": -121.92387567972378,
    "src:alt_label": "swim-takeoff",
    "src:geom": "swim",
    "swim:elevations": [
      362,
      604,
      653,
      1046,
      1416,
      2047,
      2270,
      2731,
      3351,
      3409,
      4039,
      4356,
      4575,
      4957,
      5279,
      5475,
      6153,
      6233,
      6473,
      6668,
      6958,
      7322,
      7564,
      7760,
      8146,
      8368,
      8586,
      8948,
      9075
    ],
    "swim:geom": "takeoff",
    "swim:timestamps": [
      1770358254,
      1770358287,
      1770358299,
      1770358337,
      1770358362,
      1770358404,
      1770358419,
      1770358451,
      1770358497,
      1770358503,
      1770358558,
      1770358585,
      1770358614,
      1770358647,
      1770358672,
      1770358689,
      1770358736,
      1770358742,
      1770358762,
      1770358780,
      1770358813,
      1770358855,
      1770358879,
      1770358900,
      1770358938,
      1770358963,
      1770358983,
      1770359034,
      1770359044
    ],
    "wof:geomhash": "18f623d912abdf98917b58446ae88e0d",
    "wof:id": 2014721543,
    "wof:repo": "sfomuseum-data-flights-2026-02"
  },
  "bbox": [
    -122.38531,
    37.64006,
    -121.25193,
    38.4224
  ],
  "geometry": {"coordinates":[[-122.35785,37.64006],[-122.3318,37.66092],[-122.32125,37.6702],[-122.31835,37.71292],[-122.33429,37.74191],[-122.36081,37.79265],[-122.36996,37.81145],[-122.38531,37.85236],[-122.38087,37.91632],[-122.37712,37.92443],[-122.29713,37.97522],[-122.24845,37.99485],[-122.19279,38.0174],[-122.12643,38.04408],[-122.07264,38.06572],[-122.03715,38.08005],[-121.93727,38.12011],[-121.92452,38.12523],[-121.88233,38.14211],[-121.84272,38.15773],[-121.76992,38.18646],[-121.67449,38.22401],[-121.61911,38.24594],[-121.57051,38.2651],[-121.48277,38.29966],[-121.42589,38.32235],[-121.3798,38.34408],[-121.27196,38.40994],[-121.25193,38.4224]],"type":"LineString"}
}
