{
  "id": 2014835549,
  "type": "Feature",
  "properties": {
    "geom:area": 0,
    "geom:bbox": "-122.380000,37.620000,-73.780000,42.190000",
    "geom:latitude": 40.08219924918532,
    "geom:longitude": -97.98848883547764,
    "src:alt_label": "swim-route",
    "src:geom": "swim",
    "swim:geom": "route",
    "wof:geomhash": "fb802c177fafbc94efa01439bfb166ac",
    "wof:id": 2014835549,
    "wof:repo": "sfomuseum-data-flights-2026-02"
  },
  "bbox": [
    -122.38,
    37.62,
    -73.78,
    42.19
  ],
  "geometry": {"coordinates":[[-122.38,37.62],[-122.27,37.69],[-122.22,37.72],[-122.21,37.72],[-122.16,37.75],[-122.12,37.76],[-122.09,37.78],[-122.02,37.82],[-122.01,37.82],[-122,37.83],[-121.94,37.84],[-121.73,37.88],[-121.7,37.88],[-121.59,37.9],[-121.46,37.93],[-121.41,37.94],[-121.34,37.95],[-121.17,37.98],[-121.16,37.98],[-121.1,37.99],[-120.89,38.02],[-120.7,38.05],[-120.66,38.06],[-120.54,38.08],[-120.12,38.14],[-119.96,38.16],[-119.8,38.19],[-119.65,38.21],[-119.18,38.27],[-119.15,38.28],[-118.96,38.3],[-117.29,38.52],[-117.28,38.52],[-113.86,38.4],[-113.01,38.36],[-112.81,38.42],[-112.21,38.59],[-111.8,38.7],[-109.98,39.17],[-107.14,39.85],[-106.44,40],[-105.05,40.14],[-104.37,40.2],[-104.33,40.21],[-102.71,40.34],[-100.92,40.45],[-100,40.5],[-99.05,40.44],[-96.21,40.2],[-95.59,40.2],[-95.34,40.19],[-94.3,40.17],[-93.9,40.17],[-92.59,40.14],[-90.76,40.39],[-90.7,40.4],[-89.29,40.57],[-88.06,40.71],[-86.8,40.84],[-86.28,40.89],[-85.75,40.93],[-85.19,40.98],[-84.7,41.04],[-84.21,41.1],[-83.96,41.13],[-82.72,41.27],[-82.05,41.34],[-81.49,41.52],[-80.93,41.7],[-80.58,41.8],[-79.12,42.19],[-77.85,41.87],[-77.55,41.79],[-77.49,41.77],[-77.15,41.68],[-76.8,41.58],[-76.67,41.55],[-76.6,41.53],[-76.33,41.45],[-76.13,41.4],[-76.03,41.37],[-75.94,41.34],[-75.75,41.29],[-75.69,41.27],[-75.58,41.24],[-75.49,41.21],[-75.49,41.2],[-75.34,41.16],[-75.33,41.15],[-75.26,41.13],[-75.2,41.11],[-75.13,41.09],[-75.09,41.07],[-75.06,41.06],[-75.06,41.06],[-75,41.04],[-74.94,41.02],[-74.92,41.01],[-74.9,41.01],[-74.87,41],[-74.84,40.99],[-74.78,40.99],[-74.74,40.98],[-74.68,40.97],[-74.66,40.97],[-74.44,40.95],[-74.38,40.94],[-74.32,40.93],[-74.28,40.93],[-74.23,40.92],[-74.2,40.92],[-74.18,40.91],[-74.16,40.91],[-74.12,40.91],[-74.1,40.9],[-74.04,40.87],[-74.03,40.86],[-74.01,40.85],[-73.98,40.84],[-73.97,40.83],[-73.95,40.82],[-73.93,40.81],[-73.9,40.8],[-73.88,40.79],[-73.87,40.79],[-73.87,40.78],[-73.84,40.73],[-73.83,40.72],[-73.83,40.71],[-73.78,40.64]],"type":"LineString"}
}
