{
  "id": 2014805743,
  "type": "Feature",
  "properties": {
    "geom:area": 0,
    "geom:bbox": "-122.380000,37.490000,-74.170000,41.590000",
    "geom:latitude": 40.32826669631051,
    "geom:longitude": -98.33290769522107,
    "src:alt_label": "swim-route",
    "src:geom": "swim",
    "swim:geom": "route",
    "wof:geomhash": "8d8f0e4a00d35a661aa7b20d1a6d15fb",
    "wof:id": 2014805743,
    "wof:repo": "sfomuseum-data-flights-2026-02"
  },
  "bbox": [
    -122.38,
    37.49,
    -74.17,
    41.59
  ],
  "geometry": {"coordinates":[[-74.17,40.69],[-74.31,40.73],[-74.4,40.75],[-74.42,40.75],[-74.45,40.76],[-74.47,40.76],[-74.51,40.77],[-74.53,40.78],[-74.59,40.79],[-74.62,40.8],[-74.64,40.8],[-74.67,40.81],[-74.7,40.81],[-74.72,40.82],[-74.78,40.83],[-74.81,40.84],[-74.89,40.86],[-74.92,40.87],[-74.95,40.87],[-75.01,40.89],[-75.06,40.9],[-75.12,40.91],[-75.12,40.91],[-75.17,40.92],[-75.18,40.92],[-75.25,40.9],[-75.4,40.87],[-75.57,40.83],[-75.63,40.81],[-75.65,40.81],[-75.85,40.76],[-75.94,40.74],[-76.13,40.69],[-76.24,40.67],[-76.24,40.67],[-76.43,40.69],[-77.43,40.84],[-77.69,40.88],[-77.99,40.92],[-78.08,40.93],[-78.43,40.97],[-80.16,41.17],[-80.42,41.19],[-80.88,41.24],[-81.58,41.31],[-81.68,41.32],[-81.79,41.32],[-82.18,41.36],[-82.74,41.39],[-83.83,41.45],[-84.74,41.49],[-85.8,41.53],[-86.23,41.55],[-87,41.57],[-87.24,41.57],[-88.82,41.59],[-90.15,41.45],[-90.61,41.3],[-90.81,41.24],[-90.84,41.23],[-90.9,41.21],[-91.24,41.2],[-93.59,41.18],[-93.86,41.18],[-95.6,41.13],[-95.88,41.13],[-95.93,41.12],[-97.03,41.08],[-97.61,41.05],[-99.04,40.97],[-100.07,40.9],[-100.17,40.89],[-101.29,40.8],[-102.39,40.71],[-103.21,40.63],[-104.03,40.54],[-104.52,40.49],[-104.63,40.48],[-105.08,40.42],[-105.34,40.39],[-105.86,40.33],[-106.48,40.25],[-107.15,40.16],[-107.36,39.98],[-107.73,39.88],[-109.46,39.7],[-110.21,39.61],[-110.29,39.57],[-110.58,39.56],[-111.12,39.49],[-111.27,39.41],[-112.51,39.3],[-113.32,39.14],[-113.6,39.08],[-114.46,38.9],[-114.67,38.86],[-114.88,38.81],[-115.31,38.72],[-115.78,38.62],[-116.44,38.46],[-116.98,38.34],[-117.28,38.27],[-117.89,38.12],[-117.98,38.09],[-118.76,37.9],[-118.85,37.89],[-119,37.87],[-119.1,37.86],[-119.81,37.77],[-119.99,37.75],[-120.04,37.74],[-120.26,37.72],[-120.28,37.72],[-120.38,37.7],[-120.4,37.7],[-120.75,37.66],[-120.78,37.66],[-120.83,37.65],[-120.96,37.63],[-121,37.63],[-121.08,37.62],[-121.18,37.6],[-121.26,37.59],[-121.39,37.58],[-121.41,37.58],[-121.6,37.55],[-121.61,37.55],[-121.62,37.55],[-121.7,37.53],[-121.8,37.51],[-121.83,37.5],[-121.88,37.49],[-122.08,37.54],[-122.14,37.56],[-122.18,37.57],[-122.28,37.59],[-122.33,37.61],[-122.36,37.61],[-122.38,37.62]],"type":"LineString"}
}
