{
  "id": 2014782697,
  "type": "Feature",
  "properties": {
    "date:cessation_lower": "2026-02-13",
    "date:cessation_upper": "2026-02-13",
    "date:inception_lower": "2026-02-13",
    "date:inception_upper": "2026-02-13",
    "edtf:cessation": "2026-02-13T03:25:19-08:00",
    "edtf:inception": "2026-02-13T08:36:00Z",
    "flysfo:actual_timestamp": -1,
    "flysfo:airline": "UA",
    "flysfo:base_airline": "",
    "flysfo:base_flight_number": "3298",
    "flysfo:date": "2026-02-13",
    "flysfo:estimated_timestamp": 1771014000,
    "flysfo:event": "A",
    "flysfo:flight_number": "UA984",
    "flysfo:gate": "G3",
    "flysfo:journey": "CDG-SFO",
    "flysfo:scheduled_timestamp": 1771011300,
    "flysfo:timestamp": 1771014000,
    "geom:area": 0,
    "geom:bbox": "-122.370943,37.617990,2.542809,49.007854",
    "geom:latitude": 43.312922,
    "geom:longitude": -59.914066999999996,
    "iata:airline": "UA",
    "iata:base_airline": "",
    "icao:aircraft": "B772",
    "icao:airline": "UAL",
    "icao:base_airline": "ACA",
    "lbl:latitude": 37.617458,
    "lbl:longitude": -122.391079,
    "sfomuseum:aircraft_id": 1159289985,
    "sfomuseum:airline_id": 1159285413,
    "sfomuseum:arrival_id": 102527513,
    "sfomuseum:base_flight_id": "20260213-A-ACA-3298",
    "sfomuseum:departure_id": 102544459,
    "sfomuseum:flight_id": "20260213-A-UAL-984",
    "sfomuseum:flight_number": [
      "UAL984",
      "UA984"
    ],
    "sfomuseum:placetype": "flight",
    "src:geom": "flysfo",
    "src:geom_alt": [
      "swim-route",
      "swim-path",
      "swim-approach"
    ],
    "swim:tail_number": "N76010",
    "wof:belongsto": [
      1947304067,
      102527513,
      1947304129,
      102191575,
      85633793,
      102087579,
      85922583,
      554784711,
      85688637,
      1947304131,
      1947304069,
      102085387
    ],
    "wof:concordances": {
      "swim:flight_ref": "139249937",
      "swim:gufi": "KU603306hi"
    },
    "wof:country": "US",
    "wof:created": 1771085343,
    "wof:geomhash": "07d689097487ceb3bc0a07973d8c4b93",
    "wof:hierarchy": [
      {
        "building_id": 1947304067,
        "campus_id": 102527513,
        "concourse_id": 1947304129,
        "continent_id": 102191575,
        "country_id": 85633793,
        "county_id": 102087579,
        "custom_id": 2014782697,
        "flight_id": 2014782697,
        "locality_id": 85922583,
        "postalcode_id": 554784711,
        "region_id": 85688637,
        "venue_id": 1947304131,
        "wing_id": 1947304069
      },
      {
        "building_id": 1947304067,
        "campus_id": 102527513,
        "concourse_id": 1947304129,
        "continent_id": 102191575,
        "country_id": 85633793,
        "county_id": 102085387,
        "custom_id": 2014782697,
        "flight_id": 2014782697,
        "region_id": 85688637,
        "venue_id": 1947304131,
        "wing_id": 1947304069
      }
    ],
    "wof:id": 2014782697,
    "wof:involves": [
      1159283597,
      1159289985,
      102527513,
      102544459,
      1159285413,
      1947304131
    ],
    "wof:lastmodified": 1771085893,
    "wof:name": "UA984 (CDG-SFO)",
    "wof:parent_id": 1947304131,
    "wof:placetype": "custom",
    "wof:placetype_alt": [
      "flight"
    ],
    "wof:repo": "sfomuseum-data-flights-2026-02",
    "wof:superseded_by": [],
    "wof:supersedes": []
  },
  "bbox": [
    -122.370943,
    37.61799,
    2.542809,
    49.007854
  ],
  "geometry": {"coordinates":[[2.542809,49.007854],[-122.370943,37.61799]],"type":"MultiPoint"}
}
