{
  "id": 2014796687,
  "type": "Feature",
  "properties": {
    "geom:area": 0,
    "geom:bbox": "-122.470170,36.722940,-121.879250,37.832730",
    "geom:latitude": 37.33269127681073,
    "geom:longitude": -122.28106028369717,
    "src:alt_label": "swim-approach",
    "src:geom": "swim",
    "swim:elevations": [
      5784,
      5666,
      5340,
      5171,
      5004,
      4749,
      4536,
      4298,
      4199,
      4064,
      3899,
      3769,
      3383,
      3330,
      3200,
      3066,
      3026,
      2893,
      2681,
      2552,
      2438,
      2438,
      2438,
      2437,
      2286,
      2196,
      2064,
      1888,
      1829,
      1829,
      1829,
      1829,
      1829,
      1829,
      1829,
      1822,
      1575,
      1526,
      1435,
      1307,
      1129,
      1048,
      942,
      924,
      863,
      791,
      677,
      547,
      458,
      309,
      227,
      157,
      59,
      0
    ],
    "swim:geom": "approach",
    "swim:timestamps": [
      1771197358,
      1771197374,
      1771197415,
      1771197442,
      1771197466,
      1771197505,
      1771197533,
      1771197564,
      1771197578,
      1771197597,
      1771197615,
      1771197634,
      1771197687,
      1771197696,
      1771197738,
      1771197774,
      1771197780,
      1771197806,
      1771197837,
      1771197852,
      1771197885,
      1771197906,
      1771197949,
      1771197958,
      1771197987,
      1771198008,
      1771198041,
      1771198075,
      1771198107,
      1771198137,
      1771198163,
      1771198191,
      1771198222,
      1771198237,
      1771198286,
      1771198301,
      1771198343,
      1771198355,
      1771198376,
      1771198394,
      1771198429,
      1771198453,
      1771198491,
      1771198528,
      1771198545,
      1771198558,
      1771198586,
      1771198611,
      1771198632,
      1771198665,
      1771198689,
      1771198704,
      1771198730,
      1771198742
    ],
    "wof:geomhash": "7f8c2d2242994302081e88baf49fe338",
    "wof:id": 2014796687,
    "wof:repo": "sfomuseum-data-flights-2026-02"
  },
  "bbox": [
    -122.47017,
    36.72294,
    -121.87925,
    37.83273
  ],
  "geometry": {"coordinates":[[-121.87925,36.72294],[-121.89704,36.74406],[-121.95062,36.79549],[-121.98526,36.82874],[-122.01587,36.85751],[-122.06516,36.90407],[-122.10018,36.93763],[-122.13856,36.97411],[-122.15579,36.9904],[-122.17907,37.0123],[-122.20165,37.03363],[-122.22581,37.05604],[-122.28852,37.11906],[-122.29554,37.13109],[-122.32074,37.18533],[-122.35487,37.22077],[-122.36014,37.22605],[-122.3837,37.24987],[-122.40989,37.27745],[-122.42314,37.29104],[-122.4465,37.32457],[-122.4414,37.34966],[-122.42302,37.39955],[-122.4192,37.41011],[-122.42236,37.44393],[-122.42927,37.46823],[-122.43847,37.50357],[-122.44714,37.53776],[-122.45549,37.57056],[-122.46321,37.60051],[-122.47017,37.62543],[-122.46502,37.65464],[-122.45009,37.68409],[-122.44191,37.69848],[-122.41604,37.7452],[-122.40819,37.75952],[-122.37899,37.79651],[-122.36857,37.80595],[-122.35082,37.82229],[-122.3337,37.83273],[-122.29586,37.83174],[-122.27819,37.82123],[-122.27347,37.79348],[-122.27619,37.76585],[-122.2827,37.75391],[-122.28863,37.74486],[-122.30189,37.72551],[-122.31406,37.70735],[-122.32345,37.6932],[-122.33671,37.67311],[-122.3463,37.65873],[-122.35238,37.64965],[-122.36297,37.63367],[-122.36738,37.62649]],"type":"LineString"}
}
