{
  "id": 2014832761,
  "type": "Feature",
  "properties": {
    "geom:area": 0,
    "geom:bbox": "-122.855250,37.421990,-122.073910,38.515960",
    "geom:latitude": 37.817979579558624,
    "geom:longitude": -122.48706629633448,
    "src:alt_label": "swim-approach",
    "src:geom": "swim",
    "swim:elevations": [
      7421,
      7286,
      6844,
      6665,
      6351,
      6031,
      5796,
      5370,
      5208,
      5131,
      4812,
      4649,
      4280,
      4032,
      3966,
      3668,
      3481,
      3399,
      3359,
      3385,
      3353,
      3353,
      3353,
      3179,
      2986,
      2963,
      2846,
      2671,
      2424,
      2213,
      2108,
      1933,
      1709,
      1690,
      1536,
      1527,
      1525,
      1460,
      1219,
      1219,
      1219,
      1219,
      1158,
      1096,
      904,
      775,
      729,
      576,
      390,
      338,
      273,
      237,
      115,
      133
    ],
    "swim:geom": "approach",
    "swim:timestamps": [
      1771538064,
      1771538076,
      1771538115,
      1771538131,
      1771538158,
      1771538187,
      1771538208,
      1771538247,
      1771538262,
      1771538269,
      1771538300,
      1771538317,
      1771538363,
      1771538398,
      1771538407,
      1771538453,
      1771538475,
      1771538486,
      1771538492,
      1771538514,
      1771538532,
      1771538578,
      1771538588,
      1771538636,
      1771538656,
      1771538659,
      1771538674,
      1771538696,
      1771538728,
      1771538753,
      1771538765,
      1771538793,
      1771538817,
      1771538820,
      1771538847,
      1771538850,
      1771538859,
      1771538891,
      1771538937,
      1771538947,
      1771538994,
      1771539009,
      1771539026,
      1771539042,
      1771539079,
      1771539112,
      1771539121,
      1771539152,
      1771539193,
      1771539207,
      1771539222,
      1771539233,
      1771539266,
      1771539292
    ],
    "wof:geomhash": "3ec22c3adab84c73e542492ef9ac7473",
    "wof:id": 2014832761,
    "wof:repo": "sfomuseum-data-flights-2026-02"
  },
  "bbox": [
    -122.85525,
    37.42199,
    -122.07391,
    38.51596
  ],
  "geometry": {"coordinates":[[-122.85525,38.51596],[-122.84746,38.48984],[-122.82248,38.40597],[-122.81277,38.37346],[-122.79599,38.31691],[-122.77796,38.25623],[-122.76533,38.21348],[-122.74236,38.1358],[-122.73369,38.10643],[-122.73012,38.09403],[-122.71269,38.03407],[-122.7029,38.00082],[-122.67555,37.91354],[-122.62962,37.85848],[-122.61753,37.84703],[-122.54928,37.78314],[-122.52016,37.75577],[-122.50546,37.74152],[-122.4978,37.7341],[-122.47176,37.70901],[-122.4505,37.68925],[-122.39977,37.64199],[-122.38945,37.63187],[-122.3499,37.57795],[-122.3363,37.55462],[-122.33413,37.55125],[-122.32391,37.53517],[-122.30822,37.50984],[-122.28688,37.47477],[-122.26775,37.44925],[-122.25415,37.44037],[-122.21907,37.42593],[-122.18644,37.42199],[-122.18236,37.4225],[-122.14636,37.4279],[-122.14234,37.42851],[-122.13021,37.43048],[-122.09569,37.44922],[-122.07391,37.48769],[-122.07711,37.49512],[-122.11919,37.51654],[-122.13505,37.52145],[-122.15279,37.52761],[-122.16716,37.53332],[-122.19708,37.54659],[-122.2228,37.55719],[-122.2302,37.56029],[-122.25534,37.57091],[-122.28536,37.58345],[-122.29593,37.58779],[-122.30607,37.59209],[-122.31467,37.59582],[-122.34013,37.6064],[-122.3595,37.61364]],"type":"LineString"}
}
