{
  "id": 2014876499,
  "type": "Feature",
  "properties": {
    "geom:area": 0,
    "geom:bbox": "-156.450000,20.783333,-122.516667,37.666667",
    "geom:latitude": 30.31298182962894,
    "geom:longitude": -140.31000459777522,
    "src:alt_label": "swim-path",
    "src:geom": "swim",
    "swim:altitudes": [
      "044C",
      "044C",
      "044C",
      "044C",
      "101C",
      "101C",
      "130C",
      "151C",
      "151C",
      "184C",
      "184C",
      "184C",
      "192",
      "192",
      "213C",
      "213C",
      "219",
      "226C",
      "226C",
      "232",
      "232",
      "243",
      "243",
      "249C",
      "253",
      "253",
      "265",
      "265",
      "265",
      "270C",
      "277",
      "320C",
      "320C",
      "320",
      "320C",
      "320",
      "320C",
      "320C",
      "320C",
      "320C",
      "320",
      "320C",
      "320C",
      "320",
      "320",
      "320",
      "320C",
      "320C",
      "320",
      "320",
      "320C",
      "320C",
      "320C",
      "320C",
      "320C",
      "320C",
      "320C",
      "320C",
      "320C",
      "320C",
      "320C",
      "320C",
      "320C",
      "320C",
      "320C",
      "320C",
      "320C",
      "320",
      "320",
      "320",
      "320",
      "320",
      "320",
      "320",
      "320",
      "320",
      "320",
      "320",
      "320",
      "320",
      "320",
      "320",
      "320",
      "320",
      "320",
      "320",
      "320",
      "320",
      "320",
      "320",
      "320",
      "320",
      "320",
      "320",
      "320",
      "300T",
      "300T",
      "300T",
      "300T",
      "300T",
      "300T",
      "256T",
      "256T",
      "256T",
      "236T",
      "236T",
      "236T",
      "177T",
      "177T",
      "136T",
      "136T",
      "116T",
      "116T",
      "116T",
      "103T",
      "090T",
      "090T",
      "090T",
      "049T",
      "038T",
      "038T",
      "038T",
      "027T",
      "010T",
      "010T",
      "010T"
    ],
    "swim:geom": "path",
    "swim:speeds": [
      230,
      230,
      230,
      230,
      250,
      250,
      330,
      330,
      330,
      360,
      360,
      360,
      364,
      364,
      380,
      380,
      385,
      390,
      390,
      394,
      394,
      404,
      404,
      410,
      409,
      409,
      414,
      414,
      414,
      420,
      418,
      396,
      396,
      390,
      395,
      390,
      394,
      394,
      394,
      394,
      390,
      392,
      391,
      390,
      390,
      390,
      392,
      392,
      390,
      390,
      394,
      394,
      394,
      397,
      397,
      397,
      397,
      397,
      397,
      397,
      389,
      389,
      389,
      389,
      389,
      389,
      389,
      450,
      450,
      450,
      450,
      450,
      450,
      450,
      470,
      470,
      470,
      470,
      470,
      470,
      470,
      470,
      470,
      470,
      470,
      470,
      470,
      470,
      470,
      470,
      470,
      480,
      480,
      480,
      480,
      450,
      450,
      450,
      450,
      450,
      450,
      430,
      430,
      430,
      410,
      410,
      410,
      370,
      370,
      360,
      360,
      350,
      350,
      350,
      330,
      280,
      280,
      280,
      240,
      240,
      240,
      240,
      230,
      130,
      130,
      130
    ],
    "swim:timestamps": [
      1771953615,
      1771953615,
      1771953615,
      1771953615,
      1771953735,
      1771953735,
      1771953855,
      1771953915,
      1771953915,
      1771954035,
      1771954035,
      1771954035,
      1771954066,
      1771954066,
      1771954156,
      1771954156,
      1771954186,
      1771954216,
      1771954216,
      1771954247,
      1771954247,
      1771954307,
      1771954307,
      1771954336,
      1771954367,
      1771954367,
      1771954427,
      1771954427,
      1771954427,
      1771954456,
      1771954487,
      1771954727,
      1771954727,
      1771954756,
      1771954787,
      1771954816,
      1771954847,
      1771954847,
      1771954847,
      1771954847,
      1771954876,
      1771954967,
      1771955027,
      1771955056,
      1771955056,
      1771955056,
      1771955148,
      1771955148,
      1771955176,
      1771955176,
      1771955268,
      1771955268,
      1771955268,
      1771955388,
      1771955388,
      1771955388,
      1771955448,
      1771955448,
      1771955448,
      1771955448,
      1771955688,
      1771955688,
      1771955688,
      1771955688,
      1771955688,
      1771955688,
      1771955688,
      1771970550,
      1771970550,
      1771970550,
      1771970550,
      1771970550,
      1771970550,
      1771970550,
      1771970724,
      1771970724,
      1771970724,
      1771970724,
      1771970724,
      1771970845,
      1771970845,
      1771970845,
      1771971206,
      1771971206,
      1771971206,
      1771971206,
      1771971266,
      1771971266,
      1771971326,
      1771971326,
      1771971326,
      1771971447,
      1771971447,
      1771971447,
      1771971447,
      1771971687,
      1771971687,
      1771971687,
      1771971687,
      1771971687,
      1771971687,
      1771971808,
      1771971808,
      1771971808,
      1771971868,
      1771971868,
      1771971868,
      1771972048,
      1771972048,
      1771972168,
      1771972168,
      1771972229,
      1771972229,
      1771972229,
      1771972289,
      1771972409,
      1771972409,
      1771972409,
      1771972650,
      1771972710,
      1771972710,
      1771972710,
      1771972770,
      1771972890,
      1771972890,
      1771972890
    ],
    "wof:geomhash": "f3b8d35df3c67c5acb087a3fb442a462",
    "wof:id": 2014876499,
    "wof:repo": "sfomuseum-data-flights-2026-02"
  },
  "bbox": [
    -156.45,
    20.783333333333335,
    -122.51666666666667,
    37.666666666666664
  ],
  "geometry": {"coordinates":[[-122.51666666666667,37.666666666666664],[-122.51666666666667,37.666666666666664],[-122.51666666666667,37.666666666666664],[-122.51666666666667,37.666666666666664],[-122.68333333333334,37.61666666666667],[-122.68333333333334,37.61666666666667],[-122.88333333333334,37.56666666666667],[-123,37.53333333333333],[-123,37.53333333333333],[-123.23333333333333,37.483333333333334],[-123.23333333333333,37.483333333333334],[-123.23333333333333,37.483333333333334],[-123.29916666666666,37.47],[-123.29916666666666,37.47],[-123.48333333333333,37.416666666666664],[-123.48333333333333,37.416666666666664],[-123.55194444444444,37.40416666666667],[-123.61666666666666,37.38333333333333],[-123.61666666666666,37.38333333333333],[-123.68472222222222,37.36944444444445],[-123.68472222222222,37.36944444444445],[-123.8175,37.33444444444444],[-123.8175,37.33444444444444],[-123.88333333333334,37.3],[-123.95361111111112,37.29861111111111],[-123.95361111111112,37.29861111111111],[-124.09194444444444,37.26166666666666],[-124.09194444444444,37.26166666666666],[-124.09194444444444,37.26166666666666],[-124.16666666666667,37.233333333333334],[-124.23111111111112,37.224444444444444],[-124.76138888888889,37.08083333333334],[-124.76138888888889,37.08083333333334],[-124.83333333333333,37.05],[-124.89055555555557,37.04527777777778],[-124.95,37.016666666666666],[-125.01888888888888,37.01],[-125.01888888888888,37.01],[-125.01888888888888,37.01],[-125.01888888888888,37.01],[-125.08333333333333,36.983333333333334],[-125.27583333333334,36.93888888888888],[-125.40444444444445,36.90277777777778],[-125.46666666666667,36.86666666666667],[-125.46666666666667,36.86666666666667],[-125.46666666666667,36.86666666666667],[-125.66027777777778,36.830555555555556],[-125.66027777777778,36.830555555555556],[-125.7,36.8],[-125.7,36.8],[-125.9175,36.7575],[-125.9175,36.7575],[-125.9175,36.7575],[-126.17694444444444,36.683055555555555],[-126.17694444444444,36.683055555555555],[-126.17694444444444,36.683055555555555],[-126.30472222222222,36.64611111111111],[-126.30472222222222,36.64611111111111],[-126.30472222222222,36.64611111111111],[-126.30472222222222,36.64611111111111],[-126.81055555555555,36.498333333333335],[-126.81055555555555,36.498333333333335],[-126.81055555555555,36.498333333333335],[-126.81055555555555,36.498333333333335],[-126.81055555555555,36.498333333333335],[-126.81055555555555,36.498333333333335],[-126.81055555555555,36.498333333333335],[-154.16666666666666,24.333333333333332],[-154.16666666666666,24.333333333333332],[-154.16666666666666,24.333333333333332],[-154.16666666666666,24.333333333333332],[-154.16666666666666,24.333333333333332],[-154.16666666666666,24.333333333333332],[-154.16666666666666,24.333333333333332],[-154.45,24.066666666666666],[-154.45,24.066666666666666],[-154.45,24.066666666666666],[-154.45,24.066666666666666],[-154.45,24.066666666666666],[-154.58333333333334,23.85],[-154.58333333333334,23.85],[-154.58333333333334,23.85],[-155,23.133333333333333],[-155,23.133333333333333],[-155,23.133333333333333],[-155,23.133333333333333],[-155.06666666666666,23.016666666666666],[-155.06666666666666,23.016666666666666],[-155.13333333333333,22.9],[-155.13333333333333,22.9],[-155.13333333333333,22.9],[-155.26666666666668,22.666666666666668],[-155.26666666666668,22.666666666666668],[-155.26666666666668,22.666666666666668],[-155.26666666666668,22.666666666666668],[-155.53333333333333,22.2],[-155.53333333333333,22.2],[-155.53333333333333,22.2],[-155.53333333333333,22.2],[-155.53333333333333,22.2],[-155.53333333333333,22.2],[-155.65,21.983333333333334],[-155.65,21.983333333333334],[-155.65,21.983333333333334],[-155.71666666666667,21.883333333333333],[-155.71666666666667,21.883333333333333],[-155.71666666666667,21.883333333333333],[-155.86666666666667,21.6],[-155.86666666666667,21.6],[-155.96666666666667,21.416666666666668],[-155.96666666666667,21.416666666666668],[-156.01666666666668,21.333333333333332],[-156.01666666666668,21.333333333333332],[-156.01666666666668,21.333333333333332],[-156.06666666666666,21.25],[-156.15,21.116666666666667],[-156.15,21.116666666666667],[-156.15,21.116666666666667],[-156.33333333333334,20.883333333333333],[-156.36666666666667,20.833333333333332],[-156.36666666666667,20.833333333333332],[-156.36666666666667,20.833333333333332],[-156.41666666666666,20.783333333333335],[-156.45,20.85],[-156.45,20.85],[-156.45,20.85]],"type":"LineString"}
}
