{
  "id": 2014809703,
  "type": "Feature",
  "properties": {
    "geom:area": 0,
    "geom:bbox": "-122.719444,37.633333,-122.180556,45.556944",
    "geom:latitude": 41.61250510658065,
    "geom:longitude": -122.44635931521253,
    "src:alt_label": "swim-path",
    "src:geom": "swim",
    "swim:altitudes": [
      "008",
      "008",
      "008",
      "117",
      "117",
      "117",
      "117",
      "139",
      "139",
      "139",
      "139",
      "139",
      "257",
      "257",
      "257",
      "257",
      "257",
      "257",
      "257",
      "306",
      "306",
      "306",
      "306",
      "306",
      "336",
      "336",
      "340C",
      "340C",
      "340C",
      "340C",
      "340C",
      "340C",
      "340C",
      "340C",
      "340C",
      "340C",
      "340C",
      "340C",
      "340C",
      "340C",
      "340C",
      "340C",
      "340C",
      "340C",
      "340C",
      "340C",
      "340C",
      "340C",
      "340C",
      "340C",
      "340C",
      "340C",
      "340C",
      "340C",
      "340C",
      "340C",
      "340C",
      "340C",
      "340C",
      "340C",
      "340C",
      "340C",
      "340C",
      "340C",
      "340C",
      "340C",
      "340C",
      "340C",
      "340C",
      "340C",
      "340C",
      "340C",
      "340C",
      "340C",
      "340",
      "340",
      "340",
      "340",
      "340",
      "340",
      "340",
      "340",
      "280",
      "280",
      "280",
      "280",
      "280",
      "280",
      "183",
      "183",
      "183",
      "183",
      "183",
      "183",
      "150",
      "150",
      "150",
      "134",
      "134",
      "134",
      "112",
      "112",
      "112",
      "112",
      "099",
      "086",
      "086",
      "086",
      "084",
      "073",
      "041",
      "041",
      "041",
      "041",
      "039",
      "039",
      "017",
      "017",
      "017",
      "017",
      "017",
      "009"
    ],
    "swim:geom": "path",
    "swim:speeds": [
      187,
      187,
      187,
      306,
      306,
      306,
      306,
      329,
      329,
      329,
      329,
      329,
      413,
      413,
      413,
      413,
      413,
      413,
      413,
      477,
      477,
      477,
      477,
      477,
      476,
      476,
      474,
      474,
      474,
      480,
      480,
      480,
      480,
      480,
      480,
      480,
      479,
      479,
      479,
      474,
      474,
      474,
      474,
      474,
      470,
      470,
      470,
      470,
      470,
      470,
      470,
      470,
      470,
      473,
      473,
      473,
      474,
      474,
      474,
      474,
      474,
      475,
      475,
      477,
      477,
      477,
      477,
      477,
      476,
      476,
      476,
      476,
      476,
      476,
      473,
      473,
      473,
      473,
      473,
      473,
      473,
      473,
      510,
      510,
      510,
      510,
      510,
      510,
      393,
      393,
      393,
      393,
      393,
      393,
      343,
      343,
      348,
      345,
      345,
      345,
      307,
      307,
      307,
      307,
      303,
      296,
      296,
      296,
      288,
      285,
      260,
      260,
      260,
      260,
      240,
      240,
      174,
      174,
      174,
      174,
      174,
      161
    ],
    "swim:timestamps": [
      1771285637,
      1771285637,
      1771285637,
      1771285891,
      1771285891,
      1771285891,
      1771285891,
      1771285950,
      1771285950,
      1771285950,
      1771285950,
      1771285950,
      1771286252,
      1771286252,
      1771286252,
      1771286252,
      1771286252,
      1771286252,
      1771286252,
      1771286492,
      1771286492,
      1771286492,
      1771286492,
      1771286492,
      1771286611,
      1771286611,
      1771286672,
      1771286672,
      1771286672,
      1771286731,
      1771286791,
      1771286852,
      1771286852,
      1771286911,
      1771286911,
      1771286911,
      1771286971,
      1771286971,
      1771286971,
      1771287451,
      1771287451,
      1771287451,
      1771287451,
      1771287451,
      1771287691,
      1771287691,
      1771287691,
      1771287691,
      1771287691,
      1771287691,
      1771287753,
      1771287753,
      1771287753,
      1771287872,
      1771287872,
      1771287872,
      1771287933,
      1771287933,
      1771287933,
      1771287933,
      1771287933,
      1771287993,
      1771287993,
      1771288112,
      1771288112,
      1771288112,
      1771288112,
      1771288112,
      1771288172,
      1771288172,
      1771288172,
      1771288172,
      1771288172,
      1771288172,
      1771288412,
      1771288412,
      1771288412,
      1771288412,
      1771288472,
      1771288472,
      1771288472,
      1771288472,
      1771288712,
      1771288712,
      1771288712,
      1771288712,
      1771288712,
      1771288712,
      1771289013,
      1771289013,
      1771289013,
      1771289013,
      1771289013,
      1771289013,
      1771289124,
      1771289124,
      1771289133,
      1771289190,
      1771289190,
      1771289190,
      1771289313,
      1771289313,
      1771289313,
      1771289313,
      1771289373,
      1771289433,
      1771289433,
      1771289433,
      1771289442,
      1771289493,
      1771289673,
      1771289673,
      1771289673,
      1771289673,
      1771289689,
      1771289689,
      1771289803,
      1771289803,
      1771289803,
      1771289803,
      1771289803,
      1771289853
    ],
    "wof:geomhash": "7b83dd9d9a75f02073a3c5acdc5e7c7d",
    "wof:id": 2014809703,
    "wof:repo": "sfomuseum-data-flights-2026-02"
  },
  "bbox": [
    -122.71944444444445,
    37.63333333333333,
    -122.18055555555556,
    45.55694444444444
  ],
  "geometry": {"coordinates":[[-122.36666666666666,37.63333333333333],[-122.36666666666666,37.63333333333333],[-122.36666666666666,37.63333333333333],[-122.21916666666667,37.87833333333333],[-122.21916666666667,37.87833333333333],[-122.21916666666667,37.87833333333333],[-122.21916666666667,37.87833333333333],[-122.2225,37.97083333333334],[-122.2225,37.97083333333334],[-122.2225,37.97083333333334],[-122.2225,37.97083333333334],[-122.2225,37.97083333333334],[-122.2475,38.50694444444444],[-122.2475,38.50694444444444],[-122.2475,38.50694444444444],[-122.2475,38.50694444444444],[-122.2475,38.50694444444444],[-122.2475,38.50694444444444],[-122.2475,38.50694444444444],[-122.20916666666668,39.00805555555556],[-122.20916666666668,39.00805555555556],[-122.20916666666668,39.00805555555556],[-122.20916666666668,39.00805555555556],[-122.20916666666668,39.00805555555556],[-122.18055555555556,39.265],[-122.18055555555556,39.265],[-122.19694444444445,39.40472222222222],[-122.19694444444445,39.40472222222222],[-122.19694444444445,39.40472222222222],[-122.21000000000001,39.52972222222222],[-122.2238888888889,39.6625],[-122.23944444444444,39.79611111111111],[-122.23944444444444,39.79611111111111],[-122.2538888888889,39.92722222222222],[-122.2538888888889,39.92722222222222],[-122.2538888888889,39.92722222222222],[-122.26805555555555,40.058611111111105],[-122.26805555555555,40.058611111111105],[-122.26805555555555,40.058611111111105],[-122.3888888888889,41.12361111111111],[-122.3888888888889,41.12361111111111],[-122.3888888888889,41.12361111111111],[-122.3888888888889,41.12361111111111],[-122.3888888888889,41.12361111111111],[-122.4475,41.62916666666667],[-122.4475,41.62916666666667],[-122.4475,41.62916666666667],[-122.4475,41.62916666666667],[-122.4475,41.62916666666667],[-122.4475,41.62916666666667],[-122.46277777777777,41.76027777777778],[-122.46277777777777,41.76027777777778],[-122.46277777777777,41.76027777777778],[-122.49361111111111,42.02388888888889],[-122.49361111111111,42.02388888888889],[-122.49361111111111,42.02388888888889],[-122.50972222222222,42.15833333333333],[-122.50972222222222,42.15833333333333],[-122.50972222222222,42.15833333333333],[-122.50972222222222,42.15833333333333],[-122.50972222222222,42.15833333333333],[-122.52527777777777,42.29194444444444],[-122.52527777777777,42.29194444444444],[-122.55694444444444,42.55638888888888],[-122.55694444444444,42.55638888888888],[-122.55694444444444,42.55638888888888],[-122.55694444444444,42.55638888888888],[-122.55694444444444,42.55638888888888],[-122.57277777777777,42.689166666666665],[-122.57277777777777,42.689166666666665],[-122.57277777777777,42.689166666666665],[-122.57277777777777,42.689166666666665],[-122.57277777777777,42.689166666666665],[-122.57277777777777,42.689166666666665],[-122.63611111111112,43.20583333333334],[-122.63611111111112,43.20583333333334],[-122.63611111111112,43.20583333333334],[-122.63611111111112,43.20583333333334],[-122.65222222222222,43.33777777777778],[-122.65222222222222,43.33777777777778],[-122.65222222222222,43.33777777777778],[-122.65222222222222,43.33777777777778],[-122.71861111111112,43.87361111111111],[-122.71861111111112,43.87361111111111],[-122.71861111111112,43.87361111111111],[-122.71861111111112,43.87361111111111],[-122.71861111111112,43.87361111111111],[-122.71861111111112,43.87361111111111],[-122.71944444444445,44.49388888888889],[-122.71944444444445,44.49388888888889],[-122.71944444444445,44.49388888888889],[-122.71944444444445,44.49388888888889],[-122.71944444444445,44.49388888888889],[-122.71944444444445,44.49388888888889],[-122.70083333333334,44.69638888888888],[-122.70083333333334,44.69638888888888],[-122.69888888888889,44.70027777777778],[-122.6888888888889,44.80222222222222],[-122.6888888888889,44.80222222222222],[-122.6888888888889,44.80222222222222],[-122.67083333333333,44.97638888888889],[-122.67083333333333,44.97638888888889],[-122.67083333333333,44.97638888888889],[-122.67083333333333,44.97638888888889],[-122.65972222222223,45.065],[-122.62277777777777,45.141666666666666],[-122.62277777777777,45.141666666666666],[-122.62277777777777,45.141666666666666],[-122.61555555555555,45.157777777777774],[-122.58444444444444,45.21666666666667],[-122.47722222222222,45.42805555555555],[-122.47722222222222,45.42805555555555],[-122.47722222222222,45.42805555555555],[-122.47722222222222,45.42805555555555],[-122.46638888888889,45.44833333333333],[-122.46638888888889,45.44833333333333],[-122.47833333333334,45.53944444444444],[-122.47833333333334,45.53944444444444],[-122.47833333333334,45.53944444444444],[-122.47833333333334,45.53944444444444],[-122.47833333333334,45.53944444444444],[-122.52361111111111,45.55694444444444]],"type":"LineString"}
}
