{
  "id": 2014782383,
  "type": "Feature",
  "properties": {
    "geom:area": 0,
    "geom:bbox": "-122.326389,29.066667,-95.146667,37.600556",
    "geom:latitude": 32.61685506844868,
    "geom:longitude": -108.89286087985404,
    "src:alt_label": "swim-path",
    "src:geom": "swim",
    "swim:altitudes": [
      "006",
      "026",
      "034",
      "059",
      "059",
      "079",
      "084",
      "104",
      "115",
      "116",
      "116",
      "125",
      "175",
      "175",
      "196",
      "253",
      "253",
      "308",
      "308",
      "331",
      "331",
      "337",
      "337",
      "340C",
      "340C",
      "340C",
      "340C",
      "340C",
      "340C",
      "340C",
      "340C",
      "340C",
      "340C",
      "340C",
      "340C",
      "340C",
      "340C",
      "340C",
      "340C",
      "340C",
      "340C",
      "340C",
      "340C",
      "340C",
      "340C",
      "340C",
      "340C",
      "340C",
      "340C",
      "340C",
      "340C",
      "340C",
      "340C",
      "340C",
      "340C",
      "340C",
      "340C",
      "340C",
      "340C",
      "340C",
      "340C",
      "340C",
      "340C",
      "340C",
      "340",
      "327",
      "322",
      "307",
      "303",
      "303",
      "300C",
      "300C",
      "300C",
      "300C",
      "300C",
      "300C",
      "300C",
      "300C",
      "300C",
      "300C",
      "300C",
      "300C",
      "300C",
      "300C",
      "300C",
      "300C",
      "300C",
      "300C",
      "300C",
      "300C",
      "300C",
      "300C",
      "300C",
      "300C",
      "300C",
      "300C",
      "300C",
      "300C",
      "300C",
      "300C",
      "300C",
      "300C",
      "300C",
      "300C",
      "300C",
      "300C",
      "300C",
      "300C",
      "300C",
      "300C",
      "300C",
      "300C",
      "300C",
      "300C",
      "300C",
      "300C",
      "300C",
      "300C",
      "300C",
      "300C",
      "300C",
      "300C",
      "300C",
      "300C",
      "300C",
      "300C",
      "300C",
      "300C",
      "300C",
      "300C",
      "300C",
      "300C",
      "300C",
      "300C",
      "300C",
      "300C",
      "300C",
      "300C",
      "300C",
      "300",
      "300",
      "300",
      "300",
      "285",
      "264",
      "223",
      "202",
      "189",
      "183",
      "164",
      "131",
      "100",
      "067",
      "044",
      "027",
      "014",
      "010",
      "006"
    ],
    "swim:geom": "path",
    "swim:speeds": [
      175,
      218,
      220,
      258,
      258,
      273,
      271,
      277,
      313,
      314,
      314,
      361,
      399,
      399,
      404,
      362,
      362,
      335,
      335,
      358,
      358,
      385,
      385,
      386,
      388,
      389,
      389,
      380,
      380,
      381,
      381,
      381,
      381,
      381,
      381,
      381,
      378,
      378,
      380,
      381,
      381,
      382,
      381,
      381,
      380,
      380,
      380,
      379,
      379,
      379,
      380,
      379,
      379,
      377,
      377,
      377,
      375,
      373,
      373,
      373,
      374,
      374,
      381,
      383,
      384,
      385,
      385,
      383,
      383,
      383,
      397,
      403,
      411,
      424,
      414,
      416,
      417,
      418,
      415,
      423,
      417,
      420,
      416,
      416,
      425,
      428,
      428,
      431,
      434,
      449,
      451,
      453,
      453,
      450,
      450,
      449,
      449,
      448,
      448,
      448,
      449,
      450,
      447,
      444,
      439,
      439,
      434,
      431,
      431,
      432,
      431,
      431,
      430,
      428,
      426,
      426,
      427,
      426,
      422,
      420,
      423,
      425,
      427,
      428,
      428,
      429,
      428,
      428,
      427,
      427,
      427,
      427,
      428,
      428,
      428,
      427,
      426,
      425,
      424,
      423,
      421,
      418,
      417,
      389,
      377,
      364,
      361,
      350,
      349,
      345,
      340,
      291,
      223,
      201,
      180,
      158,
      142,
      139
    ],
    "swim:timestamps": [
      1771022436,
      1771022500,
      1771022527,
      1771022587,
      1771022587,
      1771022629,
      1771022647,
      1771022707,
      1771022752,
      1771022767,
      1771022767,
      1771022827,
      1771023007,
      1771023007,
      1771023068,
      1771023188,
      1771023188,
      1771023428,
      1771023428,
      1771023669,
      1771023669,
      1771023789,
      1771023789,
      1771023849,
      1771023909,
      1771023969,
      1771023969,
      1771024751,
      1771024751,
      1771024811,
      1771024871,
      1771024871,
      1771024991,
      1771024991,
      1771025171,
      1771025171,
      1771025472,
      1771025472,
      1771025712,
      1771025772,
      1771025772,
      1771025892,
      1771025953,
      1771025953,
      1771026073,
      1771026073,
      1771026085,
      1771026205,
      1771026205,
      1771026265,
      1771026325,
      1771026373,
      1771026373,
      1771026433,
      1771026442,
      1771026442,
      1771026502,
      1771026623,
      1771026674,
      1771026674,
      1771026734,
      1771026734,
      1771026863,
      1771026923,
      1771026974,
      1771027034,
      1771027043,
      1771027094,
      1771027103,
      1771027103,
      1771027335,
      1771027635,
      1771027695,
      1771027816,
      1771028176,
      1771028296,
      1771028356,
      1771028597,
      1771028777,
      1771029017,
      1771029198,
      1771029378,
      1771029558,
      1771029678,
      1771029976,
      1771030156,
      1771030337,
      1771030517,
      1771030637,
      1771031118,
      1771031178,
      1771031262,
      1771031322,
      1771031478,
      1771031502,
      1771031538,
      1771031562,
      1771031599,
      1771031622,
      1771031682,
      1771031719,
      1771031779,
      1771031899,
      1771031923,
      1771031983,
      1771032019,
      1771032139,
      1771032223,
      1771032403,
      1771032463,
      1771032704,
      1771032884,
      1771032944,
      1771033004,
      1771033124,
      1771033184,
      1771033365,
      1771033425,
      1771033725,
      1771033954,
      1771034146,
      1771034206,
      1771034266,
      1771034326,
      1771034375,
      1771034386,
      1771034495,
      1771034506,
      1771034555,
      1771034578,
      1771034615,
      1771034639,
      1771034699,
      1771034735,
      1771034759,
      1771034819,
      1771034855,
      1771034879,
      1771034915,
      1771034939,
      1771034999,
      1771035096,
      1771035156,
      1771035336,
      1771035396,
      1771035516,
      1771035576,
      1771035616,
      1771035636,
      1771035696,
      1771035802,
      1771035936,
      1771036102,
      1771036237,
      1771036357,
      1771036441,
      1771036462,
      1771036501
    ],
    "wof:geomhash": "1153e45b6ba7712b44ebf5d116ef0edb",
    "wof:id": 2014782383,
    "wof:repo": "sfomuseum-data-flights-2026-02"
  },
  "bbox": [
    -122.32638888888889,
    29.066666666666666,
    -95.14666666666668,
    37.60055555555556
  ],
  "geometry": {"coordinates":[[-95.3461111111111,29.959722222222222],[-95.30527777777777,29.918333333333333],[-95.2875,29.904166666666665],[-95.22416666666666,29.8575],[-95.22416666666666,29.8575],[-95.17305555555556,29.817777777777778],[-95.15916666666668,29.809444444444445],[-95.14666666666668,29.741944444444446],[-95.20527777777778,29.692777777777778],[-95.21416666666667,29.685277777777777],[-95.21416666666667,29.685277777777777],[-95.2925,29.620555555555555],[-95.5586111111111,29.394444444444446],[-95.5586111111111,29.394444444444446],[-95.67,29.299166666666668],[-95.83777777777777,29.151666666666664],[-95.83777777777777,29.151666666666664],[-96.2363888888889,29.066666666666666],[-96.2363888888889,29.066666666666666],[-96.62833333333333,29.15611111111111],[-96.62833333333333,29.15611111111111],[-96.84444444444443,29.25638888888889],[-96.84444444444443,29.25638888888889],[-96.95777777777778,29.309722222222224],[-97.06916666666666,29.361944444444447],[-97.17972222222222,29.413055555555555],[-97.17972222222222,29.413055555555555],[-98.6375,29.983333333333334],[-98.6375,29.983333333333334],[-98.75444444444445,30.01527777777778],[-98.87083333333332,30.046944444444446],[-98.87083333333332,30.046944444444446],[-99.09472222222222,30.10777777777778],[-99.09472222222222,30.10777777777778],[-99.43944444444445,30.2],[-99.43944444444445,30.2],[-100.01805555555555,30.353055555555557],[-100.01805555555555,30.353055555555557],[-100.505,30.479444444444443],[-100.62249999999999,30.509444444444444],[-100.62249999999999,30.509444444444444],[-100.85583333333332,30.56888888888889],[-100.97527777777778,30.599166666666665],[-100.97527777777778,30.599166666666665],[-101.21277777777777,30.659166666666664],[-101.21277777777777,30.659166666666664],[-101.23222222222222,30.664166666666667],[-101.46638888888889,30.722499999999997],[-101.46638888888889,30.722499999999997],[-101.5825,30.75111111111111],[-101.70583333333333,30.781666666666666],[-101.80055555555555,30.805],[-101.80055555555555,30.805],[-101.91805555555555,30.833888888888886],[-101.94027777777778,30.839166666666664],[-101.94027777777778,30.839166666666664],[-102.05694444444444,30.8675],[-102.26527777777778,30.918055555555558],[-102.36166666666666,30.941111111111113],[-102.36166666666666,30.941111111111113],[-102.47944444444444,30.96944444444444],[-102.47944444444444,30.96944444444444],[-102.74166666666667,31.031944444444445],[-102.86222222222221,31.060555555555556],[-102.96000000000001,31.08361111111111],[-103.08138888888888,31.111944444444447],[-103.10694444444444,31.118055555555557],[-103.19916666666667,31.139166666666664],[-103.22333333333333,31.145],[-103.22333333333333,31.145],[-103.69583333333334,31.254166666666666],[-104.32527777777777,31.39638888888889],[-104.45472222222223,31.425],[-104.71666666666667,31.48888888888889],[-105.50666666666666,31.72111111111111],[-105.76722222222222,31.79638888888889],[-105.89583333333334,31.833333333333332],[-106.41222222222223,31.97972222222222],[-106.79916666666666,32.088055555555556],[-107.325,32.2325],[-107.69444444444444,32.3325],[-108.0925,32.43888888888888],[-108.49694444444445,32.544999999999995],[-108.75916666666667,32.61333333333334],[-109.43694444444445,32.776666666666664],[-109.84888888888888,32.865833333333335],[-110.26027777777777,32.9525],[-110.67444444444445,33.03861111111111],[-110.95361111111112,33.09583333333334],[-112.10277777777777,33.32333333333334],[-112.25027777777778,33.35194444444445],[-112.4388888888889,33.388888888888886],[-112.58611111111111,33.41583333333333],[-112.96277777777777,33.48638888888889],[-113.02194444444444,33.49722222222222],[-113.10777777777777,33.51305555555555],[-113.165,33.52333333333333],[-113.25277777777778,33.53972222222222],[-113.31194444444444,33.55027777777777],[-113.46083333333334,33.577222222222225],[-113.5436111111111,33.592222222222226],[-113.7125,33.62277777777778],[-114.005,33.683055555555555],[-114.04166666666667,33.69277777777778],[-114.18055555555556,33.72777777777778],[-114.25694444444444,33.74666666666667],[-114.5325,33.81527777777777],[-114.7325,33.86472222222223],[-115.14500000000001,33.965],[-115.2863888888889,33.99944444444444],[-115.8386111111111,34.130833333333335],[-116.27555555555556,34.23277777777778],[-116.41444444444446,34.264722222222225],[-116.55055555555555,34.295833333333334],[-116.82777777777777,34.35888888888889],[-116.96527777777779,34.39],[-117.3825,34.48305555555556],[-117.52083333333333,34.51361111111111],[-118.20166666666667,34.69694444444444],[-118.655,34.910555555555554],[-119.05166666666666,35.09527777777778],[-119.17722222222223,35.15333333333333],[-119.30388888888889,35.21194444444445],[-119.43,35.26972222222222],[-119.53611111111111,35.318333333333335],[-119.55694444444444,35.32777777777778],[-119.78777777777778,35.43277777777777],[-119.81055555555555,35.44305555555555],[-119.91555555555556,35.49055555555556],[-119.96222222222222,35.51138888888889],[-120.04194444444444,35.5475],[-120.08972222222222,35.56888888888889],[-120.23361111111112,35.63333333333333],[-120.31833333333333,35.67111111111111],[-120.36805555555554,35.69194444444444],[-120.49722222222222,35.74111111111111],[-120.5786111111111,35.77222222222222],[-120.62805555555555,35.79111111111111],[-120.70972222222223,35.82222222222222],[-120.75694444444444,35.84],[-120.87527777777777,35.905277777777776],[-121.04861111111111,36.03],[-121.15444444444445,36.10638888888889],[-121.46916666666667,36.33166666666667],[-121.56527777777778,36.400277777777774],[-121.74083333333333,36.54833333333333],[-121.80472222222222,36.62861111111111],[-121.85,36.68333333333333],[-121.87083333333332,36.71194444444445],[-121.91111111111111,36.80083333333333],[-121.96666666666667,36.96666666666667],[-122.03194444444445,37.153888888888886],[-122.1,37.333333333333336],[-122.15027777777779,37.466944444444444],[-122.20972222222223,37.55138888888889],[-122.28361111111111,37.5825],[-122.3,37.583333333333336],[-122.32638888888889,37.60055555555556]],"type":"LineString"}
}
