{
  "id": 2014807749,
  "type": "Feature",
  "properties": {
    "geom:area": 0,
    "geom:bbox": "-122.358420,37.491920,-121.256460,37.614060",
    "geom:latitude": 37.542716411213114,
    "geom:longitude": -121.81443435878958,
    "src:alt_label": "swim-approach",
    "src:geom": "swim",
    "swim:elevations": [
      4650,
      4433,
      4324,
      4129,
      4105,
      3971,
      3730,
      3496,
      3303,
      3229,
      3196,
      3075,
      3079,
      2778,
      2581,
      2470,
      2245,
      2132,
      2092,
      1864,
      1826,
      1681,
      1587,
      1554,
      1374,
      1121,
      1010,
      970,
      912,
      677,
      613,
      492,
      339,
      212,
      201,
      115,
      95
    ],
    "swim:geom": "approach",
    "swim:timestamps": [
      1771279197,
      1771279222,
      1771279234,
      1771279258,
      1771279261,
      1771279279,
      1771279310,
      1771279336,
      1771279372,
      1771279403,
      1771279412,
      1771279433,
      1771279442,
      1771279489,
      1771279527,
      1771279548,
      1771279585,
      1771279613,
      1771279620,
      1771279653,
      1771279668,
      1771279708,
      1771279737,
      1771279749,
      1771279782,
      1771279826,
      1771279847,
      1771279856,
      1771279868,
      1771279918,
      1771279936,
      1771279965,
      1771280002,
      1771280037,
      1771280040,
      1771280058,
      1771280084
    ],
    "wof:geomhash": "6063be5a19f4b5b5b3092285dd8ddc41",
    "wof:id": 2014807749,
    "wof:repo": "sfomuseum-data-flights-2026-02"
  },
  "bbox": [
    -122.35842,
    37.49192,
    -121.25646,
    37.61406
  ],
  "geometry": {"coordinates":[[-121.25646,37.59368],[-121.30328,37.58764],[-121.32534,37.58528],[-121.36874,37.58074],[-121.37401,37.58016],[-121.40586,37.57657],[-121.45892,37.57024],[-121.50501,37.56481],[-121.56735,37.55763],[-121.61702,37.55182],[-121.63025,37.54951],[-121.66032,37.5424],[-121.67275,37.53947],[-121.73478,37.52454],[-121.7855,37.5125],[-121.81307,37.50587],[-121.86078,37.49439],[-121.89669,37.49192],[-121.90545,37.49245],[-121.94949,37.49499],[-121.96922,37.49617],[-122.0215,37.49914],[-122.05824,37.50154],[-122.07326,37.50238],[-122.11001,37.50944],[-122.1543,37.52818],[-122.17469,37.53682],[-122.18282,37.54025],[-122.19335,37.54467],[-122.23406,37.56178],[-122.24834,37.56788],[-122.27096,37.5773],[-122.29662,37.588],[-122.3226,37.59893],[-122.32487,37.59992],[-122.33847,37.60563],[-122.35842,37.61406]],"type":"LineString"}
}
