{
  "id": 2014715627,
  "type": "Feature",
  "properties": {
    "geom:area": 0,
    "geom:bbox": "-122.369330,37.623720,-121.472740,38.491250",
    "geom:latitude": 38.050691121768196,
    "geom:longitude": -121.91617527487506,
    "src:alt_label": "swim-takeoff",
    "src:geom": "swim",
    "swim:elevations": [
      152,
      322,
      614,
      1104,
      1201,
      1344,
      1749,
      2604,
      2947,
      3273,
      3582,
      4035,
      4256,
      4754,
      4924,
      5025,
      5092,
      5148,
      5293,
      5364,
      5434,
      5640,
      5716,
      5803,
      6005,
      6128,
      6280
    ],
    "swim:geom": "takeoff",
    "swim:timestamps": [
      1770212818,
      1770212833,
      1770212850,
      1770212908,
      1770212926,
      1770212958,
      1770212991,
      1770213054,
      1770213077,
      1770213105,
      1770213129,
      1770213171,
      1770213191,
      1770213234,
      1770213255,
      1770213292,
      1770213313,
      1770213330,
      1770213375,
      1770213394,
      1770213430,
      1770213465,
      1770213485,
      1770213502,
      1770213527,
      1770213553,
      1770213578
    ],
    "wof:geomhash": "c5b889c8ea283602333338f2404d2888",
    "wof:id": 2014715627,
    "wof:repo": "sfomuseum-data-flights-2026-02"
  },
  "bbox": [
    -122.36933,
    37.62372,
    -121.47274,
    38.49125
  ],
  "geometry": {"coordinates":[[-122.36933,37.62372],[-122.36137,37.63426],[-122.34879,37.64331],[-122.30102,37.67054],[-122.28413,37.68051],[-122.24784,37.70054],[-122.20617,37.72787],[-122.14688,37.79301],[-122.12438,37.81793],[-122.09837,37.84661],[-122.07526,37.87193],[-122.03356,37.91814],[-122.0135,37.94023],[-121.97087,37.98741],[-121.94934,38.01089],[-121.90938,38.05404],[-121.88329,38.08267],[-121.86325,38.10467],[-121.80344,38.17059],[-121.77677,38.19952],[-121.72454,38.25622],[-121.67248,38.31319],[-121.64047,38.34774],[-121.61385,38.37638],[-121.57556,38.41802],[-121.52698,38.45834],[-121.47274,38.49125]],"type":"LineString"}
}
