{
  "id": 2014868881,
  "type": "Feature",
  "properties": {
    "geom:area": 0,
    "geom:bbox": "-122.366667,37.633333,-104.683056,40.848056",
    "geom:latitude": 40.16162133678551,
    "geom:longitude": -113.70195730377849,
    "src:alt_label": "swim-path",
    "src:geom": "swim",
    "swim:altitudes": [
      "005",
      "005",
      "005",
      "008",
      "034",
      "051",
      "051",
      "051",
      "127",
      "127",
      "299",
      "299",
      "299",
      "299",
      "320",
      "320",
      "320",
      "326",
      "326",
      "330C",
      "330C",
      "330C",
      "330C",
      "330C",
      "330C",
      "331",
      "331",
      "331",
      "350C",
      "350C",
      "350C",
      "350C",
      "350C",
      "350C",
      "350C",
      "350C",
      "350C",
      "350C",
      "350C",
      "350C",
      "350C",
      "350C",
      "350C",
      "350C",
      "350C",
      "350C",
      "350C",
      "350C",
      "350C",
      "350C",
      "350C",
      "350C",
      "350C",
      "350C",
      "350C",
      "350C",
      "350C",
      "350C",
      "350C",
      "350C",
      "350C",
      "350C",
      "350C",
      "350C",
      "350C",
      "350C",
      "350C",
      "350C",
      "350C",
      "350C",
      "350C",
      "350C",
      "350C",
      "350C",
      "350C",
      "350C",
      "350C",
      "350C",
      "350C",
      "350C",
      "350C",
      "350C",
      "350C",
      "350C",
      "350C",
      "350C",
      "350C",
      "350C",
      "350C",
      "350C",
      "350C",
      "350C",
      "350C",
      "350C",
      "350C",
      "350C",
      "350C",
      "350C",
      "350C",
      "350C",
      "350C",
      "350C",
      "350C",
      "350C",
      "350C",
      "350C",
      "350C",
      "350C",
      "350C",
      "350C",
      "350C",
      "350C",
      "350C",
      "350C",
      "350C",
      "350C",
      "350C",
      "350C",
      "350C",
      "350C",
      "350C",
      "350C",
      "350C",
      "350C",
      "350C",
      "350C",
      "350C",
      "350C",
      "350C",
      "350C",
      "350C",
      "350C",
      "350C",
      "350C",
      "350C",
      "350C",
      "350C",
      "350C",
      "350C",
      "350C",
      "350C",
      "350C",
      "350C",
      "350C",
      "350C",
      "350C",
      "350C",
      "350C",
      "350C",
      "350",
      "350",
      "330",
      "330",
      "315",
      "259",
      "237",
      "237",
      "237",
      "229",
      "229",
      "229",
      "203",
      "203",
      "195",
      "195",
      "194",
      "169",
      "166",
      "166",
      "156",
      "156",
      "156",
      "137",
      "137",
      "137",
      "137",
      "101",
      "101",
      "101",
      "101",
      "101",
      "088",
      "088",
      "085",
      "085",
      "085",
      "082",
      "082",
      "082",
      "082",
      "071",
      "063",
      "062",
      "054"
    ],
    "swim:geom": "path",
    "swim:speeds": [
      178,
      178,
      178,
      179,
      184,
      255,
      255,
      255,
      344,
      344,
      482,
      482,
      482,
      482,
      498,
      498,
      498,
      497,
      497,
      504,
      504,
      506,
      506,
      506,
      506,
      508,
      508,
      508,
      508,
      508,
      508,
      508,
      506,
      506,
      506,
      507,
      507,
      507,
      508,
      510,
      510,
      510,
      511,
      511,
      511,
      512,
      518,
      514,
      517,
      517,
      517,
      517,
      517,
      517,
      519,
      518,
      518,
      518,
      518,
      518,
      518,
      521,
      521,
      521,
      521,
      522,
      522,
      522,
      520,
      520,
      521,
      521,
      521,
      522,
      522,
      522,
      522,
      522,
      523,
      523,
      525,
      525,
      526,
      528,
      528,
      528,
      529,
      529,
      529,
      529,
      529,
      519,
      519,
      519,
      519,
      519,
      522,
      522,
      522,
      522,
      522,
      521,
      521,
      521,
      514,
      514,
      514,
      514,
      514,
      517,
      519,
      519,
      519,
      519,
      519,
      522,
      522,
      522,
      521,
      521,
      521,
      520,
      520,
      520,
      514,
      514,
      514,
      513,
      513,
      513,
      509,
      509,
      509,
      507,
      507,
      507,
      507,
      507,
      507,
      507,
      507,
      507,
      508,
      508,
      508,
      508,
      508,
      506,
      505,
      504,
      504,
      504,
      504,
      501,
      458,
      445,
      445,
      445,
      433,
      433,
      433,
      410,
      410,
      373,
      373,
      369,
      340,
      343,
      343,
      324,
      324,
      324,
      322,
      322,
      322,
      322,
      259,
      259,
      259,
      259,
      259,
      243,
      243,
      237,
      237,
      237,
      219,
      219,
      219,
      219,
      211,
      164,
      166,
      160
    ],
    "swim:timestamps": [
      1771858672,
      1771858672,
      1771858672,
      1771858690,
      1771858750,
      1771858810,
      1771858810,
      1771858810,
      1771858990,
      1771858990,
      1771859591,
      1771859591,
      1771859591,
      1771859591,
      1771859711,
      1771859711,
      1771859711,
      1771859752,
      1771859752,
      1771859771,
      1771859771,
      1771859812,
      1771859812,
      1771859831,
      1771859831,
      1771859932,
      1771859932,
      1771859932,
      1771860052,
      1771860052,
      1771860052,
      1771860052,
      1771860172,
      1771860172,
      1771860172,
      1771860232,
      1771860232,
      1771860232,
      1771860251,
      1771860292,
      1771860292,
      1771860292,
      1771860312,
      1771860352,
      1771860352,
      1771860372,
      1771860413,
      1771860432,
      1771860473,
      1771860473,
      1771860473,
      1771860533,
      1771860533,
      1771860533,
      1771860653,
      1771860672,
      1771860672,
      1771860672,
      1771860672,
      1771860672,
      1771860672,
      1771860905,
      1771860912,
      1771860912,
      1771860912,
      1771861025,
      1771861025,
      1771861025,
      1771861092,
      1771861092,
      1771861206,
      1771861212,
      1771861212,
      1771861266,
      1771861266,
      1771861272,
      1771861272,
      1771861326,
      1771861333,
      1771861333,
      1771861386,
      1771861386,
      1771861446,
      1771861506,
      1771861506,
      1771861506,
      1771861566,
      1771861566,
      1771861626,
      1771861626,
      1771861626,
      1771861987,
      1771861987,
      1771861987,
      1771861987,
      1771861987,
      1771862167,
      1771862167,
      1771862167,
      1771862167,
      1771862167,
      1771862227,
      1771862227,
      1771862227,
      1771862660,
      1771862660,
      1771862660,
      1771862660,
      1771862720,
      1771862780,
      1771862840,
      1771862840,
      1771862840,
      1771862840,
      1771862840,
      1771862960,
      1771863020,
      1771863020,
      1771863080,
      1771863080,
      1771863080,
      1771863140,
      1771863140,
      1771863140,
      1771863244,
      1771863244,
      1771863244,
      1771863320,
      1771863320,
      1771863320,
      1771863424,
      1771863441,
      1771863441,
      1771863561,
      1771863561,
      1771863561,
      1771863561,
      1771863561,
      1771863621,
      1771863664,
      1771863664,
      1771863664,
      1771863861,
      1771863861,
      1771863861,
      1771863861,
      1771863861,
      1771864085,
      1771864145,
      1771864205,
      1771864205,
      1771864385,
      1771864385,
      1771864445,
      1771864626,
      1771864686,
      1771864686,
      1771864686,
      1771864710,
      1771864710,
      1771864710,
      1771864806,
      1771864806,
      1771864854,
      1771864854,
      1771864866,
      1771864975,
      1771864986,
      1771864986,
      1771865035,
      1771865035,
      1771865035,
      1771865106,
      1771865106,
      1771865106,
      1771865106,
      1771865347,
      1771865347,
      1771865347,
      1771865347,
      1771865347,
      1771865407,
      1771865407,
      1771865467,
      1771865467,
      1771865467,
      1771865515,
      1771865515,
      1771865515,
      1771865515,
      1771865587,
      1771865636,
      1771865647,
      1771865707
    ],
    "wof:geomhash": "d4b11465ef8e6e3f561225f739ae7a00",
    "wof:id": 2014868881,
    "wof:repo": "sfomuseum-data-flights-2026-02"
  },
  "bbox": [
    -122.36666666666666,
    37.63333333333333,
    -104.68305555555555,
    40.84805555555556
  ],
  "geometry": {"coordinates":[[-122.36666666666666,37.63333333333333],[-122.36666666666666,37.63333333333333],[-122.36666666666666,37.63333333333333],[-122.36222222222221,37.63444444444444],[-122.32027777777778,37.67194444444444],[-122.32694444444444,37.73361111111111],[-122.32694444444444,37.73361111111111],[-122.32694444444444,37.73361111111111],[-122.32833333333333,37.96277777777778],[-122.32833333333333,37.96277777777778],[-121.0261111111111,38.561388888888885],[-121.0261111111111,38.561388888888885],[-121.0261111111111,38.561388888888885],[-121.0261111111111,38.561388888888885],[-120.75083333333333,38.730000000000004],[-120.75083333333333,38.730000000000004],[-120.75083333333333,38.730000000000004],[-120.66027777777778,38.78055555555555],[-120.66027777777778,38.78055555555555],[-120.60777777777777,38.816944444444445],[-120.60777777777777,38.816944444444445],[-120.51694444444445,38.868611111111115],[-120.51694444444445,38.868611111111115],[-120.46416666666667,38.90361111111111],[-120.46416666666667,38.90361111111111],[-120.23222222222222,39.0425],[-120.23222222222222,39.0425],[-120.23222222222222,39.0425],[-119.94500000000001,39.21277777777778],[-119.94500000000001,39.21277777777778],[-119.94500000000001,39.21277777777778],[-119.94500000000001,39.21277777777778],[-119.6588888888889,39.38388888888889],[-119.6588888888889,39.38388888888889],[-119.6588888888889,39.38388888888889],[-119.5111111111111,39.469722222222224],[-119.5111111111111,39.469722222222224],[-119.5111111111111,39.469722222222224],[-119.45194444444445,39.505833333333335],[-119.36388888888888,39.55638888888888],[-119.36388888888888,39.55638888888888],[-119.36388888888888,39.55638888888888],[-119.3025,39.593333333333334],[-119.21527777777779,39.64333333333333],[-119.21527777777779,39.64333333333333],[-119.15305555555557,39.68],[-119.03555555555555,39.748333333333335],[-119.00416666666666,39.76638888888889],[-118.915,39.81777777777778],[-118.915,39.81777777777778],[-118.915,39.81777777777778],[-118.76027777777777,39.9],[-118.76027777777777,39.9],[-118.76027777777777,39.9],[-118.42527777777778,40.03611111111111],[-118.35805555555555,40.06361111111111],[-118.35805555555555,40.06361111111111],[-118.35805555555555,40.06361111111111],[-118.35805555555555,40.06361111111111],[-118.35805555555555,40.06361111111111],[-118.35805555555555,40.06361111111111],[-117.70583333333333,40.27305555555555],[-117.66527777777779,40.2825],[-117.66527777777779,40.2825],[-117.66527777777779,40.2825],[-117.34166666666667,40.356944444444444],[-117.34166666666667,40.356944444444444],[-117.34166666666667,40.356944444444444],[-117.12055555555555,40.407222222222224],[-117.12055555555555,40.407222222222224],[-116.7825,40.4825],[-116.7425,40.49138888888889],[-116.7425,40.49138888888889],[-116.59861111111111,40.52305555555555],[-116.59861111111111,40.52305555555555],[-116.5586111111111,40.53194444444444],[-116.5586111111111,40.53194444444444],[-116.41305555555556,40.562777777777775],[-116.37416666666665,40.56805555555556],[-116.37416666666665,40.56805555555556],[-116.22194444444445,40.58027777777778],[-116.22194444444445,40.58027777777778],[-116.03138888888888,40.595],[-115.83749999999999,40.60944444444445],[-115.83749999999999,40.60944444444445],[-115.83749999999999,40.60944444444445],[-115.64500000000001,40.62361111111111],[-115.64500000000001,40.62361111111111],[-115.45361111111112,40.636944444444445],[-115.45361111111112,40.636944444444445],[-115.45361111111112,40.636944444444445],[-114.30888888888889,40.70777777777778],[-114.30888888888889,40.70777777777778],[-114.30888888888889,40.70777777777778],[-114.30888888888889,40.70777777777778],[-114.30888888888889,40.70777777777778],[-113.7375,40.7275],[-113.7375,40.7275],[-113.7375,40.7275],[-113.7375,40.7275],[-113.7375,40.7275],[-113.5461111111111,40.7425],[-113.5461111111111,40.7425],[-113.5461111111111,40.7425],[-112.20111111111112,40.83638888888889],[-112.20111111111112,40.83638888888889],[-112.20111111111112,40.83638888888889],[-112.20111111111112,40.83638888888889],[-112.01333333333334,40.84805555555556],[-111.82694444444444,40.8425],[-111.64250000000001,40.83361111111111],[-111.64250000000001,40.83361111111111],[-111.64250000000001,40.83361111111111],[-111.64250000000001,40.83361111111111],[-111.64250000000001,40.83361111111111],[-111.2625,40.81388888888888],[-111.07194444444444,40.80333333333333],[-111.07194444444444,40.80333333333333],[-110.88333333333334,40.7925],[-110.88333333333334,40.7925],[-110.88333333333334,40.7925],[-110.65527777777778,40.77916666666667],[-110.65527777777778,40.77916666666667],[-110.65527777777778,40.77916666666667],[-110.35138888888888,40.76083333333333],[-110.35138888888888,40.76083333333333],[-110.35138888888888,40.76083333333333],[-110.11055555555555,40.74583333333334],[-110.11055555555555,40.74583333333334],[-110.11055555555555,40.74583333333334],[-109.7975,40.72555555555556],[-109.74,40.72166666666667],[-109.74,40.72166666666667],[-109.36916666666666,40.69583333333333],[-109.36916666666666,40.69583333333333],[-109.36916666666666,40.69583333333333],[-109.36916666666666,40.69583333333333],[-109.36916666666666,40.69583333333333],[-109.18611111111112,40.68277777777777],[-109.03916666666666,40.67194444444444],[-109.03916666666666,40.67194444444444],[-109.03916666666666,40.67194444444444],[-108.44,40.63305555555556],[-108.44,40.63305555555556],[-108.44,40.63305555555556],[-108.44,40.63305555555556],[-108.44,40.63305555555556],[-107.78138888888888,40.586111111111116],[-107.5625,40.56944444444445],[-107.38333333333334,40.55583333333333],[-107.38333333333334,40.55583333333333],[-106.83694444444444,40.5125],[-106.83694444444444,40.5125],[-106.65722222222223,40.4975],[-106.16777777777779,40.45416666666667],[-105.98333333333333,40.43833333333333],[-105.98333333333333,40.43833333333333],[-105.98333333333333,40.43833333333333],[-105.91666666666667,40.43333333333333],[-105.91666666666667,40.43333333333333],[-105.91666666666667,40.43333333333333],[-105.67888888888889,40.39611111111111],[-105.67888888888889,40.39611111111111],[-105.56666666666666,40.4],[-105.56666666666666,40.4],[-105.54138888888889,40.409166666666664],[-105.31666666666666,40.43333333333333],[-105.29333333333334,40.43694444444444],[-105.29333333333334,40.43694444444444],[-105.2,40.43333333333333],[-105.2,40.43333333333333],[-105.2,40.43333333333333],[-105.05916666666667,40.428888888888885],[-105.05916666666667,40.428888888888885],[-105.05916666666667,40.428888888888885],[-105.05916666666667,40.428888888888885],[-104.73416666666667,40.236111111111114],[-104.73416666666667,40.236111111111114],[-104.73416666666667,40.236111111111114],[-104.73416666666667,40.236111111111114],[-104.73416666666667,40.236111111111114],[-104.69361111111111,40.17527777777777],[-104.69361111111111,40.17527777777777],[-104.68305555555555,40.111111111111114],[-104.68305555555555,40.111111111111114],[-104.68305555555555,40.111111111111114],[-104.68333333333334,40.06666666666667],[-104.68333333333334,40.06666666666667],[-104.68333333333334,40.06666666666667],[-104.68333333333334,40.06666666666667],[-104.685,39.99111111111111],[-104.68333333333334,39.95],[-104.6863888888889,39.941111111111105],[-104.68694444444445,39.89722222222222]],"type":"LineString"}
}
