{
  "id": 2014695285,
  "type": "Feature",
  "properties": {
    "geom:area": 0,
    "geom:bbox": "-122.359670,37.491210,-121.266550,37.616160",
    "geom:latitude": 37.546050625729485,
    "geom:longitude": -121.8183261726448,
    "src:alt_label": "swim-approach",
    "src:geom": "swim",
    "swim:elevations": [
      4666,
      4523,
      4360,
      4181,
      4071,
      3959,
      3665,
      3476,
      3245,
      3037,
      2949,
      2875,
      2689,
      2526,
      2365,
      2112,
      1976,
      1830,
      1716,
      1599,
      1434,
      1303,
      907,
      826,
      677,
      485,
      404,
      330,
      210,
      95,
      0
    ],
    "swim:geom": "approach",
    "swim:timestamps": [
      1770066919,
      1770066934,
      1770066952,
      1770066969,
      1770066985,
      1770066997,
      1770067045,
      1770067069,
      1770067095,
      1770067127,
      1770067148,
      1770067168,
      1770067192,
      1770067220,
      1770067253,
      1770067288,
      1770067308,
      1770067346,
      1770067365,
      1770067384,
      1770067419,
      1770067441,
      1770067497,
      1770067509,
      1770067538,
      1770067578,
      1770067614,
      1770067624,
      1770067676,
      1770067706,
      1770067731
    ],
    "wof:geomhash": "16834eb6c15769c358fd77a8610a2321",
    "wof:id": 2014695285,
    "wof:repo": "sfomuseum-data-flights-2026-02"
  },
  "bbox": [
    -122.35967,
    37.49121,
    -121.26655,
    37.61616
  ],
  "geometry": {"coordinates":[[-121.26655,37.59232],[-121.29695,37.58815],[-121.33312,37.58392],[-121.36771,37.58009],[-121.39791,37.57672],[-121.42217,37.57398],[-121.51291,37.56365],[-121.55389,37.55887],[-121.60004,37.55365],[-121.65577,37.54368],[-121.6901,37.53529],[-121.72196,37.52734],[-121.75872,37.51835],[-121.8022,37.50814],[-121.84837,37.49727],[-121.89859,37.49121],[-121.92706,37.49212],[-121.98086,37.49389],[-122.00533,37.49998],[-122.02826,37.50739],[-122.07162,37.52201],[-122.09646,37.53013],[-122.15829,37.55001],[-122.17067,37.55404],[-122.20154,37.56406],[-122.24156,37.57694],[-122.27369,37.58681],[-122.28243,37.58925],[-122.32258,37.60118],[-122.34509,37.60848],[-122.35967,37.61616]],"type":"LineString"}
}
