{
  "id": 2014832337,
  "type": "Feature",
  "properties": {
    "geom:area": 0,
    "geom:bbox": "-157.883333,21.183333,-122.100000,37.611111",
    "geom:latitude": 29.91369420284974,
    "geom:longitude": -139.2860723603368,
    "src:alt_label": "swim-path",
    "src:geom": "swim",
    "swim:altitudes": [
      "025C",
      "025C",
      "076C",
      "076C",
      "076C",
      "076C",
      "146C",
      "165C",
      "165C",
      "165C",
      "185C",
      "198C",
      "198C",
      "198C",
      "269C",
      "269C",
      "269C",
      "292C",
      "292C",
      "333C",
      "333C",
      "342C",
      "342C",
      "342C",
      "349C",
      "349C",
      "355C",
      "355C",
      "361C",
      "361C",
      "361C",
      "370",
      "370",
      "370",
      "370",
      "370",
      "370",
      "370",
      "370",
      "370",
      "370",
      "370",
      "370",
      "370",
      "370",
      "370",
      "370",
      "370",
      "370",
      "370",
      "370C",
      "370C",
      "370C",
      "370C",
      "370C",
      "370",
      "370",
      "370",
      "370",
      "370",
      "370",
      "370",
      "370",
      "370",
      "370",
      "370",
      "370",
      "333",
      "303",
      "303",
      "277C",
      "277C",
      "238",
      "234C",
      "234C",
      "218",
      "218",
      "214C",
      "198",
      "193C",
      "173C",
      "139",
      "139",
      "139",
      "100C",
      "100C",
      "100C",
      "100C",
      "100C",
      "100C",
      "100C",
      "100C",
      "100C",
      "100",
      "100C",
      "100C",
      "100C",
      "100",
      "100C",
      "100C",
      "100C",
      "099C",
      "090",
      "090",
      "080",
      "066",
      "066",
      "066",
      "060",
      "060",
      "060",
      "060",
      "049",
      "040",
      "040",
      "016",
      "016",
      "016",
      "002"
    ],
    "swim:geom": "path",
    "swim:speeds": [
      220,
      220,
      260,
      260,
      260,
      260,
      380,
      390,
      390,
      390,
      400,
      420,
      420,
      420,
      470,
      470,
      470,
      480,
      480,
      500,
      500,
      500,
      500,
      500,
      500,
      500,
      510,
      510,
      510,
      510,
      510,
      510,
      510,
      520,
      520,
      510,
      510,
      510,
      510,
      510,
      510,
      510,
      510,
      510,
      510,
      510,
      500,
      500,
      500,
      500,
      527,
      527,
      527,
      503,
      503,
      500,
      505,
      510,
      510,
      510,
      510,
      507,
      510,
      510,
      506,
      506,
      506,
      493,
      496,
      496,
      490,
      490,
      460,
      460,
      460,
      438,
      438,
      440,
      423,
      420,
      410,
      381,
      381,
      381,
      250,
      250,
      267,
      268,
      268,
      290,
      290,
      247,
      247,
      242,
      246,
      246,
      246,
      286,
      283,
      281,
      279,
      242,
      223,
      223,
      222,
      218,
      218,
      218,
      225,
      225,
      214,
      209,
      173,
      163,
      163,
      158,
      158,
      158,
      128
    ],
    "swim:timestamps": [
      1771549025,
      1771549025,
      1771549145,
      1771549145,
      1771549145,
      1771549145,
      1771549386,
      1771549446,
      1771549446,
      1771549446,
      1771549506,
      1771549566,
      1771549566,
      1771549566,
      1771549867,
      1771549867,
      1771549867,
      1771549987,
      1771549987,
      1771550228,
      1771550228,
      1771550288,
      1771550288,
      1771550288,
      1771550349,
      1771550349,
      1771550408,
      1771550408,
      1771550469,
      1771550469,
      1771550469,
      1771550589,
      1771550589,
      1771550709,
      1771550709,
      1771550769,
      1771550769,
      1771550830,
      1771550830,
      1771550890,
      1771550890,
      1771550950,
      1771550950,
      1771550950,
      1771551070,
      1771551070,
      1771551480,
      1771551480,
      1771551480,
      1771551480,
      1771563616,
      1771563616,
      1771563616,
      1771563796,
      1771563796,
      1771563867,
      1771563976,
      1771563987,
      1771563987,
      1771564046,
      1771564046,
      1771564096,
      1771564107,
      1771564107,
      1771564216,
      1771564216,
      1771564216,
      1771564336,
      1771564396,
      1771564396,
      1771564467,
      1771564467,
      1771564577,
      1771564587,
      1771564587,
      1771564637,
      1771564637,
      1771564647,
      1771564697,
      1771564707,
      1771564768,
      1771564877,
      1771564877,
      1771564877,
      1771565237,
      1771565237,
      1771565357,
      1771565418,
      1771565418,
      1771565478,
      1771565478,
      1771565658,
      1771565658,
      1771565690,
      1771565718,
      1771565718,
      1771565718,
      1771565775,
      1771566018,
      1771566078,
      1771566138,
      1771566198,
      1771566261,
      1771566261,
      1771566378,
      1771566619,
      1771566619,
      1771566619,
      1771566739,
      1771566739,
      1771567035,
      1771567155,
      1771567215,
      1771567275,
      1771567275,
      1771567459,
      1771567459,
      1771567459,
      1771567579
    ],
    "wof:geomhash": "84caca41152ad57a27f88a253e59e3a3",
    "wof:id": 2014832337,
    "wof:repo": "sfomuseum-data-flights-2026-02"
  },
  "bbox": [
    -157.88333333333333,
    21.183333333333334,
    -122.1,
    37.611111111111114
  ],
  "geometry": {"coordinates":[[-157.88333333333333,21.25],[-157.88333333333333,21.25],[-157.75,21.183333333333334],[-157.75,21.183333333333334],[-157.75,21.183333333333334],[-157.75,21.183333333333334],[-157.38333333333333,21.3],[-157.28333333333333,21.35],[-157.28333333333333,21.35],[-157.28333333333333,21.35],[-157.18333333333334,21.416666666666668],[-157.08333333333334,21.483333333333334],[-157.08333333333334,21.483333333333334],[-157.08333333333334,21.483333333333334],[-156.51666666666668,21.833333333333332],[-156.51666666666668,21.833333333333332],[-156.51666666666668,21.833333333333332],[-156.28333333333333,21.983333333333334],[-156.28333333333333,21.983333333333334],[-155.78333333333333,22.3],[-155.78333333333333,22.3],[-155.66666666666666,22.366666666666667],[-155.66666666666666,22.366666666666667],[-155.66666666666666,22.366666666666667],[-155.53333333333333,22.45],[-155.53333333333333,22.45],[-155.41666666666666,22.533333333333335],[-155.41666666666666,22.533333333333335],[-155.28333333333333,22.6],[-155.28333333333333,22.6],[-155.28333333333333,22.6],[-155.03333333333333,22.766666666666666],[-155.03333333333333,22.766666666666666],[-154.76666666666668,22.916666666666668],[-154.76666666666668,22.916666666666668],[-154.63333333333333,23],[-154.63333333333333,23],[-154.5,23.083333333333332],[-154.5,23.083333333333332],[-154.38333333333333,23.166666666666668],[-154.38333333333333,23.166666666666668],[-154.25,23.233333333333334],[-154.25,23.233333333333334],[-154.25,23.233333333333334],[-153.98333333333332,23.4],[-153.98333333333332,23.4],[-153.1,23.9],[-153.1,23.9],[-153.1,23.9],[-153.1,23.9],[-126.19527777777778,35.70194444444445],[-126.19527777777778,35.70194444444445],[-126.19527777777778,35.70194444444445],[-125.73166666666667,35.89194444444444],[-125.73166666666667,35.89194444444444],[-125.56666666666666,35.983333333333334],[-125.29277777777777,36.117777777777775],[-125.26666666666667,36.13333333333333],[-125.26666666666667,36.13333333333333],[-125.13333333333334,36.2],[-125.13333333333334,36.2],[-124.99777777777778,36.26888888888889],[-124.96666666666667,36.28333333333333],[-124.96666666666667,36.28333333333333],[-124.70333333333333,36.41861111111111],[-124.70333333333333,36.41861111111111],[-124.70333333333333,36.41861111111111],[-124.41472222222222,36.56361111111111],[-124.26833333333333,36.636944444444445],[-124.26833333333333,36.636944444444445],[-124.08333333333333,36.7],[-124.08333333333333,36.7],[-123.85194444444444,36.843611111111116],[-123.81666666666666,36.85],[-123.81666666666666,36.85],[-123.72166666666666,36.907777777777774],[-123.72166666666666,36.907777777777774],[-123.7,36.916666666666664],[-123.5961111111111,36.96888888888889],[-123.56666666666666,36.96666666666667],[-123.45,37.03333333333333],[-123.24416666666667,37.140277777777776],[-123.24416666666667,37.140277777777776],[-123.24416666666667,37.140277777777776],[-122.87638888888888,37.35027777777778],[-122.87638888888888,37.35027777777778],[-123.03527777777778,37.27861111111111],[-123.10916666666667,37.233333333333334],[-123.10916666666667,37.233333333333334],[-123.09388888888888,37.16111111111111],[-123.09388888888888,37.16111111111111],[-122.88,37.24527777777778],[-122.88,37.24527777777778],[-122.85,37.28333333333333],[-122.82583333333334,37.29555555555555],[-122.82583333333334,37.29555555555555],[-122.82583333333334,37.29555555555555],[-122.73333333333333,37.266666666666666],[-122.59305555555555,36.98111111111111],[-122.52277777777778,36.93083333333333],[-122.43222222222222,36.90972222222222],[-122.3625,36.94305555555555],[-122.36666666666666,37.016666666666666],[-122.36666666666666,37.016666666666666],[-122.45333333333333,37.10194444444445],[-122.61277777777777,37.311388888888885],[-122.61277777777777,37.311388888888885],[-122.61277777777777,37.311388888888885],[-122.62555555555555,37.420833333333334],[-122.62555555555555,37.420833333333334],[-122.26666666666667,37.38333333333333],[-122.11666666666666,37.43333333333333],[-122.1,37.46666666666667],[-122.13333333333334,37.5],[-122.13333333333334,37.5],[-122.27166666666666,37.5775],[-122.27166666666666,37.5775],[-122.27166666666666,37.5775],[-122.35194444444444,37.611111111111114]],"type":"LineString"}
}
