{
  "id": 2014819627,
  "type": "Feature",
  "properties": {
    "geom:area": 0,
    "geom:bbox": "-122.399930,37.627080,-121.264660,38.413940",
    "geom:latitude": 38.02124635133143,
    "geom:longitude": -121.84306894111005,
    "src:alt_label": "swim-takeoff",
    "src:geom": "swim",
    "swim:elevations": [
      305,
      669,
      1007,
      1136,
      1404,
      1789,
      2229,
      2699,
      2953,
      3208,
      3292,
      3548,
      3684,
      3999,
      4214,
      4377,
      4638,
      4872,
      5078,
      5284,
      5524,
      5727,
      5993,
      6028,
      6198
    ],
    "swim:geom": "takeoff",
    "swim:timestamps": [
      1771324978,
      1771325004,
      1771325033,
      1771325053,
      1771325087,
      1771325123,
      1771325153,
      1771325184,
      1771325204,
      1771325240,
      1771325258,
      1771325306,
      1771325333,
      1771325368,
      1771325393,
      1771325410,
      1771325441,
      1771325475,
      1771325504,
      1771325537,
      1771325564,
      1771325594,
      1771325636,
      1771325641,
      1771325675
    ],
    "wof:geomhash": "d8ebb8b035c17b8ef472b87c884975ef",
    "wof:id": 2014819627,
    "wof:repo": "sfomuseum-data-flights-2026-02"
  },
  "bbox": [
    -122.39993,
    37.62708,
    -121.26466,
    38.41394
  ],
  "geometry": {"coordinates":[[-122.39353,37.62708],[-122.39993,37.64819],[-122.37185,37.66522],[-122.34735,37.67161],[-122.29971,37.68698],[-122.24258,37.70757],[-122.19979,37.73446],[-122.16626,37.77068],[-122.14469,37.79478],[-122.10454,37.83931],[-122.08236,37.86346],[-122.00478,37.92315],[-121.9551,37.95672],[-121.88869,38.00159],[-121.84228,38.03237],[-121.80939,38.05435],[-121.7501,38.09444],[-121.68354,38.13934],[-121.62572,38.17812],[-121.55902,38.22292],[-121.50355,38.26029],[-121.4413,38.30171],[-121.35207,38.36079],[-121.34063,38.36791],[-121.26466,38.41394]],"type":"LineString"}
}
