{
  "id": 2014811655,
  "type": "Feature",
  "properties": {
    "geom:area": 0,
    "geom:bbox": "-175.000000,-34.950000,180.000000,37.670000",
    "geom:latitude": -5.412813027483998,
    "geom:longitude": -3.3756154698143206,
    "src:alt_label": "swim-route",
    "src:geom": "swim",
    "swim:geom": "route",
    "wof:geomhash": "8694e00c9f828a4c8cc941e63c034ce7",
    "wof:id": 2014811655,
    "wof:repo": "sfomuseum-data-flights-2026-02"
  },
  "bbox": [
    -175,
    -34.95,
    180,
    37.67
  ],
  "geometry": {"coordinates":[[[-122.38,37.62],[-122.5,37.67],[-122.5,37.67],[-122.5,37.67],[-122.59,37.62],[-122.59,37.62],[-122.62,37.6],[-122.69,37.56],[-122.7,37.55],[-122.8,37.49],[-122.85,37.45],[-122.91,37.41],[-122.96,37.38],[-123.3,37.16],[-123.31,37.15],[-123.51,37.02],[-123.67,36.92],[-123.75,36.86],[-123.9,36.76],[-123.96,36.72],[-124.09,36.64],[-124.24,36.54],[-124.37,36.45],[-124.76,36.18],[-124.77,36.18],[-125.11,36.01],[-125.29,35.92],[-125.93,35.6],[-125.94,35.6],[-131.16,33.06],[-132.83,32.17],[-133.9,31.64],[-135.51,30.83],[-136.31,30.41],[-139.43,28.7],[-145,26],[-151.26,21.08],[-152.24,20.26],[-153.02,19.19],[-153.04,19.16],[-156,15],[-158.02,12.51],[-160,10],[-165,5],[-165.63,4.38],[-166.25,3.75],[-167.5,2.5],[-170,0],[-175,-5]],[[180,-10],[175,-15],[170,-20],[163,-23],[160,-24],[154.06,-27.52],[141.47,-33.77],[141.03,-33.95],[140.75,-34.07],[140.66,-34.1],[140.6,-34.13],[140.37,-34.22],[140.04,-34.35],[139.76,-34.47],[139.41,-34.6],[139.23,-34.68],[138.99,-34.77],[138.94,-34.79],[138.81,-34.84],[138.72,-34.87],[138.62,-34.91],[138.53,-34.95]]],"type":"MultiLineString"}
}
