{
  "id": 2014903889,
  "type": "Feature",
  "properties": {
    "geom:area": 0,
    "geom:bbox": "-122.380000,37.620000,-79.390000,43.980000",
    "geom:latitude": 42.369455212209395,
    "geom:longitude": -101.0280226723393,
    "src:alt_label": "swim-route",
    "src:geom": "swim",
    "swim:geom": "route",
    "wof:geomhash": "8d1e6823d94108f70ece1f2f8c406e94",
    "wof:id": 2014903889,
    "wof:repo": "sfomuseum-data-flights-2026-02"
  },
  "bbox": [
    -122.38,
    37.62,
    -79.39,
    43.98
  ],
  "geometry": {"coordinates":[[-122.38,37.62],[-122.28,37.68],[-122.27,37.69],[-122.27,37.69],[-122.21,37.72],[-122.21,37.72],[-122.21,37.73],[-122.19,37.75],[-122.15,37.79],[-122.14,37.8],[-122.07,37.88],[-122.01,37.92],[-121.85,38.02],[-121.85,38.03],[-121.79,38.07],[-121.74,38.1],[-121.62,38.18],[-121.53,38.24],[-121.53,38.25],[-121.44,38.31],[-121.41,38.32],[-121.39,38.34],[-121.35,38.36],[-121.14,38.49],[-121.07,38.54],[-120.99,38.58],[-120.94,38.61],[-120.91,38.63],[-120.74,38.74],[-120.6,38.82],[-120.46,38.91],[-120.18,39.08],[-119.96,39.21],[-119.49,39.48],[-119.32,39.68],[-119.11,39.75],[-118.7,39.89],[-118.49,39.96],[-118.27,40.03],[-117.83,40.17],[-114.46,41.19],[-113.95,41.33],[-113.84,41.36],[-112.69,41.51],[-112.49,41.53],[-112.09,41.61],[-111.68,41.69],[-110.87,41.84],[-110.12,41.98],[-110,42],[-109.14,42.18],[-107.12,42.57],[-107.08,42.58],[-105.85,42.76],[-104.52,42.94],[-104,43],[-102.62,43.19],[-102.46,43.21],[-101.95,43.27],[-101.54,43.32],[-100.69,43.42],[-100.56,43.44],[-100,43.5],[-99.87,43.51],[-99.73,43.52],[-98.56,43.58],[-98.28,43.59],[-96.78,43.65],[-96.41,43.64],[-95.76,43.62],[-93.84,43.54],[-91.09,43.36],[-90.2,43.29],[-88.28,43.12],[-87.64,43.15],[-87,43.17],[-85,43.23],[-84.63,43.24],[-84.46,43.24],[-84.26,43.26],[-83.7,43.32],[-82.9,43.41],[-82.29,43.47],[-82.18,43.47],[-81.56,43.47],[-81.46,43.47],[-81.34,43.47],[-81.23,43.47],[-81.03,43.47],[-80.82,43.46],[-80.74,43.46],[-80.42,43.46],[-80.38,43.46],[-80.19,43.51],[-80.17,43.51],[-79.87,43.59],[-79.8,43.66],[-79.8,43.67],[-79.72,43.75],[-79.67,43.78],[-79.66,43.79],[-79.54,43.87],[-79.49,43.91],[-79.44,43.94],[-79.39,43.98],[-79.47,43.87],[-79.51,43.83],[-79.53,43.8],[-79.59,43.73],[-79.63,43.68]],"type":"LineString"}
}
