{
  "id": 2014874989,
  "type": "Feature",
  "properties": {
    "geom:area": 0,
    "geom:bbox": "-122.354070,37.533880,-121.431780,38.517190",
    "geom:latitude": 37.91728104011764,
    "geom:longitude": -121.8326569392705,
    "src:alt_label": "swim-takeoff",
    "src:geom": "swim",
    "swim:elevations": [
      228,
      259,
      358,
      807,
      1557,
      2549,
      3279,
      3445,
      3740,
      3995,
      4400,
      4945,
      5040,
      5514,
      5666,
      5966,
      6062,
      6491,
      6813,
      6979,
      7912,
      7977,
      8178,
      8414
    ],
    "swim:geom": "takeoff",
    "swim:timestamps": [
      1771975077,
      1771975080,
      1771975089,
      1771975140,
      1771975195,
      1771975263,
      1771975313,
      1771975344,
      1771975378,
      1771975408,
      1771975435,
      1771975464,
      1771975473,
      1771975527,
      1771975554,
      1771975587,
      1771975596,
      1771975620,
      1771975641,
      1771975656,
      1771975757,
      1771975771,
      1771975815,
      1771975860
    ],
    "wof:geomhash": "cb0e799f94a4a8fee80721f0d662de53",
    "wof:id": 2014874989,
    "wof:repo": "sfomuseum-data-flights-2026-02"
  },
  "bbox": [
    -122.35407,
    37.53388,
    -121.43178,
    38.51719
  ],
  "geometry": {"coordinates":[[-122.35407,37.61275],[-122.35135,37.61174],[-122.34307,37.60832],[-122.2886,37.58591],[-122.21059,37.56119],[-122.09486,37.54579],[-122.00413,37.53388],[-121.94477,37.55057],[-121.90927,37.59998],[-121.88772,37.65192],[-121.86741,37.70055],[-121.84488,37.7521],[-121.83821,37.76765],[-121.79762,37.866],[-121.77616,37.91855],[-121.7482,37.98536],[-121.74033,38.00371],[-121.71907,38.05177],[-121.7006,38.0931],[-121.68779,38.12262],[-121.6017,38.32564],[-121.58962,38.35386],[-121.53801,38.44317],[-121.43178,38.51719]],"type":"LineString"}
}
