{
  "id": 2014903725,
  "type": "Feature",
  "properties": {
    "date:cessation_lower": "2026-02-28",
    "date:cessation_upper": "2026-02-28",
    "date:inception_lower": "2026-02-28",
    "date:inception_upper": "2026-02-28",
    "edtf:cessation": "2026-02-28T11:09:00Z",
    "edtf:inception": "2026-02-27T16:14:27-08:00",
    "flysfo:actual_timestamp": -1,
    "flysfo:airline": "UA",
    "flysfo:base_airline": "",
    "flysfo:base_flight_number": "9194",
    "flysfo:date": "2026-02-27",
    "flysfo:estimated_timestamp": 1772265480,
    "flysfo:event": "D",
    "flysfo:flight_number": "UA505",
    "flysfo:gate": "F11",
    "flysfo:journey": "SFO-IAH",
    "flysfo:scheduled_timestamp": 1772265540,
    "flysfo:timestamp": 1772265540,
    "geom:area": 0,
    "geom:bbox": "-122.370943,29.977186,-95.338444,37.617990",
    "geom:latitude": 33.797588,
    "geom:longitude": -108.8546935,
    "iata:airline": "UA",
    "iata:base_airline": "",
    "icao:aircraft": "B772",
    "icao:airline": "UAL",
    "icao:base_airline": "ANZ",
    "lbl:latitude": 37.620244,
    "lbl:longitude": -122.387813,
    "sfomuseum:aircraft_id": 1159289985,
    "sfomuseum:airline_id": 1159285413,
    "sfomuseum:arrival_id": 102534097,
    "sfomuseum:base_flight_id": "20260227-D-ANZ-9194",
    "sfomuseum:departure_id": 102527513,
    "sfomuseum:flight_id": "20260227-D-UAL-505",
    "sfomuseum:flight_number": [
      "UAL505",
      "UA505"
    ],
    "sfomuseum:placetype": "flight",
    "src:geom": "flysfo",
    "src:geom_alt": [
      "swim-route",
      "swim-path",
      "swim-takeoff"
    ],
    "swim:tail_number": "N768UA",
    "wof:belongsto": [
      1947304067,
      102527513,
      1947304451,
      102191575,
      85633793,
      102087579,
      85922583,
      554784711,
      85688637,
      1947304463,
      1947304447,
      102085387
    ],
    "wof:concordances": {
      "swim:flight_ref": "140344629",
      "swim:gufi": "KO257637fw"
    },
    "wof:country": "US",
    "wof:created": 1772295389,
    "wof:geomhash": "4d8eca8dfd12d13a56951180b27dbf13",
    "wof:hierarchy": [
      {
        "building_id": 1947304067,
        "campus_id": 102527513,
        "concourse_id": 1947304451,
        "continent_id": 102191575,
        "country_id": 85633793,
        "county_id": 102087579,
        "custom_id": 2014903725,
        "flight_id": 2014903725,
        "locality_id": 85922583,
        "postalcode_id": 554784711,
        "region_id": 85688637,
        "venue_id": 1947304463,
        "wing_id": 1947304447
      },
      {
        "building_id": 1947304067,
        "campus_id": 102527513,
        "concourse_id": 1947304451,
        "continent_id": 102191575,
        "country_id": 85633793,
        "county_id": 102085387,
        "custom_id": 2014903725,
        "flight_id": 2014903725,
        "region_id": 85688637,
        "venue_id": 1947304463,
        "wing_id": 1947304447
      }
    ],
    "wof:id": 2014903725,
    "wof:involves": [
      102534097,
      102527513,
      1159285413,
      1947304463,
      1159283697,
      1159289985
    ],
    "wof:lastmodified": 1772295520,
    "wof:name": "UA505 (SFO-IAH)",
    "wof:parent_id": 1947304463,
    "wof:placetype": "custom",
    "wof:placetype_alt": [
      "flight"
    ],
    "wof:repo": "sfomuseum-data-flights-2026-02",
    "wof:superseded_by": [],
    "wof:supersedes": []
  },
  "bbox": [
    -122.370943,
    29.977186,
    -95.338444,
    37.61799
  ],
  "geometry": {"coordinates":[[-122.370943,37.61799],[-95.338444,29.977186]],"type":"MultiPoint"}
}
