{
  "id": 2014790539,
  "type": "Feature",
  "properties": {
    "geom:area": 0,
    "geom:bbox": "-122.756000,37.539180,-122.133860,38.308280",
    "geom:latitude": 37.82112568001851,
    "geom:longitude": -122.4760559362601,
    "src:alt_label": "swim-approach",
    "src:geom": "swim",
    "swim:elevations": [
      7468,
      7202,
      6778,
      6438,
      6212,
      5759,
      5452,
      5247,
      4887,
      4766,
      4521,
      4332,
      3910,
      3615,
      3365,
      3353,
      3211,
      2854,
      2629,
      2495,
      2273,
      2169,
      1922,
      1848,
      1858,
      1438,
      1239,
      1027,
      946,
      800,
      664,
      572,
      362,
      316,
      119,
      0
    ],
    "swim:geom": "approach",
    "swim:timestamps": [
      1771058835,
      1771058859,
      1771058897,
      1771058929,
      1771058950,
      1771058997,
      1771059027,
      1771059049,
      1771059077,
      1771059087,
      1771059109,
      1771059128,
      1771059174,
      1771059207,
      1771059260,
      1771059293,
      1771059311,
      1771059357,
      1771059384,
      1771059404,
      1771059431,
      1771059446,
      1771059474,
      1771059507,
      1771059510,
      1771059566,
      1771059585,
      1771059604,
      1771059624,
      1771059652,
      1771059680,
      1771059697,
      1771059738,
      1771059750,
      1771059796,
      1771059819
    ],
    "wof:geomhash": "24bb065820a535d43836dd56cf5e8adf",
    "wof:id": 2014790539,
    "wof:repo": "sfomuseum-data-flights-2026-02"
  },
  "bbox": [
    -122.756,
    37.53918,
    -122.13386,
    38.30828
  ],
  "geometry": {"coordinates":[[-122.68167,38.30828],[-122.70991,38.28079],[-122.75315,38.23451],[-122.756,38.18654],[-122.74715,38.15571],[-122.72708,38.08491],[-122.71387,38.03979],[-122.70453,38.00685],[-122.6922,37.96409],[-122.68775,37.9487],[-122.67746,37.91609],[-122.66114,37.88963],[-122.60495,37.83531],[-122.56595,37.79837],[-122.50405,37.73994],[-122.46195,37.71454],[-122.43377,37.70674],[-122.36065,37.68644],[-122.31755,37.67465],[-122.28606,37.6658],[-122.24456,37.65397],[-122.22285,37.6478],[-122.18148,37.63405],[-122.1404,37.61544],[-122.13703,37.61366],[-122.13386,37.56545],[-122.14239,37.55087],[-122.15876,37.53918],[-122.1824,37.54047],[-122.21197,37.55251],[-122.23965,37.56412],[-122.25697,37.57145],[-122.29334,37.58685],[-122.3032,37.59094],[-122.33855,37.60577],[-122.35718,37.61359]],"type":"LineString"}
}
