{
  "id": 2014851687,
  "type": "Feature",
  "properties": {
    "geom:area": 0,
    "geom:bbox": "-122.165000,37.541667,-70.933333,42.746389",
    "geom:latitude": 41.56902257586713,
    "geom:longitude": -96.77654113829358,
    "src:alt_label": "swim-path",
    "src:geom": "swim",
    "swim:altitudes": [
      "066",
      "155",
      "197",
      "211",
      "258",
      "278",
      "306",
      "324",
      "324",
      "330C",
      "330C",
      "330C",
      "330C",
      "330C",
      "330C",
      "330C",
      "330C",
      "330C",
      "330C",
      "330C",
      "330C",
      "330C",
      "330C",
      "330C",
      "330C",
      "330C",
      "330C",
      "330C",
      "331C",
      "330C",
      "332",
      "337",
      "337",
      "343",
      "350C",
      "350C",
      "350C",
      "350C",
      "350C",
      "350C",
      "350C",
      "350C",
      "350C",
      "350C",
      "350C",
      "350C",
      "350C",
      "350C",
      "350C",
      "350C",
      "350C",
      "350C",
      "350C",
      "350C",
      "350C",
      "350C",
      "350C",
      "350C",
      "350C",
      "350C",
      "350C",
      "350C",
      "350C",
      "350C",
      "350C",
      "350C",
      "350C",
      "350C",
      "350C",
      "350C",
      "350C",
      "350C",
      "350C",
      "350C",
      "350C",
      "350C",
      "350C",
      "350C",
      "350C",
      "350C",
      "350C",
      "350C",
      "350C",
      "350C",
      "350C",
      "350C",
      "350C",
      "350C",
      "350C",
      "350C",
      "350C",
      "350C",
      "350C",
      "350C",
      "350C",
      "350C",
      "350C",
      "350C",
      "350C",
      "350C",
      "350C",
      "350C",
      "350C",
      "350C",
      "350C",
      "350C",
      "350C",
      "350C",
      "350C",
      "350C",
      "350C",
      "350C",
      "350C",
      "350C",
      "350C",
      "350C",
      "350C",
      "350C",
      "350C",
      "350C",
      "350C",
      "350C",
      "350C",
      "350C",
      "350C",
      "350C",
      "350C",
      "350C",
      "350C",
      "350C",
      "350C",
      "350C",
      "350C",
      "350C",
      "351C",
      "350",
      "311",
      "291",
      "276",
      "238",
      "181",
      "164",
      "146",
      "145",
      "103",
      "095",
      "094",
      "084",
      "069",
      "062",
      "047",
      "029",
      "020",
      "020"
    ],
    "swim:geom": "path",
    "swim:speeds": [
      252,
      414,
      461,
      474,
      515,
      526,
      531,
      531,
      531,
      535,
      535,
      532,
      532,
      535,
      542,
      540,
      540,
      540,
      538,
      541,
      542,
      545,
      544,
      549,
      540,
      547,
      555,
      556,
      556,
      553,
      550,
      549,
      549,
      552,
      539,
      540,
      539,
      533,
      530,
      528,
      527,
      527,
      511,
      513,
      511,
      500,
      504,
      505,
      503,
      503,
      502,
      501,
      501,
      501,
      498,
      497,
      496,
      496,
      496,
      497,
      497,
      496,
      497,
      496,
      496,
      495,
      495,
      495,
      491,
      492,
      491,
      491,
      490,
      490,
      489,
      489,
      489,
      488,
      489,
      489,
      493,
      493,
      493,
      493,
      493,
      493,
      493,
      495,
      498,
      500,
      500,
      500,
      499,
      498,
      497,
      496,
      496,
      496,
      497,
      499,
      499,
      499,
      499,
      500,
      500,
      500,
      500,
      498,
      492,
      491,
      492,
      494,
      495,
      496,
      496,
      496,
      496,
      497,
      497,
      498,
      499,
      500,
      500,
      501,
      502,
      502,
      504,
      507,
      508,
      512,
      515,
      516,
      515,
      516,
      517,
      515,
      514,
      501,
      493,
      464,
      418,
      400,
      385,
      389,
      311,
      299,
      302,
      291,
      239,
      238,
      232,
      227,
      196,
      189
    ],
    "swim:timestamps": [
      1771736606,
      1771736906,
      1771737087,
      1771737147,
      1771737387,
      1771737507,
      1771737683,
      1771737803,
      1771737803,
      1771738223,
      1771738284,
      1771738464,
      1771738464,
      1771738764,
      1771739004,
      1771739244,
      1771739304,
      1771739364,
      1771739725,
      1771740085,
      1771740205,
      1771740745,
      1771740865,
      1771741385,
      1771742006,
      1771742646,
      1771743253,
      1771743314,
      1771743434,
      1771743546,
      1771743614,
      1771743666,
      1771743674,
      1771743726,
      1771743846,
      1771743906,
      1771743967,
      1771744034,
      1771744154,
      1771744214,
      1771744267,
      1771744394,
      1771744574,
      1771744874,
      1771745114,
      1771745414,
      1771745534,
      1771745643,
      1771745654,
      1771745714,
      1771745763,
      1771745823,
      1771745894,
      1771745943,
      1771746014,
      1771746063,
      1771746123,
      1771746134,
      1771746194,
      1771746314,
      1771746363,
      1771746543,
      1771746554,
      1771746614,
      1771746663,
      1771746674,
      1771746794,
      1771746854,
      1771746903,
      1771747023,
      1771747143,
      1771747263,
      1771747323,
      1771747383,
      1771747503,
      1771747563,
      1771747683,
      1771747743,
      1771748043,
      1771748103,
      1771748196,
      1771748257,
      1771748316,
      1771748344,
      1771748496,
      1771748557,
      1771748584,
      1771748704,
      1771748824,
      1771748884,
      1771748918,
      1771748944,
      1771749036,
      1771749064,
      1771749184,
      1771749216,
      1771749276,
      1771749336,
      1771749396,
      1771749576,
      1771749637,
      1771749696,
      1771749757,
      1771749876,
      1771749937,
      1771749996,
      1771750056,
      1771750177,
      1771750416,
      1771750476,
      1771750596,
      1771750779,
      1771750836,
      1771750896,
      1771751019,
      1771751041,
      1771751077,
      1771751136,
      1771751161,
      1771751196,
      1771751221,
      1771751281,
      1771751316,
      1771751341,
      1771751379,
      1771751401,
      1771751461,
      1771751581,
      1771751618,
      1771751737,
      1771751857,
      1771751881,
      1771751977,
      1771752121,
      1771752241,
      1771752421,
      1771752541,
      1771752601,
      1771752661,
      1771752781,
      1771752961,
      1771753015,
      1771753075,
      1771753081,
      1771753262,
      1771753315,
      1771753322,
      1771753382,
      1771753502,
      1771753621,
      1771753682,
      1771753742,
      1771753862,
      1771753922
    ],
    "wof:geomhash": "2dcc12ba34f1cdd137b5f77c31dac389",
    "wof:id": 2014851687,
    "wof:repo": "sfomuseum-data-flights-2026-02"
  },
  "bbox": [
    -122.165,
    37.541666666666664,
    -70.93333333333334,
    42.74638888888889
  ],
  "geometry": {"coordinates":[[-122.165,37.541666666666664],[-121.78361111111111,37.91305555555555],[-121.4075,38.13305555555556],[-121.27305555555556,38.21083333333333],[-120.67916666666667,38.55222222222222],[-120.37972222222221,38.72166666666667],[-119.94111111111111,38.964444444444446],[-119.63277777777778,39.13583333333333],[-119.63277777777778,39.13583333333333],[-118.52583333333334,39.73777777777778],[-118.36694444444444,39.82194444444445],[-117.8888888888889,40.073055555555555],[-117.8888888888889,40.073055555555555],[-117.08694444444444,40.48583333333333],[-116.35055555555554,40.72416666666667],[-115.60444444444444,40.92111111111111],[-115.41416666666667,40.970555555555556],[-115.22777777777777,41.01833333333333],[-114.12194444444444,41.27305555555555],[-112.94222222222223,41.44166666666666],[-112.54805555555555,41.49527777777778],[-110.72,41.66166666666666],[-110.31694444444445,41.689166666666665],[-108.55666666666666,41.75],[-106.47611111111111,41.821111111111115],[-104.33444444444444,41.884166666666665],[-102.24861111111112,41.737500000000004],[-102.0425,41.71222222222222],[-101.63472222222222,41.657222222222224],[-101.27638888888889,41.60527777777778],[-101.03527777777778,41.57194444444445],[-100.875,41.54833333333333],[-100.83472222222221,41.54333333333333],[-100.67472222222223,41.52388888888889],[-100.27055555555556,41.501666666666665],[-100.07249999999999,41.49027777777778],[-99.87249999999999,41.47833333333333],[-99.62972222222221,41.46333333333334],[-99.2786111111111,41.441111111111105],[-99.08,41.42777777777778],[-98.88944444444445,41.41444444444444],[-98.49833333333333,41.38638888888889],[-97.93055555555556,41.391666666666666],[-96.99222222222222,41.420833333333334],[-96.22361111111111,41.439166666666665],[-95.30222222222221,41.45166666666667],[-94.92777777777778,41.45027777777778],[-94.58333333333333,41.44833333333333],[-94.55472222222222,41.44833333333333],[-94.37083333333332,41.446666666666665],[-94.21472222222222,41.44472222222222],[-94.02777777777777,41.44333333333333],[-93.80361111111111,41.44027777777777],[-93.65666666666667,41.43833333333333],[-93.4363888888889,41.448055555555555],[-93.29055555555556,41.45444444444445],[-93.10833333333333,41.46277777777778],[-93.07249999999999,41.46416666666667],[-92.8863888888889,41.471944444444446],[-92.51833333333333,41.48722222222222],[-92.37083333333332,41.4925],[-91.84027777777777,41.51138888888889],[-91.81888888888888,41.511944444444445],[-91.61944444444444,41.51888888888889],[-91.47333333333333,41.520833333333336],[-91.43805555555556,41.52111111111111],[-91.07416666666666,41.52222222222222],[-90.89361111111111,41.521388888888886],[-90.74333333333334,41.522777777777776],[-90.37777777777777,41.52388888888889],[-90.02166666666666,41.57638888888889],[-89.66083333333334,41.628055555555555],[-89.48138888888889,41.65361111111111],[-89.30472222222222,41.678888888888885],[-88.94722222222222,41.7275],[-88.76666666666667,41.75194444444445],[-88.40611111111112,41.79972222222222],[-88.22777777777777,41.82277777777778],[-87.32472222222222,41.934999999999995],[-87.18138888888889,41.9525],[-86.88055555555555,41.988055555555555],[-86.71416666666667,42.00694444444444],[-86.53111111111112,42.02833333333333],[-86.42027777777778,42.04055555555556],[-85.98472222222222,42.08861111111111],[-85.80277777777778,42.108333333333334],[-85.72083333333333,42.117222222222225],[-85.35555555555555,42.155],[-84.9875,42.19222222222222],[-84.8025,42.21055555555556],[-84.68722222222223,42.22166666666667],[-84.61666666666666,42.22833333333333],[-84.31972222222223,42.256388888888885],[-84.24694444444445,42.26305555555555],[-83.88027777777778,42.29666666666667],[-83.76388888888889,42.30722222222222],[-83.57722222222222,42.32333333333334],[-83.40194444444445,42.33833333333334],[-83.19333333333334,42.35583333333334],[-82.6363888888889,42.400555555555556],[-82.44916666666667,42.41555555555556],[-82.26388888888889,42.428888888888885],[-82.09444444444443,42.44166666666666],[-81.71916666666667,42.46888888888889],[-81.53333333333333,42.481388888888894],[-81.34444444444443,42.49444444444445],[-81.15805555555556,42.50694444444444],[-80.78472222222221,42.530277777777776],[-80.04333333333334,42.57361111111111],[-79.86277777777777,42.583333333333336],[-79.49388888888889,42.60277777777778],[-78.93666666666667,42.62916666666667],[-78.75111111111111,42.6375],[-78.56277777777777,42.64555555555555],[-78.1913888888889,42.660555555555554],[-78.11666666666666,42.663333333333334],[-78.00527777777778,42.66777777777777],[-77.81527777777778,42.675],[-77.73805555555556,42.677499999999995],[-77.63388888888889,42.68083333333333],[-77.53805555555556,42.68416666666666],[-77.3475,42.69027777777777],[-77.23361111111112,42.69416666666666],[-77.15944444444445,42.69611111111111],[-77.04333333333334,42.69944444444444],[-76.97055555555556,42.70138888888889],[-76.77777777777777,42.70666666666667],[-76.39777777777779,42.71638888888889],[-76.30444444444444,42.718611111111116],[-75.91916666666667,42.72638888888889],[-75.53166666666667,42.73305555555556],[-75.4538888888889,42.73416666666667],[-75.14583333333334,42.73861111111111],[-74.64583333333334,42.743611111111115],[-74.2575,42.74611111111111],[-73.67222222222223,42.74638888888889],[-73.32222222222222,42.74305555555556],[-73.13,42.740833333333335],[-72.94055555555556,42.72083333333334],[-72.58805555555556,42.67944444444444],[-72.08388888888888,42.619166666666665],[-71.95,42.6],[-71.8,42.583333333333336],[-71.79194444444444,42.583333333333336],[-71.40805555555556,42.51222222222222],[-71.31666666666666,42.5],[-71.30055555555555,42.49055555555556],[-71.19305555555556,42.46888888888889],[-71.01666666666667,42.43416666666666],[-70.93333333333334,42.31666666666667],[-70.95611111111111,42.26277777777778],[-70.98111111111112,42.20333333333333],[-71.07249999999999,42.20472222222222],[-71.0586111111111,42.254444444444445]],"type":"LineString"}
}
