{
  "id": 2014738051,
  "type": "Feature",
  "properties": {
    "geom:area": 0,
    "geom:bbox": "-122.525560,37.622940,-122.057320,38.499370",
    "geom:latitude": 38.034851735337504,
    "geom:longitude": -122.32307923059446,
    "src:alt_label": "swim-takeoff",
    "src:geom": "swim",
    "swim:elevations": [
      152,
      183,
      918,
      976,
      1222,
      1541,
      2140,
      2488,
      2786,
      3194,
      3252,
      3351,
      3790,
      3936,
      4131,
      4381,
      4612,
      5033,
      5300,
      5438,
      5470,
      5574,
      5883,
      6063,
      6343,
      6494
    ],
    "swim:geom": "takeoff",
    "swim:timestamps": [
      1770487829,
      1770487830,
      1770487880,
      1770487892,
      1770487943,
      1770487965,
      1770488004,
      1770488034,
      1770488056,
      1770488098,
      1770488111,
      1770488137,
      1770488178,
      1770488192,
      1770488211,
      1770488235,
      1770488264,
      1770488307,
      1770488338,
      1770488366,
      1770488372,
      1770488384,
      1770488420,
      1770488445,
      1770488484,
      1770488509
    ],
    "wof:geomhash": "3c58b4fd85dc9402994604fababb96eb",
    "wof:id": 2014738051,
    "wof:repo": "sfomuseum-data-flights-2026-02"
  },
  "bbox": [
    -122.52556,
    37.62294,
    -122.05732,
    38.49937
  ],
  "geometry": {"coordinates":[[-122.38522,37.62294],[-122.38686,37.62364],[-122.43101,37.64326],[-122.44223,37.64802],[-122.50151,37.67314],[-122.52327,37.69338],[-122.52556,37.7406],[-122.50694,37.77528],[-122.48944,37.79831],[-122.45472,37.84715],[-122.44353,37.86331],[-122.4196,37.89799],[-122.38289,37.95808],[-122.37151,37.97831],[-122.35486,38.00703],[-122.33318,38.04345],[-122.30593,38.08885],[-122.2655,38.15578],[-122.2351,38.20606],[-122.20661,38.25331],[-122.2006,38.26321],[-122.18847,38.28328],[-122.15191,38.34393],[-122.12626,38.3862],[-122.08508,38.45392],[-122.05732,38.49937]],"type":"LineString"}
}
