{
  "id": 2014806839,
  "type": "Feature",
  "properties": {
    "geom:area": 0,
    "geom:bbox": "-122.338611,37.491667,-73.816667,40.650000",
    "geom:latitude": 38.75229789056858,
    "geom:longitude": -98.06800187083935,
    "src:alt_label": "swim-path",
    "src:geom": "swim",
    "swim:altitudes": [
      "008",
      "063",
      "063",
      "077",
      "077",
      "077",
      "087",
      "087",
      "087",
      "087",
      "105",
      "105",
      "105",
      "114",
      "114",
      "114",
      "114",
      "142",
      "142",
      "142",
      "142",
      "177",
      "177",
      "177",
      "177",
      "177",
      "228",
      "228",
      "228",
      "228",
      "228",
      "248",
      "248",
      "248",
      "248",
      "248",
      "248",
      "248",
      "277",
      "277",
      "277",
      "277",
      "289",
      "289",
      "291",
      "291",
      "291",
      "291",
      "291",
      "299C",
      "299C",
      "300C",
      "300C",
      "300C",
      "300C",
      "300C",
      "300C",
      "300C",
      "300C",
      "300C",
      "300C",
      "300C",
      "300C",
      "300C",
      "300C",
      "300C",
      "300C",
      "300C",
      "300C",
      "300C",
      "300C",
      "300C",
      "300C",
      "300C",
      "300C",
      "300C",
      "300C",
      "300C",
      "300C",
      "300C",
      "300C",
      "300C",
      "300C",
      "300C",
      "300C",
      "300C",
      "300C",
      "300C",
      "300C",
      "300C",
      "300C",
      "300C",
      "300C",
      "300C",
      "300C",
      "300C",
      "300C",
      "300C",
      "300C",
      "300C",
      "300C",
      "300C",
      "300C",
      "300C",
      "300C",
      "300C",
      "300C",
      "300C",
      "300C",
      "300C",
      "300C",
      "300C",
      "300C",
      "300C",
      "300C",
      "300C",
      "300C",
      "300C",
      "300C",
      "300C",
      "300C",
      "300C",
      "300C",
      "300C",
      "300C",
      "300C",
      "300C",
      "300C",
      "300C",
      "300C",
      "300C",
      "300C",
      "300C",
      "300C",
      "300C",
      "300C",
      "300C",
      "300C",
      "300C",
      "300C",
      "300C",
      "300C",
      "300C",
      "300C",
      "300C",
      "300C",
      "300C",
      "300C",
      "300C",
      "300C",
      "300C",
      "300C",
      "300C",
      "300C",
      "300C",
      "300C",
      "300C",
      "300C",
      "300C",
      "300C",
      "300C",
      "300",
      "300",
      "300",
      "300",
      "300",
      "320C",
      "320C",
      "320C",
      "320C",
      "320C",
      "320C",
      "320C",
      "320C",
      "320C",
      "320C",
      "320C",
      "320C",
      "320C",
      "320C",
      "320C",
      "320C",
      "321C",
      "321C",
      "321C",
      "320C",
      "320C",
      "322",
      "322",
      "329",
      "329",
      "330",
      "330",
      "330",
      "330",
      "330",
      "330",
      "330",
      "330",
      "330",
      "330",
      "330",
      "330",
      "330",
      "330",
      "330",
      "338C",
      "338C",
      "340C",
      "340C",
      "340C",
      "340C",
      "340C",
      "340C",
      "340C",
      "340C",
      "340C",
      "340C",
      "340C",
      "340C",
      "340C",
      "340C",
      "340C",
      "340C",
      "340C",
      "340C",
      "340C",
      "340C",
      "340C",
      "340C",
      "340C",
      "340C",
      "340C",
      "340C",
      "340C",
      "340C",
      "340C",
      "340C",
      "340C",
      "340C",
      "340C",
      "340C",
      "340C",
      "340C",
      "340C",
      "340C",
      "340C",
      "340C",
      "340C",
      "340C",
      "340C",
      "340C",
      "340C",
      "340C",
      "340C",
      "340C",
      "340C",
      "340C",
      "340C",
      "340C",
      "340C",
      "340C",
      "340C",
      "340C",
      "340C",
      "340C",
      "340C",
      "340C",
      "340C",
      "340C",
      "340C",
      "340C",
      "340C",
      "340C",
      "340C",
      "340C",
      "340C",
      "340C",
      "340C",
      "340C",
      "340C",
      "340C",
      "340C",
      "340C",
      "340C",
      "340C",
      "340C",
      "340C",
      "340C",
      "340C",
      "340C",
      "340C",
      "340C",
      "340C",
      "341C",
      "341C",
      "341C",
      "341C",
      "341C",
      "341C",
      "341C",
      "340C",
      "340C",
      "340C",
      "340C",
      "340C",
      "340C",
      "340C",
      "340C",
      "340C",
      "340C",
      "340C",
      "340C",
      "340C",
      "340C",
      "340C",
      "340C",
      "340C",
      "340C",
      "340C",
      "340C",
      "340C",
      "340C",
      "340C",
      "340C",
      "340C",
      "340C",
      "340C",
      "340C",
      "340C",
      "340C",
      "340C",
      "340C",
      "340C",
      "340C",
      "340C",
      "340C",
      "340C",
      "340C",
      "340C",
      "340C",
      "340C",
      "340C",
      "340C",
      "340C",
      "340C",
      "340C",
      "340C",
      "340C",
      "340C",
      "340C",
      "340C",
      "340C",
      "340C",
      "340C",
      "340C",
      "340C",
      "340C",
      "340C",
      "340C",
      "340C",
      "340C",
      "340C",
      "340C",
      "340C",
      "340C",
      "340C",
      "340C",
      "340C",
      "340C",
      "340C",
      "340C",
      "340C",
      "340C",
      "340C",
      "340C",
      "340C",
      "340C",
      "340C",
      "340C",
      "340C",
      "340C",
      "340C",
      "340C",
      "340C",
      "340C",
      "340C",
      "340C",
      "340C",
      "340C",
      "340C",
      "340C",
      "340C",
      "340C",
      "340C",
      "340C",
      "340C",
      "340C",
      "340C",
      "340C",
      "340C",
      "340C",
      "340C",
      "340C",
      "340C",
      "340C",
      "340C",
      "340C",
      "340C",
      "340C",
      "340C",
      "340C",
      "340C",
      "340C",
      "340C",
      "340C",
      "340C",
      "340C",
      "340C",
      "340C",
      "340C",
      "340C",
      "340C",
      "340C",
      "340C",
      "340C",
      "340C",
      "340C",
      "340C",
      "340C",
      "340C",
      "340C",
      "340C",
      "340C",
      "340C",
      "340C",
      "340C",
      "340C",
      "340C",
      "340C",
      "340C",
      "340C",
      "340C",
      "340C",
      "341C",
      "341C",
      "341C",
      "340C",
      "340C",
      "340C",
      "340C",
      "340C",
      "340C",
      "340C",
      "340C",
      "340C",
      "341C",
      "341C",
      "340C",
      "340C",
      "340C",
      "340C",
      "340C",
      "340C",
      "340C",
      "340C",
      "340C",
      "340C",
      "340C",
      "340C",
      "340C",
      "340C",
      "340C",
      "340C",
      "340C",
      "340C",
      "341C",
      "341C",
      "340C",
      "340C",
      "340C",
      "340C",
      "340C",
      "340C",
      "340C",
      "340C",
      "340C",
      "340C",
      "341C",
      "341C",
      "341C",
      "341C",
      "341C",
      "341C",
      "341C",
      "341C",
      "340C",
      "340C",
      "340C",
      "340C",
      "340C",
      "340C",
      "340C",
      "340C",
      "340C",
      "340C",
      "340C",
      "340C",
      "340C",
      "340C",
      "340C",
      "340C",
      "340C",
      "340C",
      "340C",
      "340C",
      "340C",
      "340C",
      "340C",
      "340C",
      "340C",
      "340C",
      "340C",
      "340C",
      "340C",
      "340C",
      "340C",
      "340C",
      "340C",
      "340C",
      "340C",
      "340C",
      "340C",
      "340C",
      "340C",
      "340C",
      "340C",
      "340C",
      "340C",
      "340C",
      "340C",
      "340C",
      "340C",
      "340C",
      "340C",
      "340C",
      "340C",
      "340C",
      "340C",
      "340C",
      "340C",
      "340C",
      "340C",
      "340C",
      "341C",
      "341C",
      "340C",
      "340C",
      "340C",
      "340C",
      "340C",
      "340C",
      "340C",
      "340C",
      "340C",
      "340C",
      "340C",
      "340C",
      "340C",
      "340C",
      "340C",
      "340C",
      "340C",
      "340C",
      "340",
      "341",
      "341",
      "341",
      "341",
      "341",
      "348",
      "348",
      "348",
      "358C",
      "358C",
      "358C",
      "360C",
      "360C",
      "360C",
      "360C",
      "360C",
      "360C",
      "361C",
      "360C",
      "360C",
      "360C",
      "360C",
      "360C",
      "360C",
      "360C",
      "360C",
      "360C",
      "360C",
      "360C",
      "360C",
      "360C",
      "360C",
      "360C",
      "360C",
      "360C",
      "360C",
      "360C",
      "360C",
      "360C",
      "360C",
      "360C",
      "360C",
      "360C",
      "360C",
      "360C",
      "360C",
      "360C",
      "360C",
      "360C",
      "360C",
      "360C",
      "360C",
      "360C",
      "360C",
      "360C",
      "360C",
      "360C",
      "360C",
      "360C",
      "360C",
      "360C",
      "360C",
      "360C",
      "360C",
      "360C",
      "360C",
      "360C",
      "360C",
      "360C",
      "360C",
      "360C",
      "360C",
      "360C",
      "360C",
      "360C",
      "360C",
      "360C",
      "360C",
      "360C",
      "360C",
      "360C",
      "360C",
      "360C",
      "360C",
      "360C",
      "360C",
      "360C",
      "360C",
      "360C",
      "360C",
      "360C",
      "360C",
      "360C",
      "360C",
      "360C",
      "360C",
      "360C",
      "360C",
      "360C",
      "360C",
      "360C",
      "360C",
      "360C",
      "360C",
      "360C",
      "361C",
      "361C",
      "361C",
      "360C",
      "360C",
      "360C",
      "360C",
      "360C",
      "360C",
      "359C",
      "359C",
      "359C",
      "359C",
      "359C",
      "359C",
      "360C",
      "360C",
      "360C",
      "360C",
      "360C",
      "360C",
      "361C",
      "361C",
      "361C",
      "361C",
      "361C",
      "361C",
      "360C",
      "360C",
      "360C",
      "360C",
      "360C",
      "360C",
      "360C",
      "360C",
      "360C",
      "360C",
      "360C",
      "360C",
      "360C",
      "360C",
      "360C",
      "360C",
      "360C",
      "360C",
      "360C",
      "360C",
      "360C",
      "360C",
      "360C",
      "360C",
      "360C",
      "360C",
      "360C",
      "360C",
      "360C",
      "360C",
      "360C",
      "360C",
      "360C",
      "361C",
      "361C",
      "361C",
      "360C",
      "360C",
      "360C",
      "360C",
      "360C",
      "360C",
      "360C",
      "360C",
      "360C",
      "360C",
      "360C",
      "360C",
      "360C",
      "360C",
      "360C",
      "360C",
      "360C",
      "360C",
      "360C",
      "360C",
      "360C",
      "360C",
      "360C",
      "360C",
      "360C",
      "360C",
      "360C",
      "360C",
      "356",
      "356",
      "340C",
      "340C",
      "340C",
      "320C",
      "320C",
      "320C",
      "320C",
      "320C",
      "320C",
      "276",
      "276",
      "276",
      "276",
      "276",
      "223",
      "223",
      "220",
      "220",
      "220",
      "203",
      "203",
      "200",
      "200",
      "166",
      "166",
      "165",
      "154",
      "152",
      "137",
      "137",
      "137",
      "121",
      "107",
      "105",
      "089",
      "089",
      "089",
      "089",
      "089",
      "089",
      "081",
      "081",
      "079",
      "068",
      "068",
      "049",
      "049",
      "049",
      "046",
      "046",
      "046",
      "035",
      "034",
      "034",
      "030",
      "030",
      "030",
      "030",
      "021",
      "021",
      "021",
      "012",
      "011",
      "011",
      "005",
      "005",
      "004"
    ],
    "swim:geom": "path",
    "swim:speeds": [
      170,
      277,
      277,
      279,
      279,
      279,
      286,
      286,
      286,
      286,
      297,
      297,
      297,
      347,
      347,
      347,
      347,
      374,
      374,
      374,
      374,
      375,
      375,
      375,
      375,
      375,
      401,
      401,
      401,
      401,
      401,
      404,
      404,
      404,
      404,
      404,
      404,
      404,
      411,
      411,
      411,
      411,
      402,
      402,
      402,
      402,
      402,
      402,
      402,
      395,
      395,
      390,
      390,
      390,
      390,
      389,
      389,
      389,
      389,
      389,
      388,
      388,
      387,
      387,
      387,
      387,
      387,
      387,
      387,
      387,
      387,
      387,
      386,
      386,
      386,
      385,
      385,
      384,
      385,
      385,
      385,
      385,
      385,
      384,
      384,
      384,
      384,
      383,
      383,
      383,
      383,
      381,
      381,
      380,
      380,
      380,
      380,
      380,
      380,
      380,
      379,
      379,
      379,
      379,
      379,
      379,
      379,
      379,
      379,
      379,
      374,
      374,
      374,
      374,
      374,
      374,
      374,
      374,
      374,
      374,
      374,
      373,
      373,
      373,
      373,
      373,
      373,
      373,
      373,
      373,
      374,
      374,
      374,
      374,
      374,
      374,
      374,
      374,
      374,
      374,
      374,
      375,
      375,
      375,
      375,
      374,
      374,
      374,
      374,
      374,
      374,
      374,
      375,
      376,
      376,
      376,
      376,
      381,
      381,
      381,
      381,
      383,
      383,
      383,
      383,
      383,
      377,
      377,
      377,
      377,
      374,
      374,
      374,
      374,
      374,
      374,
      372,
      372,
      374,
      374,
      374,
      372,
      374,
      374,
      374,
      374,
      377,
      377,
      377,
      375,
      375,
      376,
      376,
      376,
      376,
      375,
      375,
      371,
      371,
      370,
      370,
      370,
      370,
      369,
      369,
      369,
      372,
      372,
      372,
      372,
      372,
      369,
      369,
      369,
      369,
      367,
      367,
      367,
      367,
      367,
      367,
      367,
      367,
      366,
      366,
      366,
      366,
      366,
      366,
      366,
      366,
      366,
      366,
      366,
      366,
      368,
      368,
      368,
      368,
      368,
      368,
      368,
      368,
      369,
      369,
      369,
      369,
      369,
      369,
      369,
      370,
      370,
      370,
      370,
      370,
      370,
      370,
      370,
      369,
      369,
      369,
      369,
      369,
      369,
      369,
      368,
      368,
      367,
      367,
      367,
      367,
      366,
      366,
      366,
      366,
      366,
      371,
      371,
      371,
      371,
      371,
      371,
      371,
      371,
      371,
      371,
      371,
      371,
      371,
      370,
      370,
      370,
      370,
      370,
      373,
      373,
      373,
      373,
      373,
      373,
      373,
      375,
      375,
      374,
      374,
      374,
      374,
      374,
      371,
      371,
      371,
      371,
      371,
      371,
      368,
      368,
      368,
      368,
      368,
      368,
      368,
      368,
      368,
      370,
      370,
      370,
      370,
      370,
      370,
      370,
      370,
      370,
      370,
      370,
      370,
      371,
      371,
      371,
      371,
      371,
      371,
      371,
      371,
      371,
      370,
      370,
      370,
      370,
      369,
      369,
      369,
      369,
      369,
      369,
      369,
      369,
      369,
      369,
      369,
      371,
      371,
      371,
      372,
      372,
      372,
      373,
      373,
      373,
      373,
      373,
      373,
      373,
      373,
      373,
      373,
      373,
      374,
      374,
      374,
      374,
      374,
      374,
      374,
      377,
      377,
      377,
      377,
      377,
      377,
      377,
      371,
      371,
      371,
      371,
      371,
      371,
      371,
      371,
      371,
      371,
      371,
      371,
      371,
      371,
      372,
      372,
      372,
      372,
      372,
      373,
      373,
      373,
      373,
      373,
      373,
      373,
      373,
      373,
      373,
      373,
      373,
      374,
      375,
      375,
      373,
      373,
      373,
      374,
      374,
      374,
      374,
      376,
      376,
      375,
      375,
      375,
      375,
      377,
      377,
      377,
      377,
      378,
      378,
      378,
      378,
      378,
      378,
      375,
      372,
      372,
      372,
      372,
      372,
      368,
      368,
      367,
      367,
      367,
      368,
      368,
      368,
      368,
      367,
      368,
      368,
      368,
      368,
      368,
      368,
      368,
      368,
      369,
      369,
      369,
      369,
      369,
      371,
      371,
      373,
      373,
      373,
      373,
      373,
      373,
      374,
      374,
      374,
      375,
      378,
      378,
      380,
      380,
      380,
      380,
      379,
      379,
      379,
      379,
      378,
      378,
      378,
      375,
      375,
      375,
      375,
      378,
      378,
      378,
      378,
      378,
      384,
      384,
      384,
      384,
      384,
      384,
      385,
      385,
      385,
      383,
      383,
      383,
      382,
      379,
      379,
      379,
      378,
      377,
      377,
      377,
      377,
      377,
      379,
      379,
      379,
      379,
      379,
      379,
      379,
      379,
      379,
      363,
      363,
      363,
      372,
      372,
      372,
      368,
      368,
      374,
      373,
      370,
      373,
      378,
      385,
      385,
      379,
      379,
      379,
      380,
      374,
      374,
      374,
      374,
      366,
      366,
      366,
      366,
      366,
      366,
      365,
      365,
      365,
      363,
      365,
      356,
      356,
      356,
      356,
      356,
      361,
      361,
      361,
      361,
      361,
      361,
      358,
      358,
      358,
      356,
      356,
      356,
      359,
      362,
      364,
      364,
      364,
      365,
      364,
      364,
      362,
      361,
      361,
      361,
      361,
      373,
      373,
      373,
      373,
      374,
      374,
      374,
      377,
      377,
      377,
      383,
      383,
      384,
      385,
      385,
      385,
      385,
      379,
      379,
      375,
      375,
      375,
      367,
      367,
      367,
      367,
      371,
      371,
      371,
      371,
      371,
      358,
      358,
      358,
      358,
      358,
      358,
      358,
      359,
      359,
      358,
      358,
      358,
      358,
      359,
      359,
      359,
      360,
      360,
      359,
      359,
      359,
      359,
      350,
      350,
      346,
      346,
      346,
      346,
      345,
      345,
      345,
      345,
      345,
      345,
      348,
      348,
      348,
      348,
      354,
      354,
      354,
      354,
      354,
      354,
      363,
      363,
      363,
      363,
      363,
      364,
      364,
      364,
      364,
      364,
      364,
      364,
      364,
      364,
      364,
      369,
      369,
      371,
      371,
      371,
      371,
      373,
      373,
      374,
      374,
      374,
      374,
      370,
      370,
      370,
      370,
      370,
      367,
      367,
      367,
      367,
      367,
      367,
      367,
      368,
      368,
      369,
      369,
      369,
      374,
      374,
      374,
      376,
      376,
      376,
      376,
      376,
      379,
      379,
      381,
      381,
      383,
      383,
      377,
      377,
      371,
      371,
      371,
      369,
      369,
      370,
      370,
      370,
      370,
      368,
      393,
      393,
      393,
      398,
      398,
      398,
      398,
      397,
      397,
      398,
      398,
      399,
      399,
      399,
      400,
      400,
      400,
      400,
      411,
      411,
      411,
      408,
      408,
      404,
      404,
      404,
      400,
      400,
      400,
      400,
      400,
      400,
      414,
      414,
      414,
      414,
      414,
      340,
      340,
      342,
      342,
      342,
      317,
      317,
      319,
      319,
      295,
      295,
      298,
      287,
      290,
      282,
      282,
      282,
      284,
      273,
      278,
      270,
      270,
      270,
      270,
      270,
      270,
      239,
      239,
      243,
      225,
      225,
      207,
      207,
      207,
      209,
      209,
      209,
      208,
      209,
      209,
      201,
      201,
      201,
      201,
      197,
      197,
      197,
      164,
      158,
      158,
      133,
      133,
      134
    ],
    "swim:timestamps": [
      1771273207,
      1771273369,
      1771273369,
      1771273405,
      1771273405,
      1771273405,
      1771273430,
      1771273430,
      1771273430,
      1771273430,
      1771273490,
      1771273490,
      1771273490,
      1771273544,
      1771273544,
      1771273544,
      1771273544,
      1771273645,
      1771273645,
      1771273645,
      1771273645,
      1771273765,
      1771273765,
      1771273765,
      1771273765,
      1771273765,
      1771274006,
      1771274006,
      1771274006,
      1771274006,
      1771274006,
      1771274126,
      1771274126,
      1771274126,
      1771274126,
      1771274126,
      1771274126,
      1771274126,
      1771274306,
      1771274306,
      1771274306,
      1771274306,
      1771274366,
      1771274366,
      1771274392,
      1771274392,
      1771274392,
      1771274392,
      1771274392,
      1771274426,
      1771274426,
      1771274486,
      1771274486,
      1771274486,
      1771274486,
      1771274632,
      1771274632,
      1771274632,
      1771274632,
      1771274632,
      1771274692,
      1771274692,
      1771274727,
      1771274727,
      1771274727,
      1771274727,
      1771274727,
      1771274727,
      1771274727,
      1771274873,
      1771274873,
      1771274873,
      1771274907,
      1771274907,
      1771274907,
      1771274967,
      1771274967,
      1771275027,
      1771275053,
      1771275053,
      1771275053,
      1771275053,
      1771275053,
      1771275113,
      1771275113,
      1771275113,
      1771275113,
      1771275173,
      1771275173,
      1771275173,
      1771275173,
      1771275267,
      1771275267,
      1771275290,
      1771275290,
      1771275290,
      1771275350,
      1771275350,
      1771275350,
      1771275350,
      1771275534,
      1771275534,
      1771275534,
      1771275534,
      1771275534,
      1771275534,
      1771275590,
      1771275590,
      1771275590,
      1771275590,
      1771275894,
      1771275894,
      1771275894,
      1771275894,
      1771275894,
      1771275894,
      1771276071,
      1771276071,
      1771276135,
      1771276135,
      1771276135,
      1771276195,
      1771276251,
      1771276315,
      1771276315,
      1771276431,
      1771276431,
      1771276431,
      1771276431,
      1771276492,
      1771276552,
      1771276552,
      1771276552,
      1771276552,
      1771276552,
      1771276796,
      1771276852,
      1771276852,
      1771276852,
      1771276852,
      1771276852,
      1771276973,
      1771276973,
      1771276973,
      1771276973,
      1771277153,
      1771277153,
      1771277153,
      1771277213,
      1771277213,
      1771277275,
      1771277275,
      1771277333,
      1771277395,
      1771277395,
      1771277395,
      1771277395,
      1771277453,
      1771277453,
      1771277453,
      1771277453,
      1771277694,
      1771277694,
      1771277694,
      1771277694,
      1771277694,
      1771277874,
      1771277874,
      1771277874,
      1771277874,
      1771277994,
      1771277994,
      1771277994,
      1771277994,
      1771277994,
      1771277994,
      1771278054,
      1771278054,
      1771278159,
      1771278159,
      1771278159,
      1771278234,
      1771278294,
      1771278294,
      1771278294,
      1771278339,
      1771278415,
      1771278475,
      1771278475,
      1771278519,
      1771278519,
      1771278535,
      1771278535,
      1771278535,
      1771278535,
      1771278639,
      1771278639,
      1771278699,
      1771278699,
      1771278715,
      1771278715,
      1771278715,
      1771278820,
      1771278895,
      1771278895,
      1771278895,
      1771279060,
      1771279060,
      1771279076,
      1771279076,
      1771279076,
      1771279180,
      1771279180,
      1771279180,
      1771279180,
      1771279300,
      1771279300,
      1771279300,
      1771279300,
      1771279300,
      1771279300,
      1771279421,
      1771279481,
      1771279496,
      1771279496,
      1771279541,
      1771279541,
      1771279541,
      1771279541,
      1771279556,
      1771279556,
      1771279556,
      1771279601,
      1771279601,
      1771279601,
      1771279781,
      1771279781,
      1771279781,
      1771279781,
      1771279781,
      1771279841,
      1771279841,
      1771279841,
      1771279961,
      1771279961,
      1771279961,
      1771279961,
      1771279977,
      1771279977,
      1771279977,
      1771280082,
      1771280082,
      1771280082,
      1771280082,
      1771280142,
      1771280142,
      1771280202,
      1771280202,
      1771280262,
      1771280262,
      1771280277,
      1771280277,
      1771280277,
      1771280277,
      1771280277,
      1771280322,
      1771280322,
      1771280382,
      1771280382,
      1771280382,
      1771280382,
      1771280442,
      1771280442,
      1771280442,
      1771280442,
      1771280442,
      1771280682,
      1771280682,
      1771280743,
      1771280743,
      1771280743,
      1771280743,
      1771280743,
      1771280863,
      1771280863,
      1771280863,
      1771280863,
      1771280863,
      1771280863,
      1771280983,
      1771280983,
      1771280983,
      1771280983,
      1771281043,
      1771281163,
      1771281163,
      1771281163,
      1771281163,
      1771281163,
      1771281163,
      1771281163,
      1771281344,
      1771281344,
      1771281401,
      1771281401,
      1771281401,
      1771281401,
      1771281401,
      1771281461,
      1771281461,
      1771281461,
      1771281461,
      1771281461,
      1771281461,
      1771281581,
      1771281581,
      1771281581,
      1771281701,
      1771281701,
      1771281701,
      1771281701,
      1771281701,
      1771281701,
      1771281941,
      1771281941,
      1771281941,
      1771281941,
      1771281941,
      1771281941,
      1771281941,
      1771282122,
      1771282122,
      1771282122,
      1771282182,
      1771282182,
      1771282242,
      1771282242,
      1771282242,
      1771282242,
      1771282242,
      1771282302,
      1771282302,
      1771282302,
      1771282302,
      1771282422,
      1771282422,
      1771282422,
      1771282422,
      1771282482,
      1771282482,
      1771282482,
      1771282482,
      1771282482,
      1771282602,
      1771282602,
      1771282602,
      1771282602,
      1771282602,
      1771282602,
      1771282783,
      1771282783,
      1771282783,
      1771282843,
      1771282843,
      1771282843,
      1771282903,
      1771282903,
      1771282903,
      1771282903,
      1771282903,
      1771283023,
      1771283023,
      1771283023,
      1771283023,
      1771283023,
      1771283023,
      1771283263,
      1771283263,
      1771283263,
      1771283263,
      1771283263,
      1771283263,
      1771283263,
      1771283444,
      1771283444,
      1771283444,
      1771283444,
      1771283444,
      1771283444,
      1771283444,
      1771283624,
      1771283624,
      1771283864,
      1771283864,
      1771283864,
      1771283864,
      1771283864,
      1771284045,
      1771284045,
      1771284045,
      1771284045,
      1771284045,
      1771284045,
      1771284045,
      1771284165,
      1771284165,
      1771284165,
      1771284165,
      1771284165,
      1771284285,
      1771284285,
      1771284285,
      1771284285,
      1771284285,
      1771284345,
      1771284345,
      1771284366,
      1771284366,
      1771284366,
      1771284366,
      1771284366,
      1771284465,
      1771284525,
      1771284525,
      1771284546,
      1771284546,
      1771284546,
      1771284606,
      1771284606,
      1771284606,
      1771284606,
      1771284645,
      1771284645,
      1771284727,
      1771284727,
      1771284727,
      1771284787,
      1771284826,
      1771284826,
      1771284826,
      1771284826,
      1771284907,
      1771284907,
      1771284907,
      1771284967,
      1771284967,
      1771284967,
      1771285027,
      1771285066,
      1771285066,
      1771285066,
      1771285066,
      1771285066,
      1771285147,
      1771285147,
      1771285207,
      1771285246,
      1771285246,
      1771285267,
      1771285267,
      1771285267,
      1771285267,
      1771285306,
      1771285327,
      1771285327,
      1771285327,
      1771285327,
      1771285366,
      1771285366,
      1771285366,
      1771285388,
      1771285448,
      1771285448,
      1771285448,
      1771285448,
      1771285448,
      1771285568,
      1771285568,
      1771285628,
      1771285628,
      1771285628,
      1771285628,
      1771285688,
      1771285688,
      1771285748,
      1771285748,
      1771285748,
      1771285787,
      1771285868,
      1771285868,
      1771285928,
      1771285928,
      1771285928,
      1771285928,
      1771285967,
      1771285967,
      1771285988,
      1771285988,
      1771286048,
      1771286048,
      1771286048,
      1771286268,
      1771286268,
      1771286268,
      1771286268,
      1771286409,
      1771286409,
      1771286409,
      1771286409,
      1771286409,
      1771286649,
      1771286649,
      1771286649,
      1771286649,
      1771286649,
      1771286649,
      1771286890,
      1771286890,
      1771286890,
      1771287010,
      1771287010,
      1771287010,
      1771287070,
      1771287130,
      1771287130,
      1771287130,
      1771287190,
      1771287310,
      1771287310,
      1771287310,
      1771287310,
      1771287310,
      1771287430,
      1771287430,
      1771287430,
      1771287430,
      1771287490,
      1771287490,
      1771287551,
      1771287551,
      1771287551,
      1771287659,
      1771287659,
      1771287659,
      1771287731,
      1771287731,
      1771287731,
      1771287779,
      1771287779,
      1771287791,
      1771287899,
      1771287911,
      1771287959,
      1771288151,
      1771288211,
      1771288211,
      1771288259,
      1771288259,
      1771288259,
      1771288320,
      1771288332,
      1771288332,
      1771288332,
      1771288332,
      1771288500,
      1771288500,
      1771288500,
      1771288500,
      1771288560,
      1771288560,
      1771288620,
      1771288620,
      1771288680,
      1771288692,
      1771288740,
      1771288812,
      1771288812,
      1771288812,
      1771288812,
      1771288812,
      1771288860,
      1771288860,
      1771288860,
      1771288920,
      1771288920,
      1771288920,
      1771288993,
      1771288993,
      1771288993,
      1771289053,
      1771289113,
      1771289113,
      1771289173,
      1771289233,
      1771289293,
      1771289293,
      1771289293,
      1771289353,
      1771289401,
      1771289401,
      1771289461,
      1771289473,
      1771289473,
      1771289473,
      1771289473,
      1771289641,
      1771289641,
      1771289653,
      1771289653,
      1771289701,
      1771289701,
      1771289701,
      1771289774,
      1771289774,
      1771289774,
      1771289882,
      1771289882,
      1771289894,
      1771290002,
      1771290002,
      1771290002,
      1771290002,
      1771290074,
      1771290074,
      1771290194,
      1771290194,
      1771290194,
      1771290254,
      1771290254,
      1771290254,
      1771290254,
      1771290374,
      1771290374,
      1771290434,
      1771290434,
      1771290434,
      1771290795,
      1771290795,
      1771290795,
      1771290795,
      1771290855,
      1771290855,
      1771290855,
      1771290915,
      1771290915,
      1771290975,
      1771290975,
      1771290975,
      1771290975,
      1771291035,
      1771291035,
      1771291035,
      1771291095,
      1771291095,
      1771291155,
      1771291155,
      1771291155,
      1771291155,
      1771291396,
      1771291396,
      1771291456,
      1771291456,
      1771291456,
      1771291456,
      1771291576,
      1771291576,
      1771291576,
      1771291576,
      1771291576,
      1771291576,
      1771291696,
      1771291696,
      1771291696,
      1771291696,
      1771291997,
      1771291997,
      1771291997,
      1771291997,
      1771291997,
      1771291997,
      1771292237,
      1771292237,
      1771292237,
      1771292258,
      1771292258,
      1771292318,
      1771292318,
      1771292318,
      1771292318,
      1771292438,
      1771292438,
      1771292438,
      1771292438,
      1771292498,
      1771292498,
      1771292597,
      1771292597,
      1771292619,
      1771292619,
      1771292619,
      1771292619,
      1771292679,
      1771292679,
      1771292717,
      1771292717,
      1771292717,
      1771292717,
      1771292799,
      1771292799,
      1771292799,
      1771292799,
      1771292799,
      1771292838,
      1771292859,
      1771292859,
      1771292859,
      1771292898,
      1771292898,
      1771292898,
      1771293078,
      1771293078,
      1771293099,
      1771293099,
      1771293099,
      1771293138,
      1771293138,
      1771293138,
      1771293198,
      1771293198,
      1771293198,
      1771293198,
      1771293198,
      1771293258,
      1771293258,
      1771293279,
      1771293279,
      1771293339,
      1771293339,
      1771293378,
      1771293378,
      1771293399,
      1771293399,
      1771293399,
      1771293438,
      1771293438,
      1771293459,
      1771293459,
      1771293459,
      1771293459,
      1771293520,
      1771293640,
      1771293640,
      1771293640,
      1771293700,
      1771293700,
      1771293700,
      1771293700,
      1771293751,
      1771293751,
      1771293760,
      1771293760,
      1771293811,
      1771293820,
      1771293820,
      1771293880,
      1771293880,
      1771293880,
      1771293880,
      1771294120,
      1771294120,
      1771294120,
      1771294180,
      1771294180,
      1771294300,
      1771294300,
      1771294300,
      1771294541,
      1771294541,
      1771294541,
      1771294541,
      1771294541,
      1771294541,
      1771294721,
      1771294721,
      1771294721,
      1771294721,
      1771294721,
      1771294889,
      1771294889,
      1771294901,
      1771294901,
      1771294901,
      1771294949,
      1771294949,
      1771294961,
      1771294961,
      1771295070,
      1771295070,
      1771295081,
      1771295129,
      1771295141,
      1771295195,
      1771295195,
      1771295195,
      1771295261,
      1771295309,
      1771295321,
      1771295381,
      1771295381,
      1771295381,
      1771295381,
      1771295381,
      1771295381,
      1771295429,
      1771295429,
      1771295442,
      1771295502,
      1771295502,
      1771295604,
      1771295604,
      1771295604,
      1771295622,
      1771295622,
      1771295622,
      1771295670,
      1771295682,
      1771295682,
      1771295742,
      1771295742,
      1771295742,
      1771295742,
      1771295802,
      1771295802,
      1771295802,
      1771295849,
      1771295862,
      1771295862,
      1771295909,
      1771295909,
      1771295922
    ],
    "wof:geomhash": "dfc06535f17722cbd29ac98a59d5d312",
    "wof:id": 2014806839,
    "wof:repo": "sfomuseum-data-flights-2026-02"
  },
  "bbox": [
    -122.3386111111111,
    37.49166666666667,
    -73.81666666666666,
    40.65
  ],
  "geometry": {"coordinates":[[-73.81666666666666,40.65],[-73.96666666666667,40.516666666666666],[-73.96666666666667,40.516666666666666],[-73.99944444444445,40.48416666666667],[-73.99944444444445,40.48416666666667],[-73.99944444444445,40.48416666666667],[-74.01666666666667,40.45],[-74.01666666666667,40.45],[-74.01666666666667,40.45],[-74.01666666666667,40.45],[-74.1,40.4],[-74.1,40.4],[-74.1,40.4],[-74.18333333333334,40.35],[-74.18333333333334,40.35],[-74.18333333333334,40.35],[-74.18333333333334,40.35],[-74.37666666666667,40.260555555555555],[-74.37666666666667,40.260555555555555],[-74.37666666666667,40.260555555555555],[-74.37666666666667,40.260555555555555],[-74.62166666666666,40.19333333333333],[-74.62166666666666,40.19333333333333],[-74.62166666666666,40.19333333333333],[-74.62166666666666,40.19333333333333],[-74.62166666666666,40.19333333333333],[-75.19305555555556,40.14666666666667],[-75.19305555555556,40.14666666666667],[-75.19305555555556,40.14666666666667],[-75.19305555555556,40.14666666666667],[-75.19305555555556,40.14666666666667],[-75.46944444444445,40.12305555555555],[-75.46944444444445,40.12305555555555],[-75.46944444444445,40.12305555555555],[-75.46944444444445,40.12305555555555],[-75.46944444444445,40.12305555555555],[-75.46944444444445,40.12305555555555],[-75.46944444444445,40.12305555555555],[-75.91194444444444,40.08416666666667],[-75.91194444444444,40.08416666666667],[-75.91194444444444,40.08416666666667],[-75.91194444444444,40.08416666666667],[-76.05749999999999,40.07083333333334],[-76.05749999999999,40.07083333333334],[-76.10777777777777,40.06666666666667],[-76.10777777777777,40.06666666666667],[-76.10777777777777,40.06666666666667],[-76.10777777777777,40.06666666666667],[-76.10777777777777,40.06666666666667],[-76.19888888888889,40.06722222222223],[-76.19888888888889,40.06722222222223],[-76.36027777777777,40.06888888888889],[-76.36027777777777,40.06888888888889],[-76.36027777777777,40.06888888888889],[-76.36027777777777,40.06888888888889],[-76.69666666666667,40.07083333333334],[-76.69666666666667,40.07083333333334],[-76.69666666666667,40.07083333333334],[-76.69666666666667,40.07083333333334],[-76.69666666666667,40.07083333333334],[-76.83583333333333,40.07138888888889],[-76.83583333333333,40.07138888888889],[-76.92055555555557,40.07138888888889],[-76.92055555555557,40.07138888888889],[-76.92055555555557,40.07138888888889],[-76.92055555555557,40.07138888888889],[-76.92055555555557,40.07138888888889],[-76.92055555555557,40.07138888888889],[-76.92055555555557,40.07138888888889],[-77.25694444444444,40.07222222222222],[-77.25694444444444,40.07222222222222],[-77.25694444444444,40.07222222222222],[-77.33749999999999,40.07194444444445],[-77.33749999999999,40.07194444444445],[-77.33749999999999,40.07194444444445],[-77.47638888888889,40.07194444444445],[-77.47638888888889,40.07194444444445],[-77.61472222222221,40.07138888888889],[-77.67194444444445,40.07138888888889],[-77.67194444444445,40.07138888888889],[-77.67194444444445,40.07138888888889],[-77.67194444444445,40.07138888888889],[-77.67194444444445,40.07138888888889],[-77.80722222222222,40.07222222222222],[-77.80722222222222,40.07222222222222],[-77.80722222222222,40.07222222222222],[-77.80722222222222,40.07222222222222],[-77.94722222222222,40.072500000000005],[-77.94722222222222,40.072500000000005],[-77.94722222222222,40.072500000000005],[-77.94722222222222,40.072500000000005],[-78.1588888888889,40.072500000000005],[-78.1588888888889,40.072500000000005],[-78.21694444444445,40.07222222222222],[-78.21694444444445,40.07222222222222],[-78.21694444444445,40.07222222222222],[-78.33194444444445,40.07166666666667],[-78.33194444444445,40.07166666666667],[-78.33194444444445,40.07166666666667],[-78.33194444444445,40.07166666666667],[-78.76472222222222,40.07027777777778],[-78.76472222222222,40.07027777777778],[-78.76472222222222,40.07027777777778],[-78.76472222222222,40.07027777777778],[-78.76472222222222,40.07027777777778],[-78.76472222222222,40.07027777777778],[-78.90055555555556,40.069722222222225],[-78.90055555555556,40.069722222222225],[-78.90055555555556,40.069722222222225],[-78.90055555555556,40.069722222222225],[-79.58222222222221,40.062777777777775],[-79.58222222222221,40.062777777777775],[-79.58222222222221,40.062777777777775],[-79.58222222222221,40.062777777777775],[-79.58222222222221,40.062777777777775],[-79.58222222222221,40.062777777777775],[-79.98916666666666,40.056666666666665],[-79.98916666666666,40.056666666666665],[-80.12333333333332,40.05444444444444],[-80.12333333333332,40.05444444444444],[-80.12333333333332,40.05444444444444],[-80.25916666666667,40.051944444444445],[-80.3938888888889,40.04944444444444],[-80.53305555555555,40.046388888888885],[-80.53305555555555,40.046388888888885],[-80.77777777777777,40.04111111111111],[-80.77777777777777,40.04111111111111],[-80.77777777777777,40.04111111111111],[-80.77777777777777,40.04111111111111],[-80.91222222222223,40.03777777777778],[-81.04972222222221,40.034166666666664],[-81.04972222222221,40.034166666666664],[-81.04972222222221,40.034166666666664],[-81.04972222222221,40.034166666666664],[-81.04972222222221,40.034166666666664],[-81.60083333333333,40.01888888888889],[-81.72833333333334,40.014722222222225],[-81.72833333333334,40.014722222222225],[-81.72833333333334,40.014722222222225],[-81.72833333333334,40.014722222222225],[-81.72833333333334,40.014722222222225],[-82.02222222222223,40.00527777777778],[-82.02222222222223,40.00527777777778],[-82.02222222222223,40.00527777777778],[-82.02222222222223,40.00527777777778],[-82.42583333333334,39.990833333333335],[-82.42583333333334,39.990833333333335],[-82.42583333333334,39.990833333333335],[-82.56138888888889,39.98555555555556],[-82.56138888888889,39.98555555555556],[-82.68361111111112,39.98083333333334],[-82.68361111111112,39.98083333333334],[-82.835,39.974722222222226],[-82.95333333333333,39.969722222222224],[-82.95333333333333,39.969722222222224],[-82.95333333333333,39.969722222222224],[-82.95333333333333,39.969722222222224],[-83.10111111111111,39.95805555555556],[-83.10111111111111,39.95805555555556],[-83.10111111111111,39.95805555555556],[-83.10111111111111,39.95805555555556],[-83.64972222222222,39.905277777777776],[-83.64972222222222,39.905277777777776],[-83.64972222222222,39.905277777777776],[-83.64972222222222,39.905277777777776],[-83.64972222222222,39.905277777777776],[-84.06583333333333,39.862500000000004],[-84.06583333333333,39.862500000000004],[-84.06583333333333,39.862500000000004],[-84.06583333333333,39.862500000000004],[-84.33138888888888,39.83416666666667],[-84.33138888888888,39.83416666666667],[-84.33138888888888,39.83416666666667],[-84.33138888888888,39.83416666666667],[-84.33138888888888,39.83416666666667],[-84.33138888888888,39.83416666666667],[-84.46333333333334,39.82],[-84.46333333333334,39.82],[-84.68611111111112,39.79611111111111],[-84.68611111111112,39.79611111111111],[-84.68611111111112,39.79611111111111],[-84.86138888888888,39.77611111111111],[-84.98972222222223,39.76166666666666],[-84.98972222222223,39.76166666666666],[-84.98972222222223,39.76166666666666],[-85.08972222222222,39.75055555555556],[-85.26416666666667,39.730000000000004],[-85.4,39.714444444444446],[-85.4,39.714444444444446],[-85.49388888888889,39.70444444444445],[-85.49388888888889,39.70444444444445],[-85.53277777777778,39.69916666666666],[-85.53277777777778,39.69916666666666],[-85.53277777777778,39.69916666666666],[-85.53277777777778,39.69916666666666],[-85.75777777777778,39.67305555555555],[-85.75777777777778,39.67305555555555],[-85.88805555555557,39.656388888888884],[-85.88805555555557,39.656388888888884],[-85.92722222222223,39.651666666666664],[-85.92722222222223,39.651666666666664],[-85.92722222222223,39.651666666666664],[-86.14972222222222,39.625277777777775],[-86.32138888888889,39.60277777777778],[-86.32138888888889,39.60277777777778],[-86.32138888888889,39.60277777777778],[-86.67805555555556,39.556666666666665],[-86.67805555555556,39.556666666666665],[-86.72055555555556,39.551944444444445],[-86.72055555555556,39.551944444444445],[-86.72055555555556,39.551944444444445],[-86.93694444444445,39.524166666666666],[-86.93694444444445,39.524166666666666],[-86.93694444444445,39.524166666666666],[-86.93694444444445,39.524166666666666],[-87.19694444444445,39.489444444444445],[-87.19694444444445,39.489444444444445],[-87.19694444444445,39.489444444444445],[-87.19694444444445,39.489444444444445],[-87.19694444444445,39.489444444444445],[-87.19694444444445,39.489444444444445],[-87.45694444444445,39.45472222222222],[-87.58444444444444,39.4375],[-87.62638888888888,39.43194444444444],[-87.62638888888888,39.43194444444444],[-87.715,39.41972222222222],[-87.715,39.41972222222222],[-87.715,39.41972222222222],[-87.715,39.41972222222222],[-87.75638888888889,39.413888888888884],[-87.75638888888889,39.413888888888884],[-87.75638888888889,39.413888888888884],[-87.84277777777777,39.401944444444446],[-87.84277777777777,39.401944444444446],[-87.84277777777777,39.401944444444446],[-88.23333333333333,39.34666666666667],[-88.23333333333333,39.34666666666667],[-88.23333333333333,39.34666666666667],[-88.23333333333333,39.34666666666667],[-88.23333333333333,39.34666666666667],[-88.36611111111111,39.32777777777778],[-88.36611111111111,39.32777777777778],[-88.36611111111111,39.32777777777778],[-88.63055555555555,39.28944444444444],[-88.63055555555555,39.28944444444444],[-88.63055555555555,39.28944444444444],[-88.63055555555555,39.28944444444444],[-88.65083333333334,39.28638888888889],[-88.65083333333334,39.28638888888889],[-88.65083333333334,39.28638888888889],[-88.89194444444445,39.25083333333333],[-88.89194444444445,39.25083333333333],[-88.89194444444445,39.25083333333333],[-88.89194444444445,39.25083333333333],[-89.0213888888889,39.231388888888894],[-89.0213888888889,39.231388888888894],[-89.15027777777779,39.21222222222222],[-89.15027777777779,39.21222222222222],[-89.28055555555555,39.19222222222222],[-89.28055555555555,39.19222222222222],[-89.30222222222221,39.189166666666665],[-89.30222222222221,39.189166666666665],[-89.30222222222221,39.189166666666665],[-89.30222222222221,39.189166666666665],[-89.30222222222221,39.189166666666665],[-89.4088888888889,39.1725],[-89.4088888888889,39.1725],[-89.53611111111111,39.153055555555554],[-89.53611111111111,39.153055555555554],[-89.53611111111111,39.153055555555554],[-89.53611111111111,39.153055555555554],[-89.66305555555556,39.13333333333333],[-89.66305555555556,39.13333333333333],[-89.66305555555556,39.13333333333333],[-89.66305555555556,39.13333333333333],[-89.66305555555556,39.13333333333333],[-90.18055555555556,39.05166666666666],[-90.18055555555556,39.05166666666666],[-90.30777777777777,39.03111111111111],[-90.30777777777777,39.03111111111111],[-90.30777777777777,39.03111111111111],[-90.30777777777777,39.03111111111111],[-90.30777777777777,39.03111111111111],[-90.56527777777778,38.98888888888889],[-90.56527777777778,38.98888888888889],[-90.56527777777778,38.98888888888889],[-90.56527777777778,38.98888888888889],[-90.56527777777778,38.98888888888889],[-90.56527777777778,38.98888888888889],[-90.81888888888888,38.947222222222216],[-90.81888888888888,38.947222222222216],[-90.81888888888888,38.947222222222216],[-90.81888888888888,38.947222222222216],[-90.94777777777779,38.925555555555555],[-91.2088888888889,38.88138888888889],[-91.2088888888889,38.88138888888889],[-91.2088888888889,38.88138888888889],[-91.2088888888889,38.88138888888889],[-91.2088888888889,38.88138888888889],[-91.2088888888889,38.88138888888889],[-91.2088888888889,38.88138888888889],[-91.59777777777778,38.81444444444444],[-91.59777777777778,38.81444444444444],[-91.73916666666666,38.78972222222222],[-91.73916666666666,38.78972222222222],[-91.73916666666666,38.78972222222222],[-91.73916666666666,38.78972222222222],[-91.73916666666666,38.78972222222222],[-91.86861111111111,38.76694444444444],[-91.86861111111111,38.76694444444444],[-91.86861111111111,38.76694444444444],[-91.86861111111111,38.76694444444444],[-91.86861111111111,38.76694444444444],[-91.86861111111111,38.76694444444444],[-92.1236111111111,38.721944444444446],[-92.1236111111111,38.721944444444446],[-92.1236111111111,38.721944444444446],[-92.37527777777777,38.67666666666666],[-92.37527777777777,38.67666666666666],[-92.37527777777777,38.67666666666666],[-92.37527777777777,38.67666666666666],[-92.37527777777777,38.67666666666666],[-92.37527777777777,38.67666666666666],[-92.88416666666667,38.58277777777778],[-92.88416666666667,38.58277777777778],[-92.88416666666667,38.58277777777778],[-92.88416666666667,38.58277777777778],[-92.88416666666667,38.58277777777778],[-92.88416666666667,38.58277777777778],[-92.88416666666667,38.58277777777778],[-93.26638888888888,38.51111111111111],[-93.26638888888888,38.51111111111111],[-93.26638888888888,38.51111111111111],[-93.39555555555556,38.486666666666665],[-93.39555555555556,38.486666666666665],[-93.52277777777778,38.46222222222222],[-93.52277777777778,38.46222222222222],[-93.52277777777778,38.46222222222222],[-93.52277777777778,38.46222222222222],[-93.52277777777778,38.46222222222222],[-93.64972222222222,38.437777777777775],[-93.64972222222222,38.437777777777775],[-93.64972222222222,38.437777777777775],[-93.64972222222222,38.437777777777775],[-93.9038888888889,38.38805555555555],[-93.9038888888889,38.38805555555555],[-93.9038888888889,38.38805555555555],[-93.9038888888889,38.38805555555555],[-94.02972222222222,38.36361111111111],[-94.02972222222222,38.36361111111111],[-94.02972222222222,38.36361111111111],[-94.02972222222222,38.36361111111111],[-94.02972222222222,38.36361111111111],[-94.26694444444445,38.31666666666667],[-94.26694444444445,38.31666666666667],[-94.26694444444445,38.31666666666667],[-94.26694444444445,38.31666666666667],[-94.26694444444445,38.31666666666667],[-94.26694444444445,38.31666666666667],[-94.65111111111112,38.246944444444445],[-94.65111111111112,38.246944444444445],[-94.65111111111112,38.246944444444445],[-94.78194444444445,38.226111111111116],[-94.78194444444445,38.226111111111116],[-94.78194444444445,38.226111111111116],[-94.91027777777778,38.20583333333334],[-94.91027777777778,38.20583333333334],[-94.91027777777778,38.20583333333334],[-94.91027777777778,38.20583333333334],[-94.91027777777778,38.20583333333334],[-95.17027777777778,38.16972222222222],[-95.17027777777778,38.16972222222222],[-95.17027777777778,38.16972222222222],[-95.17027777777778,38.16972222222222],[-95.17027777777778,38.16972222222222],[-95.17027777777778,38.16972222222222],[-95.69722222222222,38.1575],[-95.69722222222222,38.1575],[-95.69722222222222,38.1575],[-95.69722222222222,38.1575],[-95.69722222222222,38.1575],[-95.69722222222222,38.1575],[-95.69722222222222,38.1575],[-96.09694444444445,38.14694444444444],[-96.09694444444445,38.14694444444444],[-96.09694444444445,38.14694444444444],[-96.09694444444445,38.14694444444444],[-96.09694444444445,38.14694444444444],[-96.09694444444445,38.14694444444444],[-96.09694444444445,38.14694444444444],[-96.48611111111111,38.13472222222222],[-96.48611111111111,38.13472222222222],[-97.00694444444444,38.11666666666667],[-97.00694444444444,38.11666666666667],[-97.00694444444444,38.11666666666667],[-97.00694444444444,38.11666666666667],[-97.00694444444444,38.11666666666667],[-97.42472222222223,38.10027777777778],[-97.42472222222223,38.10027777777778],[-97.42472222222223,38.10027777777778],[-97.42472222222223,38.10027777777778],[-97.42472222222223,38.10027777777778],[-97.42472222222223,38.10027777777778],[-97.42472222222223,38.10027777777778],[-97.68083333333334,38.089444444444446],[-97.68083333333334,38.089444444444446],[-97.68083333333334,38.089444444444446],[-97.68083333333334,38.089444444444446],[-97.68083333333334,38.089444444444446],[-97.92472222222223,38.07888888888889],[-97.92472222222223,38.07888888888889],[-97.92472222222223,38.07888888888889],[-97.92472222222223,38.07888888888889],[-97.92472222222223,38.07888888888889],[-98.05583333333333,38.073055555555555],[-98.05583333333333,38.073055555555555],[-98.12138888888889,38.071111111111115],[-98.12138888888889,38.071111111111115],[-98.12138888888889,38.071111111111115],[-98.12138888888889,38.071111111111115],[-98.12138888888889,38.071111111111115],[-98.3325,38.059999999999995],[-98.46472222222222,38.05333333333333],[-98.46472222222222,38.05333333333333],[-98.51611111111112,38.05027777777777],[-98.51611111111112,38.05027777777777],[-98.51611111111112,38.05027777777777],[-98.64916666666667,38.04416666666666],[-98.64916666666667,38.04416666666666],[-98.64916666666667,38.04416666666666],[-98.64916666666667,38.04416666666666],[-98.72916666666667,38.04],[-98.72916666666667,38.04],[-98.91222222222223,38.029444444444444],[-98.91222222222223,38.029444444444444],[-98.91222222222223,38.029444444444444],[-99.04555555555555,38.022777777777776],[-99.12416666666665,38.01861111111111],[-99.12416666666665,38.01861111111111],[-99.12416666666665,38.01861111111111],[-99.12416666666665,38.01861111111111],[-99.3111111111111,38.00805555555556],[-99.3111111111111,38.00805555555556],[-99.3111111111111,38.00805555555556],[-99.44333333333334,38.00083333333333],[-99.44333333333334,38.00083333333333],[-99.44333333333334,38.00083333333333],[-99.57388888888889,37.99305555555556],[-99.64944444444446,37.98861111111111],[-99.64944444444446,37.98861111111111],[-99.64944444444446,37.98861111111111],[-99.64944444444446,37.98861111111111],[-99.64944444444446,37.98861111111111],[-99.83055555555555,37.97777777777778],[-99.83055555555555,37.97777777777778],[-99.95805555555556,37.969722222222224],[-100.03555555555555,37.96472222222223],[-100.03555555555555,37.96472222222223],[-100.08833333333332,37.96138888888889],[-100.08833333333332,37.96138888888889],[-100.08833333333332,37.96138888888889],[-100.08833333333332,37.96138888888889],[-100.16277777777778,37.95666666666667],[-100.21666666666667,37.95333333333333],[-100.21666666666667,37.95333333333333],[-100.21666666666667,37.95333333333333],[-100.21666666666667,37.95333333333333],[-100.29194444444444,37.94833333333333],[-100.29194444444444,37.94833333333333],[-100.29194444444444,37.94833333333333],[-100.34527777777777,37.94499999999999],[-100.47416666666666,37.936388888888885],[-100.47416666666666,37.936388888888885],[-100.47416666666666,37.936388888888885],[-100.47416666666666,37.936388888888885],[-100.47416666666666,37.936388888888885],[-100.73388888888888,37.92166666666667],[-100.73388888888888,37.92166666666667],[-100.86166666666666,37.93583333333333],[-100.86166666666666,37.93583333333333],[-100.86166666666666,37.93583333333333],[-100.86166666666666,37.93583333333333],[-100.99055555555556,37.95055555555556],[-100.99055555555556,37.95055555555556],[-101.12055555555555,37.96527777777778],[-101.12055555555555,37.96527777777778],[-101.12055555555555,37.96527777777778],[-101.19638888888889,37.973888888888894],[-101.38333333333334,37.995],[-101.38333333333334,37.995],[-101.51527777777778,38.00972222222222],[-101.51527777777778,38.00972222222222],[-101.51527777777778,38.00972222222222],[-101.51527777777778,38.00972222222222],[-101.61972222222222,38.02111111111111],[-101.61972222222222,38.02111111111111],[-101.64583333333334,38.024166666666666],[-101.64583333333334,38.024166666666666],[-101.77638888888889,38.038333333333334],[-101.77638888888889,38.038333333333334],[-101.77638888888889,38.038333333333334],[-102.27222222222223,38.090833333333336],[-102.27222222222223,38.090833333333336],[-102.27222222222223,38.090833333333336],[-102.27222222222223,38.090833333333336],[-102.56333333333333,38.12083333333334],[-102.56333333333333,38.12083333333334],[-102.56333333333333,38.12083333333334],[-102.56333333333333,38.12083333333334],[-102.56333333333333,38.12083333333334],[-103.09972222222221,38.17388888888889],[-103.09972222222221,38.17388888888889],[-103.09972222222221,38.17388888888889],[-103.09972222222221,38.17388888888889],[-103.09972222222221,38.17388888888889],[-103.09972222222221,38.17388888888889],[-103.63805555555557,38.224722222222226],[-103.63805555555557,38.224722222222226],[-103.63805555555557,38.224722222222226],[-103.93138888888889,38.25111111111111],[-103.93138888888889,38.25111111111111],[-103.93138888888889,38.25111111111111],[-104.06388888888888,38.26305555555555],[-104.19500000000001,38.27472222222222],[-104.19500000000001,38.27472222222222],[-104.19500000000001,38.27472222222222],[-104.3261111111111,38.28583333333333],[-104.58999999999999,38.300555555555555],[-104.58999999999999,38.300555555555555],[-104.58999999999999,38.300555555555555],[-104.58999999999999,38.300555555555555],[-104.58999999999999,38.300555555555555],[-104.85583333333332,38.31027777777778],[-104.85583333333332,38.31027777777778],[-104.85583333333332,38.31027777777778],[-104.85583333333332,38.31027777777778],[-104.99,38.31472222222222],[-104.99,38.31472222222222],[-105.12333333333332,38.31888888888889],[-105.12333333333332,38.31888888888889],[-105.12333333333332,38.31888888888889],[-105.34944444444444,38.32222222222222],[-105.34944444444444,38.32222222222222],[-105.34944444444444,38.32222222222222],[-105.51694444444445,38.33111111111111],[-105.51694444444445,38.33111111111111],[-105.51694444444445,38.33111111111111],[-105.61194444444443,38.33111111111111],[-105.61194444444443,38.33111111111111],[-105.65083333333334,38.334722222222226],[-105.87722222222222,38.336666666666666],[-105.9113888888889,38.341944444444444],[-106.00777777777778,38.339444444444446],[-106.44,38.35416666666667],[-106.57833333333333,38.35666666666667],[-106.57833333333333,38.35666666666667],[-106.67444444444445,38.35666666666667],[-106.67444444444445,38.35666666666667],[-106.67444444444445,38.35666666666667],[-106.80777777777777,38.358333333333334],[-106.845,38.36194444444445],[-106.845,38.36194444444445],[-106.845,38.36194444444445],[-106.845,38.36194444444445],[-107.19388888888889,38.36361111111111],[-107.19388888888889,38.36361111111111],[-107.19388888888889,38.36361111111111],[-107.19388888888889,38.36361111111111],[-107.32111111111111,38.36638888888889],[-107.32111111111111,38.36638888888889],[-107.44833333333334,38.37],[-107.44833333333334,38.37],[-107.57694444444444,38.37166666666667],[-107.60166666666666,38.37277777777778],[-107.70444444444445,38.3725],[-107.85277777777777,38.375],[-107.85277777777777,38.375],[-107.85277777777777,38.375],[-107.85277777777777,38.375],[-107.85277777777777,38.375],[-107.95722222222223,38.375],[-107.95722222222223,38.375],[-107.95722222222223,38.375],[-108.08694444444444,38.37638888888889],[-108.08694444444444,38.37638888888889],[-108.08694444444444,38.37638888888889],[-108.24,38.378055555555555],[-108.24,38.378055555555555],[-108.24,38.378055555555555],[-108.36416666666666,38.37833333333333],[-108.49,38.37888888888889],[-108.49,38.37888888888889],[-108.61861111111111,38.37916666666667],[-108.74861111111112,38.37972222222222],[-108.87805555555555,38.38],[-108.87805555555555,38.38],[-108.87805555555555,38.38],[-109.00722222222223,38.37972222222222],[-109.11055555555555,38.37972222222222],[-109.11055555555555,38.37972222222222],[-109.23694444444445,38.37916666666667],[-109.26222222222222,38.37916666666667],[-109.26222222222222,38.37916666666667],[-109.26222222222222,38.37916666666667],[-109.26222222222222,38.37916666666667],[-109.62833333333333,38.3775],[-109.62833333333333,38.3775],[-109.65444444444445,38.37722222222222],[-109.65444444444445,38.37722222222222],[-109.76,38.37638888888889],[-109.76,38.37638888888889],[-109.76,38.37638888888889],[-109.92055555555557,38.375277777777775],[-109.92055555555557,38.375277777777775],[-109.92055555555557,38.375277777777775],[-110.16722222222222,38.37277777777778],[-110.16722222222222,38.37277777777778],[-110.19388888888889,38.3725],[-110.44027777777778,38.36944444444445],[-110.44027777777778,38.36944444444445],[-110.44027777777778,38.36944444444445],[-110.44027777777778,38.36944444444445],[-110.60083333333333,38.3675],[-110.60083333333333,38.3675],[-110.84055555555555,38.36361111111111],[-110.84055555555555,38.36361111111111],[-110.84055555555555,38.36361111111111],[-111.00555555555556,38.36055555555556],[-111.00555555555556,38.36055555555556],[-111.00555555555556,38.36055555555556],[-111.00555555555556,38.36055555555556],[-111.26416666666667,38.35583333333334],[-111.26416666666667,38.35583333333334],[-111.39583333333334,38.35277777777778],[-111.39583333333334,38.35277777777778],[-111.39583333333334,38.35277777777778],[-112.16916666666667,38.33388888888889],[-112.16916666666667,38.33388888888889],[-112.16916666666667,38.33388888888889],[-112.16916666666667,38.33388888888889],[-112.29444444444444,38.330000000000005],[-112.29444444444444,38.330000000000005],[-112.29444444444444,38.330000000000005],[-112.42083333333333,38.32638888888889],[-112.42083333333333,38.32638888888889],[-112.54638888888888,38.32277777777778],[-112.54638888888888,38.32277777777778],[-112.54638888888888,38.32277777777778],[-112.54638888888888,38.32277777777778],[-112.67333333333333,38.31861111111112],[-112.67333333333333,38.31861111111112],[-112.67333333333333,38.31861111111112],[-112.79944444444445,38.31472222222222],[-112.79944444444445,38.31472222222222],[-112.9263888888889,38.31027777777778],[-112.9263888888889,38.31027777777778],[-112.9263888888889,38.31027777777778],[-112.9263888888889,38.31027777777778],[-113.4225,38.29222222222222],[-113.4225,38.29222222222222],[-113.5425,38.2875],[-113.5425,38.2875],[-113.5425,38.2875],[-113.5425,38.2875],[-113.78444444444445,38.277499999999996],[-113.78444444444445,38.277499999999996],[-113.78444444444445,38.277499999999996],[-113.78444444444445,38.277499999999996],[-113.78444444444445,38.277499999999996],[-113.78444444444445,38.277499999999996],[-114.03111111111112,38.26694444444444],[-114.03111111111112,38.26694444444444],[-114.03111111111112,38.26694444444444],[-114.03111111111112,38.26694444444444],[-114.65083333333334,38.235],[-114.65083333333334,38.235],[-114.65083333333334,38.235],[-114.65083333333334,38.235],[-114.65083333333334,38.235],[-114.65083333333334,38.235],[-115.16083333333334,38.20305555555556],[-115.16083333333334,38.20305555555556],[-115.16083333333334,38.20305555555556],[-115.20361111111112,38.200833333333335],[-115.20361111111112,38.200833333333335],[-115.33277777777778,38.192499999999995],[-115.33277777777778,38.192499999999995],[-115.33277777777778,38.192499999999995],[-115.33277777777778,38.192499999999995],[-115.58722222222222,38.175555555555555],[-115.58722222222222,38.175555555555555],[-115.58722222222222,38.175555555555555],[-115.58722222222222,38.175555555555555],[-115.71555555555555,38.16694444444444],[-115.71555555555555,38.16694444444444],[-115.94805555555556,38.149166666666666],[-115.94805555555556,38.149166666666666],[-116.0025,38.14527777777778],[-116.0025,38.14527777777778],[-116.0025,38.14527777777778],[-116.0025,38.14527777777778],[-116.13388888888889,38.13583333333333],[-116.13388888888889,38.13583333333333],[-116.21222222222222,38.12972222222222],[-116.21222222222222,38.12972222222222],[-116.21222222222222,38.12972222222222],[-116.21222222222222,38.12972222222222],[-116.36972222222222,38.11833333333333],[-116.36972222222222,38.11833333333333],[-116.36972222222222,38.11833333333333],[-116.36972222222222,38.11833333333333],[-116.36972222222222,38.11833333333333],[-116.4713888888889,38.11055555555556],[-116.49888888888889,38.10805555555556],[-116.49888888888889,38.10805555555556],[-116.49888888888889,38.10805555555556],[-116.60138888888888,38.10027777777778],[-116.60138888888888,38.10027777777778],[-116.60138888888888,38.10027777777778],[-116.98555555555555,38.06944444444445],[-116.98555555555555,38.06944444444445],[-117.01361111111112,38.06722222222223],[-117.01361111111112,38.06722222222223],[-117.01361111111112,38.06722222222223],[-117.11916666666666,38.05888888888889],[-117.11916666666666,38.05888888888889],[-117.11916666666666,38.05888888888889],[-117.22916666666667,38.04972222222222],[-117.22916666666667,38.04972222222222],[-117.22916666666667,38.04972222222222],[-117.22916666666667,38.04972222222222],[-117.22916666666667,38.04972222222222],[-117.36722222222221,38.038333333333334],[-117.36722222222221,38.038333333333334],[-117.42166666666667,38.03361111111111],[-117.42166666666667,38.03361111111111],[-117.5586111111111,38.02194444444444],[-117.5586111111111,38.02194444444444],[-117.63,37.99944444444444],[-117.63,37.99944444444444],[-117.66805555555555,37.969722222222224],[-117.66805555555555,37.969722222222224],[-117.66805555555555,37.969722222222224],[-117.70777777777778,37.91722222222222],[-117.70777777777778,37.91722222222222],[-117.73388888888888,37.88138888888889],[-117.73388888888888,37.88138888888889],[-117.73388888888888,37.88138888888889],[-117.73388888888888,37.88138888888889],[-117.8,37.79333333333333],[-117.98944444444444,37.6675],[-117.98944444444444,37.6675],[-117.98944444444444,37.6675],[-118.13,37.67166666666667],[-118.13,37.67166666666667],[-118.13,37.67166666666667],[-118.13,37.67166666666667],[-118.24055555555556,37.67388888888889],[-118.24055555555556,37.67388888888889],[-118.27083333333333,37.67444444444444],[-118.27083333333333,37.67444444444444],[-118.3825,37.676944444444445],[-118.41055555555556,37.67777777777778],[-118.41055555555556,37.67777777777778],[-118.5525,37.68055555555555],[-118.5525,37.68055555555555],[-118.5525,37.68055555555555],[-118.5525,37.68055555555555],[-119.12583333333333,37.689722222222215],[-119.12583333333333,37.689722222222215],[-119.12583333333333,37.689722222222215],[-119.26666666666667,37.69138888888889],[-119.26666666666667,37.69138888888889],[-119.55,37.69472222222222],[-119.55,37.69472222222222],[-119.55,37.69472222222222],[-120.11,37.698611111111106],[-120.11,37.698611111111106],[-120.11,37.698611111111106],[-120.11,37.698611111111106],[-120.11,37.698611111111106],[-120.11,37.698611111111106],[-120.5425,37.683055555555555],[-120.5425,37.683055555555555],[-120.5425,37.683055555555555],[-120.5425,37.683055555555555],[-120.5425,37.683055555555555],[-120.91666666666667,37.63333333333333],[-120.91666666666667,37.63333333333333],[-120.9388888888889,37.63611111111111],[-120.9388888888889,37.63611111111111],[-120.9388888888889,37.63611111111111],[-121.03333333333333,37.61666666666667],[-121.03333333333333,37.61666666666667],[-121.05111111111111,37.621944444444445],[-121.05111111111111,37.621944444444445],[-121.25,37.6],[-121.25,37.6],[-121.25916666666667,37.593611111111116],[-121.35,37.583333333333336],[-121.35749999999999,37.581944444444446],[-121.45,37.56666666666667],[-121.45,37.56666666666667],[-121.45,37.56666666666667],[-121.55361111111111,37.55916666666666],[-121.63333333333334,37.55],[-121.64916666666667,37.54555555555555],[-121.73916666666666,37.52361111111111],[-121.73916666666666,37.52361111111111],[-121.73916666666666,37.52361111111111],[-121.73916666666666,37.52361111111111],[-121.73916666666666,37.52361111111111],[-121.73916666666666,37.52361111111111],[-121.81666666666666,37.5],[-121.81666666666666,37.5],[-121.82222222222222,37.50388888888889],[-121.90055555555556,37.49166666666667],[-121.90055555555556,37.49166666666667],[-122.03333333333333,37.5],[-122.03333333333333,37.5],[-122.03333333333333,37.5],[-122.04138888888889,37.51222222222222],[-122.04138888888889,37.51222222222222],[-122.04138888888889,37.51222222222222],[-122.1,37.53333333333333],[-122.10972222222222,37.53444444444444],[-122.10972222222222,37.53444444444444],[-122.1738888888889,37.555277777777775],[-122.1738888888889,37.555277777777775],[-122.1738888888889,37.555277777777775],[-122.1738888888889,37.555277777777775],[-122.23722222222223,37.57555555555556],[-122.23722222222223,37.57555555555556],[-122.23722222222223,37.57555555555556],[-122.28333333333333,37.583333333333336],[-122.29527777777777,37.59305555555556],[-122.29527777777777,37.59305555555556],[-122.33333333333333,37.6],[-122.33333333333333,37.6],[-122.3386111111111,37.60638888888889]],"type":"LineString"}
}
