{
  "id": 2014876373,
  "type": "Feature",
  "properties": {
    "geom:area": 0,
    "geom:bbox": "-121.815833,37.840000,-83.148611,43.492778",
    "geom:latitude": 42.19727971939151,
    "geom:longitude": -102.78832031397728,
    "src:alt_label": "swim-path",
    "src:geom": "swim",
    "swim:altitudes": [
      "161",
      "266",
      "308C",
      "310C",
      "310C",
      "310C",
      "310C",
      "310C",
      "310C",
      "310C",
      "310C",
      "310C",
      "310C",
      "310C",
      "310C",
      "310C",
      "310C",
      "310C",
      "310C",
      "310C",
      "310C",
      "310C",
      "310C",
      "310C",
      "310C",
      "310C",
      "310C",
      "310C",
      "310C",
      "310C",
      "310C",
      "310C",
      "310C",
      "310C",
      "310C",
      "310C",
      "310C",
      "310C",
      "310C",
      "310C",
      "310C",
      "313",
      "313",
      "319",
      "350C",
      "350C",
      "350C",
      "350C",
      "350C",
      "350C",
      "350C",
      "350C",
      "350C",
      "350C",
      "350C",
      "350C",
      "350C",
      "350C",
      "350C",
      "350C",
      "350C",
      "350C",
      "350C",
      "350C",
      "350C",
      "350C",
      "350C",
      "350C",
      "350C",
      "350C",
      "350C",
      "350C",
      "350C",
      "350C",
      "350C",
      "350C",
      "350C",
      "350C",
      "350C",
      "350C",
      "350C",
      "350C",
      "350C",
      "350C",
      "350C",
      "350C",
      "350C",
      "350C",
      "350C",
      "350C",
      "350C",
      "350C",
      "350C",
      "350C",
      "350C",
      "350C",
      "350C",
      "350C",
      "350C",
      "350C",
      "350C",
      "350C",
      "350C",
      "350C",
      "350C",
      "350C",
      "350C",
      "350C",
      "350C",
      "350C",
      "350C",
      "350",
      "350",
      "350",
      "342"
    ],
    "swim:geom": "path",
    "swim:speeds": [
      385,
      487,
      525,
      520,
      531,
      530,
      530,
      545,
      545,
      545,
      545,
      546,
      550,
      547,
      546,
      546,
      545,
      538,
      535,
      532,
      533,
      533,
      532,
      524,
      523,
      522,
      522,
      524,
      524,
      528,
      528,
      529,
      526,
      526,
      526,
      526,
      526,
      526,
      526,
      524,
      525,
      548,
      548,
      566,
      548,
      546,
      544,
      538,
      537,
      538,
      539,
      539,
      540,
      542,
      552,
      552,
      555,
      563,
      565,
      565,
      565,
      566,
      565,
      563,
      562,
      564,
      566,
      566,
      567,
      569,
      570,
      572,
      575,
      575,
      572,
      573,
      573,
      572,
      570,
      569,
      569,
      568,
      566,
      547,
      534,
      529,
      528,
      528,
      525,
      523,
      522,
      519,
      514,
      516,
      516,
      518,
      519,
      523,
      523,
      524,
      524,
      522,
      519,
      515,
      512,
      511,
      513,
      516,
      516,
      518,
      518,
      523,
      524,
      524,
      501
    ],
    "swim:timestamps": [
      1772006750,
      1772007171,
      1772007434,
      1772007951,
      1772008815,
      1772008935,
      1772009055,
      1772009895,
      1772010255,
      1772010315,
      1772010495,
      1772010615,
      1772010659,
      1772010735,
      1772010795,
      1772010795,
      1772010855,
      1772010976,
      1772011140,
      1772011156,
      1772011200,
      1772011260,
      1772011276,
      1772011396,
      1772011440,
      1772011456,
      1772011516,
      1772011696,
      1772011740,
      1772011860,
      1772011860,
      1772011996,
      1772012116,
      1772012160,
      1772012176,
      1772012220,
      1772012280,
      1772012280,
      1772012340,
      1772012460,
      1772012520,
      1772012640,
      1772012640,
      1772012700,
      1772012880,
      1772012940,
      1772013000,
      1772013180,
      1772013217,
      1772013240,
      1772013300,
      1772013337,
      1772013397,
      1772013480,
      1772013637,
      1772013660,
      1772013780,
      1772013877,
      1772013937,
      1772014020,
      1772014020,
      1772014237,
      1772014297,
      1772014357,
      1772014417,
      1772014598,
      1772014658,
      1772014658,
      1772014778,
      1772014898,
      1772014958,
      1772015018,
      1772015138,
      1772015198,
      1772015318,
      1772015436,
      1772015496,
      1772015616,
      1772015736,
      1772015796,
      1772015796,
      1772015856,
      1772015916,
      1772016156,
      1772016276,
      1772016456,
      1772016516,
      1772016516,
      1772016636,
      1772016756,
      1772016816,
      1772016936,
      1772017237,
      1772017417,
      1772017477,
      1772017537,
      1772017597,
      1772017717,
      1772017717,
      1772017777,
      1772017889,
      1772017947,
      1772018007,
      1772018077,
      1772018137,
      1772018187,
      1772018317,
      1772018368,
      1772018368,
      1772018437,
      1772018497,
      1772018668,
      1772018728,
      1772018728,
      1772018848
    ],
    "wof:geomhash": "966981238162ce924afe995b1b14114f",
    "wof:id": 2014876373,
    "wof:repo": "sfomuseum-data-flights-2026-02"
  },
  "bbox": [
    -121.81583333333333,
    37.84,
    -83.14861111111112,
    43.49277777777778
  ],
  "geometry": {"coordinates":[[-121.81583333333333,37.84],[-120.89277777777778,38.31333333333333],[-120.22638888888889,38.63],[-118.83611111111111,39.275555555555556],[-116.43861111111111,40.32055555555556],[-116.10055555555554,40.461111111111116],[-115.7625,40.60055555555556],[-113.2675,41.466944444444444],[-112.08388888888888,41.67166666666667],[-111.92694444444444,41.698055555555555],[-111.32833333333333,41.79555555555555],[-110.91416666666667,41.861111111111114],[-110.77638888888889,41.88388888888889],[-110.51388888888889,41.92305555555555],[-110.315,41.95305555555556],[-110.315,41.95305555555556],[-110.11611111111111,41.98277777777778],[-109.72416666666666,42.058611111111105],[-109.22416666666666,42.161944444444444],[-109.14722222222223,42.17805555555555],[-109.03333333333333,42.20138888888889],[-108.84055555555555,42.24055555555556],[-108.76027777777777,42.256388888888885],[-108.38194444444444,42.33222222222223],[-108.26805555555555,42.35444444444445],[-108.1913888888889,42.36944444444445],[-108.00305555555556,42.40611111111111],[-107.43,42.515277777777776],[-107.31638888888888,42.53611111111111],[-106.92750000000001,42.60194444444445],[-106.92750000000001,42.60194444444445],[-106.47722222222222,42.66833333333333],[-106.08999999999999,42.72416666666667],[-105.93527777777778,42.74583333333334],[-105.8938888888889,42.75138888888889],[-105.73805555555556,42.77305555555555],[-105.54472222222222,42.8],[-105.54472222222222,42.8],[-105.34805555555555,42.82638888888889],[-104.95666666666666,42.87861111111111],[-104.75916666666667,42.904444444444444],[-104.35444444444444,42.95638888888889],[-104.35444444444444,42.95638888888889],[-104.14083333333333,42.98305555555556],[-103.56388888888888,43.06111111111111],[-103.36027777777777,43.08888888888889],[-103.15833333333335,43.11611111111111],[-102.55472222222222,43.19472222222222],[-102.40277777777779,43.21416666666667],[-102.35166666666666,43.220555555555556],[-102.15194444444445,43.24583333333334],[-101.99888888888889,43.265],[-101.79555555555555,43.28972222222222],[-101.54027777777777,43.32],[-100.96638888888889,43.356944444444444],[-100.8875,43.36194444444445],[-100.46611111111112,43.38666666666666],[-100.11861111111111,43.40555555555555],[-99.90166666666667,43.41722222222222],[-99.60249999999999,43.4325],[-99.60249999999999,43.4325],[-98.82944444444443,43.467777777777776],[-98.61638888888888,43.47666666666667],[-98.4175,43.48444444444444],[-98.205,43.49277777777778],[-97.56083333333333,43.485],[-97.34666666666666,43.47694444444445],[-97.34666666666666,43.47694444444445],[-96.91444444444446,43.45944444444445],[-96.44111111111111,43.43888888888888],[-96.22583333333334,43.42861111111111],[-96.00805555555556,43.418055555555554],[-95.56916666666666,43.39472222222222],[-95.35222222222221,43.38305555555556],[-94.91972222222223,43.358333333333334],[-94.49472222222222,43.31055555555555],[-94.27805555555555,43.288888888888884],[-93.85249999999999,43.23861111111111],[-93.42444444444445,43.18611111111111],[-93.21083333333334,43.159444444444446],[-93.21083333333334,43.159444444444446],[-92.99916666666667,43.1325],[-92.79083333333332,43.105555555555554],[-91.95694444444445,43.00333333333333],[-91.58555555555554,43.01888888888889],[-90.98027777777779,43.04416666666666],[-90.78027777777778,43.05166666666666],[-90.78027777777778,43.05166666666666],[-90.38416666666667,43.065555555555555],[-89.9875,43.07833333333333],[-89.79388888888889,43.08416666666667],[-89.40083333333334,43.09444444444445],[-88.39833333333334,43.115],[-87.81722222222221,43.138888888888886],[-87.6211111111111,43.1475],[-87.42500000000001,43.155833333333334],[-87.23166666666667,43.163888888888884],[-86.83472222222221,43.178888888888885],[-86.83472222222221,43.178888888888885],[-86.63361111111112,43.18611111111111],[-86.27777777777777,43.1975],[-86.07666666666667,43.20388888888889],[-85.87333333333332,43.20944444444445],[-85.63861111111112,43.215833333333336],[-85.44250000000001,43.22083333333334],[-85.28805555555556,43.224722222222226],[-84.85833333333333,43.23388888888889],[-84.70166666666667,43.236666666666665],[-84.70166666666667,43.236666666666665],[-84.4625,43.24138888888889],[-84.26805555555555,43.26222222222222],[-83.73777777777778,43.31805555555556],[-83.53999999999999,43.339444444444446],[-83.53999999999999,43.339444444444446],[-83.14861111111112,43.382222222222225]],"type":"LineString"}
}
