{
  "id": 2014811773,
  "type": "Feature",
  "properties": {
    "geom:area": 0,
    "geom:bbox": "-122.350000,37.650000,-74.158056,41.953889",
    "geom:latitude": 40.70233056770733,
    "geom:longitude": -98.10063999734119,
    "src:alt_label": "swim-path",
    "src:geom": "swim",
    "swim:altitudes": [
      "020",
      "020",
      "050",
      "050",
      "050",
      "050",
      "050",
      "050",
      "076",
      "076",
      "076",
      "107",
      "107",
      "122",
      "122",
      "122",
      "122",
      "122",
      "122",
      "146",
      "146",
      "146",
      "146",
      "146",
      "146",
      "195",
      "195",
      "195",
      "195",
      "264",
      "264",
      "278",
      "278",
      "294",
      "294",
      "294",
      "310",
      "310",
      "310",
      "320",
      "320",
      "320",
      "339",
      "339",
      "339",
      "339",
      "350C",
      "350C",
      "350C",
      "350C",
      "350C",
      "350C",
      "350C",
      "350C",
      "350C",
      "350C",
      "350C",
      "350C",
      "350C",
      "350C",
      "350C",
      "350C",
      "350C",
      "350C",
      "350C",
      "350C",
      "350C",
      "350C",
      "350C",
      "350C",
      "350C",
      "350C",
      "350C",
      "350C",
      "350C",
      "350C",
      "350C",
      "350C",
      "350C",
      "350C",
      "350C",
      "350C",
      "350C",
      "350C",
      "350C",
      "350C",
      "350C",
      "350C",
      "350C",
      "350C",
      "350C",
      "350C",
      "350C",
      "350C",
      "350C",
      "350C",
      "350C",
      "350C",
      "350C",
      "350C",
      "350C",
      "350C",
      "350C",
      "350C",
      "350C",
      "350C",
      "350C",
      "350C",
      "350C",
      "350C",
      "350C",
      "350",
      "350",
      "350",
      "350",
      "350",
      "350",
      "350",
      "350",
      "370C",
      "370C",
      "370C",
      "370C",
      "370C",
      "370C",
      "370C",
      "370C",
      "370C",
      "370C",
      "370C",
      "370C",
      "370C",
      "370C",
      "370C",
      "370C",
      "370C",
      "370C",
      "370C",
      "370C",
      "370C",
      "370C",
      "370C",
      "370C",
      "370C",
      "370C",
      "370C",
      "370C",
      "370C",
      "370C",
      "370C",
      "370C",
      "370C",
      "370C",
      "370C",
      "370C",
      "370C",
      "370C",
      "370C",
      "370C",
      "370C",
      "370C",
      "370C",
      "370C",
      "370C",
      "370C",
      "370C",
      "370C",
      "370C",
      "370C",
      "370C",
      "370C",
      "370C",
      "370C",
      "370C",
      "370C",
      "370C",
      "370C",
      "370C",
      "370C",
      "370C",
      "370C",
      "370C",
      "370C",
      "370C",
      "370C",
      "370C",
      "370C",
      "370C",
      "370C",
      "370C",
      "370C",
      "370C",
      "370C",
      "370C",
      "370C",
      "370C",
      "370C",
      "370C",
      "370C",
      "370C",
      "370C",
      "370C",
      "370C",
      "370C",
      "370C",
      "370C",
      "370C",
      "370C",
      "370C",
      "370C",
      "370C",
      "370C",
      "370C",
      "370C",
      "370C",
      "370C",
      "370C",
      "370C",
      "370C",
      "370C",
      "370C",
      "370C",
      "370C",
      "370C",
      "370C",
      "370C",
      "370C",
      "370C",
      "370C",
      "370C",
      "370C",
      "370C",
      "370C",
      "370C",
      "370C",
      "370C",
      "370C",
      "370C",
      "370C",
      "370C",
      "370C",
      "370C",
      "370C",
      "370C",
      "370C",
      "370C",
      "370C",
      "370C",
      "370C",
      "370C",
      "370C",
      "370C",
      "370C",
      "370C",
      "370C",
      "370C",
      "370C",
      "370C",
      "370C",
      "370C",
      "370C",
      "370C",
      "370C",
      "370C",
      "370C",
      "370C",
      "370C",
      "370C",
      "370C",
      "370C",
      "370C",
      "370C",
      "370C",
      "370C",
      "370C",
      "370C",
      "370C",
      "370C",
      "370C",
      "370C",
      "370C",
      "370C",
      "370C",
      "370C",
      "370C",
      "370C",
      "370C",
      "370C",
      "370C",
      "370C",
      "370C",
      "370C",
      "370C",
      "370C",
      "370C",
      "370C",
      "370C",
      "370C",
      "370C",
      "370C",
      "370C",
      "370C",
      "370C",
      "370C",
      "370C",
      "370C",
      "370C",
      "370C",
      "370C",
      "370C",
      "370C",
      "370C",
      "370C",
      "370C",
      "370C",
      "370C",
      "370C",
      "370C",
      "370C",
      "370C",
      "370C",
      "370C",
      "370C",
      "370C",
      "370C",
      "370C",
      "370C",
      "370C",
      "370C",
      "370C",
      "370C",
      "370C",
      "370C",
      "370C",
      "370C",
      "370C",
      "370C",
      "370C",
      "370C",
      "370C",
      "370C",
      "370C",
      "370C",
      "370C",
      "370C",
      "370C",
      "370C",
      "370C",
      "370C",
      "370C",
      "370C",
      "370C",
      "370C",
      "370C",
      "370C",
      "370C",
      "370C",
      "370C",
      "370C",
      "370C",
      "370C",
      "370C",
      "370C",
      "370C",
      "370C",
      "370C",
      "370C",
      "370C",
      "370C",
      "370C",
      "370C",
      "370C",
      "370C",
      "370C",
      "370C",
      "370C",
      "370C",
      "370C",
      "370C",
      "370C",
      "370C",
      "370C",
      "370C",
      "370C",
      "370C",
      "370C",
      "370C",
      "370C",
      "370C",
      "370C",
      "370C",
      "370C",
      "370C",
      "370C",
      "370C",
      "370C",
      "370C",
      "370C",
      "370C",
      "370C",
      "370C",
      "370C",
      "370C",
      "370C",
      "370C",
      "370C",
      "370C",
      "370C",
      "370C",
      "370C",
      "370C",
      "370C",
      "370C",
      "370C",
      "370C",
      "370C",
      "370C",
      "370C",
      "370C",
      "370C",
      "370C",
      "370C",
      "370C",
      "370C",
      "370C",
      "370C",
      "370C",
      "370C",
      "370C",
      "370C",
      "370C",
      "370C",
      "370C",
      "370C",
      "370C",
      "370C",
      "370C",
      "370C",
      "370C",
      "370C",
      "370C",
      "370C",
      "370C",
      "370C",
      "370C",
      "370C",
      "370C",
      "370C",
      "370C",
      "370C",
      "370C",
      "370C",
      "370C",
      "370C",
      "370C",
      "370C",
      "370C",
      "370C",
      "370C",
      "370C",
      "370C",
      "370C",
      "370C",
      "370C",
      "370C",
      "370C",
      "370C",
      "370C",
      "370C",
      "370C",
      "370C",
      "370C",
      "370C",
      "370C",
      "370C",
      "370C",
      "370C",
      "370C",
      "370C",
      "370C",
      "370C",
      "370C",
      "370C",
      "370C",
      "370C",
      "370C",
      "370C",
      "370C",
      "370C",
      "370C",
      "370C",
      "370C",
      "370C",
      "370C",
      "370C",
      "370C",
      "370C",
      "370C",
      "370C",
      "370C",
      "370C",
      "370C",
      "370C",
      "370C",
      "370C",
      "370C",
      "370C",
      "370C",
      "370C",
      "370C",
      "370C",
      "370C",
      "370C",
      "370C",
      "370C",
      "370C",
      "370C",
      "370C",
      "370C",
      "370C",
      "370",
      "370",
      "370",
      "370",
      "370",
      "370",
      "369",
      "369",
      "364",
      "364",
      "364",
      "353",
      "326",
      "326",
      "322",
      "322",
      "322",
      "308",
      "308",
      "305",
      "305",
      "305",
      "259",
      "259",
      "244",
      "244",
      "244",
      "229",
      "229",
      "229",
      "215",
      "215",
      "215",
      "212",
      "200",
      "200",
      "200",
      "200",
      "200",
      "172",
      "172",
      "172",
      "172",
      "142",
      "142",
      "142",
      "142",
      "142",
      "142",
      "108",
      "108",
      "108",
      "100",
      "100",
      "088",
      "088",
      "088",
      "088",
      "088",
      "070C",
      "070",
      "070",
      "070",
      "070C",
      "070C",
      "060",
      "060",
      "060",
      "051",
      "050",
      "050",
      "050",
      "050",
      "050",
      "050",
      "044",
      "044",
      "044",
      "044",
      "044",
      "022",
      "022",
      "020",
      "020",
      "019",
      "019",
      "019",
      "004",
      "002",
      "001",
      "001",
      "001"
    ],
    "swim:geom": "path",
    "swim:speeds": [
      167,
      167,
      234,
      234,
      234,
      234,
      234,
      234,
      271,
      271,
      271,
      287,
      287,
      344,
      344,
      344,
      344,
      344,
      344,
      367,
      367,
      367,
      367,
      367,
      367,
      408,
      408,
      408,
      408,
      407,
      407,
      422,
      422,
      433,
      433,
      433,
      438,
      438,
      438,
      459,
      459,
      459,
      484,
      484,
      484,
      484,
      486,
      486,
      486,
      486,
      486,
      496,
      496,
      496,
      496,
      495,
      495,
      495,
      496,
      496,
      496,
      496,
      508,
      508,
      508,
      510,
      510,
      510,
      510,
      510,
      505,
      505,
      505,
      505,
      505,
      505,
      505,
      517,
      517,
      517,
      517,
      522,
      522,
      522,
      522,
      528,
      528,
      528,
      529,
      533,
      533,
      533,
      533,
      543,
      544,
      544,
      544,
      544,
      544,
      544,
      544,
      545,
      544,
      544,
      531,
      531,
      531,
      531,
      531,
      531,
      531,
      517,
      517,
      517,
      517,
      517,
      517,
      517,
      517,
      526,
      526,
      526,
      526,
      526,
      521,
      521,
      521,
      521,
      521,
      540,
      540,
      540,
      540,
      540,
      540,
      540,
      537,
      537,
      537,
      537,
      537,
      537,
      535,
      535,
      535,
      535,
      535,
      535,
      535,
      535,
      535,
      535,
      533,
      533,
      533,
      533,
      530,
      530,
      530,
      525,
      525,
      525,
      524,
      524,
      524,
      524,
      524,
      524,
      524,
      523,
      523,
      523,
      524,
      524,
      526,
      526,
      528,
      529,
      529,
      529,
      529,
      529,
      529,
      529,
      529,
      530,
      530,
      535,
      537,
      537,
      537,
      537,
      537,
      537,
      533,
      533,
      533,
      533,
      533,
      533,
      533,
      533,
      533,
      533,
      533,
      533,
      533,
      533,
      533,
      533,
      532,
      532,
      533,
      533,
      526,
      525,
      525,
      525,
      525,
      517,
      517,
      517,
      517,
      516,
      516,
      516,
      517,
      517,
      517,
      517,
      522,
      522,
      522,
      522,
      527,
      527,
      527,
      527,
      530,
      530,
      530,
      530,
      531,
      531,
      531,
      533,
      533,
      533,
      535,
      535,
      535,
      535,
      535,
      535,
      536,
      536,
      536,
      536,
      536,
      536,
      539,
      539,
      541,
      541,
      541,
      541,
      541,
      542,
      542,
      542,
      542,
      542,
      541,
      541,
      541,
      541,
      541,
      541,
      541,
      542,
      542,
      542,
      544,
      544,
      544,
      544,
      544,
      544,
      544,
      547,
      547,
      546,
      546,
      546,
      546,
      545,
      545,
      545,
      545,
      545,
      545,
      545,
      545,
      547,
      547,
      547,
      547,
      547,
      547,
      547,
      547,
      547,
      547,
      545,
      545,
      545,
      545,
      545,
      545,
      544,
      544,
      544,
      544,
      541,
      540,
      540,
      539,
      539,
      539,
      539,
      538,
      538,
      538,
      538,
      538,
      538,
      538,
      538,
      538,
      538,
      538,
      538,
      538,
      538,
      538,
      538,
      538,
      538,
      542,
      542,
      548,
      548,
      548,
      548,
      549,
      549,
      550,
      550,
      551,
      551,
      551,
      551,
      551,
      551,
      551,
      551,
      551,
      551,
      551,
      552,
      552,
      553,
      553,
      553,
      553,
      553,
      553,
      553,
      553,
      553,
      551,
      551,
      551,
      551,
      551,
      550,
      550,
      550,
      550,
      549,
      549,
      548,
      548,
      548,
      548,
      546,
      546,
      546,
      544,
      544,
      544,
      544,
      542,
      542,
      542,
      542,
      542,
      542,
      542,
      535,
      535,
      535,
      537,
      537,
      537,
      534,
      534,
      533,
      533,
      533,
      533,
      533,
      533,
      533,
      533,
      533,
      532,
      532,
      532,
      532,
      532,
      532,
      532,
      532,
      532,
      532,
      532,
      532,
      534,
      534,
      535,
      535,
      535,
      535,
      536,
      536,
      536,
      536,
      536,
      538,
      538,
      540,
      540,
      540,
      540,
      540,
      542,
      542,
      542,
      542,
      544,
      544,
      544,
      544,
      540,
      540,
      540,
      540,
      535,
      535,
      535,
      535,
      532,
      532,
      532,
      532,
      526,
      526,
      526,
      526,
      526,
      526,
      534,
      534,
      534,
      534,
      536,
      541,
      541,
      541,
      541,
      541,
      541,
      541,
      541,
      540,
      540,
      540,
      536,
      536,
      534,
      534,
      534,
      534,
      534,
      534,
      533,
      533,
      533,
      533,
      532,
      532,
      532,
      532,
      531,
      531,
      531,
      533,
      530,
      530,
      532,
      532,
      532,
      532,
      530,
      530,
      530,
      530,
      529,
      529,
      529,
      529,
      545,
      545,
      544,
      544,
      544,
      551,
      551,
      551,
      551,
      551,
      487,
      487,
      493,
      493,
      493,
      478,
      478,
      478,
      464,
      464,
      464,
      465,
      464,
      464,
      464,
      464,
      464,
      432,
      432,
      432,
      432,
      405,
      405,
      405,
      405,
      405,
      405,
      377,
      377,
      377,
      313,
      313,
      309,
      309,
      309,
      309,
      309,
      286,
      277,
      277,
      277,
      281,
      281,
      280,
      280,
      280,
      272,
      277,
      277,
      274,
      274,
      274,
      274,
      262,
      262,
      262,
      262,
      262,
      202,
      202,
      199,
      199,
      188,
      188,
      188,
      141,
      144,
      144,
      144,
      144
    ],
    "swim:timestamps": [
      1771271404,
      1771271404,
      1771271499,
      1771271499,
      1771271499,
      1771271499,
      1771271499,
      1771271499,
      1771271559,
      1771271559,
      1771271559,
      1771271619,
      1771271619,
      1771271679,
      1771271679,
      1771271679,
      1771271679,
      1771271679,
      1771271679,
      1771271739,
      1771271739,
      1771271739,
      1771271739,
      1771271739,
      1771271739,
      1771271859,
      1771271859,
      1771271859,
      1771271859,
      1771272039,
      1771272039,
      1771272099,
      1771272099,
      1771272160,
      1771272160,
      1771272160,
      1771272230,
      1771272230,
      1771272230,
      1771272280,
      1771272280,
      1771272280,
      1771272460,
      1771272460,
      1771272460,
      1771272460,
      1771272530,
      1771272530,
      1771272530,
      1771272530,
      1771272530,
      1771272640,
      1771272640,
      1771272640,
      1771272640,
      1771272710,
      1771272710,
      1771272710,
      1771272760,
      1771272760,
      1771272760,
      1771272760,
      1771273061,
      1771273061,
      1771273061,
      1771273071,
      1771273071,
      1771273071,
      1771273071,
      1771273071,
      1771273241,
      1771273241,
      1771273241,
      1771273241,
      1771273241,
      1771273241,
      1771273241,
      1771273361,
      1771273361,
      1771273361,
      1771273361,
      1771273431,
      1771273431,
      1771273431,
      1771273431,
      1771273541,
      1771273541,
      1771273541,
      1771273551,
      1771273611,
      1771273611,
      1771273611,
      1771273611,
      1771273721,
      1771273732,
      1771273732,
      1771273732,
      1771273732,
      1771273781,
      1771273781,
      1771273781,
      1771273792,
      1771273852,
      1771273852,
      1771273972,
      1771273972,
      1771273972,
      1771273972,
      1771273972,
      1771273972,
      1771273972,
      1771274332,
      1771274332,
      1771274332,
      1771274332,
      1771274332,
      1771274332,
      1771274332,
      1771274332,
      1771274573,
      1771274573,
      1771274573,
      1771274573,
      1771274573,
      1771274693,
      1771274693,
      1771274693,
      1771274693,
      1771274693,
      1771274813,
      1771274813,
      1771274813,
      1771274813,
      1771274813,
      1771274813,
      1771274813,
      1771275234,
      1771275234,
      1771275234,
      1771275234,
      1771275234,
      1771275234,
      1771275318,
      1771275378,
      1771275378,
      1771275378,
      1771275414,
      1771275414,
      1771275438,
      1771275438,
      1771275474,
      1771275474,
      1771275534,
      1771275534,
      1771275534,
      1771275534,
      1771275594,
      1771275594,
      1771275594,
      1771275714,
      1771275714,
      1771275714,
      1771275895,
      1771275895,
      1771275895,
      1771275918,
      1771275918,
      1771275978,
      1771275978,
      1771276075,
      1771276135,
      1771276135,
      1771276159,
      1771276159,
      1771276219,
      1771276219,
      1771276279,
      1771276315,
      1771276315,
      1771276315,
      1771276315,
      1771276375,
      1771276375,
      1771276375,
      1771276399,
      1771276459,
      1771276459,
      1771276519,
      1771276579,
      1771276579,
      1771276639,
      1771276639,
      1771276639,
      1771276639,
      1771276820,
      1771276820,
      1771276820,
      1771276820,
      1771276940,
      1771276940,
      1771276940,
      1771276940,
      1771277000,
      1771277000,
      1771277000,
      1771277060,
      1771277060,
      1771277120,
      1771277120,
      1771277120,
      1771277240,
      1771277240,
      1771277300,
      1771277300,
      1771277360,
      1771277420,
      1771277420,
      1771277420,
      1771277420,
      1771277541,
      1771277541,
      1771277541,
      1771277541,
      1771277601,
      1771277601,
      1771277601,
      1771277781,
      1771277781,
      1771277781,
      1771277781,
      1771277841,
      1771277841,
      1771277841,
      1771277841,
      1771277961,
      1771277961,
      1771277961,
      1771277961,
      1771278141,
      1771278141,
      1771278202,
      1771278202,
      1771278262,
      1771278262,
      1771278262,
      1771278322,
      1771278322,
      1771278322,
      1771278562,
      1771278562,
      1771278562,
      1771278562,
      1771278622,
      1771278622,
      1771278682,
      1771278682,
      1771278682,
      1771278682,
      1771278682,
      1771278682,
      1771278802,
      1771278802,
      1771278876,
      1771278983,
      1771278996,
      1771278996,
      1771279043,
      1771279056,
      1771279163,
      1771279163,
      1771279163,
      1771279176,
      1771279296,
      1771279343,
      1771279343,
      1771279343,
      1771279356,
      1771279356,
      1771279356,
      1771279597,
      1771279597,
      1771279597,
      1771279717,
      1771279717,
      1771279717,
      1771279717,
      1771279717,
      1771279717,
      1771279717,
      1771279897,
      1771279897,
      1771279957,
      1771279957,
      1771279957,
      1771279957,
      1771280077,
      1771280077,
      1771280077,
      1771280077,
      1771280137,
      1771280137,
      1771280137,
      1771280137,
      1771280498,
      1771280498,
      1771280498,
      1771280558,
      1771280558,
      1771280558,
      1771280602,
      1771280602,
      1771280602,
      1771280602,
      1771280723,
      1771280723,
      1771280783,
      1771280783,
      1771280783,
      1771280783,
      1771280858,
      1771280858,
      1771280858,
      1771280858,
      1771280903,
      1771280918,
      1771280918,
      1771280979,
      1771280979,
      1771280979,
      1771280979,
      1771281039,
      1771281039,
      1771281039,
      1771281159,
      1771281159,
      1771281159,
      1771281159,
      1771281203,
      1771281203,
      1771281219,
      1771281219,
      1771281263,
      1771281279,
      1771281279,
      1771281323,
      1771281323,
      1771281323,
      1771281323,
      1771281339,
      1771281339,
      1771281459,
      1771281459,
      1771281459,
      1771281459,
      1771281519,
      1771281519,
      1771281564,
      1771281564,
      1771281624,
      1771281624,
      1771281624,
      1771281639,
      1771281684,
      1771281684,
      1771281684,
      1771281684,
      1771281684,
      1771281700,
      1771281700,
      1771281744,
      1771281744,
      1771281804,
      1771281804,
      1771281864,
      1771281864,
      1771281924,
      1771281924,
      1771281984,
      1771281984,
      1771281984,
      1771282105,
      1771282105,
      1771282105,
      1771282105,
      1771282105,
      1771282225,
      1771282225,
      1771282225,
      1771282225,
      1771282285,
      1771282285,
      1771282345,
      1771282345,
      1771282345,
      1771282345,
      1771282465,
      1771282465,
      1771282465,
      1771282525,
      1771282525,
      1771282525,
      1771282525,
      1771282645,
      1771282645,
      1771282645,
      1771282645,
      1771282645,
      1771282645,
      1771282645,
      1771282946,
      1771282946,
      1771282946,
      1771282960,
      1771282960,
      1771282960,
      1771283006,
      1771283006,
      1771283020,
      1771283020,
      1771283020,
      1771283066,
      1771283066,
      1771283066,
      1771283066,
      1771283066,
      1771283066,
      1771283186,
      1771283186,
      1771283186,
      1771283260,
      1771283260,
      1771283260,
      1771283260,
      1771283366,
      1771283366,
      1771283366,
      1771283366,
      1771283366,
      1771283441,
      1771283441,
      1771283486,
      1771283486,
      1771283486,
      1771283486,
      1771283561,
      1771283561,
      1771283561,
      1771283607,
      1771283607,
      1771283681,
      1771283681,
      1771283741,
      1771283741,
      1771283741,
      1771283741,
      1771283741,
      1771283801,
      1771283801,
      1771283801,
      1771283801,
      1771283861,
      1771283861,
      1771283861,
      1771283861,
      1771284102,
      1771284102,
      1771284102,
      1771284102,
      1771284162,
      1771284162,
      1771284162,
      1771284162,
      1771284222,
      1771284222,
      1771284222,
      1771284222,
      1771284342,
      1771284342,
      1771284342,
      1771284342,
      1771284402,
      1771284402,
      1771284509,
      1771284509,
      1771284509,
      1771284509,
      1771284522,
      1771284642,
      1771284642,
      1771284642,
      1771284642,
      1771284642,
      1771284642,
      1771284703,
      1771284703,
      1771284810,
      1771284810,
      1771284810,
      1771284883,
      1771284883,
      1771284943,
      1771284943,
      1771284943,
      1771284943,
      1771284943,
      1771284943,
      1771285003,
      1771285003,
      1771285003,
      1771285003,
      1771285110,
      1771285110,
      1771285230,
      1771285230,
      1771285243,
      1771285243,
      1771285243,
      1771285290,
      1771285303,
      1771285303,
      1771285350,
      1771285350,
      1771285350,
      1771285350,
      1771285364,
      1771285364,
      1771285470,
      1771285470,
      1771285484,
      1771285484,
      1771285484,
      1771285531,
      1771285651,
      1771285651,
      1771285664,
      1771285664,
      1771285664,
      1771285711,
      1771285711,
      1771285724,
      1771285724,
      1771285724,
      1771285904,
      1771285904,
      1771285965,
      1771285965,
      1771285965,
      1771286025,
      1771286025,
      1771286025,
      1771286071,
      1771286071,
      1771286071,
      1771286085,
      1771286145,
      1771286145,
      1771286145,
      1771286145,
      1771286145,
      1771286252,
      1771286252,
      1771286252,
      1771286252,
      1771286372,
      1771286372,
      1771286372,
      1771286372,
      1771286372,
      1771286372,
      1771286537,
      1771286537,
      1771286537,
      1771286612,
      1771286612,
      1771286658,
      1771286658,
      1771286658,
      1771286658,
      1771286658,
      1771286792,
      1771286838,
      1771286838,
      1771286838,
      1771286853,
      1771286853,
      1771287024,
      1771287024,
      1771287024,
      1771287084,
      1771287093,
      1771287093,
      1771287153,
      1771287153,
      1771287213,
      1771287213,
      1771287324,
      1771287324,
      1771287324,
      1771287324,
      1771287324,
      1771287558,
      1771287558,
      1771287574,
      1771287574,
      1771287634,
      1771287634,
      1771287634,
      1771287739,
      1771287754,
      1771287814,
      1771287814,
      1771287814
    ],
    "wof:geomhash": "c6b9444b50cead9d5712a73bd9f00f21",
    "wof:id": 2014811773,
    "wof:repo": "sfomuseum-data-flights-2026-02"
  },
  "bbox": [
    -122.35,
    37.65,
    -74.15805555555556,
    41.95388888888889
  ],
  "geometry": {"coordinates":[[-122.35,37.65],[-122.35,37.65],[-122.26555555555555,37.69083333333333],[-122.26555555555555,37.69083333333333],[-122.26555555555555,37.69083333333333],[-122.26555555555555,37.69083333333333],[-122.26555555555555,37.69083333333333],[-122.26555555555555,37.69083333333333],[-122.18861111111111,37.73111111111111],[-122.18861111111111,37.73111111111111],[-122.18861111111111,37.73111111111111],[-122.10333333333332,37.775555555555556],[-122.10333333333332,37.775555555555556],[-122.00888888888889,37.82416666666667],[-122.00888888888889,37.82416666666667],[-122.00888888888889,37.82416666666667],[-122.00888888888889,37.82416666666667],[-122.00888888888889,37.82416666666667],[-122.00888888888889,37.82416666666667],[-121.89527777777778,37.87027777777778],[-121.89527777777778,37.87027777777778],[-121.89527777777778,37.87027777777778],[-121.89527777777778,37.87027777777778],[-121.89527777777778,37.87027777777778],[-121.89527777777778,37.87027777777778],[-121.63972222222223,37.970555555555556],[-121.63972222222223,37.970555555555556],[-121.63972222222223,37.970555555555556],[-121.63972222222223,37.970555555555556],[-121.23055555555555,38.053888888888885],[-121.23055555555555,38.053888888888885],[-121.08694444444444,38.08416666666667],[-121.08694444444444,38.08416666666667],[-120.94027777777778,38.11388888888889],[-120.94027777777778,38.11388888888889],[-120.94027777777778,38.11388888888889],[-120.77333333333333,38.144999999999996],[-120.77333333333333,38.144999999999996],[-120.77333333333333,38.144999999999996],[-120.6325,38.17111111111111],[-120.6325,38.17111111111111],[-120.6325,38.17111111111111],[-120.13583333333334,38.263333333333335],[-120.13583333333334,38.263333333333335],[-120.13583333333334,38.263333333333335],[-120.13583333333334,38.263333333333335],[-119.94888888888889,38.29555555555555],[-119.94888888888889,38.29555555555555],[-119.94888888888889,38.29555555555555],[-119.94888888888889,38.29555555555555],[-119.94888888888889,38.29555555555555],[-119.62722222222222,38.355000000000004],[-119.62722222222222,38.355000000000004],[-119.62722222222222,38.355000000000004],[-119.62722222222222,38.355000000000004],[-119.4375,38.3875],[-119.4375,38.3875],[-119.4375,38.3875],[-119.29944444444445,38.4125],[-119.29944444444445,38.4125],[-119.29944444444445,38.4125],[-119.29944444444445,38.4125],[-118.39916666666667,38.566111111111105],[-118.39916666666667,38.566111111111105],[-118.39916666666667,38.566111111111105],[-118.38583333333334,38.568333333333335],[-118.38583333333334,38.568333333333335],[-118.38583333333334,38.568333333333335],[-118.38583333333334,38.568333333333335],[-118.38583333333334,38.568333333333335],[-117.87527777777777,38.651666666666664],[-117.87527777777777,38.651666666666664],[-117.87527777777777,38.651666666666664],[-117.87527777777777,38.651666666666664],[-117.87527777777777,38.651666666666664],[-117.87527777777777,38.651666666666664],[-117.87527777777777,38.651666666666664],[-117.52777777777777,38.70722222222223],[-117.52777777777777,38.70722222222223],[-117.52777777777777,38.70722222222223],[-117.52777777777777,38.70722222222223],[-117.30777777777777,38.74194444444444],[-117.30777777777777,38.74194444444444],[-117.30777777777777,38.74194444444444],[-117.30777777777777,38.74194444444444],[-116.97055555555556,38.79416666666666],[-116.97055555555556,38.79416666666666],[-116.97055555555556,38.79416666666666],[-116.93694444444445,38.799166666666665],[-116.74833333333333,38.82777777777778],[-116.74833333333333,38.82777777777778],[-116.74833333333333,38.82777777777778],[-116.74833333333333,38.82777777777778],[-116.40138888888889,38.87972222222222],[-116.36527777777778,38.885],[-116.36527777777778,38.885],[-116.36527777777778,38.885],[-116.36527777777778,38.885],[-116.23333333333333,38.904444444444444],[-116.23333333333333,38.904444444444444],[-116.23333333333333,38.904444444444444],[-116.17555555555556,38.91277777777778],[-115.98194444444445,38.94083333333333],[-115.98194444444445,38.94083333333333],[-115.6061111111111,38.994166666666665],[-115.6061111111111,38.994166666666665],[-115.6061111111111,38.994166666666665],[-115.6061111111111,38.994166666666665],[-115.6061111111111,38.994166666666665],[-115.6061111111111,38.994166666666665],[-115.6061111111111,38.994166666666665],[-114.53916666666666,39.138888888888886],[-114.53916666666666,39.138888888888886],[-114.53916666666666,39.138888888888886],[-114.53916666666666,39.138888888888886],[-114.53916666666666,39.138888888888886],[-114.53916666666666,39.138888888888886],[-114.53916666666666,39.138888888888886],[-114.53916666666666,39.138888888888886],[-113.7961111111111,39.23361111111111],[-113.7961111111111,39.23361111111111],[-113.7961111111111,39.23361111111111],[-113.7961111111111,39.23361111111111],[-113.7961111111111,39.23361111111111],[-113.42611111111111,39.278888888888886],[-113.42611111111111,39.278888888888886],[-113.42611111111111,39.278888888888886],[-113.42611111111111,39.278888888888886],[-113.42611111111111,39.278888888888886],[-113.05083333333333,39.333333333333336],[-113.05083333333333,39.333333333333336],[-113.05083333333333,39.333333333333336],[-113.05083333333333,39.333333333333336],[-113.05083333333333,39.333333333333336],[-113.05083333333333,39.333333333333336],[-113.05083333333333,39.333333333333336],[-111.72194444444445,39.590833333333336],[-111.72194444444445,39.590833333333336],[-111.72194444444445,39.590833333333336],[-111.72194444444445,39.590833333333336],[-111.72194444444445,39.590833333333336],[-111.72194444444445,39.590833333333336],[-111.49333333333334,39.64694444444444],[-111.31055555555555,39.69138888888889],[-111.31055555555555,39.69138888888889],[-111.31055555555555,39.69138888888889],[-111.20666666666666,39.71666666666667],[-111.20666666666666,39.71666666666667],[-111.12555555555555,39.736111111111114],[-111.12555555555555,39.736111111111114],[-111.01444444444445,39.7625],[-111.01444444444445,39.7625],[-110.83361111111111,39.80555555555555],[-110.83361111111111,39.80555555555555],[-110.83361111111111,39.80555555555555],[-110.83361111111111,39.80555555555555],[-110.65194444444445,39.84861111111111],[-110.65194444444445,39.84861111111111],[-110.65194444444445,39.84861111111111],[-110.28861111111111,39.93333333333333],[-110.28861111111111,39.93333333333333],[-110.28861111111111,39.93333333333333],[-109.74,40.05333333333333],[-109.74,40.05333333333333],[-109.74,40.05333333333333],[-109.6675,40.06777777777778],[-109.6675,40.06777777777778],[-109.48305555555555,40.105000000000004],[-109.48305555555555,40.105000000000004],[-109.18805555555556,40.163888888888884],[-109.00083333333333,40.20111111111111],[-109.00083333333333,40.20111111111111],[-108.92916666666667,40.215],[-108.92916666666667,40.215],[-108.73944444444444,40.25194444444445],[-108.73944444444444,40.25194444444445],[-108.55222222222221,40.28805555555555],[-108.43416666666667,40.31083333333333],[-108.43416666666667,40.31083333333333],[-108.43416666666667,40.31083333333333],[-108.43416666666667,40.31083333333333],[-108.24916666666667,40.34527777777778],[-108.24916666666667,40.34527777777778],[-108.24916666666667,40.34527777777778],[-108.18444444444445,40.35805555555556],[-107.96277777777777,40.39972222222222],[-107.96277777777777,40.39972222222222],[-107.77444444444444,40.43444444444444],[-107.58638888888889,40.46888888888889],[-107.58638888888889,40.46888888888889],[-107.39916666666667,40.503055555555555],[-107.39916666666667,40.503055555555555],[-107.39916666666667,40.503055555555555],[-107.39916666666667,40.503055555555555],[-106.82916666666667,40.584722222222226],[-106.82916666666667,40.584722222222226],[-106.82916666666667,40.584722222222226],[-106.82916666666667,40.584722222222226],[-106.46166666666667,40.63388888888889],[-106.46166666666667,40.63388888888889],[-106.46166666666667,40.63388888888889],[-106.46166666666667,40.63388888888889],[-106.27083333333333,40.65888888888889],[-106.27083333333333,40.65888888888889],[-106.27083333333333,40.65888888888889],[-106.08999999999999,40.6825],[-106.08999999999999,40.6825],[-105.89611111111111,40.706944444444446],[-105.89611111111111,40.706944444444446],[-105.89611111111111,40.706944444444446],[-105.51194444444444,40.75472222222222],[-105.51194444444444,40.75472222222222],[-105.31777777777778,40.77194444444444],[-105.31777777777778,40.77194444444444],[-105.1261111111111,40.78666666666666],[-104.93277777777779,40.80222222222222],[-104.93277777777779,40.80222222222222],[-104.93277777777779,40.80222222222222],[-104.93277777777779,40.80222222222222],[-104.55722222222222,40.83222222222223],[-104.55722222222222,40.83222222222223],[-104.55722222222222,40.83222222222223],[-104.55722222222222,40.83222222222223],[-104.36833333333333,40.84666666666667],[-104.36833333333333,40.84666666666667],[-104.36833333333333,40.84666666666667],[-103.80305555555556,40.88777777777778],[-103.80305555555556,40.88777777777778],[-103.80305555555556,40.88777777777778],[-103.80305555555556,40.88777777777778],[-103.61194444444443,40.90083333333333],[-103.61194444444443,40.90083333333333],[-103.61194444444443,40.90083333333333],[-103.61194444444443,40.90083333333333],[-103.22472222222223,40.926944444444445],[-103.22472222222223,40.926944444444445],[-103.22472222222223,40.926944444444445],[-103.22472222222223,40.926944444444445],[-102.64361111111111,40.963055555555556],[-102.64361111111111,40.963055555555556],[-102.44833333333334,40.974722222222226],[-102.44833333333334,40.974722222222226],[-102.25277777777778,40.98583333333333],[-102.25277777777778,40.98583333333333],[-102.25277777777778,40.98583333333333],[-102.05805555555555,40.99666666666667],[-102.05805555555555,40.99666666666667],[-102.05805555555555,40.99666666666667],[-101.27,41.03],[-101.27,41.03],[-101.27,41.03],[-101.27,41.03],[-101.07249999999999,41.03722222222222],[-101.07249999999999,41.03722222222222],[-100.87222222222222,41.044444444444444],[-100.87222222222222,41.044444444444444],[-100.87222222222222,41.044444444444444],[-100.87222222222222,41.044444444444444],[-100.87222222222222,41.044444444444444],[-100.87222222222222,41.044444444444444],[-100.47083333333333,41.06083333333333],[-100.47083333333333,41.06083333333333],[-100.2325,41.071111111111115],[-99.87222222222222,41.08527777777778],[-99.82916666666667,41.08694444444445],[-99.82916666666667,41.08694444444445],[-99.67111111111112,41.0925],[-99.63027777777778,41.09388888888889],[-99.27166666666666,41.10638888888889],[-99.27166666666666,41.10638888888889],[-99.27166666666666,41.10638888888889],[-99.22972222222222,41.10777777777778],[-98.82805555555555,41.12],[-98.69305555555556,41.12361111111111],[-98.69305555555556,41.12361111111111],[-98.69305555555556,41.12361111111111],[-98.62805555555555,41.12555555555556],[-98.62805555555555,41.12555555555556],[-98.62805555555555,41.12555555555556],[-97.81388888888888,41.144444444444446],[-97.81388888888888,41.144444444444446],[-97.81388888888888,41.144444444444446],[-97.41194444444444,41.151944444444446],[-97.41194444444444,41.151944444444446],[-97.41194444444444,41.151944444444446],[-97.41194444444444,41.151944444444446],[-97.41194444444444,41.151944444444446],[-97.41194444444444,41.151944444444446],[-97.41194444444444,41.151944444444446],[-96.82722222222222,41.16],[-96.82722222222222,41.16],[-96.63166666666666,41.180277777777775],[-96.63166666666666,41.180277777777775],[-96.63166666666666,41.180277777777775],[-96.63166666666666,41.180277777777775],[-96.21416666666667,41.22833333333333],[-96.21416666666667,41.22833333333333],[-96.21416666666667,41.22833333333333],[-96.21416666666667,41.22833333333333],[-96.01583333333333,41.248333333333335],[-96.01583333333333,41.248333333333335],[-96.01583333333333,41.248333333333335],[-96.01583333333333,41.248333333333335],[-94.81166666666667,41.375],[-94.81166666666667,41.375],[-94.81166666666667,41.375],[-94.6125,41.394999999999996],[-94.6125,41.394999999999996],[-94.6125,41.394999999999996],[-94.48305555555555,41.408055555555556],[-94.48305555555555,41.408055555555556],[-94.48305555555555,41.408055555555556],[-94.48305555555555,41.408055555555556],[-94.08527777777778,41.44694444444444],[-94.08527777777778,41.44694444444444],[-93.88583333333334,41.46611111111111],[-93.88583333333334,41.46611111111111],[-93.88583333333334,41.46611111111111],[-93.88583333333334,41.46611111111111],[-93.64361111111111,41.48861111111111],[-93.64361111111111,41.48861111111111],[-93.64361111111111,41.48861111111111],[-93.64361111111111,41.48861111111111],[-93.4888888888889,41.5125],[-93.4475,41.52111111111111],[-93.4475,41.52111111111111],[-93.25777777777778,41.55972222222222],[-93.25777777777778,41.55972222222222],[-93.25777777777778,41.55972222222222],[-93.25777777777778,41.55972222222222],[-93.06222222222222,41.6],[-93.06222222222222,41.6],[-93.06222222222222,41.6],[-92.65416666666667,41.683055555555555],[-92.65416666666667,41.683055555555555],[-92.65416666666667,41.683055555555555],[-92.65416666666667,41.683055555555555],[-92.54027777777777,41.70611111111111],[-92.54027777777777,41.70611111111111],[-92.46138888888889,41.722500000000004],[-92.46138888888889,41.722500000000004],[-92.34833333333333,41.74527777777778],[-92.26972222222223,41.76111111111111],[-92.26972222222223,41.76111111111111],[-92.15305555555557,41.782222222222224],[-92.15305555555557,41.782222222222224],[-92.15305555555557,41.782222222222224],[-92.15305555555557,41.782222222222224],[-92.07333333333332,41.79222222222222],[-92.07333333333332,41.79222222222222],[-91.67,41.816944444444445],[-91.67,41.816944444444445],[-91.67,41.816944444444445],[-91.67,41.816944444444445],[-91.46833333333333,41.827222222222225],[-91.46833333333333,41.827222222222225],[-91.30333333333333,41.834722222222226],[-91.30333333333333,41.834722222222226],[-91.10111111111111,41.843611111111116],[-91.10111111111111,41.843611111111116],[-91.10111111111111,41.843611111111116],[-91.05916666666667,41.845555555555556],[-90.8963888888889,41.852222222222224],[-90.8963888888889,41.852222222222224],[-90.8963888888889,41.852222222222224],[-90.8963888888889,41.852222222222224],[-90.8963888888889,41.852222222222224],[-90.85444444444444,41.85388888888889],[-90.85444444444444,41.85388888888889],[-90.69027777777778,41.86083333333333],[-90.69027777777778,41.86083333333333],[-90.48777777777778,41.868611111111115],[-90.48777777777778,41.868611111111115],[-90.28138888888888,41.876666666666665],[-90.28138888888888,41.876666666666665],[-90.07555555555555,41.88388888888889],[-90.07555555555555,41.88388888888889],[-89.87305555555555,41.89083333333333],[-89.87305555555555,41.89083333333333],[-89.87305555555555,41.89083333333333],[-89.48583333333333,41.903055555555554],[-89.48583333333333,41.903055555555554],[-89.48583333333333,41.903055555555554],[-89.48583333333333,41.903055555555554],[-89.48583333333333,41.903055555555554],[-89.07722222222222,41.91444444444444],[-89.07722222222222,41.91444444444444],[-89.07722222222222,41.91444444444444],[-89.07722222222222,41.91444444444444],[-88.87166666666666,41.91972222222222],[-88.87166666666666,41.91972222222222],[-88.66611111111112,41.92444444444444],[-88.66611111111112,41.92444444444444],[-88.66611111111112,41.92444444444444],[-88.66611111111112,41.92444444444444],[-88.26,41.933055555555555],[-88.26,41.933055555555555],[-88.26,41.933055555555555],[-88.05388888888889,41.93666666666666],[-88.05388888888889,41.93666666666666],[-88.05388888888889,41.93666666666666],[-88.05388888888889,41.93666666666666],[-87.65,41.94305555555555],[-87.65,41.94305555555555],[-87.65,41.94305555555555],[-87.65,41.94305555555555],[-87.65,41.94305555555555],[-87.65,41.94305555555555],[-87.65,41.94305555555555],[-86.65083333333334,41.9525],[-86.65083333333334,41.9525],[-86.65083333333334,41.9525],[-86.61083333333333,41.9525],[-86.61083333333333,41.9525],[-86.61083333333333,41.9525],[-86.45194444444445,41.95333333333333],[-86.45194444444445,41.95333333333333],[-86.4075,41.953611111111115],[-86.4075,41.953611111111115],[-86.4075,41.953611111111115],[-86.25305555555556,41.95388888888889],[-86.25305555555556,41.95388888888889],[-86.25305555555556,41.95388888888889],[-86.25305555555556,41.95388888888889],[-86.25305555555556,41.95388888888889],[-86.25305555555556,41.95388888888889],[-85.85638888888889,41.95388888888889],[-85.85638888888889,41.95388888888889],[-85.85638888888889,41.95388888888889],[-85.61694444444444,41.95305555555556],[-85.61694444444444,41.95305555555556],[-85.61694444444444,41.95305555555556],[-85.61694444444444,41.95305555555556],[-85.2525,41.95111111111111],[-85.2525,41.95111111111111],[-85.2525,41.95111111111111],[-85.2525,41.95111111111111],[-85.2525,41.95111111111111],[-85.01722222222222,41.95027777777778],[-85.01722222222222,41.95027777777778],[-84.85277777777777,41.94972222222222],[-84.85277777777777,41.94972222222222],[-84.85277777777777,41.94972222222222],[-84.85277777777777,41.94972222222222],[-84.61305555555555,41.94833333333333],[-84.61305555555555,41.94833333333333],[-84.61305555555555,41.94833333333333],[-84.45,41.94694444444444],[-84.45,41.94694444444444],[-84.21527777777779,41.94472222222222],[-84.21527777777779,41.94472222222222],[-84.015,41.942499999999995],[-84.015,41.942499999999995],[-84.015,41.942499999999995],[-84.015,41.942499999999995],[-84.015,41.942499999999995],[-83.81361111111111,41.939722222222215],[-83.81361111111111,41.939722222222215],[-83.81361111111111,41.939722222222215],[-83.81361111111111,41.939722222222215],[-83.61333333333333,41.93666666666666],[-83.61333333333333,41.93666666666666],[-83.61333333333333,41.93666666666666],[-83.61333333333333,41.93666666666666],[-82.81416666666667,41.93083333333333],[-82.81416666666667,41.93083333333333],[-82.81416666666667,41.93083333333333],[-82.81416666666667,41.93083333333333],[-82.61333333333333,41.928888888888885],[-82.61333333333333,41.928888888888885],[-82.61333333333333,41.928888888888885],[-82.61333333333333,41.928888888888885],[-82.41583333333334,41.92638888888889],[-82.41583333333334,41.92638888888889],[-82.41583333333334,41.92638888888889],[-82.41583333333334,41.92638888888889],[-82.01527777777778,41.920833333333334],[-82.01527777777778,41.920833333333334],[-82.01527777777778,41.920833333333334],[-82.01527777777778,41.920833333333334],[-81.81694444444445,41.915277777777774],[-81.81694444444445,41.915277777777774],[-81.44666666666667,41.88444444444444],[-81.44666666666667,41.88444444444444],[-81.44666666666667,41.88444444444444],[-81.44666666666667,41.88444444444444],[-81.41861111111112,41.880833333333335],[-81.015,41.84305555555556],[-81.015,41.84305555555556],[-81.015,41.84305555555556],[-81.015,41.84305555555556],[-81.015,41.84305555555556],[-81.015,41.84305555555556],[-80.81361111111111,41.823888888888895],[-80.81361111111111,41.823888888888895],[-80.45,41.786944444444444],[-80.45,41.786944444444444],[-80.45,41.786944444444444],[-80.22,41.765],[-80.22,41.765],[-80.02416666666666,41.745],[-80.02416666666666,41.745],[-80.02416666666666,41.745],[-80.02416666666666,41.745],[-80.02416666666666,41.745],[-80.02416666666666,41.745],[-79.82694444444444,41.724444444444444],[-79.82694444444444,41.724444444444444],[-79.82694444444444,41.724444444444444],[-79.82694444444444,41.724444444444444],[-79.47083333333333,41.68611111111111],[-79.47083333333333,41.68611111111111],[-79.07388888888889,41.64222222222222],[-79.07388888888889,41.64222222222222],[-79.0411111111111,41.63861111111111],[-79.0411111111111,41.63861111111111],[-79.0411111111111,41.63861111111111],[-78.90722222222223,41.623333333333335],[-78.84416666666667,41.61611111111111],[-78.84416666666667,41.61611111111111],[-78.71611111111112,41.60138888888889],[-78.71611111111112,41.60138888888889],[-78.71611111111112,41.60138888888889],[-78.71611111111112,41.60138888888889],[-78.65,41.59388888888889],[-78.65,41.59388888888889],[-78.32972222222222,41.55611111111111],[-78.32972222222222,41.55611111111111],[-78.25833333333334,41.547777777777775],[-78.25833333333334,41.547777777777775],[-78.25833333333334,41.547777777777775],[-78.14,41.53333333333333],[-77.70972222222223,41.476111111111116],[-77.70972222222223,41.476111111111116],[-77.6713888888889,41.470555555555556],[-77.6713888888889,41.470555555555556],[-77.6713888888889,41.470555555555556],[-77.5075,41.446666666666665],[-77.5075,41.446666666666665],[-77.46694444444445,41.44083333333333],[-77.46694444444445,41.44083333333333],[-77.46694444444445,41.44083333333333],[-76.94361111111111,41.36388888888889],[-76.94361111111111,41.36388888888889],[-76.76722222222222,41.335],[-76.76722222222222,41.335],[-76.76722222222222,41.335],[-76.5975,41.291666666666664],[-76.5975,41.291666666666664],[-76.5975,41.291666666666664],[-76.44666666666667,41.25083333333333],[-76.44666666666667,41.25083333333333],[-76.44666666666667,41.25083333333333],[-76.40555555555557,41.23972222222222],[-76.27694444444444,41.20472222222222],[-76.27694444444444,41.20472222222222],[-76.27694444444444,41.20472222222222],[-76.27694444444444,41.20472222222222],[-76.27694444444444,41.20472222222222],[-75.97500000000001,41.1225],[-75.97500000000001,41.1225],[-75.97500000000001,41.1225],[-75.97500000000001,41.1225],[-75.68694444444445,41.04277777777778],[-75.68694444444445,41.04277777777778],[-75.68694444444445,41.04277777777778],[-75.68694444444445,41.04277777777778],[-75.68694444444445,41.04277777777778],[-75.68694444444445,41.04277777777778],[-75.31666666666666,40.93333333333333],[-75.31666666666666,40.93333333333333],[-75.31666666666666,40.93333333333333],[-75.17472222222223,40.899166666666666],[-75.17472222222223,40.899166666666666],[-75.08333333333333,40.86666666666667],[-75.08333333333333,40.86666666666667],[-75.08333333333333,40.86666666666667],[-75.08333333333333,40.86666666666667],[-75.08333333333333,40.86666666666667],[-74.86694444444444,40.82527777777778],[-74.78333333333333,40.85],[-74.78333333333333,40.85],[-74.78333333333333,40.85],[-74.77055555555556,40.86555555555556],[-74.77055555555556,40.86555555555556],[-74.53333333333333,40.88333333333333],[-74.53333333333333,40.88333333333333],[-74.53333333333333,40.88333333333333],[-74.53333333333333,40.81666666666667],[-74.52694444444444,40.79805555555556],[-74.52694444444444,40.79805555555556],[-74.51777777777778,40.723333333333336],[-74.51777777777778,40.723333333333336],[-74.50833333333334,40.64694444444444],[-74.50833333333334,40.64694444444444],[-74.48333333333333,40.5],[-74.48333333333333,40.5],[-74.48333333333333,40.5],[-74.48333333333333,40.5],[-74.48333333333333,40.5],[-74.26666666666667,40.53333333333333],[-74.26666666666667,40.53333333333333],[-74.25416666666666,40.55083333333333],[-74.25416666666666,40.55083333333333],[-74.22444444444444,40.59805555555556],[-74.22444444444444,40.59805555555556],[-74.22444444444444,40.59805555555556],[-74.18333333333334,40.666666666666664],[-74.1763888888889,40.67444444444444],[-74.15805555555556,40.70305555555556],[-74.15805555555556,40.70305555555556],[-74.15805555555556,40.70305555555556]],"type":"LineString"}
}
