{
  "id": 2014815797,
  "type": "Feature",
  "properties": {
    "geom:area": 0,
    "geom:bbox": "-122.321667,35.885833,-115.165556,37.683333",
    "geom:latitude": 37.11634440946911,
    "geom:longitude": -118.57808457539828,
    "src:alt_label": "swim-path",
    "src:geom": "swim",
    "swim:altitudes": [
      "031",
      "031",
      "080",
      "080",
      "085",
      "085",
      "110",
      "118",
      "118",
      "137",
      "220",
      "220",
      "220",
      "220",
      "243",
      "243",
      "243",
      "305",
      "305",
      "318",
      "318",
      "318",
      "325",
      "339C",
      "339C",
      "339C",
      "339C",
      "340C",
      "340C",
      "340C",
      "340C",
      "340C",
      "340C",
      "340C",
      "340C",
      "340C",
      "340C",
      "340C",
      "340C",
      "340C",
      "340C",
      "340C",
      "340C",
      "340C",
      "340C",
      "340C",
      "340C",
      "340C",
      "340C",
      "340C",
      "340C",
      "340C",
      "340",
      "340",
      "340",
      "340",
      "340",
      "340",
      "340",
      "340",
      "298",
      "298",
      "298",
      "295",
      "250",
      "228",
      "220",
      "220",
      "220",
      "200",
      "179",
      "179",
      "179",
      "161",
      "152",
      "152",
      "144",
      "144",
      "144",
      "116",
      "116",
      "110",
      "108",
      "102",
      "094",
      "094",
      "087",
      "085",
      "085",
      "068C",
      "068C",
      "063",
      "063",
      "063",
      "060",
      "060",
      "051",
      "047",
      "047",
      "033",
      "033",
      "029",
      "025",
      "017",
      "017",
      "010",
      "010",
      "007",
      "007",
      "007"
    ],
    "swim:geom": "path",
    "swim:speeds": [
      180,
      180,
      243,
      243,
      244,
      244,
      247,
      246,
      246,
      270,
      302,
      302,
      302,
      302,
      378,
      378,
      378,
      396,
      396,
      402,
      402,
      402,
      415,
      386,
      386,
      386,
      386,
      424,
      424,
      405,
      371,
      371,
      372,
      372,
      374,
      370,
      370,
      370,
      370,
      370,
      370,
      370,
      374,
      374,
      368,
      368,
      367,
      367,
      365,
      371,
      371,
      371,
      379,
      379,
      381,
      381,
      384,
      388,
      388,
      388,
      381,
      381,
      381,
      381,
      337,
      332,
      332,
      332,
      332,
      325,
      325,
      325,
      325,
      316,
      305,
      305,
      309,
      309,
      309,
      296,
      296,
      297,
      272,
      265,
      261,
      261,
      263,
      239,
      239,
      215,
      215,
      194,
      194,
      194,
      196,
      196,
      193,
      191,
      191,
      145,
      145,
      148,
      139,
      131,
      131,
      134,
      134,
      133,
      133,
      133
    ],
    "swim:timestamps": [
      1771386416,
      1771386416,
      1771386543,
      1771386543,
      1771386603,
      1771386603,
      1771386663,
      1771386723,
      1771386723,
      1771386783,
      1771386963,
      1771386963,
      1771386963,
      1771386963,
      1771387084,
      1771387084,
      1771387084,
      1771387324,
      1771387324,
      1771387388,
      1771387388,
      1771387388,
      1771387504,
      1771387624,
      1771387624,
      1771387624,
      1771387624,
      1771387925,
      1771387925,
      1771387989,
      1771388045,
      1771388045,
      1771388105,
      1771388105,
      1771388225,
      1771388349,
      1771388349,
      1771388349,
      1771388349,
      1771388646,
      1771388646,
      1771388646,
      1771388709,
      1771388709,
      1771388766,
      1771388766,
      1771388830,
      1771388830,
      1771388890,
      1771389010,
      1771389010,
      1771389010,
      1771389130,
      1771389130,
      1771389190,
      1771389190,
      1771389250,
      1771389310,
      1771389310,
      1771389310,
      1771389451,
      1771389451,
      1771389451,
      1771389457,
      1771389577,
      1771389637,
      1771389670,
      1771389670,
      1771389670,
      1771389730,
      1771389790,
      1771389790,
      1771389790,
      1771389850,
      1771389877,
      1771389877,
      1771389910,
      1771389910,
      1771389910,
      1771389997,
      1771389997,
      1771390030,
      1771390057,
      1771390090,
      1771390117,
      1771390117,
      1771390151,
      1771390177,
      1771390177,
      1771390271,
      1771390271,
      1771390297,
      1771390297,
      1771390297,
      1771390331,
      1771390331,
      1771390391,
      1771390417,
      1771390417,
      1771390537,
      1771390537,
      1771390571,
      1771390597,
      1771390657,
      1771390657,
      1771390717,
      1771390717,
      1771390751,
      1771390751,
      1771390751
    ],
    "wof:geomhash": "b46502cf3f6aa4f0dc05169ed7d68280",
    "wof:id": 2014815797,
    "wof:repo": "sfomuseum-data-flights-2026-02"
  },
  "bbox": [
    -122.32166666666666,
    35.88583333333333,
    -115.16555555555556,
    37.68333333333333
  ],
  "geometry": {"coordinates":[[-115.16555555555556,36.075833333333335],[-115.16555555555556,36.075833333333335],[-115.28277777777778,36.01861111111111],[-115.28277777777778,36.01861111111111],[-115.31722222222221,35.956944444444446],[-115.31722222222221,35.956944444444446],[-115.3586111111111,35.89611111111111],[-115.43944444444445,35.88583333333333],[-115.43944444444445,35.88583333333333],[-115.52916666666667,35.88805555555555],[-115.8386111111111,35.89388888888889],[-115.8386111111111,35.89388888888889],[-115.8386111111111,35.89388888888889],[-115.8386111111111,35.89388888888889],[-116.03027777777778,35.96944444444445],[-116.03027777777778,35.96944444444445],[-116.03027777777778,35.96944444444445],[-116.41305555555556,36.27833333333333],[-116.41305555555556,36.27833333333333],[-116.5225,36.36888888888889],[-116.5225,36.36888888888889],[-116.5225,36.36888888888889],[-116.7025,36.52444444444444],[-116.8825,36.68277777777777],[-116.8825,36.68277777777777],[-116.8825,36.68277777777777],[-116.8825,36.68277777777777],[-117.23444444444445,37.183055555555555],[-117.23444444444445,37.183055555555555],[-117.31222222222222,37.282222222222224],[-117.43833333333333,37.30888888888889],[-117.43833333333333,37.30888888888889],[-117.56583333333333,37.32777777777778],[-117.56583333333333,37.32777777777778],[-117.825,37.364444444444445],[-118.07916666666667,37.400277777777774],[-118.07916666666667,37.400277777777774],[-118.07916666666667,37.400277777777774],[-118.07916666666667,37.400277777777774],[-118.71722222222222,37.48722222222222],[-118.71722222222222,37.48722222222222],[-118.71722222222222,37.48722222222222],[-118.86027777777777,37.505833333333335],[-118.86027777777777,37.505833333333335],[-118.97583333333334,37.521388888888886],[-118.97583333333334,37.521388888888886],[-119.11388888888888,37.538888888888884],[-119.11388888888888,37.538888888888884],[-119.23666666666666,37.555277777777775],[-119.4925,37.587500000000006],[-119.4925,37.587500000000006],[-119.4925,37.587500000000006],[-119.74166666666667,37.618611111111115],[-119.74166666666667,37.618611111111115],[-119.87277777777777,37.635],[-119.87277777777777,37.635],[-120.00805555555556,37.651666666666664],[-120.14416666666668,37.668055555555554],[-120.14416666666668,37.668055555555554],[-120.14416666666668,37.668055555555554],[-120.48333333333333,37.68333333333333],[-120.48333333333333,37.68333333333333],[-120.48333333333333,37.68333333333333],[-120.5,37.68333333333333],[-120.75,37.666666666666664],[-120.86666666666666,37.65],[-120.90972222222223,37.63944444444444],[-120.90972222222223,37.63944444444444],[-120.90972222222223,37.63944444444444],[-121.02194444444444,37.625],[-121.13444444444445,37.61],[-121.13444444444445,37.61],[-121.13444444444445,37.61],[-121.24361111111111,37.59527777777778],[-121.3,37.583333333333336],[-121.3,37.583333333333336],[-121.35138888888888,37.5825],[-121.35138888888888,37.5825],[-121.35138888888888,37.5825],[-121.51666666666667,37.56666666666667],[-121.51666666666667,37.56666666666667],[-121.5586111111111,37.558611111111105],[-121.61666666666666,37.55],[-121.65166666666667,37.544444444444444],[-121.7,37.53333333333333],[-121.7,37.53333333333333],[-121.7388888888889,37.52361111111111],[-121.78333333333333,37.516666666666666],[-121.78333333333333,37.516666666666666],[-121.89444444444445,37.49166666666667],[-121.89444444444445,37.49166666666667],[-121.93333333333334,37.5],[-121.93333333333334,37.5],[-121.93333333333334,37.5],[-121.96222222222222,37.49583333333334],[-121.96222222222222,37.49583333333334],[-122.02916666666667,37.499722222222225],[-122.06666666666666,37.5],[-122.06666666666666,37.5],[-122.18333333333334,37.53333333333333],[-122.18333333333334,37.53333333333333],[-122.19638888888889,37.545833333333334],[-122.21666666666667,37.55],[-122.26666666666667,37.56666666666667],[-122.26666666666667,37.56666666666667],[-122.3,37.583333333333336],[-122.3,37.583333333333336],[-122.32166666666666,37.59861111111111],[-122.32166666666666,37.59861111111111],[-122.32166666666666,37.59861111111111]],"type":"LineString"}
}
