{
  "id": 2014815797,
  "type": "Feature",
  "properties": {
    "date:cessation_lower": "2026-02-17",
    "date:cessation_upper": "2026-02-17",
    "date:inception_lower": "2026-02-18",
    "date:inception_upper": "2026-02-18",
    "edtf:cessation": "2026-02-17T12:59:56-08:00",
    "edtf:inception": "2026-02-18T03:46:00Z",
    "flysfo:actual_timestamp": -1,
    "flysfo:airline": "UA",
    "flysfo:base_airline": "",
    "flysfo:base_flight_number": "4077",
    "flysfo:date": "2026-02-17",
    "flysfo:estimated_timestamp": 1771391460,
    "flysfo:event": "A",
    "flysfo:flight_number": "UA1267",
    "flysfo:gate": "E3",
    "flysfo:journey": "LAS-SFO",
    "flysfo:scheduled_timestamp": 1771392660,
    "flysfo:timestamp": 1771392660,
    "geom:area": 0,
    "geom:bbox": "-122.370943,36.081003,-115.156440,37.617990",
    "geom:latitude": 36.8494965,
    "geom:longitude": -118.7636915,
    "iata:airline": "UA",
    "iata:base_airline": "",
    "icao:aircraft": "B739",
    "icao:airline": "UAL",
    "icao:base_airline": "ACA",
    "lbl:latitude": 37.618578,
    "lbl:longitude": -122.385434,
    "sfomuseum:aircraft_id": 1377564285,
    "sfomuseum:airline_id": 1159285413,
    "sfomuseum:arrival_id": 102527513,
    "sfomuseum:base_flight_id": "20260217-A-ACA-4077",
    "sfomuseum:departure_id": 102527209,
    "sfomuseum:flight_id": "20260217-A-UAL-1267",
    "sfomuseum:flight_number": [
      "UAL1267",
      "UA1267"
    ],
    "sfomuseum:placetype": "flight",
    "src:geom": "flysfo",
    "src:geom_alt": [
      "swim-route",
      "swim-path",
      "swim-approach"
    ],
    "swim:tail_number": "N68811",
    "wof:belongsto": [
      1947304067,
      102527513,
      1947304451,
      102191575,
      85633793,
      102087579,
      85922583,
      554784711,
      85688637,
      1947304495,
      1947304447,
      102085387
    ],
    "wof:concordances": {
      "swim:flight_ref": "139562434",
      "swim:gufi": "KL103614bL"
    },
    "wof:country": "US",
    "wof:created": 1771430826,
    "wof:geomhash": "fcf5095e8d1a14d003993bc5070a7f0f",
    "wof:hierarchy": [
      {
        "building_id": 1947304067,
        "campus_id": 102527513,
        "concourse_id": 1947304451,
        "continent_id": 102191575,
        "country_id": 85633793,
        "county_id": 102087579,
        "custom_id": 2014815797,
        "flight_id": 2014815797,
        "locality_id": 85922583,
        "postalcode_id": 554784711,
        "region_id": 85688637,
        "venue_id": 1947304495,
        "wing_id": 1947304447
      },
      {
        "building_id": 1947304067,
        "campus_id": 102527513,
        "concourse_id": 1947304451,
        "continent_id": 102191575,
        "country_id": 85633793,
        "county_id": 102085387,
        "custom_id": 2014815797,
        "flight_id": 2014815797,
        "region_id": 85688637,
        "venue_id": 1947304495,
        "wing_id": 1947304447
      }
    ],
    "wof:id": 2014815797,
    "wof:involves": [
      102527209,
      1159285413,
      1947304495,
      1159283597,
      1377564285,
      102527513
    ],
    "wof:lastmodified": 1771431372,
    "wof:name": "UA1267 (LAS-SFO)",
    "wof:parent_id": 1947304495,
    "wof:placetype": "custom",
    "wof:placetype_alt": [
      "flight"
    ],
    "wof:repo": "sfomuseum-data-flights-2026-02",
    "wof:superseded_by": [],
    "wof:supersedes": []
  },
  "bbox": [
    -122.370943,
    36.081003,
    -115.15644,
    37.61799
  ],
  "geometry": {"coordinates":[[-115.15644,36.081003],[-122.370943,37.61799]],"type":"MultiPoint"}
}
