{
  "id": 2014705411,
  "type": "Feature",
  "properties": {
    "geom:area": 0,
    "geom:bbox": "-123.472950,36.863650,-122.197250,37.612290",
    "geom:latitude": 37.25165069281198,
    "geom:longitude": -122.76592184977278,
    "src:alt_label": "swim-approach",
    "src:geom": "swim",
    "swim:elevations": [
      7310,
      7037,
      6746,
      6454,
      6096,
      5854,
      5484,
      5318,
      5107,
      4584,
      4214,
      4110,
      3736,
      3102,
      3048,
      3048,
      3048,
      3048,
      2959,
      2672,
      2555,
      2343,
      2244,
      2056,
      1829,
      1829,
      1829,
      1578,
      1404,
      1202,
      1046,
      917,
      837,
      769,
      662,
      528,
      351,
      210,
      50,
      35
    ],
    "swim:geom": "approach",
    "swim:timestamps": [
      1770158306,
      1770158331,
      1770158352,
      1770158376,
      1770158407,
      1770158427,
      1770158457,
      1770158480,
      1770158497,
      1770158540,
      1770158571,
      1770158580,
      1770158613,
      1770158666,
      1770158681,
      1770158728,
      1770158746,
      1770158778,
      1770158813,
      1770158848,
      1770158866,
      1770158902,
      1770158920,
      1770158950,
      1770158988,
      1770158997,
      1770159021,
      1770159054,
      1770159084,
      1770159116,
      1770159143,
      1770159176,
      1770159208,
      1770159223,
      1770159235,
      1770159259,
      1770159280,
      1770159317,
      1770159357,
      1770159373
    ],
    "wof:geomhash": "e630aa572e7365d74ec18af560ce6e10",
    "wof:id": 2014705411,
    "wof:repo": "sfomuseum-data-flights-2026-02"
  },
  "bbox": [
    -123.47295,
    36.86365,
    -122.19725,
    37.61229
  ],
  "geometry": {"coordinates":[[-123.47295,36.86365],[-123.42909,36.89123],[-123.39209,36.91621],[-123.35082,36.94242],[-123.30003,36.97572],[-123.26527,36.99816],[-123.21526,37.03087],[-123.17817,37.05493],[-123.15016,37.07306],[-123.07816,37.11943],[-123.02788,37.1519],[-123.01329,37.16132],[-122.96021,37.1954],[-122.87541,37.24913],[-122.84919,37.25993],[-122.76647,37.28046],[-122.7343,37.28803],[-122.67669,37.30127],[-122.62008,37.31434],[-122.56455,37.32714],[-122.53628,37.33365],[-122.48101,37.34653],[-122.45433,37.35281],[-122.41095,37.36295],[-122.3563,37.37524],[-122.34307,37.37821],[-122.30963,37.3894],[-122.26999,37.41395],[-122.24488,37.44288],[-122.22127,37.47226],[-122.20226,37.4959],[-122.19725,37.52722],[-122.21883,37.55306],[-122.23413,37.5599],[-122.24631,37.56461],[-122.27003,37.57466],[-122.2892,37.58252],[-122.32042,37.59576],[-122.35219,37.60921],[-122.36343,37.61229]],"type":"LineString"}
}
