{
  "id": 2014880563,
  "type": "Feature",
  "properties": {
    "geom:area": 0,
    "geom:bbox": "-122.363340,36.757480,-121.897890,37.615360",
    "geom:latitude": 37.231794322985884,
    "geom:longitude": -122.07871731221476,
    "src:alt_label": "swim-approach",
    "src:geom": "swim",
    "swim:elevations": [
      5300,
      5226,
      4852,
      4515,
      4201,
      4057,
      3967,
      3609,
      3524,
      3169,
      3059,
      2984,
      2711,
      2655,
      2457,
      2092,
      1832,
      1679,
      1569,
      1488,
      1299,
      1000,
      794,
      679,
      641,
      394,
      289,
      183,
      99,
      0
    ],
    "swim:geom": "approach",
    "swim:timestamps": [
      1772017198,
      1772017205,
      1772017241,
      1772017276,
      1772017309,
      1772017323,
      1772017332,
      1772017370,
      1772017381,
      1772017426,
      1772017469,
      1772017483,
      1772017523,
      1772017531,
      1772017564,
      1772017614,
      1772017647,
      1772017673,
      1772017689,
      1772017717,
      1772017746,
      1772017778,
      1772017811,
      1772017853,
      1772017862,
      1772017915,
      1772017945,
      1772017975,
      1772017995,
      1772018021
    ],
    "wof:geomhash": "5fc818933c31dfcccf1f1f696e9e9401",
    "wof:id": 2014880563,
    "wof:repo": "sfomuseum-data-flights-2026-02"
  },
  "bbox": [
    -122.36334,
    36.75748,
    -121.89789,
    37.61536
  ],
  "geometry": {"coordinates":[[-121.89789,36.75748],[-121.90204,36.7693],[-121.91872,36.82884],[-121.93414,36.88447],[-121.94834,36.93503],[-121.95544,36.95735],[-121.9607,36.9706],[-121.9824,37.02677],[-121.9881,37.04128],[-122.0135,37.10674],[-122.03455,37.16167],[-122.04132,37.17879],[-122.06058,37.22665],[-122.06399,37.23546],[-122.07887,37.27368],[-122.10182,37.332],[-122.11693,37.37016],[-122.12735,37.39956],[-122.13361,37.41839],[-122.14461,37.45014],[-122.155,37.48031],[-122.1661,37.51205],[-122.18457,37.53861],[-122.22597,37.55617],[-122.23549,37.56012],[-122.28121,37.57932],[-122.30509,37.58948],[-122.32828,37.59894],[-122.34352,37.60536],[-122.36334,37.61536]],"type":"LineString"}
}
