{
  "id": 2014832747,
  "type": "Feature",
  "properties": {
    "geom:area": 0,
    "geom:bbox": "-122.748160,37.521950,-122.045730,38.471530",
    "geom:latitude": 37.872109646631074,
    "geom:longitude": -122.45225856824075,
    "src:alt_label": "swim-approach",
    "src:geom": "swim",
    "swim:elevations": [
      7590,
      7340,
      7043,
      6697,
      6664,
      6307,
      6087,
      5898,
      5444,
      5167,
      5035,
      4699,
      4539,
      4223,
      3894,
      3560,
      3420,
      3354,
      3353,
      3353,
      3240,
      3090,
      2803,
      2756,
      2709,
      2584,
      2441,
      2238,
      2091,
      2002,
      1828,
      1849,
      1619,
      1460,
      1427,
      1311,
      1044,
      1004,
      820,
      777,
      700,
      517,
      493,
      364,
      195,
      178,
      86,
      33
    ],
    "swim:geom": "approach",
    "swim:timestamps": [
      1771528798,
      1771528820,
      1771528849,
      1771528883,
      1771528886,
      1771528918,
      1771528940,
      1771528960,
      1771529006,
      1771529036,
      1771529051,
      1771529089,
      1771529108,
      1771529145,
      1771529172,
      1771529214,
      1771529240,
      1771529259,
      1771529291,
      1771529325,
      1771529354,
      1771529380,
      1771529426,
      1771529432,
      1771529438,
      1771529460,
      1771529486,
      1771529515,
      1771529541,
      1771529554,
      1771529602,
      1771529631,
      1771529662,
      1771529689,
      1771529701,
      1771529731,
      1771529788,
      1771529795,
      1771529834,
      1771529845,
      1771529861,
      1771529904,
      1771529912,
      1771529950,
      1771529998,
      1771530001,
      1771530023,
      1771530035
    ],
    "wof:geomhash": "e3c6177be2eaf3678efa9d2d0cd8f87c",
    "wof:id": 2014832747,
    "wof:repo": "sfomuseum-data-flights-2026-02"
  },
  "bbox": [
    -122.74816,
    37.52195,
    -122.04573,
    38.47153
  ],
  "geometry": {"coordinates":[[-122.51347,38.47153],[-122.54795,38.43828],[-122.59253,38.39523],[-122.64172,38.34735],[-122.64616,38.34301],[-122.69421,38.29592],[-122.72567,38.26529],[-122.74816,38.23488],[-122.7448,38.14666],[-122.72812,38.08854],[-122.72007,38.06045],[-122.69974,37.99079],[-122.68975,37.95659],[-122.66289,37.89411],[-122.62568,37.85528],[-122.56673,37.79863],[-122.5319,37.76591],[-122.50797,37.74331],[-122.4659,37.71397],[-122.41678,37.69994],[-122.37953,37.68915],[-122.34655,37.67973],[-122.28969,37.66393],[-122.28221,37.66177],[-122.27472,37.65964],[-122.24617,37.65174],[-122.21504,37.64297],[-122.17758,37.63313],[-122.14537,37.6246],[-122.1295,37.6204],[-122.07673,37.5973],[-122.05046,37.57663],[-122.04573,37.54697],[-122.06313,37.5252],[-122.07547,37.52195],[-122.10413,37.52806],[-122.15645,37.54648],[-122.16365,37.54897],[-122.19874,37.56139],[-122.20864,37.56483],[-122.22168,37.56949],[-122.2568,37.58178],[-122.26228,37.58337],[-122.29048,37.59164],[-122.32676,37.6026],[-122.32906,37.60334],[-122.34536,37.60872],[-122.3546,37.61247]],"type":"LineString"}
}
