{
  "id": 2014856675,
  "type": "Feature",
  "properties": {
    "geom:area": 0,
    "geom:bbox": "-122.380000,37.490000,-77.460000,43.000000",
    "geom:latitude": 40.75818617712842,
    "geom:longitude": -99.67020969409283,
    "src:alt_label": "swim-route",
    "src:geom": "swim",
    "swim:geom": "route",
    "wof:geomhash": "2e39f48259612394481203c1e4552589",
    "wof:id": 2014856675,
    "wof:repo": "sfomuseum-data-flights-2026-02"
  },
  "bbox": [
    -122.38,
    37.49,
    -77.46,
    43
  ],
  "geometry": {"coordinates":[[-77.46,38.95],[-77.5,39.01],[-77.52,39.03],[-77.52,39.03],[-77.53,39.05],[-77.55,39.07],[-77.56,39.09],[-77.56,39.09],[-77.58,39.12],[-77.6,39.15],[-77.62,39.17],[-77.63,39.19],[-77.72,39.3],[-77.78,39.39],[-77.81,39.45],[-77.82,39.46],[-77.84,39.5],[-77.86,39.54],[-77.86,39.54],[-77.9,39.55],[-77.91,39.55],[-77.92,39.56],[-78.07,39.6],[-78.17,39.63],[-78.25,39.66],[-78.38,39.7],[-78.43,39.71],[-78.47,39.73],[-78.55,39.75],[-78.64,39.77],[-78.86,39.84],[-78.94,39.86],[-79.01,39.89],[-79.41,40],[-79.6,40.1],[-80.06,40.33],[-80.33,40.47],[-80.58,40.6],[-80.67,40.64],[-80.72,40.66],[-80.74,40.67],[-80.82,40.71],[-81.22,40.89],[-82.77,41.52],[-82.94,41.59],[-83.04,41.62],[-83.86,41.77],[-84.32,41.86],[-84.53,41.91],[-84.97,41.98],[-85.31,42.05],[-85.67,42.11],[-86.03,42.17],[-86.2,42.2],[-87,42.34],[-87.67,42.45],[-88,42.5],[-88.94,42.65],[-90.73,42.93],[-91.5,42.95],[-94,43],[-94.1,42.99],[-94.24,42.97],[-96.25,42.69],[-96.8,42.61],[-99.16,42.17],[-100,42],[-101.95,41.63],[-102.26,41.57],[-102.92,41.39],[-104.58,40.92],[-105.27,40.72],[-106,40.5],[-106.44,40.4],[-107.33,40.21],[-107.92,40.07],[-108.45,39.99],[-109.43,39.84],[-109.6,39.81],[-109.76,39.78],[-109.84,39.77],[-109.87,39.77],[-110.13,39.72],[-111.45,39.5],[-111.98,39.4],[-112.51,39.3],[-113.32,39.12],[-114.79,38.76],[-115.87,38.49],[-116.7,38.27],[-117.27,38.12],[-117.27,38.12],[-117.77,38],[-118.76,37.9],[-118.97,37.87],[-119.1,37.86],[-119.39,37.82],[-119.66,37.79],[-119.73,37.78],[-119.82,37.77],[-120.01,37.75],[-120.3,37.71],[-120.39,37.7],[-120.4,37.7],[-120.56,37.68],[-120.63,37.67],[-120.69,37.67],[-120.75,37.66],[-120.96,37.63],[-120.96,37.63],[-120.97,37.63],[-121,37.63],[-121.09,37.62],[-121.26,37.59],[-121.39,37.58],[-121.41,37.58],[-121.6,37.55],[-121.61,37.55],[-121.62,37.55],[-121.7,37.53],[-121.8,37.51],[-121.82,37.5],[-121.88,37.49],[-122.08,37.54],[-122.12,37.55],[-122.18,37.57],[-122.28,37.59],[-122.33,37.61],[-122.36,37.61],[-122.38,37.62]],"type":"LineString"}
}
