{
  "id": 2014911235,
  "type": "Feature",
  "properties": {
    "geom:area": 0,
    "geom:bbox": "-122.439167,35.822778,-115.167500,37.692222",
    "geom:latitude": 36.83977643349193,
    "geom:longitude": -118.76255867899164,
    "src:alt_label": "swim-path",
    "src:geom": "swim",
    "swim:altitudes": [
      "006",
      "006",
      "044",
      "044",
      "044",
      "076",
      "076",
      "104",
      "104",
      "104",
      "196",
      "196",
      "196",
      "261",
      "292",
      "292",
      "310C",
      "310C",
      "310C",
      "310C",
      "310C",
      "310C",
      "310C",
      "310C",
      "310C",
      "310",
      "310",
      "310",
      "310",
      "310C",
      "310C",
      "310",
      "310C",
      "310",
      "310",
      "310",
      "295",
      "275",
      "275",
      "255",
      "255",
      "218",
      "218",
      "215",
      "215",
      "158",
      "128",
      "120",
      "120",
      "109",
      "109",
      "022"
    ],
    "swim:geom": "path",
    "swim:speeds": [
      178,
      178,
      241,
      241,
      241,
      266,
      266,
      274,
      274,
      274,
      406,
      406,
      406,
      480,
      497,
      497,
      501,
      501,
      501,
      501,
      497,
      497,
      497,
      497,
      495,
      487,
      487,
      486,
      486,
      488,
      488,
      487,
      487,
      488,
      488,
      488,
      490,
      471,
      471,
      437,
      437,
      423,
      423,
      425,
      425,
      334,
      317,
      311,
      311,
      315,
      315,
      167
    ],
    "swim:timestamps": [
      1772298909,
      1772298909,
      1772299030,
      1772299030,
      1772299030,
      1772299090,
      1772299090,
      1772299150,
      1772299150,
      1772299150,
      1772299450,
      1772299450,
      1772299450,
      1772299690,
      1772299810,
      1772299810,
      1772299930,
      1772299930,
      1772299990,
      1772299990,
      1772300111,
      1772300111,
      1772300111,
      1772300231,
      1772300531,
      1772300747,
      1772300747,
      1772300808,
      1772300808,
      1772300832,
      1772300832,
      1772300869,
      1772300892,
      1772300930,
      1772300930,
      1772300930,
      1772301312,
      1772301372,
      1772301372,
      1772301432,
      1772301432,
      1772301543,
      1772301543,
      1772301553,
      1772301553,
      1772301793,
      1772301913,
      1772301973,
      1772301973,
      1772302030,
      1772302030,
      1772302574
    ],
    "wof:geomhash": "65f442a20c731e44c3136403fba18b7a",
    "wof:id": 2014911235,
    "wof:repo": "sfomuseum-data-flights-2026-02"
  },
  "bbox": [
    -122.43916666666667,
    35.82277777777778,
    -115.1675,
    37.69222222222222
  ],
  "geometry": {"coordinates":[[-122.36527777777778,37.63472222222222],[-122.36527777777778,37.63472222222222],[-122.41833333333334,37.69222222222222],[-122.41833333333334,37.69222222222222],[-122.41833333333334,37.69222222222222],[-122.43916666666667,37.62027777777778],[-122.43916666666667,37.62027777777778],[-122.42361111111111,37.54722222222222],[-122.42361111111111,37.54722222222222],[-122.42361111111111,37.54722222222222],[-121.9113888888889,37.32972222222222],[-121.9113888888889,37.32972222222222],[-121.9113888888889,37.32972222222222],[-121.26333333333334,37.197222222222216],[-120.92333333333333,37.126111111111115],[-120.92333333333333,37.126111111111115],[-120.58166666666666,37.08388888888889],[-120.58166666666666,37.08388888888889],[-120.40916666666668,37.06805555555556],[-120.40916666666668,37.06805555555556],[-120.06694444444445,37.03611111111111],[-120.06694444444445,37.03611111111111],[-120.06694444444445,37.03611111111111],[-119.72444444444444,37.00416666666667],[-118.85583333333332,36.918055555555554],[-118.23361111111112,36.8525],[-118.23361111111112,36.8525],[-118.06472222222222,36.83277777777778],[-118.06472222222222,36.83277777777778],[-118.01388888888889,36.828611111111115],[-118.01388888888889,36.828611111111115],[-117.89333333333335,36.815],[-117.84472222222222,36.80972222222222],[-117.72722222222222,36.794999999999995],[-117.72722222222222,36.794999999999995],[-117.72722222222222,36.794999999999995],[-116.67666666666668,36.67361111111111],[-116.51527777777778,36.65083333333333],[-116.51527777777778,36.65083333333333],[-116.39083333333333,36.58027777777778],[-116.39083333333333,36.58027777777778],[-116.17666666666668,36.42777777777778],[-116.17666666666668,36.42777777777778],[-116.16055555555556,36.416666666666664],[-116.16055555555556,36.416666666666664],[-115.76444444444445,36.144999999999996],[-115.68777777777778,35.983333333333334],[-115.655,35.901666666666664],[-115.655,35.901666666666664],[-115.61444444444444,35.82277777777778],[-115.61444444444444,35.82277777777778],[-115.1675,36.08027777777778]],"type":"LineString"}
}
