{
  "id": 2014865247,
  "type": "Feature",
  "properties": {
    "geom:area": 0,
    "geom:bbox": "-123.278140,37.447570,-122.146560,38.511210",
    "geom:latitude": 37.89479860929095,
    "geom:longitude": -122.6508101956113,
    "src:alt_label": "swim-approach",
    "src:geom": "swim",
    "swim:elevations": [
      7668,
      7240,
      6896,
      6571,
      6359,
      6272,
      5907,
      5867,
      5538,
      5199,
      4955,
      4753,
      4546,
      4354,
      4313,
      4166,
      4064,
      3789,
      3612,
      3503,
      3356,
      3353,
      3353,
      3353,
      3353,
      3321,
      2976,
      2716,
      2439,
      2042,
      1917,
      1347,
      1215,
      1219,
      1219,
      1219,
      1073,
      799,
      706,
      516,
      399,
      247,
      134,
      16
    ],
    "swim:geom": "approach",
    "swim:timestamps": [
      1771876243,
      1771876285,
      1771876315,
      1771876348,
      1771876370,
      1771876381,
      1771876420,
      1771876425,
      1771876460,
      1771876497,
      1771876524,
      1771876546,
      1771876568,
      1771876607,
      1771876627,
      1771876652,
      1771876662,
      1771876706,
      1771876733,
      1771876756,
      1771876785,
      1771876825,
      1771876831,
      1771876855,
      1771876886,
      1771876914,
      1771876947,
      1771876975,
      1771877002,
      1771877038,
      1771877049,
      1771877098,
      1771877119,
      1771877137,
      1771877167,
      1771877198,
      1771877226,
      1771877265,
      1771877283,
      1771877330,
      1771877359,
      1771877394,
      1771877423,
      1771877452
    ],
    "wof:geomhash": "26aaf876482df63d09e272b60cc4c5f4",
    "wof:id": 2014865247,
    "wof:repo": "sfomuseum-data-flights-2026-02"
  },
  "bbox": [
    -123.27814,
    37.44757,
    -122.14656,
    38.51121
  ],
  "geometry": {"coordinates":[[-123.27814,38.51121],[-123.21015,38.4426],[-123.16067,38.3927],[-123.10878,38.34159],[-123.07473,38.30711],[-123.05845,38.2906],[-122.99791,38.22923],[-122.98983,38.22107],[-122.9359,38.16653],[-122.87953,38.10948],[-122.83901,38.06844],[-122.80665,38.03556],[-122.77431,38.00268],[-122.719,37.94627],[-122.69232,37.91916],[-122.66036,37.88646],[-122.64798,37.87451],[-122.5887,37.81989],[-122.55451,37.78787],[-122.52594,37.76096],[-122.49283,37.72959],[-122.45222,37.6911],[-122.44722,37.68635],[-122.42437,37.66479],[-122.39495,37.63697],[-122.36825,37.61175],[-122.34947,37.579],[-122.33426,37.54992],[-122.31892,37.52409],[-122.29707,37.48998],[-122.28748,37.48059],[-122.23115,37.45395],[-122.20288,37.44757],[-122.18044,37.45531],[-122.15753,37.48099],[-122.14656,37.50814],[-122.16217,37.52871],[-122.20049,37.54489],[-122.21732,37.55263],[-122.25847,37.56981],[-122.28259,37.57985],[-122.31129,37.59187],[-122.33514,37.60198],[-122.35795,37.61139]],"type":"LineString"}
}
