{
  "id": 2014796255,
  "type": "Feature",
  "properties": {
    "geom:area": 0,
    "geom:bbox": "-123.684722,37.617500,-122.250000,47.608611",
    "geom:latitude": 42.375279403987555,
    "geom:longitude": -123.11445505725423,
    "src:alt_label": "swim-path",
    "src:geom": "swim",
    "swim:altitudes": [
      "009",
      "062",
      "062",
      "062",
      "092",
      "092",
      "092",
      "100",
      "100",
      "123",
      "123",
      "123",
      "123",
      "123",
      "123",
      "197",
      "197",
      "197",
      "222",
      "222",
      "222",
      "222",
      "279",
      "279",
      "279",
      "279",
      "279",
      "334",
      "334",
      "334",
      "334",
      "334",
      "354",
      "354",
      "361",
      "361",
      "361",
      "361",
      "370C",
      "370C",
      "370C",
      "370C",
      "370C",
      "370C",
      "370C",
      "370C",
      "370C",
      "370C",
      "370C",
      "370C",
      "370C",
      "370C",
      "370C",
      "370C",
      "370C",
      "370C",
      "370C",
      "370C",
      "370C",
      "370C",
      "370C",
      "370C",
      "370C",
      "370C",
      "370C",
      "370C",
      "370C",
      "370C",
      "370C",
      "370C",
      "370C",
      "370C",
      "370C",
      "370C",
      "370C",
      "370C",
      "370C",
      "370C",
      "370C",
      "370C",
      "370C",
      "370C",
      "370C",
      "370C",
      "370C",
      "370C",
      "370C",
      "370C",
      "370C",
      "370C",
      "370C",
      "370C",
      "370C",
      "370C",
      "370C",
      "370C",
      "370C",
      "370C",
      "370C",
      "370C",
      "370C",
      "370C",
      "370C",
      "370C",
      "370C",
      "370C",
      "370C",
      "370C",
      "370C",
      "370C",
      "370C",
      "370C",
      "370C",
      "370C",
      "370C",
      "370C",
      "370C",
      "370C",
      "370C",
      "370C",
      "370C",
      "370C",
      "370C",
      "370C",
      "370C",
      "370C",
      "370C",
      "370C",
      "370C",
      "370C",
      "370C",
      "370C",
      "370C",
      "370C",
      "370C",
      "370C",
      "370C",
      "370C",
      "370C",
      "370C",
      "370C",
      "370C",
      "370C",
      "370C",
      "370C",
      "370C",
      "370C",
      "370C",
      "370C",
      "370C",
      "370C",
      "370C",
      "370C",
      "370C",
      "370C",
      "370C",
      "370C",
      "370C",
      "364",
      "364",
      "364",
      "344",
      "344",
      "344",
      "344",
      "304",
      "304",
      "304",
      "304",
      "292",
      "292",
      "292",
      "292",
      "292",
      "292",
      "231",
      "231",
      "231",
      "212",
      "212",
      "212",
      "174",
      "174",
      "174",
      "157",
      "157",
      "157",
      "157",
      "157",
      "140",
      "140",
      "119",
      "119",
      "116",
      "111",
      "106",
      "106",
      "106",
      "106",
      "103",
      "103",
      "103",
      "100",
      "099",
      "099",
      "085",
      "079C",
      "079C",
      "079C",
      "079C",
      "079C",
      "079C",
      "073",
      "073",
      "060",
      "060",
      "060",
      "060",
      "060",
      "060",
      "060",
      "058",
      "058",
      "058",
      "035",
      "035",
      "035",
      "030",
      "030",
      "030",
      "030",
      "028",
      "023",
      "023",
      "023",
      "010",
      "010",
      "80",
      "80"
    ],
    "swim:geom": "path",
    "swim:speeds": [
      158,
      256,
      256,
      256,
      271,
      271,
      271,
      276,
      276,
      313,
      313,
      313,
      313,
      313,
      313,
      369,
      369,
      369,
      384,
      384,
      384,
      384,
      418,
      418,
      418,
      418,
      418,
      411,
      411,
      411,
      411,
      411,
      422,
      422,
      431,
      431,
      431,
      431,
      440,
      440,
      442,
      442,
      442,
      442,
      442,
      443,
      443,
      443,
      442,
      442,
      442,
      442,
      442,
      442,
      442,
      442,
      442,
      441,
      441,
      441,
      441,
      441,
      440,
      440,
      440,
      440,
      427,
      427,
      427,
      427,
      427,
      427,
      423,
      423,
      420,
      420,
      420,
      420,
      420,
      416,
      416,
      416,
      416,
      421,
      421,
      421,
      421,
      423,
      423,
      423,
      423,
      423,
      423,
      423,
      423,
      423,
      423,
      424,
      424,
      425,
      425,
      426,
      426,
      426,
      419,
      419,
      419,
      416,
      416,
      415,
      415,
      414,
      414,
      414,
      414,
      414,
      413,
      413,
      413,
      413,
      412,
      412,
      412,
      410,
      408,
      408,
      406,
      406,
      406,
      405,
      405,
      405,
      405,
      403,
      403,
      403,
      391,
      391,
      390,
      390,
      390,
      390,
      390,
      391,
      391,
      391,
      391,
      391,
      390,
      390,
      390,
      390,
      390,
      390,
      390,
      414,
      414,
      414,
      413,
      413,
      413,
      403,
      403,
      403,
      403,
      376,
      376,
      376,
      376,
      368,
      368,
      368,
      368,
      368,
      368,
      341,
      341,
      341,
      342,
      342,
      342,
      317,
      317,
      317,
      303,
      303,
      303,
      303,
      303,
      297,
      297,
      253,
      253,
      230,
      210,
      212,
      212,
      212,
      212,
      208,
      208,
      208,
      209,
      207,
      207,
      231,
      236,
      236,
      236,
      236,
      236,
      236,
      254,
      254,
      253,
      260,
      256,
      256,
      256,
      231,
      231,
      230,
      230,
      230,
      200,
      200,
      200,
      170,
      170,
      172,
      172,
      171,
      171,
      171,
      171,
      149,
      149,
      146,
      146
    ],
    "swim:timestamps": [
      1771185863,
      1771186028,
      1771186028,
      1771186028,
      1771186094,
      1771186094,
      1771186094,
      1771186116,
      1771186116,
      1771186176,
      1771186176,
      1771186176,
      1771186176,
      1771186176,
      1771186176,
      1771186356,
      1771186356,
      1771186356,
      1771186416,
      1771186416,
      1771186416,
      1771186416,
      1771186596,
      1771186596,
      1771186596,
      1771186596,
      1771186596,
      1771186776,
      1771186776,
      1771186776,
      1771186776,
      1771186776,
      1771186896,
      1771186896,
      1771186957,
      1771186957,
      1771186957,
      1771186957,
      1771187077,
      1771187077,
      1771187137,
      1771187137,
      1771187137,
      1771187137,
      1771187137,
      1771187257,
      1771187257,
      1771187257,
      1771187377,
      1771187377,
      1771187377,
      1771187377,
      1771187437,
      1771187437,
      1771187497,
      1771187557,
      1771187557,
      1771187617,
      1771187617,
      1771187617,
      1771187617,
      1771187617,
      1771187677,
      1771187677,
      1771187677,
      1771187677,
      1771187978,
      1771187978,
      1771187978,
      1771187978,
      1771187978,
      1771187978,
      1771188218,
      1771188218,
      1771188278,
      1771188278,
      1771188278,
      1771188278,
      1771188278,
      1771188458,
      1771188458,
      1771188458,
      1771188458,
      1771188698,
      1771188698,
      1771188698,
      1771188698,
      1771188759,
      1771188759,
      1771188879,
      1771188879,
      1771188879,
      1771188879,
      1771188930,
      1771188930,
      1771188930,
      1771188930,
      1771188999,
      1771188999,
      1771189059,
      1771189059,
      1771189110,
      1771189110,
      1771189110,
      1771189239,
      1771189239,
      1771189239,
      1771189351,
      1771189351,
      1771189359,
      1771189359,
      1771189471,
      1771189471,
      1771189471,
      1771189471,
      1771189471,
      1771189539,
      1771189539,
      1771189539,
      1771189539,
      1771189591,
      1771189591,
      1771189599,
      1771189651,
      1771189720,
      1771189720,
      1771189780,
      1771189780,
      1771189780,
      1771189900,
      1771189900,
      1771189900,
      1771189900,
      1771190011,
      1771190011,
      1771190011,
      1771190080,
      1771190080,
      1771190192,
      1771190192,
      1771190200,
      1771190200,
      1771190200,
      1771190252,
      1771190260,
      1771190260,
      1771190312,
      1771190312,
      1771190372,
      1771190372,
      1771190432,
      1771190432,
      1771190432,
      1771190432,
      1771190440,
      1771190552,
      1771190552,
      1771190552,
      1771190612,
      1771190612,
      1771190612,
      1771190732,
      1771190732,
      1771190732,
      1771190732,
      1771190973,
      1771190973,
      1771190973,
      1771190973,
      1771191033,
      1771191033,
      1771191033,
      1771191033,
      1771191033,
      1771191033,
      1771191213,
      1771191213,
      1771191213,
      1771191273,
      1771191273,
      1771191273,
      1771191393,
      1771191393,
      1771191393,
      1771191453,
      1771191453,
      1771191453,
      1771191453,
      1771191453,
      1771191513,
      1771191513,
      1771191634,
      1771191634,
      1771191651,
      1771191710,
      1771191754,
      1771191754,
      1771191754,
      1771191754,
      1771191770,
      1771191770,
      1771191770,
      1771191814,
      1771191874,
      1771191874,
      1771191956,
      1771191994,
      1771191994,
      1771191994,
      1771191994,
      1771191994,
      1771191994,
      1771192016,
      1771192016,
      1771192114,
      1771192136,
      1771192174,
      1771192174,
      1771192174,
      1771192196,
      1771192196,
      1771192234,
      1771192234,
      1771192234,
      1771192316,
      1771192316,
      1771192316,
      1771192371,
      1771192371,
      1771192415,
      1771192415,
      1771192436,
      1771192475,
      1771192475,
      1771192475,
      1771192556,
      1771192556,
      1771192655,
      1771192655
    ],
    "wof:geomhash": "e06486bfb3e099b0204fcf5b91261b62",
    "wof:id": 2014796255,
    "wof:repo": "sfomuseum-data-flights-2026-02"
  },
  "bbox": [
    -123.68472222222222,
    37.6175,
    -122.25,
    47.60861111111111
  ],
  "geometry": {"coordinates":[[-122.30722222222222,47.45888888888889],[-122.37027777777777,47.60611111111111],[-122.37027777777777,47.60611111111111],[-122.37027777777777,47.60611111111111],[-122.48722222222223,47.60861111111111],[-122.48722222222223,47.60861111111111],[-122.48722222222223,47.60861111111111],[-122.51611111111112,47.59027777777778],[-122.51611111111112,47.59027777777778],[-122.60499999999999,47.53111111111111],[-122.60499999999999,47.53111111111111],[-122.60499999999999,47.53111111111111],[-122.60499999999999,47.53111111111111],[-122.60499999999999,47.53111111111111],[-122.60499999999999,47.53111111111111],[-122.90583333333333,47.33277777777778],[-122.90583333333333,47.33277777777778],[-122.90583333333333,47.33277777777778],[-123.01666666666667,47.257222222222225],[-123.01666666666667,47.257222222222225],[-123.01666666666667,47.257222222222225],[-123.01666666666667,47.257222222222225],[-123.07388888888889,46.93861111111111],[-123.07388888888889,46.93861111111111],[-123.07388888888889,46.93861111111111],[-123.07388888888889,46.93861111111111],[-123.07388888888889,46.93861111111111],[-123.11416666666666,46.57027777777778],[-123.11416666666666,46.57027777777778],[-123.11416666666666,46.57027777777778],[-123.11416666666666,46.57027777777778],[-123.11416666666666,46.57027777777778],[-123.13805555555557,46.34111111111111],[-123.13805555555557,46.34111111111111],[-123.15194444444445,46.221111111111114],[-123.15194444444445,46.221111111111114],[-123.15194444444445,46.221111111111114],[-123.15194444444445,46.221111111111114],[-123.17750000000001,45.97638888888889],[-123.17750000000001,45.97638888888889],[-123.19027777777778,45.85416666666667],[-123.19027777777778,45.85416666666667],[-123.19027777777778,45.85416666666667],[-123.19027777777778,45.85416666666667],[-123.19027777777778,45.85416666666667],[-123.21583333333334,45.6075],[-123.21583333333334,45.6075],[-123.21583333333334,45.6075],[-123.24138888888889,45.361666666666665],[-123.24138888888889,45.361666666666665],[-123.24138888888889,45.361666666666665],[-123.24138888888889,45.361666666666665],[-123.25416666666666,45.23833333333334],[-123.25416666666666,45.23833333333334],[-123.26666666666667,45.11611111111111],[-123.27944444444444,44.992222222222225],[-123.27944444444444,44.992222222222225],[-123.29166666666667,44.868611111111115],[-123.29166666666667,44.868611111111115],[-123.29166666666667,44.868611111111115],[-123.29166666666667,44.868611111111115],[-123.29166666666667,44.868611111111115],[-123.30222222222221,44.76833333333333],[-123.30222222222221,44.76833333333333],[-123.30222222222221,44.76833333333333],[-123.30222222222221,44.76833333333333],[-123.31555555555555,44.16694444444444],[-123.31555555555555,44.16694444444444],[-123.31555555555555,44.16694444444444],[-123.31555555555555,44.16694444444444],[-123.31555555555555,44.16694444444444],[-123.31555555555555,44.16694444444444],[-123.29694444444445,43.69638888888888],[-123.29694444444445,43.69638888888888],[-123.29194444444444,43.58083333333334],[-123.29194444444444,43.58083333333334],[-123.29194444444444,43.58083333333334],[-123.29194444444444,43.58083333333334],[-123.29194444444444,43.58083333333334],[-123.27944444444444,43.23444444444444],[-123.27944444444444,43.23444444444444],[-123.27944444444444,43.23444444444444],[-123.27944444444444,43.23444444444444],[-123.2611111111111,42.76638888888889],[-123.2611111111111,42.76638888888889],[-123.2611111111111,42.76638888888889],[-123.2611111111111,42.76638888888889],[-123.25694444444444,42.64944444444444],[-123.25694444444444,42.64944444444444],[-123.24722222222222,42.41583333333333],[-123.24722222222222,42.41583333333333],[-123.24722222222222,42.41583333333333],[-123.24722222222222,42.41583333333333],[-123.24388888888889,42.29861111111111],[-123.24388888888889,42.29861111111111],[-123.24388888888889,42.29861111111111],[-123.24388888888889,42.29861111111111],[-123.23805555555556,42.157777777777774],[-123.23805555555556,42.157777777777774],[-123.23388888888888,42.04],[-123.23388888888888,42.04],[-123.23055555555555,41.94499999999999],[-123.23055555555555,41.94499999999999],[-123.23055555555555,41.94499999999999],[-123.22111111111111,41.68944444444444],[-123.22111111111111,41.68944444444444],[-123.22111111111111,41.68944444444444],[-123.21416666666667,41.481388888888894],[-123.21416666666667,41.481388888888894],[-123.21333333333334,41.458333333333336],[-123.21333333333334,41.458333333333336],[-123.19555555555556,41.26305555555555],[-123.19555555555556,41.26305555555555],[-123.19555555555556,41.26305555555555],[-123.19555555555556,41.26305555555555],[-123.19555555555556,41.26305555555555],[-123.18222222222222,41.125277777777775],[-123.18222222222222,41.125277777777775],[-123.18222222222222,41.125277777777775],[-123.18222222222222,41.125277777777775],[-123.17222222222223,41.03472222222222],[-123.17222222222223,41.03472222222222],[-123.16972222222223,41.01111111111111],[-123.16083333333334,40.92111111111111],[-123.14750000000001,40.79],[-123.14750000000001,40.79],[-123.1363888888889,40.67666666666666],[-123.1363888888889,40.67666666666666],[-123.1363888888889,40.67666666666666],[-123.11388888888888,40.45388888888889],[-123.11388888888888,40.45388888888889],[-123.11388888888888,40.45388888888889],[-123.11388888888888,40.45388888888889],[-123.09138888888889,40.23166666666667],[-123.09138888888889,40.23166666666667],[-123.09138888888889,40.23166666666667],[-123.10416666666666,40.11833333333333],[-123.10416666666666,40.11833333333333],[-123.31638888888888,40.007777777777775],[-123.31638888888888,40.007777777777775],[-123.34027777777777,39.99611111111111],[-123.34027777777777,39.99611111111111],[-123.34027777777777,39.99611111111111],[-123.43583333333333,39.95],[-123.45916666666668,39.93833333333333],[-123.45916666666668,39.93833333333333],[-123.55555555555556,39.88972222222222],[-123.55555555555556,39.88972222222222],[-123.61999999999999,39.795833333333334],[-123.61999999999999,39.795833333333334],[-123.67444444444445,39.69416666666666],[-123.67444444444445,39.69416666666666],[-123.67444444444445,39.69416666666666],[-123.67444444444445,39.69416666666666],[-123.68472222222222,39.67472222222222],[-123.68055555555556,39.490833333333335],[-123.68055555555556,39.490833333333335],[-123.68055555555556,39.490833333333335],[-123.60666666666665,39.38972222222222],[-123.60666666666665,39.38972222222222],[-123.60666666666665,39.38972222222222],[-123.4563888888889,39.18416666666666],[-123.4563888888889,39.18416666666666],[-123.4563888888889,39.18416666666666],[-123.4563888888889,39.18416666666666],[-123.18277777777779,38.80638888888888],[-123.18277777777779,38.80638888888888],[-123.18277777777779,38.80638888888888],[-123.18277777777779,38.80638888888888],[-123.11916666666666,38.718333333333334],[-123.11916666666666,38.718333333333334],[-123.11916666666666,38.718333333333334],[-123.11916666666666,38.718333333333334],[-123.11916666666666,38.718333333333334],[-123.11916666666666,38.718333333333334],[-122.93944444444445,38.466944444444444],[-122.93944444444445,38.466944444444444],[-122.93944444444445,38.466944444444444],[-122.88083333333333,38.38388888888889],[-122.88083333333333,38.38388888888889],[-122.88083333333333,38.38388888888889],[-122.77,38.225],[-122.77,38.225],[-122.77,38.225],[-122.74388888888889,38.14333333333333],[-122.74388888888889,38.14333333333333],[-122.74388888888889,38.14333333333333],[-122.74388888888889,38.14333333333333],[-122.74388888888889,38.14333333333333],[-122.7213888888889,38.065],[-122.7213888888889,38.065],[-122.67777777777778,37.91555555555556],[-122.67777777777778,37.91555555555556],[-122.68333333333334,37.88333333333333],[-122.68333333333334,37.833333333333336],[-122.69277777777778,37.79805555555556],[-122.69277777777778,37.79805555555556],[-122.69277777777778,37.79805555555556],[-122.69277777777778,37.79805555555556],[-122.7,37.766666666666666],[-122.7,37.766666666666666],[-122.7,37.766666666666666],[-122.70361111111112,37.74166666666667],[-122.71111111111111,37.68472222222222],[-122.71111111111111,37.68472222222222],[-122.63333333333334,37.63333333333333],[-122.58999999999999,37.62583333333333],[-122.58999999999999,37.62583333333333],[-122.58999999999999,37.62583333333333],[-122.58999999999999,37.62583333333333],[-122.58999999999999,37.62583333333333],[-122.58999999999999,37.62583333333333],[-122.55,37.65],[-122.55,37.65],[-122.45722222222223,37.711111111111116],[-122.43333333333334,37.75],[-122.41111111111111,37.77305555555555],[-122.41111111111111,37.77305555555555],[-122.41111111111111,37.77305555555555],[-122.38333333333334,37.8],[-122.38333333333334,37.8],[-122.36138888888888,37.82416666666667],[-122.36138888888888,37.82416666666667],[-122.36138888888888,37.82416666666667],[-122.25,37.833333333333336],[-122.25,37.833333333333336],[-122.25,37.833333333333336],[-122.25,37.8],[-122.25,37.8],[-122.27111111111111,37.77222222222222],[-122.27111111111111,37.77222222222222],[-122.28333333333333,37.75],[-122.29861111111111,37.730555555555554],[-122.29861111111111,37.730555555555554],[-122.29861111111111,37.730555555555554],[-122.33333333333333,37.666666666666664],[-122.33333333333333,37.666666666666664],[-122.3736111111111,37.6175],[-122.3736111111111,37.6175]],"type":"LineString"}
}
