{
  "id": 2014836627,
  "type": "Feature",
  "properties": {
    "date:inception_lower": "2026-02-19",
    "date:inception_upper": "2026-02-19",
    "edtf:cessation": "",
    "edtf:inception": "2026-02-19",
    "flysfo:actual_timestamp": -1,
    "flysfo:airline": "UA",
    "flysfo:date": "2026-02-19",
    "flysfo:estimated_timestamp": 1771519800,
    "flysfo:event": "D",
    "flysfo:flight_number": "UA5192",
    "flysfo:gate": "",
    "flysfo:journey": "SFO-FAT",
    "flysfo:scheduled_timestamp": 1771519800,
    "flysfo:timestamp": 1771519800,
    "geom:area": 0,
    "geom:bbox": "-122.370943,36.768728,-119.721272,37.617990",
    "geom:latitude": 37.193359,
    "geom:longitude": -121.0461075,
    "iata:airline": "UA",
    "icao:airline": "UAL",
    "lbl:latitude": 37.61799,
    "lbl:longitude": -122.370943,
    "sfomuseum:airline_id": 1159285413,
    "sfomuseum:arrival_id": 102530717,
    "sfomuseum:departure_id": 102527513,
    "sfomuseum:flight_id": "20260219-D-UAL-5192",
    "sfomuseum:flight_number": [
      "UAL5192",
      "UA5192"
    ],
    "sfomuseum:placetype": "flight",
    "src:geom": "flysfo",
    "wof:belongsto": [],
    "wof:country": "US",
    "wof:created": 1771604194,
    "wof:geomhash": "7027f9178c7d77a5f6f9a377b7a1bb37",
    "wof:hierarchy": [
      {
        "custom_id": 2014836627,
        "flight_id": 2014836627
      }
    ],
    "wof:id": 2014836627,
    "wof:involves": [
      102530717,
      102527513,
      1159285413,
      -1
    ],
    "wof:lastmodified": 1771604194,
    "wof:name": "UA5192 (SFO-FAT)",
    "wof:parent_id": -1,
    "wof:placetype": "custom",
    "wof:placetype_alt": [
      "flight"
    ],
    "wof:repo": "sfomuseum-data-flights-2026-02",
    "wof:superseded_by": [],
    "wof:supersedes": []
  },
  "bbox": [
    -122.370943,
    36.768728,
    -119.721272,
    37.61799
  ],
  "geometry": {"coordinates":[[-122.370943,37.61799],[-119.721272,36.768728]],"type":"MultiPoint"}
}
