{
  "id": 2014790141,
  "type": "Feature",
  "properties": {
    "geom:area": 0,
    "geom:bbox": "-122.355230,36.738800,-121.888350,37.612770",
    "geom:latitude": 37.21993038324286,
    "geom:longitude": -122.07255436988237,
    "src:alt_label": "swim-approach",
    "src:geom": "swim",
    "swim:elevations": [
      5207,
      4885,
      4677,
      4245,
      4137,
      3912,
      3830,
      3349,
      3168,
      3076,
      2909,
      2674,
      2549,
      2426,
      2063,
      1937,
      1900,
      1720,
      1629,
      1372,
      1250,
      1153,
      1073,
      885,
      816,
      400,
      289,
      201,
      115,
      82,
      33
    ],
    "swim:geom": "approach",
    "swim:timestamps": [
      1771088955,
      1771088985,
      1771089006,
      1771089048,
      1771089060,
      1771089082,
      1771089092,
      1771089141,
      1771089168,
      1771089201,
      1771089236,
      1771089268,
      1771089287,
      1771089309,
      1771089356,
      1771089387,
      1771089392,
      1771089417,
      1771089429,
      1771089474,
      1771089505,
      1771089522,
      1771089550,
      1771089589,
      1771089602,
      1771089654,
      1771089674,
      1771089696,
      1771089714,
      1771089723,
      1771089735
    ],
    "wof:geomhash": "a04f584364ecc098ee458051a80e86de",
    "wof:id": 2014790141,
    "wof:repo": "sfomuseum-data-flights-2026-02"
  },
  "bbox": [
    -122.35523,
    36.7388,
    -121.88835,
    37.61277
  ],
  "geometry": {"coordinates":[[-121.88835,36.7388],[-121.90747,36.78977],[-121.91777,36.82572],[-121.93764,36.89703],[-121.94365,36.91859],[-121.95419,36.95464],[-121.96064,36.97099],[-121.99024,37.04759],[-122.00629,37.08883],[-122.02508,37.13729],[-122.04382,37.18465],[-122.06046,37.22659],[-122.07001,37.25062],[-122.08061,37.27743],[-122.10427,37.33766],[-122.11885,37.37459],[-122.12092,37.38009],[-122.13031,37.40835],[-122.13486,37.42194],[-122.15208,37.4725],[-122.16256,37.50497],[-122.16812,37.52213],[-122.18759,37.54221],[-122.22626,37.55846],[-122.23923,37.564],[-122.28836,37.58462],[-122.30679,37.5924],[-122.32448,37.5999],[-122.33855,37.60573],[-122.3455,37.60876],[-122.35523,37.61277]],"type":"LineString"}
}
