{
  "id": 2014911203,
  "type": "Feature",
  "properties": {
    "geom:area": 0,
    "geom:bbox": "-122.366667,37.633333,-104.683333,39.863611",
    "geom:latitude": 38.41992813281432,
    "geom:longitude": -113.3323883161704,
    "src:alt_label": "swim-path",
    "src:geom": "swim",
    "swim:altitudes": [
      "005",
      "030",
      "070",
      "102",
      "102",
      "102",
      "163",
      "190",
      "190",
      "190",
      "198",
      "198",
      "226",
      "226",
      "273",
      "273",
      "277",
      "277",
      "295",
      "295",
      "299",
      "317",
      "319",
      "330C",
      "330C",
      "330C",
      "339",
      "341",
      "341",
      "350C",
      "350C",
      "350C",
      "350C",
      "350C",
      "350C",
      "350C",
      "350C",
      "350C",
      "350C",
      "350C",
      "350C",
      "350C",
      "350C",
      "350C",
      "350C",
      "350C",
      "350C",
      "350C",
      "350C",
      "350C",
      "350C",
      "350C",
      "350C",
      "350C",
      "350C",
      "350C",
      "350C",
      "350C",
      "350C",
      "350C",
      "350C",
      "350C",
      "350C",
      "350",
      "350",
      "360",
      "370C",
      "370C",
      "370C",
      "370C",
      "370C",
      "370C",
      "370C",
      "370C",
      "370C",
      "370C",
      "370C",
      "370C",
      "370C",
      "370C",
      "370C",
      "370C",
      "370C",
      "370C",
      "370C",
      "370C",
      "370C",
      "370C",
      "370C",
      "370C",
      "370C",
      "370C",
      "370C",
      "370C",
      "370C",
      "370C",
      "370C",
      "370C",
      "370C",
      "370C",
      "370C",
      "370C",
      "370C",
      "370C",
      "370C",
      "370C",
      "370C",
      "370C",
      "370C",
      "370C",
      "370C",
      "370C",
      "370C",
      "370C",
      "370C",
      "370C",
      "370C",
      "370C",
      "370C",
      "370C",
      "370C",
      "336",
      "324",
      "324",
      "303",
      "287",
      "287",
      "247",
      "247",
      "247",
      "239",
      "193",
      "176",
      "176",
      "176",
      "174",
      "163",
      "163",
      "141",
      "141",
      "134",
      "134",
      "134",
      "121",
      "121",
      "116",
      "116",
      "116",
      "093",
      "093",
      "093",
      "068",
      "068",
      "054"
    ],
    "swim:geom": "path",
    "swim:speeds": [
      178,
      181,
      288,
      298,
      298,
      298,
      410,
      442,
      442,
      442,
      442,
      442,
      489,
      489,
      528,
      528,
      526,
      526,
      528,
      528,
      527,
      512,
      518,
      510,
      510,
      510,
      493,
      492,
      492,
      501,
      497,
      517,
      517,
      513,
      513,
      510,
      502,
      502,
      500,
      500,
      500,
      501,
      501,
      503,
      503,
      505,
      506,
      506,
      506,
      502,
      502,
      497,
      497,
      495,
      494,
      494,
      493,
      493,
      493,
      493,
      494,
      494,
      495,
      496,
      496,
      496,
      511,
      511,
      511,
      522,
      522,
      522,
      523,
      526,
      526,
      526,
      527,
      527,
      528,
      528,
      528,
      528,
      528,
      528,
      528,
      528,
      526,
      526,
      524,
      524,
      522,
      522,
      522,
      521,
      521,
      520,
      520,
      520,
      520,
      520,
      520,
      520,
      520,
      520,
      520,
      521,
      521,
      522,
      522,
      522,
      522,
      506,
      506,
      506,
      504,
      503,
      503,
      501,
      500,
      500,
      500,
      493,
      481,
      481,
      477,
      460,
      460,
      431,
      431,
      431,
      433,
      380,
      380,
      380,
      380,
      358,
      336,
      336,
      316,
      316,
      293,
      293,
      293,
      254,
      254,
      257,
      257,
      257,
      202,
      202,
      202,
      187,
      187,
      164
    ],
    "swim:timestamps": [
      1772297545,
      1772297600,
      1772297713,
      1772297780,
      1772297780,
      1772297780,
      1772297960,
      1772298080,
      1772298080,
      1772298080,
      1772298140,
      1772298140,
      1772298261,
      1772298261,
      1772298441,
      1772298441,
      1772298450,
      1772298450,
      1772298501,
      1772298501,
      1772298510,
      1772298561,
      1772298570,
      1772298630,
      1772298630,
      1772298630,
      1772298861,
      1772298871,
      1772298871,
      1772298921,
      1772298931,
      1772298981,
      1772298981,
      1772298991,
      1772298991,
      1772299042,
      1772299102,
      1772299102,
      1772299171,
      1772299171,
      1772299171,
      1772299282,
      1772299282,
      1772299342,
      1772299351,
      1772299411,
      1772299462,
      1772299471,
      1772299471,
      1772299652,
      1772299652,
      1772299772,
      1772299772,
      1772299832,
      1772299883,
      1772299883,
      1772299943,
      1772299943,
      1772299952,
      1772299952,
      1772300072,
      1772300072,
      1772300132,
      1772300192,
      1772300192,
      1772300264,
      1772300385,
      1772300385,
      1772300385,
      1772300565,
      1772300565,
      1772300565,
      1772300625,
      1772300745,
      1772300745,
      1772300745,
      1772300865,
      1772300865,
      1772300985,
      1772300985,
      1772300985,
      1772301045,
      1772301045,
      1772301106,
      1772301106,
      1772301106,
      1772301406,
      1772301406,
      1772301466,
      1772301466,
      1772301586,
      1772301586,
      1772301586,
      1772301652,
      1772301652,
      1772301712,
      1772301712,
      1772301766,
      1772301766,
      1772301772,
      1772301772,
      1772301832,
      1772301887,
      1772301887,
      1772301887,
      1772302007,
      1772302067,
      1772302247,
      1772302247,
      1772302253,
      1772302253,
      1772302313,
      1772302313,
      1772302313,
      1772302433,
      1772302613,
      1772302613,
      1772302733,
      1772302793,
      1772302793,
      1772302793,
      1772303034,
      1772303094,
      1772303094,
      1772303154,
      1772303214,
      1772303214,
      1772303359,
      1772303359,
      1772303359,
      1772303394,
      1772303574,
      1772303635,
      1772303635,
      1772303635,
      1772303654,
      1772303707,
      1772303707,
      1772303815,
      1772303815,
      1772303875,
      1772303875,
      1772303875,
      1772303954,
      1772303954,
      1772303995,
      1772303995,
      1772303995,
      1772304235,
      1772304235,
      1772304235,
      1772304375,
      1772304375,
      1772304476
    ],
    "wof:geomhash": "d93c6dbc0e2985835c7bd953d52f678c",
    "wof:id": 2014911203,
    "wof:repo": "sfomuseum-data-flights-2026-02"
  },
  "bbox": [
    -122.36666666666666,
    37.63333333333333,
    -104.68333333333334,
    39.86361111111111
  ],
  "geometry": {"coordinates":[[-122.36666666666666,37.63333333333333],[-122.32444444444444,37.660555555555554],[-122.18333333333334,37.71666666666667],[-122.07166666666666,37.748333333333335],[-122.07166666666666,37.748333333333335],[-122.07166666666666,37.748333333333335],[-121.69500000000001,37.843611111111116],[-121.41833333333334,37.91277777777778],[-121.41833333333334,37.91277777777778],[-121.41833333333334,37.91277777777778],[-121.2713888888889,37.94916666666666],[-121.2713888888889,37.94916666666666],[-120.95166666666667,38.01444444444444],[-120.95166666666667,38.01444444444444],[-120.41861111111112,38.09527777777778],[-120.41861111111112,38.09527777777778],[-120.38777777777779,38.098888888888894],[-120.38777777777779,38.098888888888894],[-120.23611111111111,38.1225],[-120.23611111111111,38.1225],[-120.20444444444445,38.12444444444444],[-120.06027777777777,38.14833333333333],[-120.02833333333334,38.151944444444446],[-119.85333333333332,38.17611111111111],[-119.85333333333332,38.17611111111111],[-119.85333333333332,38.17611111111111],[-119.20333333333333,38.27194444444444],[-119.17,38.278055555555554],[-119.17,38.278055555555554],[-119.00361111111111,38.32638888888889],[-119.00444444444445,38.325833333333335],[-118.83111111111111,38.37583333333333],[-118.83111111111111,38.37583333333333],[-118.83305555555555,38.37416666666667],[-118.83305555555555,38.37416666666667],[-118.66166666666668,38.42055555555555],[-118.48361111111112,38.43416666666666],[-118.48361111111112,38.43416666666666],[-118.2875,38.43388888888889],[-118.2875,38.43388888888889],[-118.2875,38.43388888888889],[-117.96388888888889,38.43138888888889],[-117.96388888888889,38.43138888888889],[-117.78416666666666,38.42916666666667],[-117.75166666666667,38.428888888888885],[-117.56944444444444,38.42638888888889],[-117.42277777777778,38.42444444444444],[-117.3875,38.42388888888889],[-117.3875,38.42388888888889],[-116.88194444444444,38.41777777777777],[-116.88194444444444,38.41777777777777],[-116.53055555555555,38.41277777777778],[-116.53055555555555,38.41277777777778],[-116.35527777777777,38.40972222222222],[-116.21361111111112,38.407222222222224],[-116.21361111111112,38.407222222222224],[-116.03833333333333,38.403888888888886],[-116.03833333333333,38.403888888888886],[-116.00638888888889,38.40333333333333],[-116.00638888888889,38.40333333333333],[-115.65527777777778,38.39555555555555],[-115.65527777777778,38.39555555555555],[-115.4786111111111,38.39138888888889],[-115.30499999999999,38.386944444444445],[-115.30499999999999,38.386944444444445],[-115.09944444444444,38.38111111111111],[-114.74055555555556,38.37083333333334],[-114.74055555555556,38.37083333333334],[-114.74055555555556,38.37083333333334],[-114.18611111111112,38.352222222222224],[-114.18611111111112,38.352222222222224],[-114.18611111111112,38.352222222222224],[-113.99916666666667,38.34527777777778],[-113.6275,38.33083333333334],[-113.6275,38.33083333333334],[-113.6275,38.33083333333334],[-113.25444444444445,38.315],[-113.25444444444445,38.315],[-112.88027777777778,38.29805555555556],[-112.88027777777778,38.29805555555556],[-112.88027777777778,38.29805555555556],[-112.69333333333334,38.28916666666667],[-112.69333333333334,38.28916666666667],[-112.50444444444445,38.27972222222222],[-112.50444444444445,38.27972222222222],[-112.50444444444445,38.27972222222222],[-111.57388888888889,38.22916666666667],[-111.57388888888889,38.22916666666667],[-111.3888888888889,38.218333333333334],[-111.3888888888889,38.218333333333334],[-111.02027777777778,38.19555555555555],[-111.02027777777778,38.19555555555555],[-111.02027777777778,38.19555555555555],[-110.81916666666666,38.18277777777777],[-110.81916666666666,38.18277777777777],[-110.63527777777779,38.170833333333334],[-110.63527777777779,38.170833333333334],[-110.45416666666667,38.15861111111111],[-110.45416666666667,38.15861111111111],[-110.45416666666667,38.15861111111111],[-110.45416666666667,38.15861111111111],[-110.27222222222223,38.14611111111111],[-110.08944444444444,38.135555555555555],[-110.08944444444444,38.135555555555555],[-110.08944444444444,38.135555555555555],[-109.72222222222223,38.125277777777775],[-109.53944444444444,38.12],[-108.99138888888889,38.10305555555556],[-108.99138888888889,38.10305555555556],[-108.99138888888889,38.10305555555556],[-108.99138888888889,38.10305555555556],[-108.82333333333332,38.14555555555555],[-108.82333333333332,38.14555555555555],[-108.82333333333332,38.14555555555555],[-108.505,38.269999999999996],[-108.03055555555555,38.45333333333333],[-108.03055555555555,38.45333333333333],[-107.71055555555556,38.573888888888895],[-107.5525,38.63305555555556],[-107.5525,38.63305555555556],[-107.5525,38.63305555555556],[-106.90694444444445,38.87583333333333],[-106.73166666666667,38.94083333333333],[-106.73166666666667,38.94083333333333],[-106.57805555555555,38.99777777777778],[-106.42944444444444,39.051944444444445],[-106.42944444444444,39.051944444444445],[-106.08333333333333,39.18333333333333],[-106.08333333333333,39.18333333333333],[-106.08333333333333,39.18333333333333],[-106.01666666666667,39.20166666666667],[-105.615,39.346111111111114],[-105.49194444444444,39.39111111111111],[-105.49194444444444,39.39111111111111],[-105.49194444444444,39.39111111111111],[-105.43333333333334,39.416666666666664],[-105.33333333333333,39.416666666666664],[-105.33333333333333,39.416666666666664],[-105.12527777777777,39.41888888888889],[-105.12527777777777,39.41888888888889],[-105.01861111111111,39.41888888888889],[-105.01861111111111,39.41888888888889],[-105.01861111111111,39.41888888888889],[-104.9,39.43333333333333],[-104.9,39.43333333333333],[-104.83611111111111,39.44555555555555],[-104.83611111111111,39.44555555555555],[-104.83611111111111,39.44555555555555],[-104.68944444444445,39.66],[-104.68944444444445,39.66],[-104.68944444444445,39.66],[-104.68333333333334,39.78333333333333],[-104.68333333333334,39.78333333333333],[-104.68722222222223,39.86361111111111]],"type":"LineString"}
}
