{
  "id": 2014881789,
  "type": "Feature",
  "properties": {
    "geom:area": 0,
    "geom:bbox": "-122.380000,37.620000,-79.390000,43.980000",
    "geom:latitude": 42.09467116960325,
    "geom:longitude": -100.99565161404901,
    "src:alt_label": "swim-route",
    "src:geom": "swim",
    "swim:geom": "route",
    "wof:geomhash": "604e15bb3e3f95308647bcc45934469d",
    "wof:id": 2014881789,
    "wof:repo": "sfomuseum-data-flights-2026-02"
  },
  "bbox": [
    -122.38,
    37.62,
    -79.39,
    43.98
  ],
  "geometry": {"coordinates":[[-122.38,37.62],[-122.28,37.68],[-122.27,37.69],[-122.27,37.69],[-122.21,37.72],[-122.21,37.72],[-122.21,37.73],[-122.19,37.75],[-122.15,37.79],[-122.14,37.8],[-122.07,37.88],[-122.01,37.92],[-121.85,38.02],[-121.85,38.03],[-121.79,38.07],[-121.74,38.1],[-121.62,38.18],[-121.53,38.24],[-121.53,38.25],[-121.44,38.31],[-121.41,38.32],[-121.39,38.34],[-121.35,38.36],[-121.14,38.49],[-121.07,38.54],[-120.99,38.58],[-120.94,38.61],[-120.91,38.63],[-120.57,38.84],[-120.18,39.08],[-119.63,39.4],[-119.44,39.51],[-118.8,39.88],[-118.41,40.04],[-118.02,40.2],[-117.94,40.22],[-117.67,40.3],[-117.41,40.38],[-117.19,40.45],[-116.64,40.55],[-115.81,40.69],[-114.44,40.91],[-114.13,40.96],[-114.04,40.97],[-112.95,41.15],[-112.71,41.16],[-112.33,41.17],[-112.26,41.19],[-110.78,41.46],[-107.57,41.97],[-104.65,42.36],[-102.35,42.61],[-99.72,42.84],[-97.17,43],[-96.19,43.05],[-94.79,43.1],[-94.67,43.1],[-94.03,43.12],[-93.07,43.14],[-92.67,43.15],[-91.3,43.15],[-89.89,43.15],[-88.28,43.12],[-87,43.15],[-86.04,43.17],[-85,43.22],[-84.46,43.24],[-84.34,43.25],[-83.98,43.29],[-83.7,43.32],[-83.36,43.36],[-83.25,43.37],[-82.9,43.41],[-82.29,43.47],[-82.18,43.47],[-81.95,43.47],[-81.71,43.47],[-81.56,43.47],[-81.34,43.47],[-81.23,43.47],[-81.03,43.47],[-80.82,43.46],[-80.74,43.46],[-80.42,43.46],[-80.38,43.46],[-80.19,43.51],[-80.17,43.51],[-79.87,43.59],[-79.8,43.66],[-79.8,43.67],[-79.72,43.75],[-79.67,43.78],[-79.66,43.79],[-79.54,43.87],[-79.49,43.91],[-79.44,43.94],[-79.39,43.98],[-79.47,43.87],[-79.51,43.83],[-79.53,43.8],[-79.59,43.73],[-79.63,43.68]],"type":"LineString"}
}
