{
  "id": 2014884019,
  "type": "Feature",
  "properties": {
    "geom:area": 0,
    "geom:bbox": "-122.746944,37.657222,-122.312500,45.589167",
    "geom:latitude": 41.69234577158993,
    "geom:longitude": -122.5637594595014,
    "src:alt_label": "swim-path",
    "src:geom": "swim",
    "swim:altitudes": [
      "030",
      "030",
      "040",
      "139",
      "139",
      "177",
      "212",
      "212",
      "241",
      "253",
      "289",
      "289",
      "300C",
      "320C",
      "320C",
      "320C",
      "320C",
      "320C",
      "321C",
      "320C",
      "320C",
      "320C",
      "320C",
      "320C",
      "320C",
      "320C",
      "320C",
      "320C",
      "320",
      "320",
      "316",
      "316",
      "264",
      "223",
      "223",
      "144",
      "069",
      "067",
      "054",
      "046",
      "040",
      "040",
      "021",
      "019",
      "019",
      "011",
      "003",
      "110"
    ],
    "swim:geom": "path",
    "swim:speeds": [
      155,
      155,
      218,
      346,
      346,
      384,
      407,
      407,
      429,
      440,
      471,
      471,
      468,
      461,
      462,
      461,
      461,
      457,
      456,
      435,
      444,
      444,
      443,
      441,
      439,
      437,
      436,
      435,
      435,
      433,
      431,
      431,
      400,
      386,
      386,
      354,
      261,
      245,
      234,
      233,
      229,
      229,
      143,
      144,
      144,
      140,
      134,
      130
    ],
    "swim:timestamps": [
      1772086850,
      1772086850,
      1772086910,
      1772087149,
      1772087149,
      1772087270,
      1772087389,
      1772087389,
      1772087509,
      1772087570,
      1772087750,
      1772087750,
      1772087870,
      1772088170,
      1772088231,
      1772088411,
      1772088530,
      1772088710,
      1772088771,
      1772089070,
      1772089130,
      1772089250,
      1772089370,
      1772089431,
      1772089491,
      1772089551,
      1772089611,
      1772089671,
      1772089731,
      1772089791,
      1772089911,
      1772089911,
      1772090091,
      1772090211,
      1772090211,
      1772090474,
      1772090871,
      1772090882,
      1772090942,
      1772090991,
      1772091051,
      1772091051,
      1772091171,
      1772091182,
      1772091182,
      1772091242,
      1772091302,
      1772091351
    ],
    "wof:geomhash": "b95d3e90bacd4df9f46ea11ef2813717",
    "wof:id": 2014884019,
    "wof:repo": "sfomuseum-data-flights-2026-02"
  },
  "bbox": [
    -122.74694444444445,
    37.657222222222224,
    -122.3125,
    45.58916666666667
  ],
  "geometry": {"coordinates":[[-122.33444444444444,37.657222222222224],[-122.33444444444444,37.657222222222224],[-122.3125,37.703611111111115],[-122.38305555555554,38.029444444444444],[-122.38305555555554,38.029444444444444],[-122.39583333333334,38.23222222222223],[-122.40166666666667,38.46638888888889],[-122.40166666666667,38.46638888888889],[-122.41805555555555,38.705555555555556],[-122.42555555555556,38.82944444444445],[-122.44583333333334,39.218611111111116],[-122.44583333333334,39.218611111111116],[-122.46055555555556,39.47888888888889],[-122.49777777777778,40.136944444444445],[-122.50472222222223,40.26861111111111],[-122.52638888888889,40.65611111111111],[-122.54083333333332,40.9125],[-122.56222222222222,41.2925],[-122.56861111111111,41.40333333333333],[-122.60805555555555,42.021388888888886],[-122.61611111111111,42.14527777777778],[-122.63277777777778,42.39388888888889],[-122.64916666666667,42.63916666666667],[-122.65694444444445,42.755833333333335],[-122.66527777777779,42.87722222222222],[-122.67333333333333,42.99944444444444],[-122.68166666666667,43.11944444444445],[-122.69,43.239444444444445],[-122.69833333333334,43.361111111111114],[-122.70666666666666,43.47944444444445],[-122.72305555555556,43.718333333333334],[-122.72305555555556,43.718333333333334],[-122.74694444444445,44.05555555555555],[-122.74055555555556,44.28],[-122.74055555555556,44.28],[-122.69694444444445,44.736666666666665],[-122.61805555555554,45.279444444444444],[-122.60694444444444,45.2925],[-122.55694444444444,45.347500000000004],[-122.51833333333333,45.388333333333335],[-122.4713888888889,45.44166666666666],[-122.4713888888889,45.44166666666666],[-122.44555555555556,45.535],[-122.45666666666666,45.53944444444444],[-122.45666666666666,45.53944444444444],[-122.50472222222223,45.55777777777777],[-122.55277777777778,45.57638888888889],[-122.58111111111111,45.58916666666667]],"type":"LineString"}
}
