{
  "id": 2014903981,
  "type": "Feature",
  "properties": {
    "geom:area": 0,
    "geom:bbox": "-124.908611,35.981944,-122.400000,37.645833",
    "geom:latitude": 36.8835290946005,
    "geom:longitude": -123.69096295363826,
    "src:alt_label": "swim-path",
    "src:geom": "swim",
    "swim:altitudes": [
      "007",
      "043",
      "050C",
      "050C",
      "083",
      "094C",
      "094C",
      "120C",
      "125",
      "143",
      "151C",
      "197",
      "210C",
      "210C",
      "218",
      "227C",
      "233",
      "245",
      "250C",
      "250C",
      "254",
      "261C",
      "268C",
      "271",
      "274C",
      "282C",
      "287",
      "293",
      "297C",
      "300C",
      "300C",
      "300C",
      "300C",
      "300C",
      "300C"
    ],
    "swim:geom": "path",
    "swim:speeds": [
      198,
      243,
      260,
      260,
      276,
      280,
      280,
      330,
      354,
      376,
      380,
      388,
      380,
      380,
      376,
      370,
      373,
      374,
      380,
      380,
      382,
      390,
      390,
      399,
      400,
      410,
      414,
      419,
      420,
      422,
      422,
      422,
      420,
      419,
      419
    ],
    "swim:timestamps": [
      1772263710,
      1772263852,
      1772263880,
      1772263880,
      1772263973,
      1772264000,
      1772264000,
      1772264121,
      1772264153,
      1772264213,
      1772264241,
      1772264393,
      1772264421,
      1772264421,
      1772264453,
      1772264481,
      1772264513,
      1772264573,
      1772264601,
      1772264601,
      1772264633,
      1772264661,
      1772264721,
      1772264753,
      1772264781,
      1772264841,
      1772264873,
      1772264933,
      1772264962,
      1772265113,
      1772265173,
      1772265173,
      1772265233,
      1772265293,
      1772265293
    ],
    "wof:geomhash": "97e625d04b550bef7e29c4c588eaa250",
    "wof:id": 2014903981,
    "wof:repo": "sfomuseum-data-flights-2026-02"
  },
  "bbox": [
    -124.90861111111111,
    35.981944444444444,
    -122.4,
    37.645833333333336
  ],
  "geometry": {"coordinates":[[-122.4,37.63333333333333],[-122.55111111111111,37.645833333333336],[-122.58333333333333,37.61666666666667],[-122.58333333333333,37.61666666666667],[-122.7,37.54888888888889],[-122.73333333333333,37.516666666666666],[-122.73333333333333,37.516666666666666],[-122.9,37.4],[-122.95583333333333,37.38388888888889],[-123.05777777777777,37.3175],[-123.1,37.266666666666666],[-123.37138888888889,37.112500000000004],[-123.41666666666667,37.06666666666667],[-123.41666666666667,37.06666666666667],[-123.4713888888889,37.04666666666667],[-123.51666666666667,37],[-123.57222222222222,36.98027777777778],[-123.67277777777778,36.91361111111111],[-123.71666666666667,36.86666666666667],[-123.71666666666667,36.86666666666667],[-123.77388888888889,36.84666666666667],[-123.83333333333333,36.8],[-123.93333333333334,36.733333333333334],[-123.98472222222222,36.70611111111111],[-124.03333333333333,36.666666666666664],[-124.15,36.583333333333336],[-124.20472222222223,36.558611111111105],[-124.31388888888888,36.484722222222224],[-124.36666666666666,36.43333333333333],[-124.64944444444446,36.257222222222225],[-124.75694444444444,36.17916666666667],[-124.75694444444444,36.17916666666667],[-124.83527777777778,36.08083333333334],[-124.90861111111111,35.981944444444444],[-124.90861111111111,35.981944444444444]],"type":"LineString"}
}
