{
  "id": 2014832389,
  "type": "Feature",
  "properties": {
    "geom:area": 0,
    "geom:bbox": "-122.348880,36.726950,-121.882670,37.607670",
    "geom:latitude": 37.20676466006507,
    "geom:longitude": -122.06806764705298,
    "src:alt_label": "swim-approach",
    "src:geom": "swim",
    "swim:elevations": [
      5875,
      5791,
      5679,
      5425,
      5386,
      5177,
      5082,
      5012,
      4641,
      4479,
      4194,
      3929,
      3559,
      3472,
      3227,
      2863,
      2623,
      2476,
      2380,
      2106,
      1967,
      1845,
      1719,
      1254,
      1220,
      1219,
      1219,
      1257,
      1251,
      1112,
      857,
      702,
      586,
      504,
      383,
      244,
      120,
      83
    ],
    "swim:geom": "approach",
    "swim:timestamps": [
      1771528793,
      1771528806,
      1771528849,
      1771528880,
      1771528886,
      1771528909,
      1771528918,
      1771528928,
      1771528972,
      1771528991,
      1771529024,
      1771529054,
      1771529098,
      1771529108,
      1771529139,
      1771529185,
      1771529216,
      1771529240,
      1771529259,
      1771529288,
      1771529300,
      1771529322,
      1771529349,
      1771529392,
      1771529408,
      1771529432,
      1771529441,
      1771529460,
      1771529469,
      1771529498,
      1771529545,
      1771529577,
      1771529606,
      1771529627,
      1771529658,
      1771529695,
      1771529728,
      1771529740
    ],
    "wof:geomhash": "f326d2216660dc930df1c5b40750ba29",
    "wof:id": 2014832389,
    "wof:repo": "sfomuseum-data-flights-2026-02"
  },
  "bbox": [
    -122.34888,
    36.72695,
    -121.88267,
    37.60767
  ],
  "geometry": {"coordinates":[[-121.88267,36.72695],[-121.89177,36.74128],[-121.90865,36.79347],[-121.91883,36.82952],[-121.92085,36.83685],[-121.92901,36.86604],[-121.93209,36.87702],[-121.93548,36.88902],[-121.9507,36.94383],[-121.95893,36.96679],[-121.97433,37.00652],[-121.98831,37.04235],[-122.00848,37.094],[-122.01305,37.10551],[-122.02682,37.14071],[-122.04771,37.19472],[-122.06132,37.2293],[-122.07147,37.25492],[-122.07936,37.27469],[-122.0909,37.30415],[-122.09568,37.31641],[-122.10453,37.33899],[-122.11535,37.36642],[-122.13073,37.41003],[-122.13615,37.42567],[-122.14427,37.44916],[-122.14769,37.45778],[-122.15589,37.47532],[-122.1599,37.48319],[-122.17811,37.50537],[-122.20814,37.54082],[-122.22901,37.55737],[-122.251,37.56666],[-122.26737,37.57342],[-122.29147,37.5836],[-122.31766,37.5946],[-122.34044,37.60413],[-122.34888,37.60767]],"type":"LineString"}
}
