{
  "id": 2014852601,
  "type": "Feature",
  "properties": {
    "geom:area": 0,
    "geom:bbox": "-122.252500,37.577222,-77.437500,38.862222",
    "geom:latitude": 38.26656891037133,
    "geom:longitude": -99.8310834611581,
    "src:alt_label": "swim-path",
    "src:geom": "swim",
    "swim:altitudes": [
      "039",
      "039",
      "106",
      "106",
      "106",
      "141",
      "141",
      "141",
      "178",
      "209",
      "209",
      "223",
      "223",
      "236",
      "236",
      "256",
      "256",
      "256",
      "298",
      "298",
      "306",
      "310C",
      "310C",
      "310C",
      "310C",
      "310C",
      "310C",
      "310C",
      "310C",
      "310C",
      "311",
      "311",
      "311",
      "330C",
      "330C",
      "330C",
      "330C",
      "330C",
      "330C",
      "330C",
      "330C",
      "330C",
      "330C",
      "330C",
      "330C",
      "330C",
      "330C",
      "330C",
      "330C",
      "330C",
      "330C",
      "330C",
      "330C",
      "330C",
      "330C",
      "330C",
      "330C",
      "330C",
      "330C",
      "330C",
      "330C",
      "330C",
      "330C",
      "330C",
      "330C",
      "330C",
      "330C",
      "330C",
      "330C",
      "330C",
      "330C",
      "330C",
      "330C",
      "330C",
      "330C",
      "330C",
      "330C",
      "330C",
      "330C",
      "330C",
      "330C",
      "330C",
      "330C",
      "330C",
      "330C",
      "330C",
      "330C",
      "330C",
      "330C",
      "330C",
      "330C",
      "330C",
      "330C",
      "330C",
      "330C",
      "330C",
      "330C",
      "330C",
      "330C",
      "330C",
      "330C",
      "330C",
      "330C",
      "330C",
      "330C",
      "330C",
      "330C",
      "330C",
      "330C",
      "330C",
      "330C",
      "330C",
      "330C",
      "330C",
      "330C",
      "330C",
      "330C",
      "330C",
      "330C",
      "330C",
      "330C",
      "330C",
      "330C",
      "330C",
      "330C",
      "330C",
      "330C",
      "330C",
      "330C",
      "330C",
      "330C",
      "330C",
      "330C",
      "330C",
      "330C",
      "330C",
      "330C",
      "330C",
      "330C",
      "330C",
      "330C",
      "330C",
      "330C",
      "330C",
      "330C",
      "330C",
      "330C",
      "330C",
      "330C",
      "330C",
      "330C",
      "330C",
      "330C",
      "330C",
      "330C",
      "330C",
      "330C",
      "330C",
      "330C",
      "330C",
      "330C",
      "330C",
      "330C",
      "330C",
      "330C",
      "330C",
      "330C",
      "330C",
      "330C",
      "330C",
      "330C",
      "330C",
      "330C",
      "330C",
      "330C",
      "330C",
      "330C",
      "330C",
      "330C",
      "330C",
      "330C",
      "330C",
      "330C",
      "330C",
      "330C",
      "330C",
      "330C",
      "330C",
      "330C",
      "330C",
      "330C",
      "330C",
      "330C",
      "330C",
      "330C",
      "330C",
      "330C",
      "330C",
      "330C",
      "330C",
      "330C",
      "330C",
      "330C",
      "330C",
      "330C",
      "330C",
      "330C",
      "330C",
      "330C",
      "330C",
      "330C",
      "330C",
      "330C",
      "330C",
      "330C",
      "330C",
      "330C",
      "330C",
      "330C",
      "330C",
      "330C",
      "330C",
      "330C",
      "330C",
      "330C",
      "330C",
      "330C",
      "330C",
      "330C",
      "330C",
      "330C",
      "330C",
      "330C",
      "330C",
      "330C",
      "330C",
      "330C",
      "330C",
      "330C",
      "330C",
      "330C",
      "330C",
      "330C",
      "330C",
      "330C",
      "330C",
      "330C",
      "330C",
      "330C",
      "330C",
      "330C",
      "330C",
      "330C",
      "330C",
      "330C",
      "330C",
      "330C",
      "330C",
      "330C",
      "330C",
      "330C",
      "330C",
      "330C",
      "330C",
      "330C",
      "330C",
      "330C",
      "330C",
      "330C",
      "330C",
      "330C",
      "330C",
      "330C",
      "330C",
      "330C",
      "330C",
      "330C",
      "330C",
      "330C",
      "330C",
      "330C",
      "330C",
      "330C",
      "330C",
      "330C",
      "330C",
      "330C",
      "330C",
      "330C",
      "330C",
      "330C",
      "330C",
      "328",
      "328",
      "326",
      "326",
      "326",
      "326",
      "317",
      "260",
      "242",
      "242",
      "242",
      "216",
      "204",
      "204",
      "159",
      "159",
      "159",
      "157",
      "157",
      "146",
      "133",
      "133",
      "125",
      "110",
      "100",
      "100",
      "100",
      "100",
      "048",
      "048",
      "035",
      "030",
      "016"
    ],
    "swim:geom": "path",
    "swim:speeds": [
      217,
      217,
      323,
      323,
      323,
      400,
      400,
      400,
      439,
      463,
      463,
      478,
      478,
      491,
      491,
      521,
      521,
      521,
      549,
      549,
      549,
      549,
      549,
      548,
      548,
      548,
      546,
      546,
      545,
      545,
      543,
      543,
      543,
      553,
      553,
      553,
      553,
      550,
      550,
      550,
      550,
      550,
      550,
      550,
      550,
      550,
      550,
      550,
      550,
      550,
      550,
      550,
      550,
      550,
      554,
      554,
      554,
      554,
      554,
      557,
      557,
      557,
      557,
      559,
      559,
      559,
      559,
      562,
      562,
      558,
      558,
      558,
      557,
      555,
      555,
      554,
      553,
      553,
      552,
      550,
      550,
      550,
      550,
      550,
      551,
      551,
      551,
      551,
      553,
      553,
      553,
      553,
      558,
      558,
      558,
      560,
      560,
      559,
      559,
      559,
      560,
      560,
      560,
      562,
      562,
      563,
      565,
      565,
      565,
      565,
      560,
      559,
      559,
      561,
      561,
      560,
      562,
      562,
      562,
      562,
      566,
      566,
      566,
      566,
      564,
      564,
      564,
      564,
      559,
      559,
      553,
      553,
      553,
      547,
      543,
      543,
      543,
      538,
      538,
      538,
      538,
      537,
      537,
      537,
      536,
      536,
      536,
      536,
      535,
      534,
      529,
      529,
      529,
      530,
      530,
      532,
      532,
      533,
      533,
      533,
      533,
      532,
      532,
      532,
      532,
      528,
      528,
      528,
      528,
      530,
      530,
      530,
      530,
      529,
      528,
      527,
      530,
      530,
      530,
      532,
      531,
      530,
      530,
      530,
      529,
      529,
      529,
      529,
      529,
      529,
      529,
      529,
      529,
      529,
      529,
      529,
      529,
      531,
      531,
      531,
      531,
      539,
      539,
      539,
      540,
      540,
      540,
      540,
      541,
      541,
      541,
      543,
      543,
      543,
      546,
      546,
      546,
      552,
      552,
      550,
      550,
      555,
      555,
      553,
      553,
      557,
      557,
      560,
      564,
      564,
      564,
      567,
      567,
      569,
      569,
      570,
      570,
      570,
      571,
      571,
      572,
      572,
      572,
      573,
      573,
      574,
      574,
      575,
      574,
      576,
      576,
      579,
      579,
      587,
      587,
      592,
      592,
      592,
      593,
      591,
      591,
      590,
      590,
      590,
      588,
      588,
      588,
      588,
      591,
      592,
      592,
      592,
      592,
      592,
      588,
      592,
      592,
      590,
      589,
      589,
      589,
      589,
      579,
      579,
      578,
      578,
      577,
      576,
      576,
      575,
      575,
      574,
      575,
      575,
      576,
      576,
      576,
      576,
      578,
      531,
      516,
      516,
      516,
      511,
      516,
      516,
      407,
      407,
      407,
      398,
      398,
      394,
      373,
      373,
      373,
      364,
      348,
      336,
      327,
      330,
      272,
      272,
      247,
      202,
      165
    ],
    "swim:timestamps": [
      1771704532,
      1771704532,
      1771704712,
      1771704712,
      1771704712,
      1771704832,
      1771704832,
      1771704832,
      1771704952,
      1771705072,
      1771705072,
      1771705132,
      1771705132,
      1771705192,
      1771705192,
      1771705313,
      1771705313,
      1771705313,
      1771705553,
      1771705553,
      1771705591,
      1771705651,
      1771705651,
      1771705711,
      1771705711,
      1771705711,
      1771705733,
      1771705793,
      1771705853,
      1771705853,
      1771706011,
      1771706011,
      1771706011,
      1771706132,
      1771706132,
      1771706132,
      1771706132,
      1771706432,
      1771706514,
      1771706514,
      1771706574,
      1771706574,
      1771706574,
      1771706574,
      1771706634,
      1771706634,
      1771706672,
      1771706672,
      1771706732,
      1771706792,
      1771706853,
      1771706853,
      1771706853,
      1771706913,
      1771707213,
      1771707213,
      1771707586,
      1771707586,
      1771707586,
      1771707766,
      1771707766,
      1771707766,
      1771707766,
      1771707826,
      1771707946,
      1771707946,
      1771707946,
      1771708034,
      1771708034,
      1771708154,
      1771708154,
      1771708154,
      1771708274,
      1771708394,
      1771708394,
      1771708454,
      1771708487,
      1771708487,
      1771708514,
      1771708574,
      1771708607,
      1771708607,
      1771708607,
      1771708667,
      1771708695,
      1771708695,
      1771708727,
      1771708755,
      1771708815,
      1771708815,
      1771708847,
      1771708847,
      1771708935,
      1771708935,
      1771708935,
      1771709115,
      1771709115,
      1771709235,
      1771709295,
      1771709355,
      1771709416,
      1771709416,
      1771709416,
      1771709476,
      1771709476,
      1771709536,
      1771709596,
      1771709596,
      1771709596,
      1771709596,
      1771710197,
      1771710257,
      1771710257,
      1771710303,
      1771710303,
      1771710317,
      1771710377,
      1771710377,
      1771710377,
      1771710377,
      1771710483,
      1771710483,
      1771710543,
      1771710543,
      1771710663,
      1771710663,
      1771710663,
      1771710663,
      1771710724,
      1771710724,
      1771710904,
      1771710904,
      1771710904,
      1771710978,
      1771711024,
      1771711024,
      1771711024,
      1771711084,
      1771711144,
      1771711158,
      1771711158,
      1771711218,
      1771711218,
      1771711278,
      1771711324,
      1771711338,
      1771711338,
      1771711398,
      1771711445,
      1771711458,
      1771711565,
      1771711565,
      1771711565,
      1771711625,
      1771711625,
      1771711685,
      1771711685,
      1771711805,
      1771711805,
      1771711865,
      1771711925,
      1771711985,
      1771711985,
      1771711985,
      1771711985,
      1771712106,
      1771712286,
      1771712286,
      1771712286,
      1771712526,
      1771712526,
      1771712526,
      1771712526,
      1771712586,
      1771712646,
      1771712706,
      1771712887,
      1771712887,
      1771712887,
      1771713007,
      1771713067,
      1771713187,
      1771713187,
      1771713187,
      1771713427,
      1771713427,
      1771713487,
      1771713487,
      1771713487,
      1771713547,
      1771713667,
      1771713667,
      1771713667,
      1771713727,
      1771713787,
      1771713787,
      1771713787,
      1771713968,
      1771713968,
      1771713968,
      1771713968,
      1771714208,
      1771714208,
      1771714208,
      1771714388,
      1771714388,
      1771714388,
      1771714388,
      1771714509,
      1771714509,
      1771714509,
      1771714629,
      1771714629,
      1771714629,
      1771714689,
      1771714689,
      1771714689,
      1771714809,
      1771714809,
      1771714823,
      1771714823,
      1771714869,
      1771714869,
      1771714883,
      1771714883,
      1771714929,
      1771714929,
      1771715049,
      1771715184,
      1771715184,
      1771715184,
      1771715244,
      1771715244,
      1771715290,
      1771715304,
      1771715350,
      1771715350,
      1771715364,
      1771715410,
      1771715410,
      1771715424,
      1771715424,
      1771715484,
      1771715530,
      1771715530,
      1771715544,
      1771715544,
      1771715604,
      1771715724,
      1771715785,
      1771715785,
      1771715905,
      1771715905,
      1771716145,
      1771716145,
      1771716265,
      1771716265,
      1771716265,
      1771716325,
      1771716506,
      1771716506,
      1771716566,
      1771716566,
      1771716566,
      1771716806,
      1771716806,
      1771716806,
      1771716806,
      1771716926,
      1771716986,
      1771716986,
      1771716986,
      1771716986,
      1771717047,
      1771717089,
      1771717107,
      1771717107,
      1771717167,
      1771717210,
      1771717227,
      1771717227,
      1771717270,
      1771717390,
      1771717390,
      1771717407,
      1771717407,
      1771717467,
      1771717510,
      1771717510,
      1771717527,
      1771717527,
      1771717587,
      1771717630,
      1771717630,
      1771717647,
      1771717647,
      1771717647,
      1771717647,
      1771717690,
      1771717888,
      1771717948,
      1771717948,
      1771717948,
      1771717991,
      1771718008,
      1771718008,
      1771718171,
      1771718171,
      1771718171,
      1771718182,
      1771718182,
      1771718231,
      1771718291,
      1771718291,
      1771718326,
      1771718386,
      1771718506,
      1771718532,
      1771718566,
      1771718592,
      1771718832,
      1771718832,
      1771718892,
      1771718952,
      1771719073
    ],
    "wof:geomhash": "ad267ff3c095452e38e6b8dbc0ebec3d",
    "wof:id": 2014852601,
    "wof:repo": "sfomuseum-data-flights-2026-02"
  },
  "bbox": [
    -122.2525,
    37.577222222222225,
    -77.4375,
    38.86222222222222
  ],
  "geometry": {"coordinates":[[-122.2525,37.577222222222225],[-122.2525,37.577222222222225],[-121.97722222222222,37.67444444444444],[-121.97722222222222,37.67444444444444],[-121.97722222222222,37.67444444444444],[-121.73916666666666,37.76222222222222],[-121.73916666666666,37.76222222222222],[-121.73916666666666,37.76222222222222],[-121.4625,37.86222222222222],[-121.17333333333333,37.96638888888889],[-121.17333333333333,37.96638888888889],[-121.01416666666667,38.00527777777778],[-121.01416666666667,38.00527777777778],[-120.84694444444445,38.031666666666666],[-120.84694444444445,38.031666666666666],[-120.49361111111111,38.08555555555556],[-120.49361111111111,38.08555555555556],[-120.49361111111111,38.08555555555556],[-119.73805555555556,38.19694444444444],[-119.73805555555556,38.19694444444444],[-119.59972222222221,38.21472222222223],[-119.41111111111111,38.24138888888889],[-119.41111111111111,38.24138888888889],[-119.2225,38.26861111111111],[-119.2225,38.26861111111111],[-119.2225,38.26861111111111],[-119.14555555555556,38.28],[-118.95611111111111,38.30555555555555],[-118.76666666666667,38.33083333333334],[-118.76666666666667,38.33083333333334],[-118.29305555555555,38.39361111111111],[-118.29305555555555,38.39361111111111],[-118.29305555555555,38.39361111111111],[-117.905,38.44361111111111],[-117.905,38.44361111111111],[-117.905,38.44361111111111],[-117.905,38.44361111111111],[-116.92861111111111,38.53916666666667],[-116.65277777777779,38.55222222222222],[-116.65277777777779,38.55222222222222],[-116.45666666666666,38.561388888888885],[-116.45666666666666,38.561388888888885],[-116.45666666666666,38.561388888888885],[-116.45666666666666,38.561388888888885],[-116.26166666666667,38.57027777777778],[-116.26166666666667,38.57027777777778],[-116.14472222222223,38.57527777777778],[-116.14472222222223,38.57527777777778],[-115.94972222222222,38.58361111111111],[-115.755,38.59166666666667],[-115.56055555555555,38.59916666666667],[-115.56055555555555,38.59916666666667],[-115.56055555555555,38.59916666666667],[-115.36583333333333,38.60638888888889],[-114.3875,38.63638888888889],[-114.3875,38.63638888888889],[-113.16611111111112,38.66583333333333],[-113.16611111111112,38.66583333333333],[-113.16611111111112,38.66583333333333],[-112.57222222222222,38.67472222222222],[-112.57222222222222,38.67472222222222],[-112.57222222222222,38.67472222222222],[-112.57222222222222,38.67472222222222],[-112.37194444444444,38.676944444444445],[-111.97222222222223,38.68055555555555],[-111.97222222222223,38.68055555555555],[-111.97222222222223,38.68055555555555],[-111.68944444444445,38.68222222222222],[-111.68944444444445,38.68222222222222],[-111.2936111111111,38.68333333333333],[-111.2936111111111,38.68333333333333],[-111.2936111111111,38.68333333333333],[-110.87888888888888,38.683611111111105],[-110.48722222222223,38.68194444444444],[-110.48722222222223,38.68194444444444],[-110.29277777777777,38.68083333333333],[-110.21166666666667,38.680277777777775],[-110.21166666666667,38.680277777777775],[-110.09694444444445,38.678888888888885],[-109.90333333333334,38.675555555555555],[-109.825,38.67166666666667],[-109.825,38.67166666666667],[-109.825,38.67166666666667],[-109.63055555555555,38.6625],[-109.51277777777777,38.65611111111111],[-109.51277777777777,38.65611111111111],[-109.4363888888889,38.65222222222222],[-109.32,38.645833333333336],[-109.12222222222222,38.635],[-109.12222222222222,38.635],[-109.04555555555555,38.63055555555555],[-109.04555555555555,38.63055555555555],[-108.73,38.61222222222222],[-108.73,38.61222222222222],[-108.73,38.61222222222222],[-108.14027777777778,38.57611111111112],[-108.14027777777778,38.57611111111112],[-107.74833333333333,38.55],[-107.55083333333333,38.53666666666666],[-107.35388888888889,38.522777777777776],[-107.15444444444445,38.50888888888889],[-107.15444444444445,38.50888888888889],[-107.15444444444445,38.50888888888889],[-106.95583333333333,38.49388888888889],[-106.95583333333333,38.49388888888889],[-106.75861111111111,38.47888888888889],[-106.55666666666666,38.463055555555556],[-106.55666666666666,38.463055555555556],[-106.55666666666666,38.463055555555556],[-106.55666666666666,38.463055555555556],[-104.60472222222222,38.291666666666664],[-104.40777777777778,38.27166666666667],[-104.40777777777778,38.27166666666667],[-104.24805555555555,38.255],[-104.24805555555555,38.255],[-104.20972222222223,38.25138888888889],[-104.01305555555555,38.23083333333334],[-104.01305555555555,38.23083333333334],[-104.01305555555555,38.23083333333334],[-104.01305555555555,38.23083333333334],[-103.65333333333334,38.19222222222222],[-103.65333333333334,38.19222222222222],[-103.46055555555556,38.17111111111111],[-103.46055555555556,38.17111111111111],[-103.06972222222223,38.12722222222222],[-103.06972222222223,38.12722222222222],[-103.06972222222223,38.12722222222222],[-103.06972222222223,38.12722222222222],[-102.875,38.10472222222222],[-102.875,38.10472222222222],[-102.29666666666667,38.03638888888889],[-102.29666666666667,38.03638888888889],[-102.29666666666667,38.03638888888889],[-102.06694444444445,38.00805555555556],[-101.9175,38.00222222222222],[-101.9175,38.00222222222222],[-101.9175,38.00222222222222],[-101.72611111111111,38.007222222222225],[-101.53805555555556,38.01222222222222],[-101.49972222222222,38.013333333333335],[-101.49972222222222,38.013333333333335],[-101.31,38.018055555555556],[-101.31,38.018055555555556],[-101.11694444444444,38.02222222222222],[-100.96944444444445,38.025277777777774],[-100.92666666666668,38.02638888888889],[-100.92666666666668,38.02638888888889],[-100.73833333333333,38.03],[-100.58638888888889,38.0325],[-100.54694444444445,38.033055555555556],[-100.21611111111112,38.03861111111111],[-100.21611111111112,38.03861111111111],[-100.21611111111112,38.03861111111111],[-100.0261111111111,38.04111111111111],[-100.0261111111111,38.04111111111111],[-99.83805555555556,38.043055555555554],[-99.83805555555556,38.043055555555554],[-99.46333333333334,38.04666666666667],[-99.46333333333334,38.04666666666667],[-99.27388888888889,38.047777777777775],[-99.08722222222222,38.04888888888889],[-98.89972222222222,38.04944444444444],[-98.89972222222222,38.04944444444444],[-98.89972222222222,38.04944444444444],[-98.89972222222222,38.04944444444444],[-98.53111111111112,38.05],[-97.98055555555555,38.04861111111111],[-97.98055555555555,38.04861111111111],[-97.98055555555555,38.04861111111111],[-97.21027777777778,38.04972222222222],[-97.21027777777778,38.04972222222222],[-97.21027777777778,38.04972222222222],[-97.21027777777778,38.04972222222222],[-97.02583333333334,38.04944444444444],[-96.84083333333332,38.04972222222222],[-96.655,38.04861111111111],[-96.09777777777778,38.04194444444444],[-96.09777777777778,38.04194444444444],[-96.09777777777778,38.04194444444444],[-95.71888888888888,38.03722222222222],[-95.53277777777778,38.035555555555554],[-95.16111111111111,38.02861111111111],[-95.16111111111111,38.02861111111111],[-95.16111111111111,38.02861111111111],[-94.42111111111112,38.011944444444445],[-94.42111111111112,38.011944444444445],[-94.23555555555555,38.007222222222225],[-94.23555555555555,38.007222222222225],[-94.23555555555555,38.007222222222225],[-94.07166666666666,38.00194444444445],[-93.69861111111112,38.00527777777778],[-93.69861111111112,38.00527777777778],[-93.69861111111112,38.00527777777778],[-93.51055555555556,38.00888888888889],[-93.32416666666666,38.01138888888889],[-93.32416666666666,38.01138888888889],[-93.32416666666666,38.01138888888889],[-92.76388888888889,38.0175],[-92.76388888888889,38.0175],[-92.76388888888889,38.0175],[-92.76388888888889,38.0175],[-91.9875,38.02166666666667],[-91.9875,38.02166666666667],[-91.9875,38.02166666666667],[-91.41611111111112,38.02194444444444],[-91.41611111111112,38.02194444444444],[-91.41611111111112,38.02194444444444],[-91.41611111111112,38.02194444444444],[-91.03277777777778,38.01861111111111],[-91.03277777777778,38.01861111111111],[-91.03277777777778,38.01861111111111],[-90.65944444444445,38.01305555555555],[-90.65944444444445,38.01305555555555],[-90.65944444444445,38.01305555555555],[-90.46888888888888,38.01],[-90.46888888888888,38.01],[-90.46888888888888,38.01],[-90.08583333333333,38.00194444444445],[-90.08583333333333,38.00194444444445],[-90.04583333333333,38.00083333333333],[-90.04583333333333,38.00083333333333],[-89.8888888888889,37.9975],[-89.8888888888889,37.9975],[-89.85111111111111,37.996944444444445],[-89.85111111111111,37.996944444444445],[-89.69166666666668,37.99277777777778],[-89.69166666666668,37.99277777777778],[-89.30222222222221,37.98222222222223],[-88.86888888888888,37.96888888888889],[-88.86888888888888,37.96888888888889],[-88.86888888888888,37.96888888888889],[-88.67083333333333,37.962500000000006],[-88.67083333333333,37.962500000000006],[-88.50055555555555,37.95638888888889],[-88.46055555555556,37.955000000000005],[-88.29916666666666,37.94944444444444],[-88.29916666666666,37.94944444444444],[-88.25888888888889,37.94777777777777],[-88.09888888888888,37.94194444444444],[-88.09888888888888,37.94194444444444],[-88.0586111111111,37.94027777777777],[-88.0586111111111,37.94027777777777],[-87.85805555555555,37.93222222222222],[-87.69583333333334,37.93444444444444],[-87.69583333333334,37.93444444444444],[-87.65694444444445,37.93805555555555],[-87.65694444444445,37.93805555555555],[-87.45472222222223,37.955555555555556],[-87.05944444444444,37.98916666666667],[-86.85722222222222,38.00666666666667],[-86.85722222222222,38.00666666666667],[-86.455,38.04222222222222],[-86.455,38.04222222222222],[-85.63388888888889,38.11],[-85.63388888888889,38.11],[-85.21722222222222,38.14222222222222],[-85.21722222222222,38.14222222222222],[-85.21722222222222,38.14222222222222],[-85.00694444444444,38.1575],[-84.38444444444445,38.20138888888889],[-84.38444444444445,38.20138888888889],[-84.17944444444444,38.215],[-84.17944444444444,38.215],[-84.17944444444444,38.215],[-83.34777777777778,38.26694444444444],[-83.34777777777778,38.26694444444444],[-83.34777777777778,38.26694444444444],[-83.34777777777778,38.26694444444444],[-82.93138888888889,38.29055555555556],[-82.72,38.302499999999995],[-82.72,38.302499999999995],[-82.72,38.302499999999995],[-82.72,38.302499999999995],[-82.51055555555556,38.31361111111111],[-82.34027777777777,38.32194444444445],[-82.29833333333333,38.32472222222223],[-82.29833333333333,38.32472222222223],[-82.09055555555555,38.33444444444444],[-81.92527777777778,38.342222222222226],[-81.88444444444445,38.344166666666666],[-81.88444444444445,38.344166666666666],[-81.71805555555555,38.348333333333336],[-81.31333333333333,38.33555555555556],[-81.31333333333333,38.33555555555556],[-81.27555555555556,38.33416666666667],[-81.27555555555556,38.33416666666667],[-81.07138888888889,38.32666666666667],[-80.905,38.32027777777778],[-80.905,38.32027777777778],[-80.87027777777777,38.31916666666667],[-80.87027777777777,38.31916666666667],[-80.66861111111112,38.31111111111111],[-80.4975,38.30694444444444],[-80.4975,38.30694444444444],[-80.46194444444444,38.30916666666666],[-80.46194444444444,38.30916666666666],[-80.46194444444444,38.30916666666666],[-80.46194444444444,38.30916666666666],[-80.29777777777778,38.33583333333333],[-79.69,38.45888888888889],[-79.51361111111112,38.49527777777778],[-79.51361111111112,38.49527777777778],[-79.51361111111112,38.49527777777778],[-79.39,38.51972222222222],[-79.33749999999999,38.52972222222222],[-79.33749999999999,38.52972222222222],[-78.90861111111111,38.611666666666665],[-78.90861111111111,38.611666666666665],[-78.90861111111111,38.611666666666665],[-78.88333333333334,38.61666666666667],[-78.88333333333334,38.61666666666667],[-78.7725,38.63722222222222],[-78.6463888888889,38.66722222222222],[-78.6463888888889,38.66722222222222],[-78.56666666666666,38.68333333333333],[-78.43333333333334,38.68333333333333],[-78.18333333333334,38.68333333333333],[-78.13194444444444,38.68583333333333],[-78.05,38.68333333333333],[-78.01611111111112,38.68611111111111],[-77.60388888888889,38.70916666666667],[-77.60388888888889,38.70916666666667],[-77.52111111111111,38.731944444444444],[-77.45722222222223,38.76083333333333],[-77.4375,38.86222222222222]],"type":"LineString"}
}
