{
  "id": 2014828321,
  "type": "Feature",
  "properties": {
    "geom:area": 0,
    "geom:bbox": "-122.530000,37.620000,-104.670000,39.920000",
    "geom:latitude": 38.39721389507261,
    "geom:longitude": -113.5341343884894,
    "src:alt_label": "swim-route",
    "src:geom": "swim",
    "swim:geom": "route",
    "wof:geomhash": "7aaf962f1e60d44cf9adca88ef485dec",
    "wof:id": 2014828321,
    "wof:repo": "sfomuseum-data-flights-2026-02"
  },
  "bbox": [
    -122.53,
    37.62,
    -104.67,
    39.92
  ],
  "geometry": {"coordinates":[[-122.38,37.62],[-122.48,37.67],[-122.49,37.67],[-122.52,37.68],[-122.52,37.71],[-122.53,37.72],[-122.53,37.75],[-122.53,37.8],[-122.52,37.81],[-122.5,37.81],[-122.43,37.84],[-122.34,37.85],[-122.13,37.87],[-122.01,37.89],[-121.9,37.9],[-121.86,37.91],[-121.77,37.92],[-121.69,37.93],[-121.68,37.93],[-121.47,37.95],[-121.34,37.96],[-121.33,37.97],[-121.29,37.97],[-121.21,37.98],[-121.1,37.99],[-120.98,38.01],[-120.9,38.02],[-120.82,38.04],[-120.74,38.05],[-119.96,38.16],[-119.18,38.26],[-118.81,38.3],[-118.09,38.32],[-118,38.32],[-117.5,38.32],[-117.28,38.33],[-116.24,38.33],[-113.95,38.31],[-113.94,38.31],[-113.56,38.3],[-113.36,38.29],[-112.8,38.28],[-112.13,38.26],[-110.84,38.2],[-110.07,38.17],[-109.04,38.11],[-108.94,38.1],[-108.74,38.18],[-108.15,38.41],[-108.01,38.46],[-107.49,38.65],[-106.68,38.96],[-106.67,38.96],[-106.6,38.99],[-106.58,39],[-106.52,39.02],[-106.34,39.09],[-106.21,39.13],[-106.16,39.15],[-106.14,39.16],[-105.99,39.21],[-105.92,39.24],[-105.91,39.24],[-105.83,39.27],[-105.67,39.32],[-105.67,39.33],[-105.62,39.34],[-105.53,39.38],[-105.44,39.41],[-105.42,39.42],[-105.29,39.49],[-105.23,39.52],[-105.19,39.54],[-105.07,39.61],[-104.89,39.7],[-104.84,39.73],[-104.84,39.84],[-104.84,39.9],[-104.84,39.92],[-104.67,39.86]],"type":"LineString"}
}
