{
  "id": 2014811491,
  "type": "Feature",
  "properties": {
    "geom:area": 0,
    "geom:bbox": "-122.533611,32.891111,-117.412778,37.680000",
    "geom:latitude": 35.127579597890815,
    "geom:longitude": -120.27599572542292,
    "src:alt_label": "swim-path",
    "src:geom": "swim",
    "swim:altitudes": [
      "009",
      "009",
      "009",
      "055",
      "055",
      "055",
      "090",
      "112",
      "112",
      "112",
      "127",
      "127",
      "127",
      "127",
      "127",
      "199",
      "205",
      "205",
      "205",
      "205",
      "205",
      "205",
      "229",
      "229",
      "229",
      "247",
      "247",
      "247",
      "247",
      "247",
      "247",
      "289",
      "289",
      "289",
      "289",
      "303",
      "303",
      "303",
      "303",
      "303",
      "303",
      "332",
      "332",
      "332",
      "334",
      "334",
      "334",
      "334",
      "334",
      "351",
      "351",
      "351",
      "351",
      "360",
      "360",
      "360",
      "367",
      "367",
      "367",
      "367",
      "370C",
      "370C",
      "370C",
      "370C",
      "370C",
      "370C",
      "370C",
      "370C",
      "370C",
      "370C",
      "370C",
      "370C",
      "370C",
      "370C",
      "370C",
      "370C",
      "370C",
      "370C",
      "370C",
      "370C",
      "370C",
      "370C",
      "370C",
      "370C",
      "370C",
      "370C",
      "370C",
      "370C",
      "370C",
      "370C",
      "370C",
      "369C",
      "369C",
      "369C",
      "369C",
      "370C",
      "370C",
      "370C",
      "370C",
      "370C",
      "370C",
      "370C",
      "370C",
      "370C",
      "370C",
      "370C",
      "370C",
      "370C",
      "370C",
      "370C",
      "370C",
      "370C",
      "370C",
      "370C",
      "370C",
      "370C",
      "370C",
      "370C",
      "370C",
      "370C",
      "370C",
      "370C",
      "370C",
      "370C",
      "370C",
      "370C",
      "370C",
      "370C",
      "370C",
      "370C",
      "370C",
      "370C",
      "370C",
      "370C",
      "370C",
      "370C",
      "370C",
      "370C",
      "370C",
      "370C",
      "370C",
      "370C",
      "370C",
      "370C",
      "370C",
      "370C",
      "370C",
      "370C",
      "370C",
      "370C",
      "370C",
      "370C",
      "370C",
      "370C",
      "370C",
      "370C",
      "370C",
      "370C",
      "370C",
      "370C",
      "370C",
      "370C",
      "370C",
      "370C",
      "370C",
      "370C",
      "370C",
      "370C",
      "370C",
      "370C",
      "370C",
      "370C",
      "370C",
      "370C",
      "370C",
      "370C",
      "370C",
      "370C",
      "370C",
      "370C",
      "370C",
      "370C",
      "370C"
    ],
    "swim:geom": "path",
    "swim:speeds": [
      167,
      167,
      167,
      270,
      270,
      270,
      276,
      309,
      309,
      309,
      312,
      312,
      312,
      312,
      312,
      319,
      312,
      312,
      312,
      312,
      312,
      312,
      311,
      311,
      311,
      323,
      323,
      323,
      323,
      323,
      323,
      322,
      322,
      322,
      322,
      323,
      323,
      323,
      323,
      323,
      323,
      342,
      342,
      342,
      380,
      380,
      380,
      380,
      380,
      396,
      396,
      396,
      396,
      399,
      399,
      399,
      401,
      401,
      401,
      401,
      403,
      403,
      403,
      404,
      404,
      407,
      407,
      407,
      407,
      407,
      407,
      407,
      407,
      407,
      406,
      406,
      406,
      406,
      406,
      405,
      405,
      404,
      404,
      404,
      404,
      422,
      422,
      422,
      422,
      421,
      421,
      421,
      421,
      421,
      421,
      421,
      421,
      423,
      423,
      423,
      423,
      423,
      423,
      423,
      430,
      430,
      430,
      430,
      430,
      430,
      430,
      428,
      428,
      427,
      427,
      427,
      425,
      425,
      425,
      425,
      424,
      424,
      424,
      424,
      424,
      424,
      418,
      418,
      418,
      418,
      419,
      419,
      419,
      419,
      419,
      423,
      423,
      423,
      423,
      423,
      423,
      423,
      423,
      434,
      434,
      434,
      434,
      434,
      434,
      434,
      434,
      443,
      443,
      443,
      442,
      442,
      442,
      442,
      441,
      441,
      441,
      441,
      441,
      441,
      441,
      441,
      442,
      442,
      442,
      442,
      442,
      441,
      441,
      441,
      441,
      441,
      441,
      441,
      441,
      441,
      441,
      441,
      441
    ],
    "swim:timestamps": [
      1771261882,
      1771261882,
      1771261882,
      1771262020,
      1771262020,
      1771262020,
      1771262080,
      1771262140,
      1771262140,
      1771262140,
      1771262193,
      1771262193,
      1771262193,
      1771262193,
      1771262193,
      1771262313,
      1771262320,
      1771262320,
      1771262320,
      1771262320,
      1771262320,
      1771262320,
      1771262380,
      1771262380,
      1771262380,
      1771262440,
      1771262440,
      1771262440,
      1771262440,
      1771262440,
      1771262440,
      1771262560,
      1771262560,
      1771262560,
      1771262560,
      1771262621,
      1771262621,
      1771262621,
      1771262621,
      1771262621,
      1771262621,
      1771262794,
      1771262794,
      1771262794,
      1771262861,
      1771262861,
      1771262861,
      1771262861,
      1771262861,
      1771262981,
      1771262981,
      1771262981,
      1771262981,
      1771263041,
      1771263041,
      1771263041,
      1771263101,
      1771263101,
      1771263101,
      1771263101,
      1771263154,
      1771263154,
      1771263154,
      1771263161,
      1771263161,
      1771263221,
      1771263221,
      1771263221,
      1771263221,
      1771263221,
      1771263221,
      1771263281,
      1771263281,
      1771263281,
      1771263341,
      1771263341,
      1771263341,
      1771263341,
      1771263341,
      1771263401,
      1771263401,
      1771263455,
      1771263455,
      1771263455,
      1771263455,
      1771263582,
      1771263582,
      1771263582,
      1771263582,
      1771263702,
      1771263702,
      1771263755,
      1771263755,
      1771263755,
      1771263755,
      1771263762,
      1771263762,
      1771263815,
      1771263815,
      1771263815,
      1771263822,
      1771263822,
      1771263822,
      1771263822,
      1771263882,
      1771263882,
      1771263882,
      1771263936,
      1771263936,
      1771263936,
      1771263936,
      1771264002,
      1771264002,
      1771264062,
      1771264062,
      1771264062,
      1771264122,
      1771264122,
      1771264122,
      1771264122,
      1771264182,
      1771264182,
      1771264182,
      1771264182,
      1771264182,
      1771264182,
      1771264356,
      1771264356,
      1771264356,
      1771264356,
      1771264416,
      1771264416,
      1771264416,
      1771264416,
      1771264416,
      1771264536,
      1771264536,
      1771264536,
      1771264536,
      1771264536,
      1771264536,
      1771264536,
      1771264536,
      1771264717,
      1771264717,
      1771264717,
      1771264717,
      1771264717,
      1771264717,
      1771264717,
      1771264717,
      1771265017,
      1771265017,
      1771265017,
      1771265077,
      1771265077,
      1771265077,
      1771265077,
      1771265137,
      1771265198,
      1771265198,
      1771265198,
      1771265198,
      1771265198,
      1771265198,
      1771265198,
      1771265318,
      1771265318,
      1771265318,
      1771265378,
      1771265378,
      1771265438,
      1771265438,
      1771265438,
      1771265438,
      1771265438,
      1771265558,
      1771265558,
      1771265558,
      1771265558,
      1771265558,
      1771265558,
      1771265558
    ],
    "wof:geomhash": "197e99da4781ca11a54702574dae2d3e",
    "wof:id": 2014811491,
    "wof:repo": "sfomuseum-data-flights-2026-02"
  },
  "bbox": [
    -122.53361111111111,
    32.89111111111111,
    -117.41277777777778,
    37.68
  ],
  "geometry": {"coordinates":[[-122.36666666666666,37.63333333333333],[-122.36666666666666,37.63333333333333],[-122.36666666666666,37.63333333333333],[-122.42916666666667,37.68],[-122.42916666666667,37.68],[-122.42916666666667,37.68],[-122.44222222222223,37.60305555555556],[-122.465,37.522777777777776],[-122.465,37.522777777777776],[-122.465,37.522777777777776],[-122.48138888888889,37.45111111111111],[-122.48138888888889,37.45111111111111],[-122.48138888888889,37.45111111111111],[-122.48138888888889,37.45111111111111],[-122.48138888888889,37.45111111111111],[-122.51527777777778,37.27722222222222],[-122.51833333333333,37.25666666666667],[-122.51833333333333,37.25666666666667],[-122.51833333333333,37.25666666666667],[-122.51833333333333,37.25666666666667],[-122.51833333333333,37.25666666666667],[-122.51833333333333,37.25666666666667],[-122.53361111111111,37.171388888888885],[-122.53361111111111,37.171388888888885],[-122.53361111111111,37.171388888888885],[-122.50638888888889,37.08972222222222],[-122.50638888888889,37.08972222222222],[-122.50638888888889,37.08972222222222],[-122.50638888888889,37.08972222222222],[-122.50638888888889,37.08972222222222],[-122.50638888888889,37.08972222222222],[-122.37027777777777,36.943888888888885],[-122.37027777777777,36.943888888888885],[-122.37027777777777,36.943888888888885],[-122.37027777777777,36.943888888888885],[-122.30305555555556,36.871944444444445],[-122.30305555555556,36.871944444444445],[-122.30305555555556,36.871944444444445],[-122.30305555555556,36.871944444444445],[-122.30305555555556,36.871944444444445],[-122.30305555555556,36.871944444444445],[-122.11388888888888,36.66777777777777],[-122.11388888888888,36.66777777777777],[-122.11388888888888,36.66777777777777],[-122.02083333333333,36.56722222222223],[-122.02083333333333,36.56722222222223],[-122.02083333333333,36.56722222222223],[-122.02083333333333,36.56722222222223],[-122.02083333333333,36.56722222222223],[-121.85777777777777,36.39],[-121.85777777777777,36.39],[-121.85777777777777,36.39],[-121.85777777777777,36.39],[-121.77555555555556,36.3],[-121.77555555555556,36.3],[-121.77555555555556,36.3],[-121.69333333333334,36.209722222222226],[-121.69333333333334,36.209722222222226],[-121.69333333333334,36.209722222222226],[-121.69333333333334,36.209722222222226],[-121.62888888888888,36.13916666666667],[-121.62888888888888,36.13916666666667],[-121.62888888888888,36.13916666666667],[-121.61055555555555,36.118611111111115],[-121.61055555555555,36.118611111111115],[-121.5275,36.026944444444446],[-121.5275,36.026944444444446],[-121.5275,36.026944444444446],[-121.5275,36.026944444444446],[-121.5275,36.026944444444446],[-121.5275,36.026944444444446],[-121.44583333333334,35.93666666666666],[-121.44583333333334,35.93666666666666],[-121.44583333333334,35.93666666666666],[-121.36305555555555,35.84444444444445],[-121.36305555555555,35.84444444444445],[-121.36305555555555,35.84444444444445],[-121.36305555555555,35.84444444444445],[-121.36305555555555,35.84444444444445],[-121.28277777777778,35.75527777777778],[-121.28277777777778,35.75527777777778],[-121.21972222222223,35.684999999999995],[-121.21972222222223,35.684999999999995],[-121.21972222222223,35.684999999999995],[-121.21972222222223,35.684999999999995],[-121.025,35.490833333333335],[-121.025,35.490833333333335],[-121.025,35.490833333333335],[-121.025,35.490833333333335],[-120.80388888888889,35.345],[-120.80388888888889,35.345],[-120.69638888888889,35.27055555555555],[-120.69638888888889,35.27055555555555],[-120.69638888888889,35.27055555555555],[-120.69638888888889,35.27055555555555],[-120.69444444444444,35.26916666666666],[-120.69444444444444,35.26916666666666],[-120.585,35.19333333333333],[-120.585,35.19333333333333],[-120.585,35.19333333333333],[-120.58666666666666,35.19444444444444],[-120.58666666666666,35.19444444444444],[-120.58666666666666,35.19444444444444],[-120.58666666666666,35.19444444444444],[-120.47611111111111,35.11805555555556],[-120.47611111111111,35.11805555555556],[-120.47611111111111,35.11805555555556],[-120.38388888888889,35.05361111111111],[-120.38388888888889,35.05361111111111],[-120.38388888888889,35.05361111111111],[-120.38388888888889,35.05361111111111],[-120.25694444444444,34.96472222222223],[-120.25694444444444,34.96472222222223],[-120.14777777777779,34.88861111111111],[-120.14777777777779,34.88861111111111],[-120.14777777777779,34.88861111111111],[-120.03944444444444,34.81222222222222],[-120.03944444444444,34.81222222222222],[-120.03944444444444,34.81222222222222],[-120.03944444444444,34.81222222222222],[-119.93083333333334,34.73583333333333],[-119.93083333333334,34.73583333333333],[-119.93083333333334,34.73583333333333],[-119.93083333333334,34.73583333333333],[-119.93083333333334,34.73583333333333],[-119.93083333333334,34.73583333333333],[-119.615,34.51138888888889],[-119.615,34.51138888888889],[-119.615,34.51138888888889],[-119.615,34.51138888888889],[-119.50722222222223,34.43416666666666],[-119.50722222222223,34.43416666666666],[-119.50722222222223,34.43416666666666],[-119.50722222222223,34.43416666666666],[-119.50722222222223,34.43416666666666],[-119.2925,34.28055555555555],[-119.2925,34.28055555555555],[-119.2925,34.28055555555555],[-119.2925,34.28055555555555],[-119.2925,34.28055555555555],[-119.2925,34.28055555555555],[-119.2925,34.28055555555555],[-119.2925,34.28055555555555],[-118.96555555555555,34.04416666666666],[-118.96555555555555,34.04416666666666],[-118.96555555555555,34.04416666666666],[-118.96555555555555,34.04416666666666],[-118.96555555555555,34.04416666666666],[-118.96555555555555,34.04416666666666],[-118.96555555555555,34.04416666666666],[-118.96555555555555,34.04416666666666],[-118.41222222222223,33.63916666666667],[-118.41222222222223,33.63916666666667],[-118.41222222222223,33.63916666666667],[-118.30388888888889,33.55916666666666],[-118.30388888888889,33.55916666666666],[-118.30388888888889,33.55916666666666],[-118.30388888888889,33.55916666666666],[-118.19638888888889,33.47944444444445],[-118.08722222222222,33.39805555555556],[-118.08722222222222,33.39805555555556],[-118.08722222222222,33.39805555555556],[-118.08722222222222,33.39805555555556],[-118.08722222222222,33.39805555555556],[-118.08722222222222,33.39805555555556],[-118.08722222222222,33.39805555555556],[-117.84722222222221,33.219166666666666],[-117.84722222222221,33.219166666666666],[-117.84722222222221,33.219166666666666],[-117.7363888888889,33.13583333333333],[-117.7363888888889,33.13583333333333],[-117.62833333333333,33.05472222222222],[-117.62833333333333,33.05472222222222],[-117.62833333333333,33.05472222222222],[-117.62833333333333,33.05472222222222],[-117.62833333333333,33.05472222222222],[-117.41277777777778,32.89111111111111],[-117.41277777777778,32.89111111111111],[-117.41277777777778,32.89111111111111],[-117.41277777777778,32.89111111111111],[-117.41277777777778,32.89111111111111],[-117.41277777777778,32.89111111111111],[-117.41277777777778,32.89111111111111]],"type":"LineString"}
}
