{
  "id": 2014840793,
  "type": "Feature",
  "properties": {
    "geom:area": 0,
    "geom:bbox": "-122.587222,33.433333,-112.033333,37.693333",
    "geom:latitude": 36.44504921992952,
    "geom:longitude": -117.27729054465085,
    "src:alt_label": "swim-path",
    "src:geom": "swim",
    "swim:altitudes": [
      "018",
      "018",
      "047",
      "047",
      "047",
      "054",
      "054",
      "156",
      "156",
      "158",
      "158",
      "158",
      "182",
      "201",
      "201",
      "223",
      "223",
      "244",
      "244",
      "260",
      "260",
      "277",
      "277",
      "277",
      "290",
      "290",
      "318",
      "318",
      "340",
      "340",
      "349",
      "349",
      "354",
      "354",
      "354",
      "363",
      "363",
      "363",
      "363",
      "371",
      "371",
      "371",
      "377",
      "380C",
      "380C",
      "380C",
      "380C",
      "380C",
      "380C",
      "380C",
      "380C",
      "380C",
      "380C",
      "380C",
      "380C",
      "380C",
      "380C",
      "380C",
      "380C",
      "380C",
      "380C",
      "380C",
      "380C",
      "380C",
      "380C",
      "380C",
      "380C",
      "380C",
      "380C",
      "380C",
      "380C",
      "380C",
      "380C",
      "380C",
      "380C",
      "380C",
      "380C",
      "380C",
      "380C",
      "380C",
      "380C",
      "380C",
      "380C",
      "380C",
      "380C",
      "380C",
      "380C",
      "380C",
      "380C",
      "380C",
      "380C",
      "380C",
      "380C",
      "380C",
      "380C",
      "380C",
      "380C",
      "380C",
      "380C",
      "380C",
      "380C",
      "380C",
      "380C",
      "380C",
      "380C",
      "380C",
      "380C",
      "380C",
      "380C",
      "380C",
      "380C",
      "380C",
      "380C",
      "380C",
      "380C",
      "380C",
      "380C",
      "380C",
      "380C",
      "380C",
      "380C",
      "380C",
      "380C",
      "380C",
      "374",
      "374",
      "374",
      "374",
      "354",
      "345",
      "345",
      "345",
      "345",
      "305",
      "305",
      "305",
      "284",
      "284",
      "246",
      "246",
      "246",
      "246",
      "217",
      "205",
      "205",
      "197",
      "177",
      "177",
      "165",
      "157",
      "157",
      "157",
      "146",
      "138",
      "138",
      "127",
      "127",
      "108",
      "105",
      "105",
      "101",
      "096",
      "080",
      "080",
      "080",
      "066",
      "062",
      "060",
      "060",
      "060",
      "051",
      "050",
      "050",
      "040",
      "035",
      "035",
      "012",
      "013",
      "022",
      "022",
      "022",
      "022",
      "030",
      "030",
      "041",
      "060",
      "060",
      "060",
      "060",
      "060",
      "060",
      "061",
      "061",
      "061",
      "061",
      "061",
      "061",
      "061",
      "051",
      "051",
      "051",
      "029",
      "025",
      "025",
      "015",
      "012",
      "012",
      "004"
    ],
    "swim:geom": "path",
    "swim:speeds": [
      177,
      177,
      220,
      220,
      220,
      223,
      223,
      331,
      331,
      346,
      346,
      346,
      361,
      371,
      371,
      388,
      388,
      376,
      376,
      378,
      378,
      385,
      385,
      385,
      387,
      387,
      383,
      383,
      357,
      357,
      354,
      354,
      367,
      368,
      368,
      352,
      352,
      350,
      350,
      346,
      346,
      346,
      347,
      357,
      357,
      357,
      359,
      359,
      358,
      358,
      359,
      359,
      360,
      360,
      361,
      361,
      361,
      360,
      361,
      361,
      361,
      365,
      365,
      365,
      367,
      367,
      376,
      376,
      376,
      378,
      378,
      378,
      378,
      378,
      379,
      379,
      379,
      381,
      381,
      384,
      384,
      387,
      387,
      387,
      387,
      401,
      401,
      404,
      404,
      406,
      406,
      406,
      412,
      412,
      411,
      410,
      410,
      410,
      409,
      409,
      409,
      408,
      408,
      407,
      407,
      407,
      400,
      400,
      400,
      400,
      400,
      400,
      399,
      399,
      397,
      397,
      395,
      395,
      395,
      395,
      395,
      395,
      397,
      397,
      400,
      400,
      400,
      400,
      390,
      389,
      389,
      389,
      389,
      395,
      395,
      395,
      384,
      384,
      365,
      365,
      365,
      365,
      358,
      357,
      357,
      350,
      346,
      346,
      347,
      339,
      339,
      339,
      340,
      331,
      331,
      330,
      330,
      318,
      299,
      299,
      279,
      274,
      234,
      234,
      234,
      228,
      231,
      224,
      224,
      224,
      229,
      219,
      219,
      199,
      185,
      185,
      163,
      157,
      186,
      186,
      186,
      186,
      205,
      205,
      212,
      227,
      227,
      227,
      233,
      233,
      237,
      235,
      235,
      235,
      235,
      236,
      236,
      236,
      226,
      226,
      226,
      192,
      170,
      170,
      170,
      159,
      159,
      155
    ],
    "swim:timestamps": [
      1771610861,
      1771610861,
      1771610927,
      1771610927,
      1771610927,
      1771610950,
      1771610950,
      1771611184,
      1771611184,
      1771611191,
      1771611191,
      1771611191,
      1771611251,
      1771611304,
      1771611304,
      1771611364,
      1771611364,
      1771611431,
      1771611431,
      1771611484,
      1771611484,
      1771611551,
      1771611551,
      1771611551,
      1771611611,
      1771611611,
      1771611731,
      1771611731,
      1771611792,
      1771611792,
      1771611845,
      1771611845,
      1771611905,
      1771611912,
      1771611912,
      1771611965,
      1771611965,
      1771611972,
      1771611972,
      1771612025,
      1771612032,
      1771612032,
      1771612085,
      1771612266,
      1771612266,
      1771612266,
      1771612326,
      1771612326,
      1771612332,
      1771612332,
      1771612392,
      1771612392,
      1771612453,
      1771612453,
      1771612506,
      1771612506,
      1771612506,
      1771612513,
      1771612566,
      1771612566,
      1771612566,
      1771612746,
      1771612746,
      1771612746,
      1771612806,
      1771612806,
      1771612927,
      1771612927,
      1771612927,
      1771613107,
      1771613107,
      1771613167,
      1771613167,
      1771613167,
      1771613407,
      1771613407,
      1771613407,
      1771613467,
      1771613467,
      1771613527,
      1771613527,
      1771613588,
      1771613588,
      1771613588,
      1771613588,
      1771613768,
      1771613768,
      1771613828,
      1771613828,
      1771613888,
      1771613888,
      1771613888,
      1771614008,
      1771614008,
      1771614064,
      1771614128,
      1771614128,
      1771614128,
      1771614188,
      1771614188,
      1771614188,
      1771614304,
      1771614304,
      1771614364,
      1771614364,
      1771614364,
      1771614545,
      1771614545,
      1771614545,
      1771614545,
      1771614665,
      1771614665,
      1771614725,
      1771614725,
      1771614789,
      1771614789,
      1771614905,
      1771614905,
      1771614905,
      1771615030,
      1771615030,
      1771615030,
      1771615085,
      1771615085,
      1771615266,
      1771615266,
      1771615266,
      1771615266,
      1771615386,
      1771615446,
      1771615446,
      1771615446,
      1771615446,
      1771615686,
      1771615686,
      1771615686,
      1771615806,
      1771615806,
      1771615926,
      1771615926,
      1771615926,
      1771615926,
      1771616008,
      1771616047,
      1771616047,
      1771616068,
      1771616128,
      1771616128,
      1771616167,
      1771616188,
      1771616188,
      1771616188,
      1771616227,
      1771616248,
      1771616248,
      1771616287,
      1771616287,
      1771616347,
      1771616368,
      1771616368,
      1771616407,
      1771616428,
      1771616527,
      1771616527,
      1771616527,
      1771616608,
      1771616647,
      1771616668,
      1771616668,
      1771616668,
      1771616708,
      1771616728,
      1771616728,
      1771616828,
      1771616848,
      1771616848,
      1771616948,
      1771617008,
      1771617028,
      1771617028,
      1771617028,
      1771617028,
      1771617068,
      1771617148,
      1771617188,
      1771617248,
      1771617248,
      1771617248,
      1771617268,
      1771617268,
      1771617448,
      1771617489,
      1771617489,
      1771617489,
      1771617489,
      1771617609,
      1771617609,
      1771617609,
      1771617729,
      1771617729,
      1771617729,
      1771617849,
      1771617868,
      1771617868,
      1771617909,
      1771617928,
      1771617928,
      1771617988
    ],
    "wof:geomhash": "093e8ece6faa5127cba1f497fdf5b17d",
    "wof:id": 2014840793,
    "wof:repo": "sfomuseum-data-flights-2026-02"
  },
  "bbox": [
    -122.58722222222222,
    33.43333333333333,
    -112.03333333333333,
    37.69333333333333
  ],
  "geometry": {"coordinates":[[-112.03333333333333,33.43333333333333],[-112.03333333333333,33.43333333333333],[-112.11666666666666,33.43333333333333],[-112.11666666666666,33.43333333333333],[-112.11666666666666,33.43333333333333],[-112.13083333333333,33.43333333333333],[-112.13083333333333,33.43333333333333],[-112.22805555555556,33.70194444444445],[-112.22805555555556,33.70194444444445],[-112.23222222222222,33.71333333333334],[-112.23222222222222,33.71333333333334],[-112.23222222222222,33.71333333333334],[-112.26333333333334,33.80916666666666],[-112.2925,33.89972222222222],[-112.2925,33.89972222222222],[-112.32777777777777,34.00472222222222],[-112.32777777777777,34.00472222222222],[-112.40583333333333,34.09861111111111],[-112.40583333333333,34.09861111111111],[-112.48194444444445,34.17638888888889],[-112.48194444444445,34.17638888888889],[-112.57111111111111,34.2625],[-112.57111111111111,34.2625],[-112.57111111111111,34.2625],[-112.65527777777778,34.34583333333334],[-112.65527777777778,34.34583333333334],[-112.81694444444445,34.505],[-112.81694444444445,34.505],[-112.89611111111111,34.5825],[-112.89611111111111,34.5825],[-112.97416666666666,34.65861111111111],[-112.97416666666666,34.65861111111111],[-113.05472222222222,34.737500000000004],[-113.05388888888889,34.736666666666665],[-113.05388888888889,34.736666666666665],[-113.14750000000001,34.79833333333333],[-113.14750000000001,34.79833333333333],[-113.14694444444446,34.79805555555556],[-113.14694444444446,34.79805555555556],[-113.25972222222222,34.830555555555556],[-113.25861111111111,34.83027777777778],[-113.25861111111111,34.83027777777778],[-113.36611111111111,34.87388888888889],[-113.69166666666668,35.006388888888885],[-113.69166666666668,35.006388888888885],[-113.69166666666668,35.006388888888885],[-113.80277777777778,35.051111111111105],[-113.80277777777778,35.051111111111105],[-113.79694444444445,35.04888888888889],[-113.79694444444445,35.04888888888889],[-113.9113888888889,35.095],[-113.9113888888889,35.095],[-114.02805555555555,35.14194444444444],[-114.02805555555555,35.14194444444444],[-114.11888888888888,35.17805555555555],[-114.11888888888888,35.17805555555555],[-114.11888888888888,35.17805555555555],[-114.1388888888889,35.18611111111111],[-114.22972222222222,35.222500000000004],[-114.22972222222222,35.222500000000004],[-114.22972222222222,35.222500000000004],[-114.56416666666667,35.35472222222222],[-114.56416666666667,35.35472222222222],[-114.56416666666667,35.35472222222222],[-114.67722222222223,35.399166666666666],[-114.67722222222223,35.399166666666666],[-114.89750000000001,35.50611111111111],[-114.89750000000001,35.50611111111111],[-114.89750000000001,35.50611111111111],[-115.22194444444445,35.70111111111111],[-115.22194444444445,35.70111111111111],[-115.31333333333333,35.75555555555555],[-115.31333333333333,35.75555555555555],[-115.31333333333333,35.75555555555555],[-115.73472222222222,36.00527777777778],[-115.73472222222222,36.00527777777778],[-115.73472222222222,36.00527777777778],[-115.84277777777777,36.06888888888889],[-115.84277777777777,36.06888888888889],[-115.94361111111111,36.128055555555555],[-115.94361111111111,36.128055555555555],[-116.05222222222221,36.19138888888889],[-116.05222222222221,36.19138888888889],[-116.05222222222221,36.19138888888889],[-116.05222222222221,36.19138888888889],[-116.36305555555555,36.407777777777774],[-116.36305555555555,36.407777777777774],[-116.46111111111111,36.48888888888889],[-116.46111111111111,36.48888888888889],[-116.5611111111111,36.57138888888889],[-116.5611111111111,36.57138888888889],[-116.5611111111111,36.57138888888889],[-116.72916666666667,36.75527777777778],[-116.72916666666667,36.75527777777778],[-116.8086111111111,36.85138888888889],[-116.88777777777779,36.94499999999999],[-116.88777777777779,36.94499999999999],[-116.88777777777779,36.94499999999999],[-116.9675,37.04055555555556],[-116.9675,37.04055555555556],[-116.9675,37.04055555555556],[-117.12638888888888,37.22888888888889],[-117.12638888888888,37.22888888888889],[-117.2088888888889,37.32166666666667],[-117.2088888888889,37.32166666666667],[-117.2088888888889,37.32166666666667],[-117.55694444444444,37.496944444444445],[-117.55694444444444,37.496944444444445],[-117.55694444444444,37.496944444444445],[-117.55694444444444,37.496944444444445],[-117.83722222222222,37.519999999999996],[-117.83722222222222,37.519999999999996],[-117.97722222222222,37.531666666666666],[-117.97722222222222,37.531666666666666],[-118.11388888888888,37.54194444444444],[-118.11388888888888,37.54194444444444],[-118.39027777777778,37.56361111111111],[-118.39027777777778,37.56361111111111],[-118.39027777777778,37.56361111111111],[-118.66722222222222,37.58444444444444],[-118.66722222222222,37.58444444444444],[-118.66722222222222,37.58444444444444],[-118.80694444444444,37.59444444444445],[-118.80694444444444,37.59444444444445],[-119.22055555555556,37.623333333333335],[-119.22055555555556,37.623333333333335],[-119.22055555555556,37.623333333333335],[-119.22055555555556,37.623333333333335],[-119.49138888888889,37.64222222222222],[-119.62777777777777,37.65083333333333],[-119.62777777777777,37.65083333333333],[-119.62777777777777,37.65083333333333],[-119.62777777777777,37.65083333333333],[-120.18305555555555,37.68583333333333],[-120.18305555555555,37.68583333333333],[-120.18305555555555,37.68583333333333],[-120.45277777777778,37.69333333333333],[-120.45277777777778,37.69333333333333],[-120.70861111111111,37.66361111111111],[-120.70861111111111,37.66361111111111],[-120.70861111111111,37.66361111111111],[-120.70861111111111,37.66361111111111],[-120.88333333333334,37.65],[-120.95805555555556,37.63361111111111],[-120.95805555555556,37.63361111111111],[-121,37.63333333333333],[-121.11666666666666,37.61666666666667],[-121.11666666666666,37.61666666666667],[-121.20055555555555,37.60111111111111],[-121.25,37.6],[-121.25,37.6],[-121.25,37.6],[-121.31611111111111,37.586111111111116],[-121.36666666666666,37.583333333333336],[-121.36666666666666,37.583333333333336],[-121.43027777777779,37.57361111111111],[-121.43027777777779,37.57361111111111],[-121.54166666666667,37.56055555555555],[-121.58333333333333,37.55],[-121.58333333333333,37.55],[-121.64111111111112,37.54694444444444],[-121.66666666666667,37.53333333333333],[-121.81388888888888,37.50555555555555],[-121.81388888888888,37.50555555555555],[-121.81388888888888,37.50555555555555],[-121.91666666666667,37.5],[-121.97083333333333,37.493611111111115],[-122,37.5],[-122,37.5],[-122,37.5],[-122.0461111111111,37.51361111111111],[-122.06666666666666,37.516666666666666],[-122.06666666666666,37.516666666666666],[-122.18166666666667,37.55722222222222],[-122.2,37.56666666666667],[-122.2,37.56666666666667],[-122.2961111111111,37.59305555555556],[-122.34694444444445,37.60888888888889],[-122.36666666666666,37.61666666666667],[-122.36666666666666,37.61666666666667],[-122.36666666666666,37.61666666666667],[-122.36666666666666,37.61666666666667],[-122.40861111111111,37.63472222222222],[-122.5,37.666666666666664],[-122.53888888888889,37.68805555555555],[-122.58722222222222,37.65416666666667],[-122.58722222222222,37.65416666666667],[-122.58722222222222,37.65416666666667],[-122.58333333333333,37.63333333333333],[-122.58333333333333,37.63333333333333],[-122.5,37.46666666666667],[-122.455,37.447222222222216],[-122.455,37.447222222222216],[-122.455,37.447222222222216],[-122.455,37.447222222222216],[-122.2975,37.42194444444444],[-122.2975,37.42194444444444],[-122.2975,37.42194444444444],[-122.16444444444446,37.469166666666666],[-122.16444444444446,37.469166666666666],[-122.16444444444446,37.469166666666666],[-122.22,37.55333333333333],[-122.23333333333333,37.56666666666667],[-122.23333333333333,37.56666666666667],[-122.2725,37.57555555555556],[-122.28333333333333,37.583333333333336],[-122.28333333333333,37.583333333333336],[-122.33333333333333,37.6]],"type":"LineString"}
}
