{
  "id": 2014690321,
  "type": "Feature",
  "properties": {
    "geom:area": 0,
    "geom:bbox": "-122.685020,37.544250,-122.124820,37.940190",
    "geom:latitude": 37.68576731452968,
    "geom:longitude": -122.37413746752568,
    "src:alt_label": "swim-approach",
    "src:geom": "swim",
    "swim:elevations": [
      4507,
      4218,
      4041,
      3779,
      3576,
      3446,
      3353,
      3278,
      3134,
      2929,
      2674,
      2459,
      2016,
      1869,
      1598,
      1284,
      1248,
      1006,
      736,
      551,
      549,
      538,
      397,
      333,
      174,
      59,
      0
    ],
    "swim:geom": "approach",
    "swim:timestamps": [
      1769971346,
      1769971377,
      1769971394,
      1769971423,
      1769971444,
      1769971476,
      1769971520,
      1769971551,
      1769971573,
      1769971599,
      1769971628,
      1769971650,
      1769971699,
      1769971724,
      1769971757,
      1769971795,
      1769971800,
      1769971846,
      1769971887,
      1769971914,
      1769971942,
      1769971963,
      1769972000,
      1769972013,
      1769972062,
      1769972090,
      1769972106
    ],
    "wof:geomhash": "a43a0f7a0887575f19a02908527f4ebe",
    "wof:id": 2014690321,
    "wof:repo": "sfomuseum-data-flights-2026-02"
  },
  "bbox": [
    -122.68502,
    37.54425,
    -122.12482,
    37.94019
  ],
  "geometry": {"coordinates":[[-122.68502,37.94019],[-122.66433,37.89274],[-122.64232,37.87064],[-122.60504,37.83544],[-122.57703,37.80903],[-122.53688,37.77102],[-122.48721,37.72426],[-122.44301,37.70505],[-122.41382,37.69477],[-122.37807,37.68182],[-122.33954,37.66781],[-122.3098,37.65746],[-122.24516,37.63389],[-122.21265,37.62127],[-122.17106,37.60546],[-122.12838,37.58518],[-122.12482,37.58007],[-122.14291,37.54425],[-122.18336,37.55198],[-122.2095,37.5627],[-122.23455,37.57311],[-122.25377,37.58086],[-122.28556,37.59015],[-122.29476,37.59298],[-122.33145,37.60414],[-122.35196,37.61133],[-122.36093,37.61545]],"type":"LineString"}
}
