{
  "id": 2014879423,
  "type": "Feature",
  "properties": {
    "geom:area": 0,
    "geom:bbox": "-122.380000,33.640000,-84.280000,39.000000",
    "geom:latitude": 36.9948463254959,
    "geom:longitude": -103.23909554476151,
    "src:alt_label": "swim-route",
    "src:geom": "swim",
    "swim:geom": "route",
    "wof:geomhash": "d456af8c772cb316ad34e034ea3a57ac",
    "wof:id": 2014879423,
    "wof:repo": "sfomuseum-data-flights-2026-02"
  },
  "bbox": [
    -122.38,
    33.64,
    -84.28,
    39
  ],
  "geometry": {"coordinates":[[-84.43,33.64],[-84.28,33.68],[-84.28,33.81],[-84.53,33.81],[-84.62,33.82],[-84.62,33.82],[-85.19,33.82],[-85.2,33.82],[-85.42,33.83],[-85.65,33.84],[-86.04,33.95],[-86.15,33.99],[-87.11,34.26],[-87.46,34.35],[-89.6,34.92],[-89.98,35.02],[-90.22,35.09],[-91.19,35.4],[-92.06,35.66],[-93.09,35.96],[-94.11,36.25],[-94.69,36.43],[-94.77,36.46],[-97.74,36.97],[-99.85,37.28],[-99.95,37.29],[-100.63,37.39],[-100.82,37.35],[-102.4,37.49],[-102.45,37.56],[-102.66,37.58],[-102.93,37.62],[-103.2,37.65],[-105.35,37.87],[-106.16,37.95],[-106.47,37.98],[-107.46,38.06],[-107.53,38.03],[-109.03,38.17],[-109.32,38.19],[-109.69,38.19],[-109.98,38.23],[-111.65,38.3],[-112.02,38.33],[-113.01,38.36],[-113.91,38.35],[-114.61,38.69],[-114.87,38.92],[-114.97,38.99],[-115.05,39],[-115.13,39],[-115.4,38.92],[-115.66,38.83],[-117.28,38.36],[-117.38,38.33],[-117.49,38.29],[-117.69,38.23],[-117.91,37.92],[-118.12,37.82],[-118.29,37.81],[-118.45,37.8],[-118.82,37.79],[-119.08,37.77],[-119.47,37.75],[-119.82,37.73],[-119.92,37.73],[-120.02,37.72],[-120.31,37.71],[-120.4,37.7],[-120.4,37.7],[-120.57,37.68],[-120.69,37.67],[-120.75,37.66],[-120.79,37.65],[-120.8,37.65],[-120.96,37.63],[-121,37.63],[-121.01,37.63],[-121.07,37.62],[-121.17,37.61],[-121.26,37.59],[-121.39,37.58],[-121.41,37.58],[-121.6,37.55],[-121.61,37.55],[-121.62,37.55],[-121.72,37.53],[-121.8,37.51],[-121.88,37.49],[-121.89,37.49],[-122.01,37.53],[-122.08,37.54],[-122.18,37.57],[-122.18,37.57],[-122.28,37.59],[-122.33,37.61],[-122.36,37.61],[-122.38,37.62]],"type":"LineString"}
}
