{
  "id": 2014697815,
  "type": "Feature",
  "properties": {
    "geom:area": 0,
    "geom:bbox": "-122.358500,37.491720,-121.260710,37.614200",
    "geom:latitude": 37.54633453586539,
    "geom:longitude": -121.81452822590889,
    "src:alt_label": "swim-approach",
    "src:geom": "swim",
    "swim:elevations": [
      4529,
      4203,
      4181,
      3803,
      3616,
      3493,
      3290,
      3202,
      3125,
      2828,
      2666,
      2517,
      2229,
      2044,
      1857,
      1691,
      1524,
      1321,
      1210,
      1107,
      911,
      760,
      587,
      517,
      393,
      328,
      153,
      99,
      30
    ],
    "swim:geom": "approach",
    "swim:timestamps": [
      1770052039,
      1770052078,
      1770052084,
      1770052137,
      1770052161,
      1770052186,
      1770052225,
      1770052243,
      1770052266,
      1770052312,
      1770052341,
      1770052364,
      1770052405,
      1770052443,
      1770052489,
      1770052523,
      1770052555,
      1770052585,
      1770052609,
      1770052625,
      1770052664,
      1770052696,
      1770052730,
      1770052748,
      1770052771,
      1770052786,
      1770052822,
      1770052837,
      1770052860
    ],
    "wof:geomhash": "765caaae064d897880da3d73c6e9a8bc",
    "wof:id": 2014697815,
    "wof:repo": "sfomuseum-data-flights-2026-02"
  },
  "bbox": [
    -122.3585,
    37.49172,
    -121.26071,
    37.6142
  ],
  "geometry": {"coordinates":[[-121.26071,37.5931],[-121.34198,37.58365],[-121.35339,37.58232],[-121.45402,37.57068],[-121.49645,37.56579],[-121.54053,37.56072],[-121.60047,37.5537],[-121.62772,37.55006],[-121.66126,37.54205],[-121.72636,37.52663],[-121.76753,37.51675],[-121.79933,37.50903],[-121.85773,37.49502],[-121.91052,37.49172],[-121.9737,37.4929],[-122.01753,37.50398],[-122.05799,37.51705],[-122.09321,37.5287],[-122.1186,37.53699],[-122.13568,37.54242],[-122.17591,37.55572],[-122.20788,37.56615],[-122.24349,37.5773],[-122.2617,37.58341],[-122.28369,37.58984],[-122.29714,37.59364],[-122.32751,37.60267],[-122.34079,37.60695],[-122.3585,37.6142]],"type":"LineString"}
}
