{
  "id": 2014828433,
  "type": "Feature",
  "properties": {
    "geom:area": 0,
    "geom:bbox": "-163.833333,13.000000,149.300000,37.670278",
    "geom:latitude": 18.494992126843865,
    "geom:longitude": -20.920456906885732,
    "src:alt_label": "swim-path",
    "src:geom": "swim",
    "swim:altitudes": [
      "006",
      "010",
      "010",
      "010",
      "034",
      "034",
      "034",
      "034",
      "044",
      "044",
      "044",
      "044",
      "063C",
      "063C",
      "063C",
      "063C",
      "063C",
      "109C",
      "109C",
      "109C",
      "109C",
      "109C",
      "153",
      "153",
      "153",
      "153",
      "153",
      "229C",
      "229C",
      "229C",
      "229C",
      "232",
      "232",
      "232",
      "251",
      "251",
      "279",
      "279",
      "295C",
      "295C",
      "295C",
      "295C",
      "295C",
      "312C",
      "313",
      "320",
      "320C",
      "320C",
      "320C",
      "320",
      "320",
      "320C",
      "320",
      "320",
      "320",
      "320",
      "320C",
      "320C",
      "320C",
      "320C",
      "320C",
      "320",
      "320",
      "320C",
      "320C",
      "320C",
      "320C",
      "320",
      "320",
      "320",
      "320C",
      "320C",
      "320C",
      "320C",
      "320C",
      "320C",
      "320C",
      "320C",
      "320C",
      "320C",
      "320C",
      "320C",
      "320C",
      "320C",
      "320C",
      "320C",
      "320C",
      "320",
      "320",
      "320",
      "320",
      "320",
      "320",
      "320",
      "320",
      "320",
      "320",
      "320",
      "320",
      "320",
      "320",
      "336C",
      "336C",
      "336C",
      "340",
      "340",
      "340",
      "340",
      "340",
      "340",
      "340",
      "340",
      "340",
      "340",
      "340",
      "340",
      "340",
      "340",
      "340",
      "340",
      "340",
      "340",
      "340",
      "340",
      "340",
      "340",
      "340",
      "340",
      "340",
      "340",
      "340",
      "340",
      "340",
      "340",
      "340",
      "340",
      "340",
      "340",
      "340",
      "340",
      "340",
      "340",
      "340",
      "340",
      "340",
      "340",
      "340",
      "340",
      "340",
      "340",
      "340",
      "340",
      "340",
      "340",
      "340",
      "340",
      "340",
      "340",
      "340",
      "340",
      "340",
      "340",
      "344C",
      "344C",
      "344C",
      "344C",
      "344C",
      "360",
      "360",
      "360",
      "360",
      "360",
      "360",
      "360",
      "360",
      "360",
      "360",
      "360",
      "360",
      "360",
      "360",
      "360",
      "360",
      "360",
      "360",
      "360",
      "360",
      "360",
      "360",
      "360",
      "360",
      "360",
      "360",
      "360",
      "360",
      "360",
      "360",
      "360",
      "360",
      "360",
      "360",
      "360",
      "360",
      "360",
      "360",
      "360",
      "360",
      "360",
      "390",
      "390",
      "390",
      "390",
      "390",
      "390",
      "390",
      "390",
      "390",
      "390",
      "390",
      "390",
      "390",
      "390",
      "390",
      "390",
      "390",
      "390",
      "390",
      "390",
      "390",
      "390",
      "390",
      "390",
      "390",
      "390",
      "390",
      "390",
      "390",
      "390",
      "390",
      "390",
      "390",
      "390",
      "390",
      "390",
      "390",
      "390",
      "390",
      "390",
      "390",
      "390",
      "390"
    ],
    "swim:geom": "path",
    "swim:speeds": [
      176,
      177,
      177,
      177,
      176,
      176,
      176,
      176,
      230,
      230,
      230,
      230,
      250,
      250,
      250,
      250,
      250,
      280,
      280,
      280,
      280,
      280,
      344,
      344,
      344,
      344,
      344,
      370,
      370,
      370,
      370,
      368,
      368,
      368,
      374,
      374,
      387,
      387,
      390,
      390,
      390,
      390,
      390,
      390,
      390,
      400,
      399,
      399,
      399,
      400,
      400,
      399,
      400,
      400,
      400,
      400,
      399,
      400,
      400,
      400,
      400,
      400,
      400,
      401,
      401,
      401,
      401,
      400,
      400,
      400,
      402,
      402,
      404,
      404,
      404,
      404,
      404,
      416,
      416,
      416,
      418,
      418,
      418,
      418,
      419,
      419,
      419,
      500,
      500,
      500,
      500,
      500,
      500,
      510,
      510,
      510,
      500,
      500,
      500,
      500,
      500,
      500,
      500,
      500,
      500,
      500,
      500,
      500,
      500,
      500,
      500,
      500,
      500,
      500,
      490,
      490,
      490,
      490,
      490,
      480,
      480,
      480,
      490,
      480,
      480,
      480,
      490,
      490,
      490,
      490,
      490,
      490,
      490,
      490,
      480,
      480,
      480,
      480,
      480,
      480,
      480,
      480,
      480,
      490,
      490,
      480,
      480,
      480,
      480,
      480,
      480,
      480,
      480,
      480,
      480,
      480,
      480,
      480,
      480,
      480,
      470,
      470,
      480,
      480,
      480,
      480,
      480,
      470,
      470,
      470,
      470,
      470,
      470,
      470,
      470,
      460,
      460,
      460,
      460,
      460,
      460,
      460,
      460,
      460,
      450,
      450,
      450,
      450,
      460,
      460,
      460,
      460,
      460,
      460,
      460,
      460,
      460,
      460,
      460,
      460,
      450,
      450,
      450,
      450,
      460,
      460,
      460,
      460,
      480,
      480,
      480,
      480,
      490,
      490,
      490,
      490,
      490,
      490,
      490,
      490,
      490,
      490,
      490,
      490,
      490,
      490,
      490,
      490,
      490,
      490,
      490,
      500,
      500,
      490,
      490,
      490,
      490,
      490,
      490,
      490,
      490,
      490,
      490,
      490,
      490,
      490,
      490,
      490,
      490,
      490,
      490
    ],
    "swim:timestamps": [
      1771444400,
      1771444415,
      1771444415,
      1771444415,
      1771444475,
      1771444475,
      1771444475,
      1771444475,
      1771444535,
      1771444535,
      1771444535,
      1771444535,
      1771444581,
      1771444581,
      1771444581,
      1771444581,
      1771444581,
      1771444701,
      1771444701,
      1771444701,
      1771444701,
      1771444701,
      1771444835,
      1771444835,
      1771444835,
      1771444835,
      1771444835,
      1771445062,
      1771445062,
      1771445062,
      1771445062,
      1771445075,
      1771445075,
      1771445075,
      1771445136,
      1771445136,
      1771445256,
      1771445256,
      1771445302,
      1771445302,
      1771445302,
      1771445302,
      1771445302,
      1771445422,
      1771445436,
      1771445482,
      1771445496,
      1771445496,
      1771445496,
      1771445542,
      1771445542,
      1771445556,
      1771445662,
      1771445662,
      1771445722,
      1771445722,
      1771445736,
      1771445796,
      1771445796,
      1771445796,
      1771445796,
      1771445902,
      1771445902,
      1771445917,
      1771445917,
      1771445977,
      1771446037,
      1771446083,
      1771446083,
      1771446083,
      1771446097,
      1771446097,
      1771446217,
      1771446217,
      1771446217,
      1771446217,
      1771446217,
      1771446517,
      1771446517,
      1771446517,
      1771446577,
      1771446577,
      1771446577,
      1771446577,
      1771446637,
      1771446637,
      1771446637,
      1771457894,
      1771457894,
      1771457894,
      1771457894,
      1771457894,
      1771457894,
      1771458138,
      1771458138,
      1771458138,
      1771458198,
      1771458198,
      1771458198,
      1771458198,
      1771458198,
      1771458318,
      1771458318,
      1771458318,
      1771458439,
      1771458439,
      1771458439,
      1771458559,
      1771458559,
      1771458619,
      1771458619,
      1771458679,
      1771458679,
      1771458679,
      1771458740,
      1771458740,
      1771458740,
      1771458740,
      1771458740,
      1771458800,
      1771458800,
      1771458800,
      1771458860,
      1771458920,
      1771458920,
      1771458920,
      1771459101,
      1771459101,
      1771459161,
      1771459161,
      1771459161,
      1771459161,
      1771459161,
      1771459161,
      1771459341,
      1771459401,
      1771459401,
      1771459401,
      1771459642,
      1771459642,
      1771459702,
      1771459702,
      1771459702,
      1771459762,
      1771459762,
      1771459883,
      1771459883,
      1771460003,
      1771460003,
      1771460003,
      1771460003,
      1771460243,
      1771460243,
      1771460303,
      1771460303,
      1771460303,
      1771460303,
      1771460363,
      1771460363,
      1771460484,
      1771460544,
      1771460604,
      1771460664,
      1771460664,
      1771460664,
      1771460664,
      1771460664,
      1771460845,
      1771460845,
      1771460845,
      1771460845,
      1771460904,
      1771460904,
      1771460904,
      1771460904,
      1771461085,
      1771461085,
      1771461085,
      1771461085,
      1771461085,
      1771461266,
      1771461266,
      1771461266,
      1771461266,
      1771461386,
      1771461386,
      1771461506,
      1771461506,
      1771461567,
      1771461567,
      1771461567,
      1771461567,
      1771461747,
      1771461807,
      1771461807,
      1771461927,
      1771461988,
      1771461988,
      1771461988,
      1771462048,
      1771462108,
      1771462108,
      1771462168,
      1771462168,
      1771462228,
      1771462228,
      1771462228,
      1771462228,
      1771483921,
      1771483921,
      1771483982,
      1771484102,
      1771484162,
      1771484222,
      1771484222,
      1771484222,
      1771484343,
      1771484343,
      1771484584,
      1771484764,
      1771484764,
      1771484825,
      1771484885,
      1771484885,
      1771484945,
      1771485065,
      1771485065,
      1771485366,
      1771485547,
      1771485547,
      1771485607,
      1771485667,
      1771485667,
      1771485727,
      1771485787,
      1771485847,
      1771485847,
      1771485908,
      1771486089,
      1771486149,
      1771486149,
      1771486209,
      1771486269,
      1771486630,
      1771486751,
      1771486751,
      1771486811,
      1771486931,
      1771486931,
      1771486991,
      1771486991
    ],
    "wof:geomhash": "3e109faf966603cc40f1ac3572ff9845",
    "wof:id": 2014828433,
    "wof:repo": "sfomuseum-data-flights-2026-02"
  },
  "bbox": [
    -163.83333333333334,
    13,
    149.3,
    37.67027777777778
  ],
  "geometry": {"coordinates":[[[-122.4,37.63333333333333],[-122.40138888888889,37.63],[-122.40138888888889,37.63],[-122.40138888888889,37.63],[-122.45555555555556,37.65361111111111],[-122.45555555555556,37.65361111111111],[-122.45555555555556,37.65361111111111],[-122.45555555555556,37.65361111111111],[-122.52305555555556,37.67027777777778],[-122.52305555555556,37.67027777777778],[-122.52305555555556,37.67027777777778],[-122.52305555555556,37.67027777777778],[-122.58333333333333,37.65],[-122.58333333333333,37.65],[-122.58333333333333,37.65],[-122.58333333333333,37.65],[-122.58333333333333,37.65],[-122.76666666666667,37.6],[-122.76666666666667,37.6],[-122.76666666666667,37.6],[-122.76666666666667,37.6],[-122.76666666666667,37.6],[-123.01888888888888,37.543055555555554],[-123.01888888888888,37.543055555555554],[-123.01888888888888,37.543055555555554],[-123.01888888888888,37.543055555555554],[-123.01888888888888,37.543055555555554],[-123.46666666666667,37.416666666666664],[-123.46666666666667,37.416666666666664],[-123.46666666666667,37.416666666666664],[-123.46666666666667,37.416666666666664],[-123.50138888888888,37.41833333333333],[-123.50138888888888,37.41833333333333],[-123.50138888888888,37.41833333333333],[-123.62777777777777,37.38527777777778],[-123.62777777777777,37.38527777777778],[-123.8825,37.31805555555556],[-123.8825,37.31805555555556],[-123.96666666666667,37.28333333333333],[-123.96666666666667,37.28333333333333],[-123.96666666666667,37.28333333333333],[-123.96666666666667,37.28333333333333],[-123.96666666666667,37.28333333333333],[-124.21666666666667,37.21666666666667],[-124.26222222222222,37.216944444444444],[-124.35,37.18333333333333],[-124.39527777777778,37.18111111111111],[-124.39527777777778,37.18111111111111],[-124.39527777777778,37.18111111111111],[-124.48333333333333,37.15],[-124.48333333333333,37.15],[-124.52583333333334,37.145833333333336],[-124.75,37.083333333333336],[-124.75,37.083333333333336],[-124.88333333333334,37.03333333333333],[-124.88333333333334,37.03333333333333],[-124.91805555555555,37.03861111111111],[-125.04972222222221,37.00222222222222],[-125.04972222222221,37.00222222222222],[-125.04972222222221,37.00222222222222],[-125.04972222222221,37.00222222222222],[-125.26666666666667,36.93333333333333],[-125.26666666666667,36.93333333333333],[-125.31305555555555,36.928888888888885],[-125.31305555555555,36.928888888888885],[-125.44388888888889,36.89222222222222],[-125.57444444444444,36.855555555555554],[-125.66666666666667,36.81666666666667],[-125.66666666666667,36.81666666666667],[-125.66666666666667,36.81666666666667],[-125.70694444444445,36.81777777777778],[-125.70694444444445,36.81777777777778],[-125.97111111111111,36.7425],[-125.97111111111111,36.7425],[-125.97111111111111,36.7425],[-125.97111111111111,36.7425],[-125.97111111111111,36.7425],[-126.64305555555556,36.547777777777775],[-126.64305555555556,36.547777777777775],[-126.64305555555556,36.547777777777775],[-126.77944444444444,36.5075],[-126.77944444444444,36.5075],[-126.77944444444444,36.5075],[-126.77944444444444,36.5075],[-126.91666666666667,36.466944444444444],[-126.91666666666667,36.466944444444444],[-126.91666666666667,36.466944444444444],[-154.13333333333333,24.383333333333333],[-154.13333333333333,24.383333333333333],[-154.13333333333333,24.383333333333333],[-154.13333333333333,24.383333333333333],[-154.13333333333333,24.383333333333333],[-154.13333333333333,24.383333333333333],[-154.66666666666666,24.066666666666666],[-154.66666666666666,24.066666666666666],[-154.66666666666666,24.066666666666666],[-154.8,24.016666666666666],[-154.8,24.016666666666666],[-154.8,24.016666666666666],[-154.8,24.016666666666666],[-154.8,24.016666666666666],[-155.1,23.933333333333334],[-155.1,23.933333333333334],[-155.1,23.933333333333334],[-155.38333333333333,23.85],[-155.38333333333333,23.85],[-155.38333333333333,23.85],[-155.66666666666666,23.766666666666666],[-155.66666666666666,23.766666666666666],[-155.81666666666666,23.733333333333334],[-155.81666666666666,23.733333333333334],[-155.95,23.683333333333334],[-155.95,23.683333333333334],[-155.95,23.683333333333334],[-156.1,23.65],[-156.1,23.65],[-156.1,23.65],[-156.1,23.65],[-156.1,23.65],[-156.23333333333332,23.6],[-156.23333333333332,23.6],[-156.23333333333332,23.6],[-156.38333333333333,23.566666666666666],[-156.51666666666668,23.516666666666666],[-156.51666666666668,23.516666666666666],[-156.51666666666668,23.516666666666666],[-156.95,23.4],[-156.95,23.4],[-157.08333333333334,23.35],[-157.08333333333334,23.35],[-157.08333333333334,23.35],[-157.08333333333334,23.35],[-157.08333333333334,23.35],[-157.08333333333334,23.35],[-157.5,23.233333333333334],[-157.63333333333333,23.183333333333334],[-157.63333333333333,23.183333333333334],[-157.63333333333333,23.183333333333334],[-158.2,23.016666666666666],[-158.2,23.016666666666666],[-158.33333333333334,22.983333333333334],[-158.33333333333334,22.983333333333334],[-158.33333333333334,22.983333333333334],[-158.46666666666667,22.933333333333334],[-158.46666666666667,22.933333333333334],[-158.75,22.85],[-158.75,22.85],[-159.03333333333333,22.766666666666666],[-159.03333333333333,22.766666666666666],[-159.03333333333333,22.766666666666666],[-159.03333333333333,22.766666666666666],[-159.56666666666666,22.583333333333332],[-159.56666666666666,22.583333333333332],[-159.7,22.55],[-159.7,22.55],[-159.7,22.55],[-159.7,22.55],[-159.85,22.5],[-159.85,22.5],[-160.11666666666667,22.416666666666668],[-160.25,22.366666666666667],[-160.38333333333333,22.333333333333332],[-160.51666666666668,22.283333333333335],[-160.51666666666668,22.283333333333335],[-160.51666666666668,22.283333333333335],[-160.51666666666668,22.283333333333335],[-160.51666666666668,22.283333333333335],[-160.91666666666666,22.15],[-160.91666666666666,22.15],[-160.91666666666666,22.15],[-160.91666666666666,22.15],[-161.05,22.116666666666667],[-161.05,22.116666666666667],[-161.05,22.116666666666667],[-161.05,22.116666666666667],[-161.45,21.983333333333334],[-161.45,21.983333333333334],[-161.45,21.983333333333334],[-161.45,21.983333333333334],[-161.45,21.983333333333334],[-161.81666666666666,21.85],[-161.81666666666666,21.85],[-161.81666666666666,21.85],[-161.81666666666666,21.85],[-162.08333333333334,21.766666666666666],[-162.08333333333334,21.766666666666666],[-162.35,21.683333333333334],[-162.35,21.683333333333334],[-162.46666666666667,21.633333333333333],[-162.46666666666667,21.633333333333333],[-162.46666666666667,21.633333333333333],[-162.46666666666667,21.633333333333333],[-162.86666666666667,21.5],[-162.98333333333332,21.466666666666665],[-162.98333333333332,21.466666666666665],[-163.21666666666667,21.383333333333333],[-163.36666666666667,21.333333333333332],[-163.36666666666667,21.333333333333332],[-163.36666666666667,21.333333333333332],[-163.5,21.283333333333335],[-163.63333333333333,21.233333333333334],[-163.63333333333333,21.233333333333334],[-163.75,21.2],[-163.75,21.2],[-163.83333333333334,21.133333333333333],[-163.83333333333334,21.133333333333333],[-163.83333333333334,21.133333333333333],[-163.83333333333334,21.133333333333333]],[[149.3,13],[149.3,13],[149.16666666666666,13],[148.88333333333333,13.016666666666667],[148.75,13.016666666666667],[148.6,13.016666666666667],[148.6,13.016666666666667],[148.6,13.016666666666667],[148.33333333333334,13.016666666666667],[148.33333333333334,13.016666666666667],[147.76666666666668,13.033333333333333],[147.36666666666667,13.033333333333333],[147.36666666666667,13.033333333333333],[147.21666666666667,13.033333333333333],[147.08333333333334,13.033333333333333],[147.08333333333334,13.033333333333333],[146.93333333333334,13.033333333333333],[146.66666666666666,13.033333333333333],[146.66666666666666,13.033333333333333],[145.95,13.033333333333333],[145.53333333333333,13.033333333333333],[145.53333333333333,13.033333333333333],[145.38333333333333,13.033333333333333],[145.25,13.033333333333333],[145.25,13.033333333333333],[145.1,13.033333333333333],[144.96666666666667,13.033333333333333],[144.83333333333334,13.033333333333333],[144.83333333333334,13.033333333333333],[144.68333333333334,13.033333333333333],[144.26666666666668,13.033333333333333],[144.11666666666667,13.033333333333333],[144.11666666666667,13.033333333333333],[143.98333333333332,13.033333333333333],[143.85,13.033333333333333],[143,13.033333333333333],[142.71666666666667,13.033333333333333],[142.71666666666667,13.033333333333333],[142.58333333333334,13.033333333333333],[142.3,13.033333333333333],[142.3,13.033333333333333],[142.16666666666666,13.033333333333333],[142.16666666666666,13.033333333333333]]],"type":"MultiLineString"}
}
