{
  "id": 2014786391,
  "type": "Feature",
  "properties": {
    "geom:area": 0,
    "geom:bbox": "-122.450000,33.283333,-112.037778,37.700000",
    "geom:latitude": 34.86119808824858,
    "geom:longitude": -117.59309559575058,
    "src:alt_label": "swim-path",
    "src:geom": "swim",
    "swim:altitudes": [
      "016",
      "025",
      "025",
      "039",
      "039",
      "044",
      "044",
      "067",
      "086",
      "086",
      "094",
      "109",
      "123",
      "129",
      "142",
      "142",
      "172",
      "172",
      "178",
      "178",
      "195",
      "210",
      "233",
      "233",
      "233",
      "246",
      "246",
      "246",
      "268",
      "268",
      "273",
      "273",
      "284",
      "296",
      "296",
      "296",
      "318",
      "322",
      "326",
      "326",
      "330C",
      "330C",
      "330C",
      "330C",
      "330C",
      "330C",
      "330C",
      "330C",
      "330C",
      "330C",
      "330C",
      "330C",
      "330C",
      "330C",
      "330C",
      "330C",
      "330C",
      "330C",
      "330C",
      "330C",
      "330C",
      "330C",
      "330C",
      "330C",
      "330C",
      "330C",
      "330C",
      "330C",
      "330C",
      "330C",
      "330C",
      "330C",
      "330C",
      "330C",
      "330C",
      "330C",
      "330C",
      "330C",
      "330C",
      "330C",
      "330C",
      "330C",
      "330C",
      "330C",
      "330C",
      "330C",
      "330C",
      "330C",
      "328",
      "305",
      "305",
      "284",
      "257",
      "257",
      "257",
      "250",
      "250",
      "228",
      "228",
      "216",
      "176",
      "169",
      "159",
      "127",
      "127",
      "126",
      "126",
      "117",
      "111",
      "111",
      "080",
      "080",
      "061",
      "061",
      "052",
      "043",
      "032",
      "032",
      "022",
      "019",
      "019",
      "013",
      "013"
    ],
    "swim:geom": "path",
    "swim:speeds": [
      187,
      180,
      180,
      199,
      199,
      224,
      224,
      274,
      286,
      286,
      299,
      357,
      322,
      361,
      346,
      346,
      369,
      369,
      395,
      395,
      413,
      418,
      437,
      437,
      437,
      438,
      438,
      438,
      442,
      442,
      446,
      446,
      469,
      478,
      478,
      478,
      498,
      491,
      498,
      498,
      501,
      501,
      502,
      502,
      501,
      501,
      501,
      501,
      500,
      500,
      500,
      500,
      500,
      499,
      499,
      499,
      499,
      499,
      499,
      499,
      498,
      501,
      501,
      501,
      501,
      501,
      491,
      491,
      491,
      481,
      481,
      481,
      462,
      460,
      458,
      458,
      455,
      455,
      455,
      461,
      462,
      462,
      463,
      459,
      463,
      463,
      465,
      465,
      466,
      466,
      466,
      447,
      420,
      420,
      420,
      406,
      406,
      405,
      405,
      402,
      393,
      389,
      380,
      323,
      323,
      301,
      301,
      300,
      295,
      295,
      242,
      242,
      241,
      241,
      212,
      213,
      201,
      201,
      169,
      161,
      161,
      164,
      164
    ],
    "swim:timestamps": [
      1771000366,
      1771000382,
      1771000382,
      1771000426,
      1771000426,
      1771000442,
      1771000442,
      1771000502,
      1771000547,
      1771000547,
      1771000562,
      1771000622,
      1771000664,
      1771000679,
      1771000724,
      1771000724,
      1771000784,
      1771000784,
      1771000799,
      1771000799,
      1771000859,
      1771000904,
      1771000979,
      1771000979,
      1771000979,
      1771001024,
      1771001024,
      1771001024,
      1771001099,
      1771001099,
      1771001144,
      1771001144,
      1771001204,
      1771001265,
      1771001265,
      1771001265,
      1771001385,
      1771001412,
      1771001445,
      1771001445,
      1771001505,
      1771001505,
      1771001532,
      1771001532,
      1771001592,
      1771001625,
      1771001652,
      1771001652,
      1771001685,
      1771001685,
      1771001712,
      1771001712,
      1771001772,
      1771001832,
      1771001832,
      1771001865,
      1771001865,
      1771001926,
      1771001926,
      1771001926,
      1771002073,
      1771002193,
      1771002193,
      1771002193,
      1771002313,
      1771002313,
      1771002526,
      1771002526,
      1771002526,
      1771002779,
      1771002779,
      1771002779,
      1771002959,
      1771003079,
      1771003139,
      1771003139,
      1771003320,
      1771003320,
      1771003320,
      1771003560,
      1771003620,
      1771003620,
      1771003740,
      1771003826,
      1771003860,
      1771003860,
      1771003946,
      1771003946,
      1771004126,
      1771004221,
      1771004221,
      1771004281,
      1771004366,
      1771004366,
      1771004366,
      1771004487,
      1771004547,
      1771004607,
      1771004607,
      1771004642,
      1771004762,
      1771004787,
      1771004822,
      1771004967,
      1771004967,
      1771004983,
      1771004983,
      1771005028,
      1771005049,
      1771005049,
      1771005223,
      1771005223,
      1771005328,
      1771005328,
      1771005403,
      1771005448,
      1771005508,
      1771005508,
      1771005568,
      1771005584,
      1771005584,
      1771005629,
      1771005629
    ],
    "wof:geomhash": "e66c8f822462deb22adb6f3d5d0e3919",
    "wof:id": 2014786391,
    "wof:repo": "sfomuseum-data-flights-2026-02"
  },
  "bbox": [
    -122.45,
    33.28333333333333,
    -112.03777777777778,
    37.7
  ],
  "geometry": {"coordinates":[[-122.35944444444443,37.64694444444444],[-122.36666666666666,37.666666666666664],[-122.36666666666666,37.666666666666664],[-122.37055555555555,37.69777777777777],[-122.37055555555555,37.69777777777777],[-122.38333333333334,37.7],[-122.38333333333334,37.7],[-122.43333333333334,37.666666666666664],[-122.44888888888889,37.60305555555556],[-122.44888888888889,37.60305555555556],[-122.45,37.583333333333336],[-122.43333333333334,37.483333333333334],[-122.43,37.44222222222222],[-122.41972222222223,37.41861111111111],[-122.35749999999999,37.35583333333334],[-122.35749999999999,37.35583333333334],[-122.22416666666666,37.29055555555556],[-122.22416666666666,37.29055555555556],[-122.19194444444445,37.275277777777774],[-122.19194444444445,37.275277777777774],[-122.08,37.205555555555556],[-121.99638888888889,37.1475],[-121.8436111111111,37.0575],[-121.8436111111111,37.0575],[-121.8436111111111,37.0575],[-121.75638888888889,36.99722222222222],[-121.75638888888889,36.99722222222222],[-121.75638888888889,36.99722222222222],[-121.60194444444444,36.905277777777776],[-121.60194444444444,36.905277777777776],[-121.5125,36.843611111111116],[-121.5125,36.843611111111116],[-121.38277777777778,36.76138888888889],[-121.25111111111111,36.67833333333333],[-121.25111111111111,36.67833333333333],[-121.25111111111111,36.67833333333333],[-120.98222222222222,36.50972222222222],[-120.92666666666668,36.473888888888894],[-120.85,36.422777777777775],[-120.85,36.422777777777775],[-120.71472222222222,36.33166666666667],[-120.71472222222222,36.33166666666667],[-120.66083333333334,36.29527777777778],[-120.66083333333334,36.29527777777778],[-120.52638888888889,36.20527777777778],[-120.45055555555555,36.15416666666667],[-120.3938888888889,36.11527777777778],[-120.3938888888889,36.11527777777778],[-120.31833333333333,36.06361111111111],[-120.31833333333333,36.06361111111111],[-120.26361111111112,36.02611111111111],[-120.26361111111112,36.02611111111111],[-120.13111111111111,35.936388888888885],[-120,35.84722222222222],[-120,35.84722222222222],[-119.94916666666667,35.81194444444444],[-119.94916666666667,35.81194444444444],[-119.82138888888889,35.72166666666667],[-119.82138888888889,35.72166666666667],[-119.82138888888889,35.72166666666667],[-119.48194444444445,35.481388888888894],[-119.2238888888889,35.29694444444444],[-119.2238888888889,35.29694444444444],[-119.2238888888889,35.29694444444444],[-118.99444444444444,35.13166666666667],[-118.99444444444444,35.13166666666667],[-118.54861111111111,34.80777777777777],[-118.54861111111111,34.80777777777777],[-118.54861111111111,34.80777777777777],[-118.01194444444444,34.42361111111111],[-118.01194444444444,34.42361111111111],[-118.01194444444444,34.42361111111111],[-117.58416666666666,34.31638888888889],[-117.28833333333333,34.24472222222222],[-117.1275,34.20527777777778],[-117.1275,34.20527777777778],[-116.68972222222223,34.09638888888889],[-116.68972222222223,34.09638888888889],[-116.68972222222223,34.09638888888889],[-116.09694444444445,33.94638888888888],[-115.94805555555556,33.908055555555556],[-115.94805555555556,33.908055555555556],[-115.65083333333334,33.831388888888895],[-115.45277777777778,33.77777777777778],[-115.35527777777777,33.75416666666667],[-115.35527777777777,33.75416666666667],[-115.16111111111111,33.70277777777778],[-115.16111111111111,33.70277777777778],[-114.70805555555556,33.58583333333333],[-114.46027777777778,33.53722222222222],[-114.46027777777778,33.53722222222222],[-114.31583333333333,33.509166666666665],[-114.13388888888889,33.47222222222222],[-114.13388888888889,33.47222222222222],[-114.13388888888889,33.47222222222222],[-113.86916666666666,33.4225],[-113.73388888888888,33.405],[-113.60194444444444,33.38722222222222],[-113.60194444444444,33.38722222222222],[-113.52305555555556,33.376666666666665],[-113.26416666666667,33.34138888888889],[-113.21472222222222,33.334722222222226],[-113.1388888888889,33.324444444444445],[-112.86805555555554,33.28722222222222],[-112.86805555555554,33.28722222222222],[-112.83333333333333,33.28333333333333],[-112.83333333333333,33.28333333333333],[-112.77333333333333,33.29888888888889],[-112.73333333333333,33.31666666666667],[-112.73333333333333,33.31666666666667],[-112.48333333333333,33.4],[-112.48333333333333,33.4],[-112.36388888888888,33.44083333333333],[-112.36388888888888,33.44083333333333],[-112.26666666666667,33.43333333333333],[-112.21916666666667,33.44083333333333],[-112.15305555555557,33.44083333333333],[-112.15305555555557,33.44083333333333],[-112.0925,33.44083333333333],[-112.08333333333333,33.43333333333333],[-112.08333333333333,33.43333333333333],[-112.03777777777778,33.44083333333333],[-112.03777777777778,33.44083333333333]],"type":"LineString"}
}
