{
  "id": 2014772437,
  "type": "Feature",
  "properties": {
    "geom:area": 0,
    "geom:bbox": "-122.756944,37.500000,-74.143056,43.646389",
    "geom:latitude": 42.15236435254003,
    "geom:longitude": -99.09490057954424,
    "src:alt_label": "swim-path",
    "src:geom": "swim",
    "swim:altitudes": [
      "004",
      "018",
      "018",
      "101",
      "101",
      "101",
      "124",
      "143",
      "169",
      "169",
      "208",
      "208",
      "208",
      "257",
      "257",
      "280C",
      "280C",
      "280C",
      "280C",
      "280C",
      "280C",
      "280C",
      "280C",
      "280C",
      "280",
      "284",
      "284",
      "319C",
      "319C",
      "320C",
      "320C",
      "320C",
      "320C",
      "320C",
      "320C",
      "320C",
      "320C",
      "320C",
      "320C",
      "320C",
      "320C",
      "320C",
      "320C",
      "320C",
      "320C",
      "320C",
      "320C",
      "320C",
      "320C",
      "320C",
      "320C",
      "320C",
      "320C",
      "320C",
      "320C",
      "320C",
      "320C",
      "320C",
      "320C",
      "320C",
      "320C",
      "320C",
      "320C",
      "320",
      "320",
      "320",
      "327",
      "327",
      "329",
      "340C",
      "340C",
      "340C",
      "340C",
      "340C",
      "340C",
      "340C",
      "340C",
      "340C",
      "340C",
      "340C",
      "340C",
      "340C",
      "340C",
      "340C",
      "340C",
      "340C",
      "340C",
      "340C",
      "340C",
      "340C",
      "340C",
      "340C",
      "340C",
      "340C",
      "340C",
      "340C",
      "340C",
      "340C",
      "340C",
      "340C",
      "340C",
      "340C",
      "340C",
      "340C",
      "340C",
      "340C",
      "340C",
      "340C",
      "340C",
      "340C",
      "340C",
      "340C",
      "340C",
      "340C",
      "340C",
      "340C",
      "340C",
      "340C",
      "340C",
      "340C",
      "340C",
      "340C",
      "340C",
      "340C",
      "340C",
      "340C",
      "340C",
      "340C",
      "340C",
      "340C",
      "340C",
      "340C",
      "340C",
      "340C",
      "340C",
      "340C",
      "340C",
      "340C",
      "340C",
      "340C",
      "340C",
      "340C",
      "340C",
      "340C",
      "340C",
      "340C",
      "340C",
      "340C",
      "340C",
      "340C",
      "340C",
      "340C",
      "340C",
      "340C",
      "340C",
      "340C",
      "340C",
      "340C",
      "340C",
      "340C",
      "340C",
      "340C",
      "340C",
      "340C",
      "340C",
      "340C",
      "340C",
      "340C",
      "340C",
      "340C",
      "340C",
      "340C",
      "340C",
      "340C",
      "340C",
      "340C",
      "340C",
      "340C",
      "340C",
      "340C",
      "340C",
      "340C",
      "340C",
      "340C",
      "340C",
      "340C",
      "340C",
      "340C",
      "340C",
      "340C",
      "340C",
      "340C",
      "340C",
      "340C",
      "340C",
      "340C",
      "340C",
      "340C",
      "340C",
      "340C",
      "340C",
      "340C",
      "340C",
      "340C",
      "340C",
      "340C",
      "340C",
      "340C",
      "340C",
      "340C",
      "340C",
      "340C",
      "340C",
      "340C",
      "340C",
      "340C",
      "340C",
      "340C",
      "340C",
      "340C",
      "340C",
      "340C",
      "340C",
      "340C",
      "340C",
      "340C",
      "340C",
      "340C",
      "340C",
      "340C",
      "340C",
      "340C",
      "340C",
      "340C",
      "340C",
      "340C",
      "340",
      "340",
      "290",
      "290",
      "239",
      "198",
      "190",
      "190",
      "153",
      "134",
      "131",
      "119",
      "095",
      "095",
      "039",
      "039",
      "014",
      "004",
      "004",
      "004"
    ],
    "swim:geom": "path",
    "swim:speeds": [
      171,
      182,
      182,
      334,
      334,
      334,
      322,
      356,
      375,
      375,
      405,
      405,
      405,
      436,
      436,
      454,
      454,
      456,
      456,
      456,
      456,
      455,
      455,
      454,
      453,
      452,
      452,
      438,
      438,
      436,
      435,
      431,
      431,
      427,
      427,
      427,
      428,
      428,
      428,
      428,
      428,
      426,
      425,
      423,
      423,
      423,
      417,
      415,
      412,
      412,
      410,
      408,
      408,
      399,
      398,
      398,
      399,
      399,
      400,
      402,
      403,
      403,
      403,
      402,
      402,
      400,
      395,
      395,
      395,
      394,
      394,
      394,
      394,
      394,
      393,
      393,
      393,
      393,
      393,
      393,
      393,
      393,
      393,
      392,
      392,
      393,
      393,
      393,
      392,
      394,
      394,
      396,
      396,
      397,
      398,
      398,
      400,
      400,
      400,
      400,
      401,
      402,
      402,
      402,
      404,
      404,
      404,
      408,
      409,
      409,
      411,
      411,
      413,
      414,
      416,
      416,
      416,
      417,
      417,
      418,
      418,
      419,
      420,
      420,
      420,
      424,
      426,
      427,
      427,
      441,
      439,
      439,
      436,
      437,
      437,
      443,
      443,
      449,
      449,
      445,
      445,
      446,
      442,
      444,
      441,
      439,
      439,
      439,
      438,
      437,
      436,
      438,
      435,
      435,
      435,
      435,
      435,
      435,
      431,
      431,
      432,
      432,
      433,
      432,
      437,
      437,
      437,
      437,
      438,
      438,
      439,
      439,
      439,
      439,
      440,
      440,
      439,
      439,
      439,
      439,
      440,
      442,
      442,
      443,
      444,
      444,
      444,
      444,
      444,
      447,
      447,
      447,
      448,
      450,
      450,
      451,
      451,
      451,
      451,
      451,
      453,
      454,
      456,
      466,
      466,
      466,
      469,
      469,
      473,
      478,
      478,
      485,
      486,
      490,
      489,
      489,
      489,
      489,
      489,
      489,
      489,
      490,
      491,
      491,
      489,
      488,
      483,
      481,
      479,
      478,
      474,
      473,
      473,
      482,
      482,
      482,
      482,
      482,
      474,
      474,
      382,
      360,
      355,
      355,
      327,
      320,
      277,
      261,
      250,
      250,
      198,
      198,
      136,
      121,
      121,
      121
    ],
    "swim:timestamps": [
      1770941047,
      1770941084,
      1770941084,
      1770941385,
      1770941385,
      1770941385,
      1770941445,
      1770941505,
      1770941565,
      1770941565,
      1770941685,
      1770941685,
      1770941685,
      1770941865,
      1770941865,
      1770942034,
      1770942034,
      1770942154,
      1770942274,
      1770942274,
      1770942286,
      1770942406,
      1770942406,
      1770942514,
      1770942647,
      1770942707,
      1770942707,
      1770942827,
      1770942827,
      1770942875,
      1770942947,
      1770943055,
      1770943055,
      1770943235,
      1770943295,
      1770943295,
      1770943416,
      1770943476,
      1770943476,
      1770943776,
      1770943776,
      1770943896,
      1770943956,
      1770944077,
      1770944077,
      1770944077,
      1770944257,
      1770944317,
      1770944377,
      1770944377,
      1770944437,
      1770944497,
      1770944497,
      1770944798,
      1770944918,
      1770944918,
      1770944978,
      1770944978,
      1770945038,
      1770945098,
      1770945332,
      1770945332,
      1770945332,
      1770945453,
      1770945453,
      1770945519,
      1770945753,
      1770945753,
      1770945759,
      1770945933,
      1770945933,
      1770945993,
      1770946119,
      1770946174,
      1770946414,
      1770946414,
      1770946414,
      1770946595,
      1770946595,
      1770946595,
      1770946714,
      1770946714,
      1770946714,
      1770946835,
      1770946835,
      1770946955,
      1770946955,
      1770946955,
      1770947135,
      1770947256,
      1770947256,
      1770947375,
      1770947375,
      1770947495,
      1770947615,
      1770947615,
      1770947796,
      1770947796,
      1770947796,
      1770947976,
      1770948096,
      1770948217,
      1770948217,
      1770948217,
      1770948457,
      1770948457,
      1770948457,
      1770948637,
      1770948697,
      1770948697,
      1770948818,
      1770948818,
      1770948937,
      1770948997,
      1770949117,
      1770949178,
      1770949178,
      1770949358,
      1770949358,
      1770949898,
      1770949898,
      1770950019,
      1770950079,
      1770950199,
      1770950199,
      1770950439,
      1770950559,
      1770950619,
      1770950619,
      1770950999,
      1770951059,
      1770951119,
      1770951291,
      1770951340,
      1770951340,
      1770951461,
      1770951461,
      1770951701,
      1770951701,
      1770951941,
      1770951941,
      1770951960,
      1770952061,
      1770952080,
      1770952121,
      1770952242,
      1770952242,
      1770952242,
      1770952313,
      1770952493,
      1770952613,
      1770952621,
      1770952801,
      1770952921,
      1770952921,
      1770952921,
      1770953041,
      1770953041,
      1770953214,
      1770953214,
      1770953334,
      1770953334,
      1770953454,
      1770953462,
      1770953582,
      1770953755,
      1770953755,
      1770953815,
      1770953935,
      1770953935,
      1770954175,
      1770954195,
      1770954255,
      1770954495,
      1770954555,
      1770954555,
      1770954615,
      1770954615,
      1770954796,
      1770954796,
      1770954916,
      1770955036,
      1770955096,
      1770955156,
      1770955216,
      1770955216,
      1770955336,
      1770955336,
      1770955336,
      1770955637,
      1770955637,
      1770955637,
      1770955757,
      1770955877,
      1770955877,
      1770956057,
      1770956057,
      1770956178,
      1770956238,
      1770956238,
      1770956478,
      1770956538,
      1770956598,
      1770956827,
      1770956827,
      1770956827,
      1770957008,
      1770957008,
      1770957128,
      1770957199,
      1770957308,
      1770957368,
      1770957428,
      1770957488,
      1770957668,
      1770957680,
      1770957728,
      1770957728,
      1770957920,
      1770957920,
      1770958029,
      1770958100,
      1770958149,
      1770958149,
      1770958280,
      1770958340,
      1770958569,
      1770958750,
      1770958810,
      1770958870,
      1770959050,
      1770959170,
      1770959170,
      1770959350,
      1770959350,
      1770959350,
      1770959471,
      1770959471,
      1770959651,
      1770959651,
      1770959831,
      1770960011,
      1770960071,
      1770960071,
      1770960234,
      1770960311,
      1770960355,
      1770960432,
      1770960612,
      1770960612,
      1770960834,
      1770960834,
      1770960972,
      1770961074,
      1770961074,
      1770961074
    ],
    "wof:geomhash": "0148a457fdf4774fe07d425d8f3afde3",
    "wof:id": 2014772437,
    "wof:repo": "sfomuseum-data-flights-2026-02"
  },
  "bbox": [
    -122.75694444444444,
    37.5,
    -74.14305555555556,
    43.646388888888886
  ],
  "geometry": {"coordinates":[[-74.16666666666667,40.7],[-74.14305555555556,40.719722222222224],[-74.14305555555556,40.719722222222224],[-74.36916666666666,40.96027777777778],[-74.36916666666666,40.96027777777778],[-74.36916666666666,40.96027777777778],[-74.4363888888889,41.030277777777776],[-74.54305555555555,41.07472222222223],[-74.66944444444445,41.12638888888889],[-74.66944444444445,41.12638888888889],[-74.92666666666668,41.23694444444445],[-74.92666666666668,41.23694444444445],[-74.92666666666668,41.23694444444445],[-75.32444444444444,41.40833333333333],[-75.32444444444444,41.40833333333333],[-75.75444444444445,41.553888888888885],[-75.75444444444445,41.553888888888885],[-76.07277777777777,41.64416666666666],[-76.39666666666668,41.735],[-76.39666666666668,41.735],[-76.4063888888889,41.737500000000004],[-76.745,41.831388888888895],[-76.745,41.831388888888895],[-77.02972222222222,41.909166666666664],[-77.38194444444444,42.00361111111111],[-77.53777777777778,42.045833333333334],[-77.53777777777778,42.045833333333334],[-77.8475,42.12972222222222],[-77.8475,42.12972222222222],[-77.9738888888889,42.163333333333334],[-78.1575,42.21222222222222],[-78.40111111111112,42.27472222222222],[-78.40111111111112,42.27472222222222],[-78.85888888888888,42.38722222222222],[-79.02416666666666,42.427499999999995],[-79.02416666666666,42.427499999999995],[-79.31694444444445,42.49888888888889],[-79.46861111111112,42.53527777777778],[-79.46861111111112,42.53527777777778],[-80.25972222222222,42.632222222222225],[-80.25972222222222,42.632222222222225],[-80.57888888888888,42.64472222222222],[-80.74083333333333,42.650277777777774],[-81.05583333333333,42.66027777777778],[-81.05583333333333,42.66027777777778],[-81.05583333333333,42.66027777777778],[-81.525,42.69638888888888],[-81.67805555555556,42.71416666666667],[-81.83972222222222,42.73222222222223],[-81.83972222222222,42.73222222222223],[-81.99166666666667,42.74888888888889],[-82.14444444444445,42.76583333333333],[-82.14444444444445,42.76583333333333],[-82.88777777777779,42.85527777777778],[-83.18583333333333,42.894444444444446],[-83.18583333333333,42.894444444444446],[-83.33583333333333,42.9125],[-83.33583333333333,42.9125],[-83.48527777777778,42.92583333333333],[-83.63111111111111,42.93861111111111],[-84.22305555555556,42.98861111111111],[-84.22305555555556,42.98861111111111],[-84.22305555555556,42.98861111111111],[-84.52305555555556,43.0125],[-84.52305555555556,43.0125],[-84.70277777777778,43.02305555555555],[-85.27555555555556,43.04527777777778],[-85.27555555555556,43.04527777777778],[-85.30222222222221,43.04611111111111],[-85.72500000000001,43.06083333333333],[-85.72500000000001,43.06083333333333],[-85.87416666666665,43.06583333333333],[-86.21444444444445,43.07611111111112],[-86.33722222222222,43.07944444444445],[-86.93472222222222,43.09444444444445],[-86.93472222222222,43.09444444444445],[-86.93472222222222,43.09444444444445],[-87.39611111111111,43.10388888888889],[-87.39611111111111,43.10388888888889],[-87.39611111111111,43.10388888888889],[-87.66805555555555,43.10861111111111],[-87.66805555555555,43.10861111111111],[-87.66805555555555,43.10861111111111],[-87.96333333333334,43.11277777777778],[-87.96333333333334,43.11277777777778],[-88.26583333333333,43.11694444444444],[-88.26583333333333,43.11694444444444],[-88.26583333333333,43.11694444444444],[-88.70666666666666,43.16],[-89.00805555555556,43.18722222222222],[-89.00805555555556,43.18722222222222],[-89.31222222222222,43.21555555555556],[-89.31222222222222,43.21555555555556],[-89.61361111111111,43.24277777777778],[-89.91388888888889,43.26888888888889],[-89.91388888888889,43.26888888888889],[-90.38222222222221,43.308055555555555],[-90.38222222222221,43.308055555555555],[-90.38222222222221,43.308055555555555],[-90.83444444444444,43.344166666666666],[-91.13861111111112,43.3675],[-91.43944444444445,43.38972222222222],[-91.43944444444445,43.38972222222222],[-91.43944444444445,43.38972222222222],[-92.05,43.43194444444444],[-92.05,43.43194444444444],[-92.05,43.43194444444444],[-92.51388888888889,43.46222222222222],[-92.66972222222223,43.47166666666667],[-92.66972222222223,43.47166666666667],[-92.98305555555555,43.49055555555556],[-92.98305555555555,43.49055555555556],[-93.29722222222222,43.50861111111111],[-93.455,43.51722222222222],[-93.77305555555556,43.534166666666664],[-93.9325,43.54222222222222],[-93.9325,43.54222222222222],[-94.41555555555556,43.565555555555555],[-94.41555555555556,43.565555555555555],[-95.84916666666666,43.62222222222222],[-95.84916666666666,43.62222222222222],[-96.1725,43.6325],[-96.33472222222221,43.63722222222222],[-96.65777777777778,43.646388888888886],[-96.65777777777778,43.646388888888886],[-97.30611111111111,43.63944444444444],[-97.63416666666667,43.63194444444444],[-97.79777777777778,43.62777777777778],[-97.79777777777778,43.62777777777778],[-98.83305555555555,43.59583333333334],[-98.99888888888889,43.589444444444446],[-99.16611111111112,43.58388888888889],[-99.63833333333334,43.56527777777777],[-99.77083333333333,43.559444444444445],[-99.77083333333333,43.559444444444445],[-100.10416666666666,43.52472222222222],[-100.10416666666666,43.52472222222222],[-100.72055555555556,43.30444444444444],[-100.72055555555556,43.30444444444444],[-101.38805555555557,43.22361111111111],[-101.38805555555557,43.22361111111111],[-101.46416666666667,43.213055555555556],[-101.72166666666666,43.191111111111105],[-101.79583333333333,43.18083333333333],[-101.88805555555557,43.17472222222222],[-102.21833333333333,43.14111111111111],[-102.21833333333333,43.14111111111111],[-102.21833333333333,43.14111111111111],[-102.4225,43.12],[-102.91333333333334,43.0675],[-103.24111111111111,43.03111111111111],[-103.2713888888889,43.02472222222222],[-103.75777777777778,42.971111111111114],[-104.08027777777778,42.933611111111105],[-104.08027777777778,42.933611111111105],[-104.08027777777778,42.933611111111105],[-104.40111111111112,42.89472222222222],[-104.40111111111112,42.89472222222222],[-104.87666666666667,42.83527777777778],[-104.87666666666667,42.83527777777778],[-105.19638888888889,42.79416666666666],[-105.19638888888889,42.79416666666666],[-105.51694444444445,42.75194444444445],[-105.51638888888888,42.75111111111111],[-105.84055555555555,42.708333333333336],[-106.32333333333332,42.641666666666666],[-106.32333333333332,42.641666666666666],[-106.48472222222222,42.618611111111115],[-106.80805555555555,42.57222222222222],[-106.80805555555555,42.57222222222222],[-107.44194444444445,42.47833333333333],[-107.50638888888889,42.468611111111116],[-107.66833333333334,42.443888888888885],[-108.3111111111111,42.343333333333334],[-108.47333333333333,42.31722222222223],[-108.47333333333333,42.31722222222223],[-108.63083333333333,42.291666666666664],[-108.63083333333333,42.291666666666664],[-109.11194444444443,42.212500000000006],[-109.11194444444443,42.212500000000006],[-109.43194444444445,42.15833333333333],[-109.75305555555556,42.10333333333333],[-109.91361111111112,42.07527777777778],[-110.07222222222222,42.0475],[-110.23444444444445,42.01861111111111],[-110.23444444444445,42.01861111111111],[-110.55499999999999,41.961111111111116],[-110.55499999999999,41.961111111111116],[-110.55499999999999,41.961111111111116],[-111.37805555555555,41.808611111111105],[-111.37805555555555,41.808611111111105],[-111.37805555555555,41.808611111111105],[-111.69972222222222,41.74722222222222],[-112.01972222222223,41.68527777777778],[-112.01972222222223,41.68527777777778],[-112.50333333333333,41.58972222222222],[-112.50333333333333,41.58972222222222],[-112.8236111111111,41.525],[-112.98333333333333,41.492222222222225],[-112.98333333333333,41.492222222222225],[-113.6286111111111,41.35777777777778],[-113.78999999999999,41.32361111111111],[-113.95055555555555,41.28916666666667],[-114.56555555555555,41.155277777777776],[-114.56555555555555,41.155277777777776],[-114.56555555555555,41.155277777777776],[-115.06138888888889,41.04416666666666],[-115.06138888888889,41.04416666666666],[-115.39722222222223,40.968611111111116],[-115.63194444444444,40.91361111111111],[-115.9363888888889,40.84277777777778],[-116.10694444444444,40.802499999999995],[-116.27666666666667,40.7625],[-116.4475,40.72166666666667],[-116.95138888888889,40.59861111111111],[-116.98277777777778,40.590833333333336],[-117.11861111111111,40.55722222222222],[-117.11861111111111,40.55722222222222],[-117.65583333333333,40.422777777777775],[-117.65583333333333,40.422777777777775],[-117.96000000000001,40.34527777777778],[-118.16055555555556,40.29388888888889],[-118.30305555555556,40.25694444444444],[-118.30305555555556,40.25694444444444],[-118.66722222222222,40.16138888888889],[-118.83277777777778,40.117777777777775],[-119.45666666666666,39.94611111111111],[-119.92527777777778,39.775277777777774],[-120.08027777777778,39.718333333333334],[-120.25722222222223,39.65277777777778],[-120.71583333333334,39.48083333333334],[-121.02055555555556,39.36527777777778],[-121.02055555555556,39.36527777777778],[-121.42916666666667,39.12444444444444],[-121.42916666666667,39.12444444444444],[-121.42916666666667,39.12444444444444],[-121.68944444444445,38.9525],[-121.68944444444445,38.9525],[-122.07166666666666,38.697222222222216],[-122.07166666666666,38.697222222222216],[-122.40222222222222,38.47416666666667],[-122.68833333333333,38.278888888888886],[-122.75694444444444,38.20111111111111],[-122.75694444444444,38.20111111111111],[-122.68333333333334,37.93333333333333],[-122.61277777777777,37.84166666666667],[-122.56666666666666,37.8],[-122.48972222222223,37.72666666666667],[-122.33916666666666,37.55916666666666],[-122.33916666666666,37.55916666666666],[-122.2,37.5],[-122.2,37.5],[-122.2786111111111,37.5775],[-122.35,37.6],[-122.35,37.6],[-122.35,37.6]],"type":"LineString"}
}
