{
  "id": 2014909411,
  "type": "Feature",
  "properties": {
    "geom:area": 0,
    "geom:bbox": "-122.366667,37.633333,-86.270000,40.538611",
    "geom:latitude": 39.814994917177486,
    "geom:longitude": -104.40636736870583,
    "src:alt_label": "swim-path",
    "src:geom": "swim",
    "swim:altitudes": [
      "004",
      "019",
      "019",
      "019",
      "030",
      "056",
      "056",
      "056",
      "216",
      "216",
      "248",
      "248",
      "259",
      "259",
      "273",
      "296",
      "296",
      "296",
      "337",
      "337",
      "350C",
      "350C",
      "350C",
      "350C",
      "350C",
      "350C",
      "350C",
      "350C",
      "350C",
      "350C",
      "350C",
      "350C",
      "350C",
      "350C",
      "351C",
      "351C",
      "350C",
      "350C",
      "350C",
      "350C",
      "350C",
      "350C",
      "350C",
      "350C",
      "350C",
      "350C",
      "350C",
      "350C",
      "350C",
      "350C",
      "350C",
      "350C",
      "350C",
      "350C",
      "350C",
      "350C",
      "350C",
      "350C",
      "350C",
      "350C",
      "350C",
      "350C",
      "350C",
      "350C",
      "350C",
      "350C",
      "350C",
      "350C",
      "350C",
      "350C",
      "350C",
      "350C",
      "350C",
      "350C",
      "350C",
      "350C",
      "350C",
      "350C",
      "350C",
      "350C",
      "350C",
      "350C",
      "350C",
      "350C",
      "350C",
      "350C",
      "350C",
      "350C",
      "350C",
      "350C",
      "350C",
      "350C",
      "350C",
      "350C",
      "350C",
      "350C",
      "350C",
      "350C",
      "350C",
      "350C",
      "350C",
      "350C",
      "350C",
      "350C",
      "350C",
      "350C",
      "350C",
      "350C",
      "350C",
      "350C",
      "350C",
      "350C",
      "350C",
      "350C",
      "350C",
      "350C",
      "350C",
      "350C",
      "350C",
      "350C",
      "350C",
      "350C",
      "350C",
      "350C",
      "350C",
      "350C",
      "350C",
      "350C",
      "350C",
      "350C",
      "350C",
      "350C",
      "350C",
      "350C",
      "350C",
      "350C",
      "350C",
      "350C",
      "350C",
      "350C",
      "350C",
      "350C",
      "350C",
      "350C",
      "350C",
      "350C",
      "350C",
      "350C",
      "350C",
      "350C",
      "350C",
      "350C",
      "350C",
      "350C",
      "350C",
      "350C",
      "350C",
      "350C",
      "350C",
      "350C",
      "350C",
      "350C",
      "350C",
      "350C",
      "350C",
      "350C",
      "350C",
      "350C",
      "350C",
      "350C",
      "350C",
      "350C",
      "350C",
      "350C",
      "350C",
      "350C",
      "350C",
      "350C",
      "350C",
      "350C",
      "350C",
      "350C",
      "350C",
      "350C",
      "350C",
      "350C",
      "350C",
      "350C",
      "350C",
      "350C",
      "350C",
      "350C",
      "350C",
      "350C",
      "350C",
      "350C",
      "350C",
      "350C",
      "350C",
      "350C",
      "350C",
      "350C",
      "350C",
      "350C",
      "350C",
      "350C",
      "350C",
      "350C",
      "350C",
      "350C",
      "350C",
      "350C",
      "350C",
      "350C",
      "350C",
      "350C",
      "350C",
      "350C",
      "350C",
      "350C",
      "350C",
      "350C"
    ],
    "swim:geom": "path",
    "swim:speeds": [
      178,
      202,
      202,
      202,
      244,
      274,
      274,
      274,
      462,
      462,
      487,
      487,
      505,
      505,
      512,
      520,
      520,
      520,
      519,
      519,
      504,
      504,
      505,
      505,
      506,
      506,
      509,
      509,
      509,
      513,
      513,
      510,
      510,
      510,
      513,
      513,
      511,
      511,
      513,
      513,
      510,
      510,
      502,
      502,
      499,
      499,
      501,
      501,
      500,
      500,
      499,
      498,
      498,
      498,
      500,
      500,
      500,
      504,
      506,
      506,
      506,
      508,
      508,
      508,
      509,
      511,
      511,
      511,
      509,
      506,
      506,
      503,
      503,
      503,
      503,
      502,
      502,
      502,
      502,
      502,
      504,
      505,
      505,
      505,
      506,
      507,
      507,
      508,
      508,
      509,
      509,
      510,
      510,
      511,
      511,
      511,
      511,
      507,
      505,
      505,
      501,
      497,
      497,
      499,
      499,
      499,
      505,
      505,
      513,
      513,
      509,
      509,
      506,
      506,
      506,
      505,
      505,
      504,
      504,
      505,
      505,
      504,
      504,
      502,
      502,
      498,
      498,
      496,
      496,
      498,
      497,
      497,
      498,
      498,
      498,
      498,
      498,
      498,
      498,
      497,
      494,
      493,
      493,
      493,
      495,
      495,
      495,
      495,
      495,
      495,
      499,
      499,
      500,
      500,
      506,
      506,
      507,
      507,
      507,
      507,
      507,
      507,
      508,
      508,
      508,
      510,
      510,
      510,
      511,
      515,
      515,
      516,
      517,
      518,
      518,
      517,
      517,
      517,
      518,
      518,
      519,
      524,
      525,
      525,
      528,
      528,
      528,
      527,
      526,
      525,
      521,
      521,
      518,
      518,
      515,
      513,
      513,
      514,
      514,
      514,
      512,
      512,
      512,
      511,
      511,
      511,
      512,
      511,
      509,
      509,
      510,
      509,
      508,
      508,
      508,
      508,
      507,
      507,
      507,
      507,
      507,
      506
    ],
    "swim:timestamps": [
      1772301403,
      1772301445,
      1772301445,
      1772301445,
      1772301492,
      1772301552,
      1772301552,
      1772301552,
      1772302033,
      1772302033,
      1772302153,
      1772302153,
      1772302213,
      1772302213,
      1772302273,
      1772302393,
      1772302393,
      1772302393,
      1772302571,
      1772302571,
      1772302692,
      1772302692,
      1772302752,
      1772302752,
      1772302812,
      1772302812,
      1772302932,
      1772302932,
      1772302932,
      1772303112,
      1772303112,
      1772303353,
      1772303353,
      1772303353,
      1772303533,
      1772303533,
      1772303713,
      1772303713,
      1772304013,
      1772304013,
      1772304134,
      1772304134,
      1772304374,
      1772304374,
      1772304434,
      1772304434,
      1772304554,
      1772304554,
      1772304614,
      1772304614,
      1772304674,
      1772304734,
      1772304734,
      1772304734,
      1772304854,
      1772304854,
      1772304854,
      1772304975,
      1772305035,
      1772305035,
      1772305035,
      1772305275,
      1772305275,
      1772305335,
      1772305395,
      1772305497,
      1772305497,
      1772305497,
      1772305737,
      1772305816,
      1772305816,
      1772305978,
      1772305996,
      1772305996,
      1772305996,
      1772306098,
      1772306116,
      1772306116,
      1772306158,
      1772306158,
      1772306218,
      1772306236,
      1772306236,
      1772306236,
      1772306417,
      1772306477,
      1772306477,
      1772306590,
      1772306590,
      1772306651,
      1772306651,
      1772306711,
      1772306711,
      1772306831,
      1772306831,
      1772307011,
      1772307011,
      1772307071,
      1772307131,
      1772307131,
      1772307191,
      1772307432,
      1772307432,
      1772307492,
      1772307492,
      1772307492,
      1772307612,
      1772307612,
      1772307912,
      1772307912,
      1772308032,
      1772308032,
      1772308273,
      1772308273,
      1772308273,
      1772308393,
      1772308393,
      1772308453,
      1772308453,
      1772308633,
      1772308693,
      1772308753,
      1772308753,
      1772308814,
      1772308814,
      1772308934,
      1772308934,
      1772309001,
      1772309001,
      1772309054,
      1772309121,
      1772309121,
      1772309181,
      1772309181,
      1772309234,
      1772309234,
      1772309241,
      1772309301,
      1772309301,
      1772309426,
      1772309547,
      1772309607,
      1772309607,
      1772309607,
      1772309842,
      1772309842,
      1772309842,
      1772310022,
      1772310022,
      1772310022,
      1772310322,
      1772310322,
      1772310382,
      1772310382,
      1772310683,
      1772310683,
      1772310863,
      1772310863,
      1772310877,
      1772310997,
      1772310997,
      1772310997,
      1772311043,
      1772311058,
      1772311070,
      1772311163,
      1772311163,
      1772311163,
      1772311223,
      1772311370,
      1772311370,
      1772311430,
      1772311524,
      1772311550,
      1772311550,
      1772311607,
      1772311644,
      1772311644,
      1772311670,
      1772311730,
      1772311790,
      1772311911,
      1772311971,
      1772311971,
      1772312091,
      1772312091,
      1772312091,
      1772312148,
      1772312271,
      1772312356,
      1772312416,
      1772312416,
      1772312451,
      1772312476,
      1772312511,
      1772312572,
      1772312572,
      1772312596,
      1772312596,
      1772312596,
      1772312632,
      1772312716,
      1772312716,
      1772312752,
      1772312752,
      1772312812,
      1772312836,
      1772312992,
      1772313052,
      1772313052,
      1772313077,
      1772313137,
      1772313257,
      1772313257,
      1772313317,
      1772313353,
      1772313413,
      1772313413,
      1772313413,
      1772313497,
      1772313497,
      1772313593
    ],
    "wof:geomhash": "3ecf52879c54c7f9239f1a89db7b9b07",
    "wof:id": 2014909411,
    "wof:repo": "sfomuseum-data-flights-2026-02"
  },
  "bbox": [
    -122.36666666666666,
    37.63333333333333,
    -86.27,
    40.53861111111111
  ],
  "geometry": {"coordinates":[[-122.36666666666666,37.63333333333333],[-122.33333333333333,37.65],[-122.33333333333333,37.65],[-122.33333333333333,37.65],[-122.28555555555555,37.67916666666667],[-122.2075,37.721111111111114],[-122.2075,37.721111111111114],[-122.2075,37.721111111111114],[-121.26555555555555,38.117222222222225],[-121.26555555555555,38.117222222222225],[-120.95694444444445,38.2175],[-120.95694444444445,38.2175],[-120.78027777777778,38.2425],[-120.78027777777778,38.2425],[-120.60472222222222,38.26722222222222],[-120.27972222222222,38.31222222222222],[-120.27972222222222,38.31222222222222],[-120.27972222222222,38.31222222222222],[-119.7213888888889,38.386944444444445],[-119.7213888888889,38.386944444444445],[-119.33472222222221,38.43611111111111],[-119.33472222222221,38.43611111111111],[-119.15861111111111,38.458333333333336],[-119.15861111111111,38.458333333333336],[-118.98083333333334,38.48027777777778],[-118.98083333333334,38.48027777777778],[-118.62583333333333,38.52472222222222],[-118.62583333333333,38.52472222222222],[-118.62583333333333,38.52472222222222],[-118.1086111111111,38.58694444444445],[-118.1086111111111,38.58694444444445],[-117.38666666666667,38.66916666666666],[-117.38666666666667,38.66916666666666],[-117.38666666666667,38.66916666666666],[-116.84666666666666,38.755833333333335],[-116.84666666666666,38.755833333333335],[-116.31027777777777,38.844722222222224],[-116.31027777777777,38.844722222222224],[-115.41222222222223,38.986666666666665],[-115.41222222222223,38.986666666666665],[-115.04805555555555,39.04277777777778],[-115.04805555555555,39.04277777777778],[-114.34555555555555,39.16361111111111],[-114.34555555555555,39.16361111111111],[-114.17472222222223,39.20027777777778],[-114.17472222222223,39.20027777777778],[-113.83,39.27916666666667],[-113.83,39.27916666666667],[-113.65805555555556,39.31722222222223],[-113.65805555555556,39.31722222222223],[-113.48555555555555,39.355555555555554],[-113.31527777777778,39.39361111111111],[-113.31527777777778,39.39361111111111],[-113.31527777777778,39.39361111111111],[-112.96777777777778,39.46805555555556],[-112.96777777777778,39.46805555555556],[-112.96777777777778,39.46805555555556],[-112.65,39.526666666666664],[-112.44583333333334,39.54722222222222],[-112.44583333333334,39.54722222222222],[-112.44583333333334,39.54722222222222],[-111.72444444444444,39.61805555555556],[-111.72444444444444,39.61805555555556],[-111.5436111111111,39.63527777777778],[-111.36138888888888,39.65222222222222],[-111.05972222222222,39.68],[-111.05972222222222,39.68],[-111.05972222222222,39.68],[-110.32805555555555,39.743611111111115],[-110.07638888888889,39.763888888888886],[-110.07638888888889,39.763888888888886],[-109.60749999999999,39.80138888888889],[-109.53611111111111,39.80722222222222],[-109.53611111111111,39.80722222222222],[-109.53611111111111,39.80722222222222],[-109.24583333333334,39.82888888888889],[-109.17222222222223,39.83444444444444],[-109.17222222222223,39.83444444444444],[-109.06416666666667,39.8425],[-109.06416666666667,39.8425],[-108.88361111111112,39.85527777777778],[-108.80499999999999,39.86083333333333],[-108.80499999999999,39.86083333333333],[-108.80499999999999,39.86083333333333],[-108.26,39.897777777777776],[-108.06972222222223,39.91027777777778],[-108.06972222222223,39.91027777777778],[-107.73861111111111,39.93083333333333],[-107.73861111111111,39.93083333333333],[-107.55388888888889,39.94194444444444],[-107.55388888888889,39.94194444444444],[-107.36833333333333,39.95277777777778],[-107.36833333333333,39.95277777777778],[-106.99722222222222,39.973888888888894],[-106.99722222222222,39.973888888888894],[-106.42611111111111,40.00388888888889],[-106.42611111111111,40.00388888888889],[-106.24555555555555,40.021388888888886],[-106.06333333333333,40.03861111111111],[-106.06333333333333,40.03861111111111],[-105.88611111111112,40.05472222222222],[-105.2025,40.115],[-105.2025,40.115],[-105.02,40.13027777777778],[-105.02,40.13027777777778],[-105.02,40.13027777777778],[-104.65444444444445,40.16027777777778],[-104.65444444444445,40.16027777777778],[-103.72722222222222,40.23083333333334],[-103.72722222222222,40.23083333333334],[-103.35694444444444,40.256388888888885],[-103.35694444444444,40.256388888888885],[-102.62833333333333,40.30444444444444],[-102.62833333333333,40.30444444444444],[-102.62833333333333,40.30444444444444],[-102.26222222222222,40.32694444444445],[-102.26222222222222,40.32694444444445],[-102.08027777777778,40.337500000000006],[-102.08027777777778,40.337500000000006],[-101.49555555555555,40.36972222222222],[-101.31361111111111,40.37888888888889],[-101.13194444444444,40.38805555555555],[-101.13194444444444,40.38805555555555],[-100.95416666666667,40.39694444444444],[-100.95416666666667,40.39694444444444],[-100.59694444444445,40.413333333333334],[-100.59694444444445,40.413333333333334],[-100.39666666666668,40.42166666666667],[-100.39666666666668,40.42166666666667],[-100.23777777777778,40.42861111111111],[-100.02944444444444,40.43722222222222],[-100.02944444444444,40.43722222222222],[-99.8475,40.44444444444444],[-99.8475,40.44444444444444],[-99.70472222222223,40.44972222222222],[-99.70472222222223,40.44972222222222],[-99.66722222222222,40.45111111111111],[-99.4875,40.45777777777778],[-99.4875,40.45777777777778],[-99.12722222222222,40.469722222222224],[-98.77222222222223,40.480000000000004],[-98.59083333333332,40.48527777777778],[-98.59083333333332,40.48527777777778],[-98.59083333333332,40.48527777777778],[-97.87305555555555,40.503055555555555],[-97.87305555555555,40.503055555555555],[-97.87305555555555,40.503055555555555],[-97.31638888888888,40.51583333333333],[-97.31638888888888,40.51583333333333],[-97.31638888888888,40.51583333333333],[-96.41472222222222,40.530277777777776],[-96.41472222222222,40.530277777777776],[-96.2325,40.5325],[-96.2325,40.5325],[-95.31611111111111,40.53861111111111],[-95.31611111111111,40.53861111111111],[-94.76472222222222,40.53861111111111],[-94.76472222222222,40.53861111111111],[-94.72416666666666,40.53861111111111],[-94.3561111111111,40.53722222222222],[-94.3561111111111,40.53722222222222],[-94.3561111111111,40.53722222222222],[-94.20583333333333,40.53638888888889],[-94.17083333333333,40.53583333333333],[-94.13388888888889,40.535555555555554],[-93.83361111111111,40.533055555555556],[-93.83361111111111,40.533055555555556],[-93.83361111111111,40.533055555555556],[-93.64555555555556,40.53111111111111],[-93.19611111111111,40.52472222222222],[-93.19611111111111,40.52472222222222],[-93.0075,40.52166666666667],[-92.69944444444445,40.51583333333333],[-92.62638888888888,40.51444444444444],[-92.62638888888888,40.51444444444444],[-92.45527777777778,40.51083333333333],[-92.31805555555555,40.507777777777775],[-92.31805555555555,40.507777777777775],[-92.24277777777777,40.50611111111111],[-92.05111111111111,40.50138888888889],[-91.85944444444443,40.495555555555555],[-91.47944444444444,40.481944444444444],[-91.28583333333333,40.474722222222226],[-91.28583333333333,40.474722222222226],[-90.89333333333335,40.458333333333336],[-90.89333333333335,40.458333333333336],[-90.89333333333335,40.458333333333336],[-90.73972222222223,40.45194444444445],[-90.32305555555556,40.43277777777777],[-90.08749999999999,40.42166666666667],[-89.89694444444446,40.411944444444444],[-89.89694444444446,40.411944444444444],[-89.76277777777777,40.405],[-89.71138888888889,40.40222222222222],[-89.58138888888888,40.39555555555555],[-89.39777777777779,40.385555555555555],[-89.39777777777779,40.385555555555555],[-89.3411111111111,40.382777777777775],[-89.3411111111111,40.382777777777775],[-89.3411111111111,40.382777777777775],[-89.21333333333334,40.37555555555556],[-88.9713888888889,40.361111111111114],[-88.9713888888889,40.361111111111114],[-88.84222222222222,40.353611111111114],[-88.84222222222222,40.353611111111114],[-88.65777777777778,40.3425],[-88.60249999999999,40.33888888888889],[-88.08749999999999,40.305],[-87.90472222222223,40.293055555555554],[-87.90472222222223,40.293055555555554],[-87.86972222222222,40.29055555555556],[-87.68527777777778,40.27472222222222],[-87.29861111111111,40.23916666666667],[-87.29861111111111,40.23916666666667],[-87.11305555555555,40.22166666666667],[-87.0025,40.211111111111116],[-86.82111111111111,40.19361111111111],[-86.82111111111111,40.19361111111111],[-86.82111111111111,40.19361111111111],[-86.55805555555555,40.16777777777777],[-86.55805555555555,40.16777777777777],[-86.27,40.13861111111111]],"type":"LineString"}
}
