{
  "id": 2014880131,
  "type": "Feature",
  "properties": {
    "geom:area": 0,
    "geom:bbox": "-122.358340,37.491230,-121.251290,37.614380",
    "geom:latitude": 37.546714932977885,
    "geom:longitude": -121.80981064566359,
    "src:alt_label": "swim-approach",
    "src:geom": "swim",
    "swim:elevations": [
      5250,
      5003,
      4439,
      4137,
      4082,
      3976,
      3623,
      3350,
      3294,
      3106,
      2807,
      2697,
      2564,
      2374,
      2316,
      2255,
      1972,
      1793,
      1647,
      1549,
      1311,
      1153,
      1003,
      851,
      762,
      546,
      426,
      338,
      237,
      127,
      0
    ],
    "swim:geom": "approach",
    "swim:timestamps": [
      1772056966,
      1772056984,
      1772057037,
      1772057064,
      1772057070,
      1772057079,
      1772057112,
      1772057150,
      1772057168,
      1772057192,
      1772057238,
      1772057253,
      1772057277,
      1772057302,
      1772057331,
      1772057348,
      1772057390,
      1772057427,
      1772057451,
      1772057472,
      1772057510,
      1772057542,
      1772057568,
      1772057600,
      1772057620,
      1772057662,
      1772057690,
      1772057709,
      1772057736,
      1772057764,
      1772057790
    ],
    "wof:geomhash": "e6319e3668c8e50dc47c76af04678a0d",
    "wof:id": 2014880131,
    "wof:repo": "sfomuseum-data-flights-2026-02"
  },
  "bbox": [
    -122.35834,
    37.49123,
    -121.25129,
    37.61438
  ],
  "geometry": {"coordinates":[[-121.25129,37.59452],[-121.28471,37.59018],[-121.38365,37.57898],[-121.43265,37.57324],[-121.44367,37.572],[-121.46017,37.5702],[-121.52067,37.56303],[-121.58865,37.55501],[-121.61948,37.5513],[-121.65962,37.54239],[-121.73081,37.52543],[-121.75371,37.51996],[-121.78936,37.51159],[-121.82732,37.50249],[-121.86858,37.49286],[-121.89207,37.49123],[-121.94779,37.49285],[-121.99369,37.49661],[-122.02328,37.50608],[-122.04716,37.51382],[-122.09323,37.52874],[-122.12926,37.54029],[-122.157,37.54951],[-122.18914,37.55998],[-122.21053,37.56671],[-122.25317,37.58062],[-122.27854,37.58811],[-122.29542,37.59306],[-122.31743,37.59954],[-122.33944,37.60625],[-122.35834,37.61438]],"type":"LineString"}
}
