{
  "id": 2014731017,
  "type": "Feature",
  "properties": {
    "geom:area": 0,
    "geom:bbox": "-122.384900,37.627280,-121.243620,38.166150",
    "geom:latitude": 37.98925091250093,
    "geom:longitude": -121.93364293091756,
    "src:alt_label": "swim-takeoff",
    "src:geom": "swim",
    "swim:elevations": [
      183,
      305,
      979,
      1281,
      1415,
      1706,
      1850,
      2369,
      2682,
      3255,
      3478,
      3743,
      3994,
      4331,
      4693,
      4982,
      5356,
      5413,
      5592,
      5963,
      6123,
      6387,
      6553,
      6855,
      6909,
      7294,
      7465,
      7644,
      7756
    ],
    "swim:geom": "takeoff",
    "swim:timestamps": [
      1770446967,
      1770446975,
      1770447020,
      1770447056,
      1770447078,
      1770447118,
      1770447127,
      1770447160,
      1770447183,
      1770447229,
      1770447256,
      1770447298,
      1770447327,
      1770447357,
      1770447387,
      1770447414,
      1770447447,
      1770447453,
      1770447476,
      1770447508,
      1770447535,
      1770447564,
      1770447585,
      1770447622,
      1770447634,
      1770447688,
      1770447712,
      1770447748,
      1770447761
    ],
    "wof:geomhash": "f080aab10b3a5e2d1d33b3559f263350",
    "wof:id": 2014731017,
    "wof:repo": "sfomuseum-data-flights-2026-02"
  },
  "bbox": [
    -122.3849,
    37.62728,
    -121.24362,
    38.16615
  ],
  "geometry": {"coordinates":[[-122.36714,37.62728],[-122.36278,37.63303],[-122.33299,37.65944],[-122.31076,37.68381],[-122.31394,37.70534],[-122.3377,37.74891],[-122.3435,37.75954],[-122.36332,37.79883],[-122.37689,37.82671],[-122.3849,37.88639],[-122.37361,37.92424],[-122.30325,37.95596],[-122.24131,37.96806],[-122.17681,37.98205],[-122.11167,37.99541],[-122.05212,38.00735],[-121.97826,38.02184],[-121.96486,38.02454],[-121.91468,38.03464],[-121.84425,38.04863],[-121.78344,38.0608],[-121.71482,38.07447],[-121.66627,38.08401],[-121.58041,38.10094],[-121.55209,38.10645],[-121.42236,38.13165],[-121.36435,38.14297],[-121.27721,38.15979],[-121.24362,38.16615]],"type":"LineString"}
}
