{
  "id": 2014829213,
  "type": "Feature",
  "properties": {
    "geom:area": 0,
    "geom:bbox": "-122.313333,35.130000,-80.951111,41.193333",
    "geom:latitude": 39.08873420258936,
    "geom:longitude": -101.43018990558359,
    "src:alt_label": "swim-path",
    "src:geom": "swim",
    "swim:altitudes": [
      "011",
      "011",
      "011",
      "036",
      "055",
      "055",
      "055",
      "081",
      "081",
      "087",
      "087",
      "087",
      "190",
      "190",
      "238",
      "238",
      "238",
      "267",
      "267",
      "267",
      "280C",
      "280C",
      "280C",
      "280C",
      "280C",
      "280C",
      "280C",
      "280C",
      "280C",
      "280C",
      "280C",
      "280C",
      "280C",
      "280C",
      "280C",
      "280C",
      "280C",
      "280C",
      "280C",
      "280C",
      "280C",
      "280C",
      "280C",
      "280C",
      "280C",
      "280C",
      "280C",
      "260C",
      "260C",
      "260C",
      "260C",
      "260C",
      "260C",
      "260C",
      "260C",
      "260C",
      "260C",
      "260C",
      "260C",
      "260C",
      "260C",
      "260C",
      "260C",
      "260C",
      "260C",
      "260C",
      "261C",
      "261C",
      "261C",
      "260C",
      "260C",
      "260C",
      "260C",
      "260C",
      "260C",
      "260C",
      "252",
      "242C",
      "242C",
      "242C",
      "240C",
      "240C",
      "240C",
      "240C",
      "240C",
      "240C",
      "240C",
      "240C",
      "240C",
      "240C",
      "240C",
      "240C",
      "246",
      "246",
      "264",
      "280C",
      "280C",
      "280C",
      "280C",
      "280C",
      "280C",
      "280C",
      "320C",
      "320C",
      "320C",
      "320C",
      "320C",
      "320C",
      "320C",
      "320C",
      "320C",
      "320C",
      "320C",
      "320C",
      "320C",
      "320C",
      "320C",
      "320C",
      "320C",
      "324",
      "325",
      "335",
      "335",
      "344",
      "344",
      "344",
      "355",
      "360",
      "360",
      "360",
      "351",
      "351",
      "340C",
      "340C",
      "340C",
      "340C",
      "340C",
      "340C",
      "340C",
      "340C",
      "340C",
      "340C",
      "340C",
      "340C",
      "340",
      "340",
      "335",
      "330",
      "330",
      "330",
      "322C",
      "320C",
      "320C",
      "320C",
      "320C",
      "320C",
      "320C",
      "320C",
      "320C",
      "320C",
      "320C",
      "320C",
      "320C",
      "320C",
      "320C",
      "320C",
      "320C",
      "320C",
      "320C",
      "320C",
      "320C",
      "320C",
      "321C",
      "320C",
      "320C",
      "320C",
      "320C",
      "320C",
      "320C",
      "320C",
      "320C",
      "320C",
      "320C",
      "320C",
      "320C",
      "320C",
      "320C",
      "320C",
      "320C",
      "320C",
      "320C",
      "320C",
      "320C",
      "320C",
      "320C",
      "320C",
      "320C",
      "320C",
      "320C",
      "320C",
      "320C",
      "320C",
      "320C",
      "320C",
      "320C",
      "320C",
      "320C",
      "321C",
      "320C",
      "320C",
      "320C",
      "320C",
      "320C",
      "320C",
      "320C",
      "320C",
      "320C",
      "320C",
      "320C",
      "320C",
      "320C",
      "320C",
      "320C",
      "320C",
      "320C",
      "320C",
      "320C",
      "320C",
      "320C",
      "320C",
      "320C",
      "320C",
      "320C",
      "320C",
      "320C",
      "320C",
      "320C",
      "320C",
      "320C",
      "320C",
      "320C",
      "320C",
      "320C",
      "320C",
      "320C",
      "320C",
      "320C",
      "320C",
      "320C",
      "320C",
      "320C",
      "320C",
      "320C",
      "320C",
      "320C",
      "320C",
      "320C",
      "320C",
      "320C",
      "320C",
      "320C",
      "320C",
      "320C",
      "320C",
      "320C",
      "320C",
      "320C",
      "320C",
      "320C",
      "320C",
      "320C",
      "320C",
      "320C",
      "320C",
      "320C",
      "320C",
      "320C",
      "320C",
      "320C",
      "320C",
      "320C",
      "320C",
      "320C",
      "320C",
      "320C",
      "320C",
      "320C",
      "320C",
      "320C",
      "320C",
      "320C",
      "320C",
      "320C",
      "320C",
      "320C",
      "320C",
      "320C",
      "320C",
      "320C",
      "320C",
      "320C",
      "320C",
      "320",
      "321",
      "321",
      "320",
      "320",
      "320",
      "277",
      "269",
      "269",
      "269",
      "191",
      "191",
      "183",
      "169",
      "162",
      "147",
      "142",
      "127",
      "127",
      "108",
      "076",
      "008",
      "008"
    ],
    "swim:geom": "path",
    "swim:speeds": [
      173,
      173,
      173,
      236,
      238,
      238,
      238,
      240,
      240,
      258,
      258,
      258,
      369,
      369,
      408,
      408,
      408,
      411,
      411,
      411,
      398,
      398,
      398,
      398,
      398,
      398,
      397,
      393,
      393,
      393,
      393,
      393,
      392,
      392,
      392,
      392,
      392,
      392,
      392,
      392,
      392,
      392,
      392,
      392,
      391,
      391,
      391,
      392,
      392,
      397,
      397,
      397,
      394,
      394,
      394,
      395,
      395,
      390,
      391,
      391,
      391,
      391,
      391,
      393,
      393,
      394,
      393,
      393,
      393,
      390,
      390,
      388,
      388,
      389,
      389,
      389,
      396,
      399,
      399,
      399,
      404,
      404,
      404,
      404,
      406,
      406,
      397,
      397,
      397,
      408,
      408,
      408,
      411,
      411,
      406,
      352,
      352,
      352,
      352,
      352,
      352,
      352,
      338,
      338,
      342,
      343,
      343,
      344,
      344,
      344,
      367,
      367,
      369,
      369,
      369,
      369,
      369,
      369,
      369,
      367,
      368,
      381,
      381,
      384,
      384,
      384,
      377,
      374,
      374,
      374,
      375,
      375,
      380,
      380,
      392,
      392,
      392,
      392,
      392,
      391,
      394,
      394,
      394,
      394,
      398,
      398,
      394,
      391,
      390,
      390,
      393,
      390,
      391,
      391,
      398,
      399,
      400,
      400,
      402,
      405,
      405,
      414,
      414,
      416,
      418,
      417,
      417,
      417,
      414,
      413,
      409,
      409,
      412,
      414,
      411,
      411,
      412,
      412,
      414,
      414,
      415,
      416,
      416,
      421,
      421,
      417,
      417,
      417,
      429,
      428,
      425,
      425,
      425,
      425,
      425,
      421,
      421,
      423,
      420,
      422,
      422,
      422,
      422,
      423,
      418,
      418,
      418,
      423,
      419,
      419,
      417,
      417,
      417,
      415,
      415,
      414,
      414,
      413,
      413,
      413,
      416,
      418,
      418,
      418,
      419,
      419,
      420,
      420,
      420,
      420,
      420,
      419,
      419,
      417,
      418,
      418,
      418,
      419,
      421,
      423,
      423,
      424,
      424,
      423,
      422,
      422,
      422,
      420,
      420,
      423,
      423,
      423,
      423,
      424,
      426,
      426,
      426,
      427,
      427,
      428,
      428,
      428,
      431,
      430,
      430,
      428,
      428,
      428,
      427,
      428,
      428,
      428,
      429,
      430,
      426,
      426,
      438,
      438,
      438,
      430,
      432,
      434,
      434,
      434,
      434,
      434,
      434,
      438,
      439,
      439,
      414,
      409,
      423,
      423,
      397,
      395,
      388,
      388,
      388,
      386,
      384,
      384,
      380,
      377,
      377,
      376,
      374,
      375,
      387,
      386,
      386,
      386,
      329,
      329,
      331,
      319,
      319,
      304,
      306,
      296,
      296,
      293,
      222,
      121,
      121
    ],
    "swim:timestamps": [
      1771552798,
      1771552798,
      1771552798,
      1771552889,
      1771552935,
      1771552935,
      1771552935,
      1771552995,
      1771552995,
      1771553004,
      1771553004,
      1771553004,
      1771553356,
      1771553356,
      1771553596,
      1771553596,
      1771553596,
      1771553716,
      1771553716,
      1771553716,
      1771553957,
      1771553957,
      1771554017,
      1771554017,
      1771554017,
      1771554017,
      1771554130,
      1771554310,
      1771554317,
      1771554317,
      1771554317,
      1771554317,
      1771554490,
      1771554490,
      1771554497,
      1771554497,
      1771554618,
      1771554618,
      1771554671,
      1771554678,
      1771554678,
      1771554731,
      1771554738,
      1771554738,
      1771554858,
      1771554858,
      1771554858,
      1771555207,
      1771555207,
      1771555332,
      1771555332,
      1771555332,
      1771555632,
      1771555632,
      1771555632,
      1771555692,
      1771555692,
      1771556047,
      1771556107,
      1771556107,
      1771556113,
      1771556113,
      1771556113,
      1771556233,
      1771556233,
      1771556287,
      1771556347,
      1771556347,
      1771556347,
      1771556408,
      1771556408,
      1771556468,
      1771556468,
      1771556648,
      1771556648,
      1771556648,
      1771556768,
      1771556828,
      1771556828,
      1771556828,
      1771556948,
      1771556948,
      1771556948,
      1771556948,
      1771557249,
      1771557249,
      1771557309,
      1771557309,
      1771557309,
      1771557489,
      1771557489,
      1771557489,
      1771557549,
      1771557549,
      1771557610,
      1771557730,
      1771557730,
      1771557730,
      1771557790,
      1771557790,
      1771557790,
      1771557790,
      1771558210,
      1771558210,
      1771558271,
      1771558331,
      1771558331,
      1771558391,
      1771558391,
      1771558391,
      1771558858,
      1771558858,
      1771558871,
      1771558871,
      1771558871,
      1771558978,
      1771558978,
      1771558978,
      1771559039,
      1771559099,
      1771559112,
      1771559219,
      1771559219,
      1771559279,
      1771559279,
      1771559279,
      1771559339,
      1771559399,
      1771559412,
      1771559412,
      1771559459,
      1771559459,
      1771559532,
      1771559532,
      1771559699,
      1771559699,
      1771559699,
      1771559699,
      1771559712,
      1771559819,
      1771559939,
      1771559939,
      1771559939,
      1771559939,
      1771560180,
      1771560191,
      1771560251,
      1771560372,
      1771560420,
      1771560432,
      1771560553,
      1771560613,
      1771560733,
      1771560733,
      1771561037,
      1771561097,
      1771561157,
      1771561157,
      1771561217,
      1771561321,
      1771561321,
      1771561561,
      1771561577,
      1771561621,
      1771561801,
      1771561861,
      1771561861,
      1771561861,
      1771562041,
      1771562101,
      1771562428,
      1771562488,
      1771562599,
      1771562719,
      1771562788,
      1771562788,
      1771562968,
      1771562968,
      1771563149,
      1771563149,
      1771563260,
      1771563320,
      1771563320,
      1771563500,
      1771563500,
      1771563689,
      1771563689,
      1771563689,
      1771563869,
      1771563929,
      1771564050,
      1771564110,
      1771564170,
      1771564170,
      1771564170,
      1771564281,
      1771564281,
      1771564290,
      1771564401,
      1771564410,
      1771564410,
      1771564410,
      1771564461,
      1771564530,
      1771564641,
      1771564641,
      1771564641,
      1771564701,
      1771564821,
      1771564821,
      1771564881,
      1771564881,
      1771564891,
      1771565001,
      1771565001,
      1771565061,
      1771565131,
      1771565242,
      1771565242,
      1771565242,
      1771565431,
      1771565482,
      1771565491,
      1771565491,
      1771565542,
      1771565542,
      1771565551,
      1771565551,
      1771565602,
      1771565602,
      1771565611,
      1771565662,
      1771565662,
      1771565782,
      1771565842,
      1771565842,
      1771565842,
      1771565902,
      1771565962,
      1771566032,
      1771566032,
      1771566082,
      1771566082,
      1771566152,
      1771566202,
      1771566272,
      1771566392,
      1771566452,
      1771566452,
      1771566993,
      1771566993,
      1771567053,
      1771567053,
      1771567113,
      1771567233,
      1771567293,
      1771567293,
      1771567353,
      1771567353,
      1771567413,
      1771567413,
      1771567413,
      1771567593,
      1771567653,
      1771567653,
      1771567713,
      1771567773,
      1771567773,
      1771567833,
      1771567893,
      1771567893,
      1771567893,
      1771567953,
      1771568014,
      1771568132,
      1771568132,
      1771568192,
      1771568312,
      1771568312,
      1771568492,
      1771568552,
      1771568672,
      1771568672,
      1771568732,
      1771568792,
      1771568913,
      1771568913,
      1771568973,
      1771569033,
      1771569033,
      1771569093,
      1771569153,
      1771569273,
      1771569273,
      1771569573,
      1771569633,
      1771569693,
      1771569693,
      1771569693,
      1771569753,
      1771569813,
      1771569813,
      1771569873,
      1771570053,
      1771570053,
      1771570113,
      1771570233,
      1771570294,
      1771570515,
      1771570534,
      1771570534,
      1771570534,
      1771570749,
      1771570749,
      1771570774,
      1771570809,
      1771570834,
      1771570875,
      1771570894,
      1771570935,
      1771570935,
      1771570995,
      1771571194,
      1771571674,
      1771571674
    ],
    "wof:geomhash": "cc1df7240a44b06071934af8b0a2a76e",
    "wof:id": 2014829213,
    "wof:repo": "sfomuseum-data-flights-2026-02"
  },
  "bbox": [
    -122.31333333333333,
    35.13,
    -80.95111111111112,
    41.19333333333333
  ],
  "geometry": {"coordinates":[[-80.95111111111112,35.19916666666666],[-80.95111111111112,35.19916666666666],[-80.95111111111112,35.19916666666666],[-80.9888888888889,35.13722222222222],[-81.03944444444444,35.13583333333333],[-81.03944444444444,35.13583333333333],[-81.03944444444444,35.13583333333333],[-81.12194444444444,35.13],[-81.12194444444444,35.13],[-81.14666666666668,35.13166666666667],[-81.14666666666668,35.13166666666667],[-81.14666666666668,35.13166666666667],[-81.55527777777777,35.525],[-81.55527777777777,35.525],[-82.03222222222222,35.72694444444445],[-82.03222222222222,35.72694444444445],[-82.03222222222222,35.72694444444445],[-82.27888888888889,35.830000000000005],[-82.27888888888889,35.830000000000005],[-82.27888888888889,35.830000000000005],[-82.76583333333333,36.03111111111111],[-82.76583333333333,36.03111111111111],[-82.88722222222223,36.08083333333334],[-82.88722222222223,36.08083333333334],[-82.88722222222223,36.08083333333334],[-82.88722222222223,36.08083333333334],[-83.1061111111111,36.169999999999995],[-83.47,36.31722222222223],[-83.495,36.327222222222225],[-83.495,36.327222222222225],[-83.495,36.327222222222225],[-83.495,36.327222222222225],[-83.83722222222222,36.46388888888889],[-83.83722222222222,36.46388888888889],[-83.85944444444443,36.47277777777778],[-83.85944444444443,36.47277777777778],[-84.10166666666666,36.56861111111112],[-84.10166666666666,36.56861111111112],[-84.19916666666667,36.606944444444444],[-84.22416666666666,36.61666666666667],[-84.22416666666666,36.61666666666667],[-84.32249999999999,36.655277777777776],[-84.34472222222222,36.663888888888884],[-84.34472222222222,36.663888888888884],[-84.58777777777777,36.75861111111111],[-84.58777777777777,36.75861111111111],[-84.58777777777777,36.75861111111111],[-85.29666666666667,37.032777777777774],[-85.29666666666667,37.032777777777774],[-85.56416666666667,37.13166666666667],[-85.56416666666667,37.13166666666667],[-85.56416666666667,37.13166666666667],[-86.18472222222222,37.36194444444445],[-86.18472222222222,37.36194444444445],[-86.18472222222222,37.36194444444445],[-86.30916666666667,37.407777777777774],[-86.30916666666667,37.407777777777774],[-87.04583333333333,37.675],[-87.17750000000001,37.72222222222222],[-87.17750000000001,37.72222222222222],[-87.17750000000001,37.72222222222222],[-87.17750000000001,37.72222222222222],[-87.17750000000001,37.72222222222222],[-87.43222222222222,37.8125],[-87.43222222222222,37.8125],[-87.53583333333333,37.84916666666667],[-87.66194444444444,37.89333333333333],[-87.66194444444444,37.89333333333333],[-87.66194444444444,37.89333333333333],[-87.78777777777778,37.9375],[-87.78777777777778,37.9375],[-87.91027777777778,37.98166666666667],[-87.91027777777778,37.98166666666667],[-88.28666666666666,38.115833333333335],[-88.28666666666666,38.115833333333335],[-88.28666666666666,38.115833333333335],[-88.54027777777777,38.20527777777778],[-88.66916666666667,38.25055555555556],[-88.66916666666667,38.25055555555556],[-88.66916666666667,38.25055555555556],[-88.93555555555555,38.343333333333334],[-88.93555555555555,38.343333333333334],[-88.93555555555555,38.343333333333334],[-88.93555555555555,38.343333333333334],[-89.59333333333333,38.56722222222223],[-89.59333333333333,38.56722222222223],[-89.71555555555555,38.60805555555556],[-89.71555555555555,38.60805555555556],[-89.71555555555555,38.60805555555556],[-90.13333333333334,38.74666666666667],[-90.13333333333334,38.74666666666667],[-90.13333333333334,38.74666666666667],[-90.26833333333333,38.79111111111111],[-90.26833333333333,38.79111111111111],[-90.38,38.82777777777778],[-90.62166666666666,38.897777777777776],[-90.62166666666666,38.897777777777776],[-90.62166666666666,38.897777777777776],[-90.75916666666667,38.933611111111105],[-90.75916666666667,38.933611111111105],[-90.75916666666667,38.933611111111105],[-90.75916666666667,38.933611111111105],[-91.58749999999999,39.14555555555555],[-91.58749999999999,39.14555555555555],[-91.70555555555556,39.17527777777777],[-91.80194444444444,39.19944444444444],[-91.80194444444444,39.19944444444444],[-91.91916666666667,39.228611111111114],[-91.91916666666667,39.228611111111114],[-91.91916666666667,39.228611111111114],[-92.87833333333333,39.46222222222222],[-92.87833333333333,39.46222222222222],[-92.90472222222223,39.468611111111116],[-92.90472222222223,39.468611111111116],[-92.90472222222223,39.468611111111116],[-93.135,39.52305555555555],[-93.135,39.52305555555555],[-93.135,39.52305555555555],[-93.26166666666667,39.55305555555555],[-93.38916666666667,39.58277777777778],[-93.41444444444446,39.58861111111111],[-93.64805555555556,39.64277777777778],[-93.64805555555556,39.64277777777778],[-93.7825,39.67361111111111],[-93.7825,39.67361111111111],[-93.7825,39.67361111111111],[-93.91194444444444,39.703611111111115],[-94.03999999999999,39.7325],[-94.07166666666666,39.73972222222222],[-94.07166666666666,39.73972222222222],[-94.17083333333333,39.76222222222222],[-94.17083333333333,39.76222222222222],[-94.33111111111111,39.797777777777775],[-94.33111111111111,39.797777777777775],[-94.70833333333334,39.882222222222225],[-94.70833333333334,39.882222222222225],[-94.70833333333334,39.882222222222225],[-94.70833333333334,39.882222222222225],[-94.73611111111111,39.888333333333335],[-94.98083333333334,39.94166666666666],[-95.25722222222223,40.00138888888889],[-95.25722222222223,40.00138888888889],[-95.25722222222223,40.00138888888889],[-95.25722222222223,40.00138888888889],[-95.81472222222222,40.11944444444445],[-95.83722222222222,40.12416666666667],[-95.97361111111111,40.152499999999996],[-96.25944444444444,40.20916666666667],[-96.36611111111111,40.22666666666667],[-96.39722222222223,40.23166666666667],[-96.69194444444445,40.27916666666667],[-96.82972222222222,40.30083333333333],[-97.0925,40.341944444444444],[-97.0925,40.341944444444444],[-97.81694444444445,40.45166666666667],[-97.96083333333334,40.473055555555554],[-98.1036111111111,40.494166666666665],[-98.1036111111111,40.494166666666665],[-98.25027777777778,40.51555555555556],[-98.4863888888889,40.549166666666665],[-98.4863888888889,40.549166666666665],[-99.08416666666666,40.6325],[-99.11222222222221,40.63638888888889],[-99.2363888888889,40.65333333333333],[-99.69111111111111,40.71416666666667],[-99.84277777777777,40.73388888888889],[-99.84277777777777,40.73388888888889],[-99.84277777777777,40.73388888888889],[-100.28666666666666,40.79055555555556],[-100.435,40.80972222222222],[-101.22833333333334,40.905277777777776],[-101.3775,40.92194444444444],[-101.65333333333334,40.95416666666667],[-101.955,40.988055555555555],[-102.1286111111111,41.007777777777775],[-102.1286111111111,41.007777777777775],[-102.5825,41.05583333333333],[-102.5825,41.05583333333333],[-103.03833333333333,41.1],[-103.03833333333333,41.1],[-103.34222222222222,41.12222222222222],[-103.495,41.1325],[-103.495,41.1325],[-103.95805555555556,41.1625],[-103.95805555555556,41.1625],[-104.41833333333334,41.191111111111105],[-104.41833333333334,41.191111111111105],[-104.41833333333334,41.191111111111105],[-104.89,41.19333333333333],[-105.04194444444444,41.16416666666667],[-105.345,41.111666666666665],[-105.49722222222222,41.08416666666667],[-105.64944444444446,41.056666666666665],[-105.64944444444446,41.056666666666665],[-105.64944444444446,41.056666666666665],[-105.94638888888889,41.0025],[-105.94638888888889,41.0025],[-105.94916666666667,41.00111111111111],[-106.24805555555555,40.946666666666665],[-106.24861111111112,40.94694444444444],[-106.24861111111112,40.94694444444444],[-106.24861111111112,40.94694444444444],[-106.39972222222222,40.918055555555554],[-106.55055555555555,40.88972222222222],[-106.84472222222222,40.83361111111111],[-106.84472222222222,40.83361111111111],[-106.84472222222222,40.83361111111111],[-106.98361111111112,40.806666666666665],[-107.29416666666667,40.74611111111111],[-107.29416666666667,40.74611111111111],[-107.43166666666667,40.71888888888889],[-107.43166666666667,40.71888888888889],[-107.44166666666668,40.716944444444444],[-107.72805555555556,40.66],[-107.72805555555556,40.66],[-107.88083333333333,40.62888888888889],[-108.02694444444444,40.59916666666667],[-108.31611111111111,40.53972222222222],[-108.31611111111111,40.53972222222222],[-108.31611111111111,40.53972222222222],[-108.75861111111111,40.4475],[-108.9,40.4175],[-108.91000000000001,40.415277777777774],[-108.91000000000001,40.415277777777774],[-109.04555555555555,40.38638888888889],[-109.04555555555555,40.38638888888889],[-109.0761111111111,40.37972222222222],[-109.0761111111111,40.37972222222222],[-109.19166666666668,40.355000000000004],[-109.19166666666668,40.355000000000004],[-109.22166666666666,40.34861111111111],[-109.33999999999999,40.323055555555555],[-109.33999999999999,40.323055555555555],[-109.62944444444443,40.25972222222222],[-109.775,40.22777777777778],[-109.775,40.22777777777778],[-109.775,40.22777777777778],[-109.92,40.19555555555555],[-110.06666666666666,40.16277777777778],[-110.24361111111111,40.117222222222225],[-110.24361111111111,40.117222222222225],[-110.3586111111111,40.08527777777778],[-110.3586111111111,40.08527777777778],[-110.52972222222222,40.0375],[-110.64416666666668,40.00527777777778],[-110.81666666666666,39.95666666666667],[-111.10055555555554,39.87583333333333],[-111.24194444444444,39.83527777777778],[-111.24194444444444,39.83527777777778],[-112.5125,39.461111111111116],[-112.5125,39.461111111111116],[-112.65305555555557,39.41861111111111],[-112.65305555555557,39.41861111111111],[-112.80388888888889,39.37277777777778],[-113.08666666666666,39.28611111111111],[-113.2286111111111,39.2425],[-113.2286111111111,39.2425],[-113.37055555555555,39.19833333333333],[-113.37055555555555,39.19833333333333],[-113.5125,39.15416666666667],[-113.5125,39.15416666666667],[-113.5125,39.15416666666667],[-113.94055555555556,39.01916666666666],[-114.08694444444444,38.98888888888889],[-114.08694444444444,38.98888888888889],[-114.2363888888889,38.969166666666666],[-114.3875,38.94888888888889],[-114.3875,38.94888888888889],[-114.53583333333333,38.928888888888885],[-114.68527777777778,38.90833333333333],[-114.68527777777778,38.90833333333333],[-114.68527777777778,38.90833333333333],[-114.83833333333332,38.88722222222222],[-114.9888888888889,38.86638888888889],[-115.28777777777778,38.82611111111112],[-115.28777777777778,38.82611111111112],[-115.44833333333334,38.80777777777777],[-115.7525,38.76916666666666],[-115.7525,38.76916666666666],[-116.19527777777778,38.691111111111105],[-116.3475,38.668055555555554],[-116.64861111111112,38.62166666666667],[-116.64861111111112,38.62166666666667],[-116.80166666666666,38.59777777777778],[-116.95166666666667,38.57416666666667],[-117.24833333333333,38.52472222222222],[-117.24833333333333,38.52472222222222],[-117.39305555555556,38.47638888888889],[-117.52805555555555,38.42055555555555],[-117.52805555555555,38.42055555555555],[-117.65944444444445,38.365833333333335],[-117.7863888888889,38.3125],[-118.03916666666666,38.195277777777775],[-118.03916666666666,38.195277777777775],[-118.55611111111111,37.83861111111111],[-118.69500000000001,37.82888888888889],[-118.82916666666667,37.819722222222225],[-118.82916666666667,37.819722222222225],[-118.82916666666667,37.819722222222225],[-118.96222222222222,37.81027777777778],[-119.09694444444445,37.80083333333333],[-119.09694444444445,37.80083333333333],[-119.22805555555556,37.79138888888889],[-119.62388888888889,37.761944444444445],[-119.62388888888889,37.761944444444445],[-119.7538888888889,37.751666666666665],[-120.01527777777778,37.731388888888894],[-120.14750000000001,37.720555555555556],[-120.63333333333334,37.666666666666664],[-120.67944444444444,37.66722222222222],[-120.67944444444444,37.66722222222222],[-120.67944444444444,37.66722222222222],[-121.11666666666666,37.61666666666667],[-121.11666666666666,37.61666666666667],[-121.16527777777779,37.60611111111111],[-121.23333333333333,37.6],[-121.2713888888889,37.59166666666667],[-121.35,37.583333333333336],[-121.37694444444443,37.57944444444445],[-121.45,37.56666666666667],[-121.45,37.56666666666667],[-121.55,37.56666666666667],[-121.83611111111111,37.5],[-122.31333333333333,37.59861111111111],[-122.31333333333333,37.59861111111111]],"type":"LineString"}
}
