{
  "id": 2014752755,
  "type": "Feature",
  "properties": {
    "geom:area": 0,
    "geom:bbox": "-123.331860,37.636280,-122.410810,38.508890",
    "geom:latitude": 38.032324347038525,
    "geom:longitude": -122.90350147328738,
    "src:alt_label": "swim-takeoff",
    "src:geom": "swim",
    "swim:elevations": [
      345,
      628,
      914,
      1040,
      1249,
      1346,
      1447,
      1885,
      2195,
      2503,
      2742,
      3181,
      3200,
      3485,
      3600,
      3750,
      4218,
      4483,
      4881,
      4956,
      5408,
      5561,
      5831,
      6113,
      6200,
      6466,
      6767
    ],
    "swim:geom": "takeoff",
    "swim:timestamps": [
      1770680627,
      1770680645,
      1770680689,
      1770680714,
      1770680747,
      1770680756,
      1770680765,
      1770680814,
      1770680844,
      1770680874,
      1770680897,
      1770680938,
      1770680941,
      1770680989,
      1770681011,
      1770681038,
      1770681083,
      1770681107,
      1770681146,
      1770681152,
      1770681204,
      1770681222,
      1770681249,
      1770681285,
      1770681303,
      1770681336,
      1770681377
    ],
    "wof:geomhash": "5b33263643245aed909c52fc6b052cad",
    "wof:id": 2014752755,
    "wof:repo": "sfomuseum-data-flights-2026-02"
  },
  "bbox": [
    -123.33186,
    37.63628,
    -122.41081,
    38.50889
  ],
  "geometry": {"coordinates":[[-122.41081,37.63628],[-122.43051,37.64435],[-122.47832,37.66434],[-122.50676,37.67719],[-122.5427,37.69816],[-122.55311,37.70429],[-122.56384,37.7106],[-122.6234,37.7452],[-122.6615,37.76779],[-122.70088,37.79097],[-122.73122,37.80886],[-122.77647,37.84762],[-122.77925,37.851],[-122.82708,37.90864],[-122.85142,37.9378],[-122.88314,37.97613],[-122.93777,38.04169],[-122.96746,38.0774],[-123.01635,38.13581],[-123.0239,38.14489],[-123.09085,38.22455],[-123.1146,38.253],[-123.15092,38.29608],[-123.19986,38.35425],[-123.22473,38.3834],[-123.27228,38.43956],[-123.33186,38.50889]],"type":"LineString"}
}
