{
  "id": 2014708811,
  "type": "Feature",
  "properties": {
    "geom:area": 0,
    "geom:bbox": "-122.469870,36.744030,-121.332600,37.711790",
    "geom:latitude": 37.22054466524597,
    "geom:longitude": -122.00622076579003,
    "src:alt_label": "swim-takeoff",
    "src:geom": "swim",
    "swim:elevations": [
      451,
      680,
      977,
      1032,
      1104,
      1259,
      1394,
      1802,
      2215,
      2615,
      3165,
      3356,
      3511,
      3566,
      3812,
      4125,
      4464,
      4779,
      4985,
      5384,
      5411,
      5658,
      5978,
      6233,
      6410,
      6518,
      6731,
      6986,
      7167,
      7395,
      7495,
      7621,
      7620
    ],
    "swim:geom": "takeoff",
    "swim:timestamps": [
      1770118672,
      1770118692,
      1770118733,
      1770118744,
      1770118767,
      1770118793,
      1770118821,
      1770118851,
      1770118884,
      1770118912,
      1770118946,
      1770118967,
      1770119005,
      1770119018,
      1770119060,
      1770119087,
      1770119117,
      1770119147,
      1770119171,
      1770119208,
      1770119225,
      1770119255,
      1770119301,
      1770119335,
      1770119355,
      1770119370,
      1770119410,
      1770119449,
      1770119473,
      1770119514,
      1770119532,
      1770119569,
      1770119595
    ],
    "wof:geomhash": "d583a971c4f95df5d5f055907f75cdde",
    "wof:id": 2014708811,
    "wof:repo": "sfomuseum-data-flights-2026-02"
  },
  "bbox": [
    -122.46987,
    36.74403,
    -121.3326,
    37.71179
  ],
  "geometry": {"coordinates":[[-122.36547,37.63924],[-122.36334,37.65289],[-122.36114,37.68193],[-122.36309,37.68976],[-122.37634,37.70599],[-122.40643,37.71179],[-122.43668,37.6938],[-122.44513,37.65716],[-122.45243,37.6147],[-122.45917,37.57725],[-122.46719,37.53232],[-122.46987,37.50454],[-122.43142,37.46042],[-122.41017,37.44744],[-122.33835,37.40196],[-122.29084,37.37131],[-122.2381,37.33726],[-122.18606,37.30361],[-122.14251,37.27545],[-122.07705,37.23289],[-122.0461,37.21277],[-121.99118,37.17711],[-121.90598,37.12161],[-121.84309,37.08042],[-121.80495,37.05549],[-121.77473,37.03571],[-121.69775,36.98514],[-121.62128,36.93491],[-121.57618,36.90518],[-121.49541,36.85192],[-121.45855,36.82763],[-121.38469,36.77865],[-121.3326,36.74403]],"type":"LineString"}
}
