{
  "id": 2014904481,
  "type": "Feature",
  "properties": {
    "geom:area": 0,
    "geom:bbox": "-122.358000,37.491360,-121.243990,37.613520",
    "geom:latitude": 37.546918006371904,
    "geom:longitude": -121.80592688204833,
    "src:alt_label": "swim-approach",
    "src:geom": "swim",
    "swim:elevations": [
      4761,
      4614,
      4348,
      3886,
      3381,
      3188,
      3018,
      2850,
      2677,
      2516,
      2311,
      2172,
      2078,
      1983,
      1878,
      1744,
      1615,
      1554,
      1446,
      1166,
      1100,
      766,
      722,
      555,
      550,
      396,
      290,
      148,
      40
    ],
    "swim:geom": "approach",
    "swim:timestamps": [
      1772296851,
      1772296870,
      1772296907,
      1772296972,
      1772297050,
      1772297079,
      1772297106,
      1772297138,
      1772297166,
      1772297194,
      1772297227,
      1772297251,
      1772297273,
      1772297297,
      1772297327,
      1772297361,
      1772297378,
      1772297400,
      1772297427,
      1772297458,
      1772297467,
      1772297511,
      1772297523,
      1772297570,
      1772297580,
      1772297631,
      1772297659,
      1772297692,
      1772297727
    ],
    "wof:geomhash": "63e8782c90143323c6a0ab7d849162f9",
    "wof:id": 2014904481,
    "wof:repo": "sfomuseum-data-flights-2026-02"
  },
  "bbox": [
    -122.358,
    37.49136,
    -121.24399,
    37.61352
  ],
  "geometry": {"coordinates":[[-121.24399,37.59513],[-121.27853,37.59055],[-121.34498,37.58347],[-121.45671,37.57059],[-121.58133,37.55581],[-121.6256,37.55022],[-121.6656,37.54092],[-121.71182,37.53018],[-121.75007,37.52084],[-121.78816,37.51171],[-121.832,37.50116],[-121.86472,37.49335],[-121.89586,37.49136],[-121.92797,37.49233],[-121.96834,37.49334],[-122.01182,37.50238],[-122.03195,37.50892],[-122.05805,37.51745],[-122.08646,37.52667],[-122.11977,37.53732],[-122.1301,37.5407],[-122.17659,37.55593],[-122.18819,37.55961],[-122.23208,37.57416],[-122.24061,37.57701],[-122.28291,37.58724],[-122.30622,37.59476],[-122.33252,37.60397],[-122.358,37.61352]],"type":"LineString"}
}
