{
  "id": 2014786519,
  "type": "Feature",
  "properties": {
    "geom:area": 0,
    "geom:bbox": "-122.541240,36.898430,-121.273040,37.668330",
    "geom:latitude": 37.26171379817397,
    "geom:longitude": -121.99816513364047,
    "src:alt_label": "swim-takeoff",
    "src:geom": "swim",
    "swim:elevations": [
      334,
      464,
      931,
      1132,
      1380,
      1624,
      1930,
      2149,
      2190,
      2851,
      2946,
      3236,
      3350,
      3697,
      3905,
      4470,
      4755,
      5266,
      5464,
      5672,
      5759,
      5992,
      6178,
      6520,
      6785,
      7011,
      7095,
      7387,
      7499,
      7672,
      7805,
      7887
    ],
    "swim:geom": "takeoff",
    "swim:timestamps": [
      1771030646,
      1771030658,
      1771030703,
      1771030733,
      1771030760,
      1771030789,
      1771030810,
      1771030828,
      1771030831,
      1771030887,
      1771030896,
      1771030932,
      1771030950,
      1771030985,
      1771031010,
      1771031061,
      1771031082,
      1771031120,
      1771031153,
      1771031186,
      1771031198,
      1771031231,
      1771031252,
      1771031297,
      1771031334,
      1771031368,
      1771031380,
      1771031428,
      1771031445,
      1771031482,
      1771031512,
      1771031521
    ],
    "wof:geomhash": "a93330ca138f1ac7402cd38ac258e568",
    "wof:id": 2014786519,
    "wof:repo": "sfomuseum-data-flights-2026-02"
  },
  "bbox": [
    -122.54124,
    36.89843,
    -121.27304,
    37.66833
  ],
  "geometry": {"coordinates":[[-122.40714,37.6324],[-122.41836,37.63728],[-122.46266,37.65651],[-122.4955,37.66833],[-122.52937,37.65918],[-122.54124,37.62831],[-122.53092,37.60422],[-122.52077,37.58334],[-122.51901,37.57987],[-122.48624,37.51255],[-122.47969,37.50157],[-122.43685,37.46513],[-122.41016,37.44799],[-122.35695,37.41378],[-122.31601,37.38757],[-122.23059,37.33347],[-122.19134,37.31516],[-122.12244,37.28435],[-122.06105,37.25677],[-121.99702,37.22792],[-121.97309,37.21713],[-121.90589,37.18699],[-121.86262,37.16749],[-121.76904,37.12489],[-121.68872,37.08846],[-121.6172,37.05603],[-121.59096,37.0441],[-121.48528,36.99583],[-121.44647,36.97812],[-121.36229,36.93961],[-121.29369,36.90801],[-121.27304,36.89843]],"type":"LineString"}
}
