{
  "id": 2014828325,
  "type": "Feature",
  "properties": {
    "geom:area": 0,
    "geom:bbox": "-123.219444,37.576389,-121.931389,44.318611",
    "geom:latitude": 40.94362943393264,
    "geom:longitude": -122.58680308073409,
    "src:alt_label": "swim-path",
    "src:geom": "swim",
    "swim:altitudes": [
      "034",
      "050",
      "176",
      "340C",
      "340C",
      "340C",
      "340C",
      "340C",
      "340C",
      "340C",
      "340C",
      "340C",
      "340C",
      "339",
      "339",
      "330",
      "320",
      "295",
      "276",
      "252",
      "183",
      "183",
      "144",
      "144",
      "126",
      "099",
      "094",
      "094",
      "052",
      "052",
      "025",
      "025",
      "025",
      "010",
      "010",
      "003C",
      "003C"
    ],
    "swim:geom": "path",
    "swim:speeds": [
      151,
      198,
      344,
      440,
      435,
      427,
      438,
      439,
      439,
      440,
      440,
      437,
      437,
      436,
      436,
      435,
      433,
      425,
      417,
      406,
      384,
      384,
      372,
      372,
      355,
      314,
      295,
      295,
      231,
      231,
      237,
      237,
      232,
      125,
      125,
      124,
      124
    ],
    "swim:timestamps": [
      1771486420,
      1771486480,
      1771486780,
      1771487496,
      1771487556,
      1771488037,
      1771488397,
      1771488457,
      1771488457,
      1771488577,
      1771488577,
      1771488757,
      1771488877,
      1771488997,
      1771488997,
      1771489057,
      1771489117,
      1771489237,
      1771489297,
      1771489357,
      1771489537,
      1771489537,
      1771489657,
      1771489657,
      1771489717,
      1771489837,
      1771489897,
      1771489897,
      1771490197,
      1771490197,
      1771490377,
      1771490377,
      1771490437,
      1771490858,
      1771490858,
      1771490918,
      1771490918
    ],
    "wof:geomhash": "7d59c32f56910e668154584c1167ccc4",
    "wof:id": 2014828325,
    "wof:repo": "sfomuseum-data-flights-2026-02"
  },
  "bbox": [
    -123.21944444444445,
    37.57638888888889,
    -121.93138888888889,
    44.31861111111112
  ],
  "geometry": {"coordinates":[[-122.32166666666666,37.598888888888894],[-122.26694444444445,37.57638888888889],[-121.93138888888889,37.81055555555555],[-122.22666666666667,39.12972222222222],[-122.24916666666667,39.24888888888889],[-122.42833333333334,40.19638888888888],[-122.56722222222221,40.91861111111111],[-122.59055555555555,41.03861111111111],[-122.59055555555555,41.03861111111111],[-122.63833333333334,41.280833333333334],[-122.63833333333334,41.280833333333334],[-122.71138888888889,41.65138888888889],[-122.75944444444444,41.89333333333333],[-122.80805555555555,42.13444444444444],[-122.80805555555555,42.13444444444444],[-122.83222222222221,42.25333333333333],[-122.85694444444444,42.37416666666667],[-122.90472222222223,42.608333333333334],[-122.92361111111111,42.70055555555556],[-122.94777777777779,42.8175],[-123.01638888888888,43.14805555555556],[-123.01638888888888,43.14805555555556],[-123.05777777777777,43.34527777777778],[-123.05777777777777,43.34527777777778],[-123.0786111111111,43.44361111111111],[-123.11777777777777,43.62833333333333],[-123.13472222222222,43.70888888888889],[-123.13472222222222,43.70888888888889],[-123.21305555555556,44.075],[-123.21305555555556,44.075],[-123.21833333333333,44.27194444444444],[-123.21833333333333,44.27194444444444],[-123.16083333333334,44.31861111111112],[-123.21944444444445,44.16416666666667],[-123.21944444444445,44.16416666666667],[-123.21916666666667,44.13],[-123.21916666666667,44.13]],"type":"LineString"}
}
