{
  "id": 2014825009,
  "type": "Feature",
  "properties": {
    "geom:area": 0,
    "geom:bbox": "-173.780000,35.760000,174.290000,50.950000",
    "geom:latitude": 48.079202126790676,
    "geom:longitude": -5.5534773462185285,
    "src:alt_label": "swim-route",
    "src:geom": "swim",
    "swim:geom": "route",
    "wof:geomhash": "fd20073e9da6fc3e24143491522bb504",
    "wof:id": 2014825009,
    "wof:repo": "sfomuseum-data-flights-2026-02"
  },
  "bbox": [
    -173.78,
    35.76,
    174.29,
    50.95
  ],
  "geometry": {"coordinates":[[[140.39,35.76],[142.12,36.8],[143.1,37.36],[144.1,37.91],[158.52,44.22],[174.29,48.12]],[[-173.78,49.41],[-172.65,49.82],[-170,49.83],[-166.05,50.5],[-159.95,49.34],[-159.28,50.95],[-150.3,50.05],[-140.46,47.01],[-140,47],[-130,43],[-129.2,42.54],[-128.62,42.18],[-126.89,41.11],[-126.86,41.1],[-126.08,40.59],[-124.16,39.28],[-123.89,39.1],[-123.82,39.05],[-123.76,39.01],[-123.75,39],[-123.53,38.83],[-123.49,38.8],[-123.33,38.67],[-123.29,38.64],[-123.14,38.52],[-123.13,38.52],[-122.87,38.3],[-122.85,38.29],[-122.77,38.22],[-122.75,38.16],[-122.72,38.06],[-122.69,37.95],[-122.67,37.9],[-122.67,37.9],[-122.65,37.87],[-122.62,37.85],[-122.59,37.82],[-122.58,37.81],[-122.51,37.74],[-122.5,37.73],[-122.44,37.68],[-122.37,37.62],[-122.38,37.62]]],"type":"MultiLineString"}
}
