{
  "id": 2014880573,
  "type": "Feature",
  "properties": {
    "geom:area": 0,
    "geom:bbox": "-122.350000,33.350000,-111.850000,37.605278",
    "geom:latitude": 34.883630830089444,
    "geom:longitude": -117.5309336471074,
    "src:alt_label": "swim-path",
    "src:geom": "swim",
    "swim:altitudes": [
      "019",
      "019",
      "077",
      "077",
      "106",
      "116",
      "116",
      "116",
      "204",
      "204",
      "228",
      "228",
      "228",
      "248",
      "248",
      "264",
      "264",
      "264",
      "279",
      "315",
      "315",
      "315",
      "337",
      "337",
      "337",
      "376",
      "380C",
      "380C",
      "380C",
      "380C",
      "380C",
      "380C",
      "380C",
      "380C",
      "380C",
      "380C",
      "380C",
      "380C",
      "380C",
      "380C",
      "380C",
      "380C",
      "380C",
      "380C",
      "380C",
      "380C",
      "380C",
      "380C",
      "380C",
      "380C",
      "380C",
      "380C",
      "380C",
      "380C",
      "380C",
      "380C",
      "380C",
      "380C",
      "380C",
      "380C",
      "380C",
      "380C",
      "380C",
      "380C",
      "380C",
      "380C",
      "380C",
      "380C",
      "380C",
      "380C",
      "380C",
      "380C",
      "380C",
      "380C",
      "380C",
      "380C",
      "380C",
      "380C",
      "380C",
      "380C",
      "380C",
      "380C",
      "380C",
      "380",
      "380",
      "380",
      "322",
      "291",
      "202",
      "185",
      "185",
      "148",
      "131",
      "131",
      "100",
      "084",
      "064",
      "060",
      "060",
      "045",
      "026",
      "026",
      "018",
      "003",
      "003"
    ],
    "swim:geom": "path",
    "swim:speeds": [
      173,
      173,
      260,
      260,
      226,
      237,
      237,
      237,
      362,
      362,
      365,
      365,
      365,
      379,
      379,
      401,
      401,
      401,
      412,
      418,
      418,
      418,
      407,
      407,
      407,
      396,
      395,
      395,
      395,
      395,
      395,
      395,
      395,
      394,
      394,
      393,
      393,
      391,
      391,
      389,
      389,
      389,
      387,
      387,
      385,
      385,
      384,
      384,
      384,
      384,
      384,
      387,
      387,
      387,
      385,
      385,
      385,
      385,
      388,
      388,
      389,
      389,
      388,
      388,
      386,
      386,
      386,
      392,
      392,
      395,
      396,
      397,
      397,
      391,
      391,
      386,
      383,
      383,
      383,
      383,
      383,
      383,
      383,
      389,
      391,
      392,
      398,
      403,
      352,
      322,
      322,
      311,
      294,
      294,
      273,
      280,
      227,
      236,
      239,
      207,
      153,
      153,
      150,
      147,
      147
    ],
    "swim:timestamps": [
      1772042179,
      1772042179,
      1772042312,
      1772042312,
      1772042372,
      1772042412,
      1772042412,
      1772042412,
      1772042653,
      1772042653,
      1772042713,
      1772042713,
      1772042713,
      1772042773,
      1772042773,
      1772042833,
      1772042833,
      1772042833,
      1772042893,
      1772043013,
      1772043013,
      1772043013,
      1772043133,
      1772043133,
      1772043133,
      1772043314,
      1772043374,
      1772043374,
      1772043434,
      1772043434,
      1772043434,
      1772043554,
      1772043554,
      1772043614,
      1772043614,
      1772043674,
      1772043674,
      1772043794,
      1772043794,
      1772043855,
      1772043855,
      1772043855,
      1772043915,
      1772043915,
      1772044035,
      1772044035,
      1772044155,
      1772044155,
      1772044155,
      1772044275,
      1772044275,
      1772044335,
      1772044335,
      1772044335,
      1772044576,
      1772044636,
      1772044636,
      1772044636,
      1772044816,
      1772044816,
      1772044876,
      1772044876,
      1772044996,
      1772044996,
      1772045237,
      1772045237,
      1772045237,
      1772045477,
      1772045583,
      1772045643,
      1772045657,
      1772045763,
      1772045763,
      1772046018,
      1772046018,
      1772046138,
      1772046196,
      1772046196,
      1772046496,
      1772046496,
      1772046496,
      1772046679,
      1772046679,
      1772046799,
      1772046859,
      1772046917,
      1772047097,
      1772047163,
      1772047397,
      1772047452,
      1772047452,
      1772047578,
      1772047632,
      1772047632,
      1772047818,
      1772047938,
      1772048051,
      1772048118,
      1772048178,
      1772048292,
      1772048419,
      1772048419,
      1772048479,
      1772048599,
      1772048599
    ],
    "wof:geomhash": "6f14f55b54f0c51f2ad0da153baae77a",
    "wof:id": 2014880573,
    "wof:repo": "sfomuseum-data-flights-2026-02"
  },
  "bbox": [
    -122.35,
    33.35,
    -111.85,
    37.60527777777778
  ],
  "geometry": {"coordinates":[[-111.98333333333333,33.43333333333333],[-111.98333333333333,33.43333333333333],[-111.85,33.38333333333333],[-111.85,33.38333333333333],[-111.9,33.35],[-111.93805555555556,33.35638888888889],[-111.93805555555556,33.35638888888889],[-111.93805555555556,33.35638888888889],[-112.37472222222222,33.41694444444444],[-112.37472222222222,33.41694444444444],[-112.495,33.43472222222222],[-112.495,33.43472222222222],[-112.495,33.43472222222222],[-112.62083333333332,33.45055555555556],[-112.62083333333332,33.45055555555556],[-112.75583333333333,33.45194444444445],[-112.75583333333333,33.45194444444445],[-112.75583333333333,33.45194444444445],[-112.89083333333333,33.469722222222224],[-113.16333333333334,33.519999999999996],[-113.16333333333334,33.519999999999996],[-113.16333333333334,33.519999999999996],[-113.44555555555556,33.57166666666667],[-113.44555555555556,33.57166666666667],[-113.44555555555556,33.57166666666667],[-113.8286111111111,33.650277777777774],[-113.95472222222223,33.68222222222222],[-113.95472222222223,33.68222222222222],[-114.07944444444443,33.71388888888889],[-114.07944444444443,33.71388888888889],[-114.07944444444443,33.71388888888889],[-114.33222222222221,33.775555555555556],[-114.33222222222221,33.775555555555556],[-114.45777777777778,33.806666666666665],[-114.45777777777778,33.806666666666665],[-114.58194444444445,33.83694444444445],[-114.58194444444445,33.83694444444445],[-114.83083333333333,33.8975],[-114.83083333333333,33.8975],[-114.95472222222223,33.927499999999995],[-114.95472222222223,33.927499999999995],[-114.95472222222223,33.927499999999995],[-115.07916666666667,33.9575],[-115.07916666666667,33.9575],[-115.32444444444444,34.01611111111111],[-115.32444444444444,34.01611111111111],[-115.57083333333333,34.07416666666667],[-115.57083333333333,34.07416666666667],[-115.57083333333333,34.07416666666667],[-115.81694444444445,34.13166666666667],[-115.81694444444445,34.13166666666667],[-115.94527777777778,34.16166666666666],[-115.94527777777778,34.16166666666666],[-115.94527777777778,34.16166666666666],[-116.44583333333334,34.27638888888889],[-116.57083333333333,34.30472222222222],[-116.57083333333333,34.30472222222222],[-116.57083333333333,34.30472222222222],[-116.94861111111112,34.38944444444444],[-116.94861111111112,34.38944444444444],[-117.07527777777777,34.4175],[-117.07527777777777,34.4175],[-117.32833333333333,34.473055555555554],[-117.32833333333333,34.473055555555554],[-117.83194444444445,34.581944444444446],[-117.83194444444445,34.581944444444446],[-117.83194444444445,34.581944444444446],[-118.31583333333333,34.75083333333333],[-118.51638888888888,34.84638888888889],[-118.63833333333334,34.90333333333333],[-118.65805555555556,34.9125],[-118.87083333333332,35.01138888888889],[-118.87083333333332,35.01138888888889],[-119.35527777777777,35.23527777777778],[-119.35527777777777,35.23527777777778],[-119.58222222222221,35.33916666666667],[-119.6975,35.391666666666666],[-119.6975,35.391666666666666],[-120.26166666666667,35.645833333333336],[-120.26166666666667,35.645833333333336],[-120.26166666666667,35.645833333333336],[-120.63138888888888,35.7925],[-120.63138888888888,35.7925],[-120.84861111111111,35.91305555555555],[-120.95111111111112,35.98416666666667],[-121.03472222222221,36.04194444444444],[-121.3436111111111,36.25361111111111],[-121.48333333333333,36.35],[-121.81666666666666,36.65],[-121.88333333333334,36.71666666666667],[-121.88333333333334,36.71666666666667],[-121.93666666666667,36.89277777777778],[-121.96666666666667,36.96666666666667],[-121.96666666666667,36.96666666666667],[-122.17333333333333,37.124722222222225],[-122.27333333333333,37.2575],[-122.35,37.38333333333333],[-122.32333333333332,37.43333333333333],[-122.23861111111111,37.43],[-122.13333333333334,37.483333333333334],[-122.20722222222223,37.54833333333333],[-122.20722222222223,37.54833333333333],[-122.2525,37.56722222222223],[-122.34305555555555,37.60527777777778],[-122.34305555555555,37.60527777777778]],"type":"LineString"}
}
