{
  "id": 2014712029,
  "type": "Feature",
  "properties": {
    "geom:area": 0,
    "geom:bbox": "-123.018250,37.454820,-122.169730,38.346390",
    "geom:latitude": 37.84040803090226,
    "geom:longitude": -122.54691169179515,
    "src:alt_label": "swim-approach",
    "src:geom": "swim",
    "swim:elevations": [
      7711,
      7551,
      6965,
      6940,
      6839,
      6517,
      6198,
      5793,
      5682,
      5477,
      5462,
      5003,
      4628,
      4479,
      4481,
      4481,
      3857,
      3701,
      3461,
      3355,
      3353,
      3353,
      3353,
      3118,
      2823,
      2619,
      2239,
      1845,
      1344,
      1220,
      1219,
      1135,
      1004,
      947,
      882,
      668,
      483,
      275,
      211,
      88
    ],
    "swim:geom": "approach",
    "swim:timestamps": [
      1770236713,
      1770236730,
      1770236788,
      1770236791,
      1770236800,
      1770236832,
      1770236865,
      1770236907,
      1770236919,
      1770236940,
      1770236943,
      1770236988,
      1770237025,
      1770237058,
      1770237083,
      1770237095,
      1770237145,
      1770237154,
      1770237176,
      1770237201,
      1770237237,
      1770237241,
      1770237277,
      1770237326,
      1770237355,
      1770237370,
      1770237397,
      1770237424,
      1770237464,
      1770237492,
      1770237518,
      1770237561,
      1770237586,
      1770237616,
      1770237654,
      1770237677,
      1770237697,
      1770237734,
      1770237755,
      1770237787
    ],
    "wof:geomhash": "e987a960b0c3658ff3f798fe61110777",
    "wof:id": 2014712029,
    "wof:repo": "sfomuseum-data-flights-2026-02"
  },
  "bbox": [
    -123.01825,
    37.45482,
    -122.16973,
    38.34639
  ],
  "geometry": {"coordinates":[[-123.01825,38.34639],[-122.98459,38.33013],[-122.87591,38.27746],[-122.87028,38.27472],[-122.85171,38.2657],[-122.79399,38.23634],[-122.75772,38.19162],[-122.73785,38.12334],[-122.73231,38.10419],[-122.72265,38.07054],[-122.7213,38.06574],[-122.7005,37.99344],[-122.68371,37.935],[-122.6687,37.88368],[-122.65263,37.84737],[-122.63732,37.83257],[-122.55889,37.78931],[-122.54686,37.77959],[-122.52105,37.75502],[-122.49298,37.72905],[-122.45421,37.69294],[-122.45103,37.68996],[-122.41223,37.65348],[-122.36532,37.60839],[-122.34733,37.57944],[-122.33803,37.56336],[-122.32175,37.53603],[-122.30632,37.50914],[-122.2792,37.47247],[-122.24466,37.46013],[-122.2106,37.45482],[-122.17226,37.4888],[-122.16973,37.51528],[-122.1892,37.53999],[-122.22611,37.55611],[-122.24941,37.56555],[-122.26926,37.57412],[-122.30415,37.58864],[-122.32085,37.59586],[-122.34568,37.60634]],"type":"LineString"}
}
