{
  "id": 2014806223,
  "type": "Feature",
  "properties": {
    "geom:area": 0,
    "geom:bbox": "-179.050000,37.401944,179.966667,53.983333",
    "geom:latitude": 51.728072457041776,
    "geom:longitude": -21.498619386394324,
    "src:alt_label": "swim-path",
    "src:geom": "swim",
    "swim:altitudes": [
      "380",
      "380",
      "380",
      "380",
      "380",
      "380",
      "380",
      "380",
      "380",
      "380",
      "380",
      "380",
      "380",
      "380",
      "380",
      "380",
      "380",
      "380",
      "380",
      "380",
      "380",
      "380",
      "380",
      "380",
      "380",
      "380",
      "380",
      "380",
      "380",
      "380",
      "380",
      "380",
      "380",
      "380",
      "380",
      "380",
      "380",
      "380",
      "380",
      "380",
      "380",
      "380",
      "380",
      "380",
      "380",
      "380",
      "380",
      "380",
      "380",
      "380",
      "380",
      "380",
      "380",
      "380",
      "390",
      "390",
      "390",
      "390",
      "390",
      "390",
      "390",
      "390",
      "390",
      "390",
      "390",
      "390",
      "390",
      "390",
      "390",
      "390",
      "390",
      "390",
      "390",
      "390",
      "390",
      "390",
      "390",
      "390",
      "390",
      "390",
      "390",
      "390",
      "390",
      "390",
      "390",
      "390",
      "390",
      "390",
      "390",
      "390",
      "390",
      "390",
      "390",
      "390",
      "390",
      "390",
      "390",
      "390",
      "390",
      "390",
      "390",
      "390",
      "390",
      "390",
      "390",
      "390",
      "390",
      "390",
      "390",
      "390",
      "390",
      "390",
      "390",
      "390",
      "390",
      "390",
      "390",
      "390",
      "390",
      "390",
      "390",
      "390",
      "390",
      "390",
      "390",
      "390",
      "390",
      "390",
      "390",
      "390",
      "390",
      "390",
      "390",
      "390",
      "390",
      "400C",
      "400C",
      "400C",
      "400C",
      "400C",
      "400C",
      "400C",
      "400C",
      "400C",
      "400C",
      "400C",
      "400",
      "400",
      "400C",
      "400C",
      "400",
      "400",
      "400",
      "400",
      "400",
      "400C",
      "400C",
      "400C",
      "400C",
      "400",
      "400C",
      "400C",
      "400C",
      "400C",
      "400C",
      "400C",
      "400C",
      "400C",
      "400C",
      "400C",
      "400C",
      "400C",
      "400C",
      "400C",
      "400C",
      "400C",
      "400C",
      "400C",
      "400C",
      "400C",
      "400C",
      "400C",
      "398",
      "398",
      "398",
      "398",
      "398",
      "398",
      "339",
      "339",
      "328",
      "328",
      "328",
      "328",
      "319",
      "319",
      "287",
      "262",
      "262",
      "262",
      "262",
      "245",
      "245",
      "245",
      "245",
      "159",
      "144",
      "144",
      "144",
      "123",
      "123",
      "123",
      "112C",
      "112C",
      "110",
      "110C",
      "110",
      "108C",
      "108C",
      "084",
      "084",
      "084",
      "058",
      "058",
      "058",
      "045",
      "045",
      "045",
      "045",
      "040",
      "040",
      "040",
      "040",
      "037",
      "037",
      "037",
      "023",
      "023",
      "023",
      "023",
      "002",
      "002",
      "002",
      "002",
      "002",
      "002"
    ],
    "swim:geom": "path",
    "swim:speeds": [
      540,
      540,
      540,
      540,
      540,
      540,
      540,
      540,
      540,
      540,
      540,
      530,
      530,
      530,
      530,
      530,
      530,
      520,
      520,
      520,
      520,
      520,
      520,
      520,
      520,
      520,
      520,
      520,
      520,
      520,
      520,
      520,
      520,
      520,
      520,
      520,
      520,
      520,
      520,
      520,
      530,
      530,
      530,
      540,
      540,
      540,
      540,
      540,
      540,
      540,
      540,
      540,
      540,
      540,
      540,
      540,
      540,
      540,
      540,
      540,
      540,
      540,
      540,
      540,
      540,
      540,
      540,
      540,
      540,
      540,
      540,
      540,
      540,
      540,
      540,
      540,
      540,
      540,
      540,
      540,
      540,
      540,
      540,
      540,
      540,
      540,
      540,
      540,
      540,
      540,
      550,
      550,
      550,
      550,
      550,
      550,
      550,
      550,
      550,
      550,
      550,
      550,
      550,
      540,
      540,
      540,
      540,
      540,
      540,
      540,
      540,
      540,
      540,
      540,
      540,
      540,
      540,
      540,
      540,
      540,
      540,
      540,
      540,
      540,
      540,
      540,
      540,
      540,
      540,
      540,
      540,
      540,
      540,
      540,
      540,
      522,
      522,
      522,
      520,
      520,
      520,
      520,
      520,
      523,
      523,
      523,
      530,
      530,
      528,
      528,
      530,
      530,
      530,
      530,
      530,
      525,
      525,
      525,
      525,
      530,
      523,
      523,
      523,
      523,
      525,
      525,
      525,
      525,
      525,
      525,
      525,
      525,
      525,
      515,
      515,
      515,
      515,
      504,
      504,
      504,
      504,
      504,
      493,
      493,
      493,
      493,
      493,
      493,
      439,
      439,
      429,
      429,
      429,
      429,
      416,
      416,
      381,
      385,
      385,
      385,
      385,
      376,
      376,
      376,
      376,
      344,
      339,
      339,
      339,
      339,
      339,
      339,
      338,
      338,
      332,
      322,
      284,
      279,
      279,
      258,
      258,
      258,
      233,
      233,
      233,
      200,
      200,
      200,
      200,
      181,
      181,
      177,
      177,
      174,
      174,
      174,
      175,
      175,
      175,
      175,
      138,
      138,
      138,
      138,
      138,
      138
    ],
    "swim:timestamps": [
      1771267457,
      1771267457,
      1771267457,
      1771267457,
      1771267457,
      1771267700,
      1771267700,
      1771267700,
      1771267700,
      1771267700,
      1771267700,
      1771268062,
      1771268062,
      1771268062,
      1771268062,
      1771268062,
      1771268062,
      1771268243,
      1771268243,
      1771268243,
      1771268304,
      1771268304,
      1771268364,
      1771268364,
      1771268364,
      1771268485,
      1771268485,
      1771268485,
      1771268485,
      1771268728,
      1771268728,
      1771268728,
      1771268790,
      1771268790,
      1771268790,
      1771268911,
      1771268911,
      1771268911,
      1771268911,
      1771268911,
      1771268972,
      1771268972,
      1771268972,
      1771269276,
      1771269276,
      1771269337,
      1771269337,
      1771269337,
      1771269337,
      1771269337,
      1771269458,
      1771269458,
      1771269458,
      1771269458,
      1771270307,
      1771270307,
      1771270307,
      1771270368,
      1771270368,
      1771270368,
      1771270368,
      1771270368,
      1771270488,
      1771270488,
      1771270488,
      1771270488,
      1771270548,
      1771270548,
      1771270548,
      1771270548,
      1771270668,
      1771270668,
      1771270728,
      1771270728,
      1771270728,
      1771270728,
      1771270728,
      1771270850,
      1771270850,
      1771270850,
      1771270850,
      1771270850,
      1771270850,
      1771271031,
      1771271031,
      1771271031,
      1771271031,
      1771271092,
      1771271092,
      1771271092,
      1771271153,
      1771271273,
      1771271273,
      1771271273,
      1771271273,
      1771271273,
      1771271644,
      1771271644,
      1771271644,
      1771271704,
      1771271704,
      1771271704,
      1771271704,
      1771271764,
      1771271825,
      1771271825,
      1771271825,
      1771271825,
      1771271946,
      1771271946,
      1771271946,
      1771271946,
      1771271946,
      1771272188,
      1771272188,
      1771272188,
      1771272188,
      1771272188,
      1771272188,
      1771272371,
      1771272371,
      1771272371,
      1771272431,
      1771272431,
      1771272431,
      1771272431,
      1771272612,
      1771272612,
      1771272612,
      1771272612,
      1771272612,
      1771272673,
      1771272673,
      1771272673,
      1771272673,
      1771282467,
      1771282467,
      1771282467,
      1771282588,
      1771282588,
      1771282588,
      1771282588,
      1771282588,
      1771282648,
      1771282648,
      1771282648,
      1771282844,
      1771282844,
      1771282888,
      1771282888,
      1771282904,
      1771282904,
      1771282904,
      1771282964,
      1771282964,
      1771283068,
      1771283068,
      1771283068,
      1771283068,
      1771283144,
      1771283188,
      1771283188,
      1771283188,
      1771283188,
      1771283248,
      1771283248,
      1771283248,
      1771283248,
      1771283428,
      1771283428,
      1771283428,
      1771283428,
      1771283428,
      1771283549,
      1771283549,
      1771283549,
      1771283549,
      1771283669,
      1771283669,
      1771283669,
      1771283669,
      1771283669,
      1771283789,
      1771283789,
      1771283789,
      1771283789,
      1771283789,
      1771283789,
      1771284149,
      1771284149,
      1771284209,
      1771284209,
      1771284209,
      1771284209,
      1771284269,
      1771284269,
      1771284390,
      1771284510,
      1771284510,
      1771284510,
      1771284510,
      1771284570,
      1771284570,
      1771284570,
      1771284570,
      1771284870,
      1771284911,
      1771284911,
      1771284911,
      1771284990,
      1771284990,
      1771284990,
      1771285050,
      1771285050,
      1771285085,
      1771285110,
      1771285145,
      1771285170,
      1771285170,
      1771285265,
      1771285265,
      1771285265,
      1771285411,
      1771285411,
      1771285411,
      1771285471,
      1771285471,
      1771285471,
      1771285471,
      1771285531,
      1771285531,
      1771285591,
      1771285591,
      1771285625,
      1771285625,
      1771285625,
      1771285711,
      1771285711,
      1771285711,
      1771285711,
      1771285865,
      1771285865,
      1771285865,
      1771285865,
      1771285865,
      1771285865
    ],
    "wof:geomhash": "8d7a68cf86733bb96f38cdf1ddac14fd",
    "wof:id": 2014806223,
    "wof:repo": "sfomuseum-data-flights-2026-02"
  },
  "bbox": [
    -179.05,
    37.401944444444446,
    179.96666666666667,
    53.983333333333334
  ],
  "geometry": {"coordinates":[[[179.96666666666667,52.25],[179.96666666666667,52.25],[179.96666666666667,52.25],[179.96666666666667,52.25],[179.96666666666667,52.25]],[[-179.05,52.36666666666667],[-179.05,52.36666666666667],[-179.05,52.36666666666667],[-179.05,52.36666666666667],[-179.05,52.36666666666667],[-179.05,52.36666666666667],[-177.61666666666667,52.516666666666666],[-177.61666666666667,52.516666666666666],[-177.61666666666667,52.516666666666666],[-177.61666666666667,52.516666666666666],[-177.61666666666667,52.516666666666666],[-177.61666666666667,52.516666666666666],[-176.9,52.583333333333336],[-176.9,52.583333333333336],[-176.9,52.583333333333336],[-176.66666666666666,52.6],[-176.66666666666666,52.6],[-176.43333333333334,52.61666666666667],[-176.43333333333334,52.61666666666667],[-176.43333333333334,52.61666666666667],[-175.95,52.666666666666664],[-175.95,52.666666666666664],[-175.95,52.666666666666664],[-175.95,52.666666666666664],[-175.01666666666668,52.733333333333334],[-175.01666666666668,52.733333333333334],[-175.01666666666668,52.733333333333334],[-174.76666666666668,52.75],[-174.76666666666668,52.75],[-174.76666666666668,52.75],[-174.28333333333333,52.78333333333333],[-174.28333333333333,52.78333333333333],[-174.28333333333333,52.78333333333333],[-174.28333333333333,52.78333333333333],[-174.28333333333333,52.78333333333333],[-174.05,52.8],[-174.05,52.8],[-174.05,52.8],[-172.81666666666666,52.86666666666667],[-172.81666666666666,52.86666666666667],[-172.56666666666666,52.88333333333333],[-172.56666666666666,52.88333333333333],[-172.56666666666666,52.88333333333333],[-172.56666666666666,52.88333333333333],[-172.56666666666666,52.88333333333333],[-172.08333333333334,52.916666666666664],[-172.08333333333334,52.916666666666664],[-172.08333333333334,52.916666666666664],[-172.08333333333334,52.916666666666664],[-168.63333333333333,53.18333333333333],[-168.63333333333333,53.18333333333333],[-168.63333333333333,53.18333333333333],[-168.38333333333333,53.21666666666667],[-168.38333333333333,53.21666666666667],[-168.38333333333333,53.21666666666667],[-168.38333333333333,53.21666666666667],[-168.38333333333333,53.21666666666667],[-167.88333333333333,53.28333333333333],[-167.88333333333333,53.28333333333333],[-167.88333333333333,53.28333333333333],[-167.88333333333333,53.28333333333333],[-167.65,53.3],[-167.65,53.3],[-167.65,53.3],[-167.65,53.3],[-167.15,53.36666666666667],[-167.15,53.36666666666667],[-166.9,53.4],[-166.9,53.4],[-166.9,53.4],[-166.9,53.4],[-166.9,53.4],[-166.4,53.45],[-166.4,53.45],[-166.4,53.45],[-166.4,53.45],[-166.4,53.45],[-166.4,53.45],[-165.66666666666666,53.53333333333333],[-165.66666666666666,53.53333333333333],[-165.66666666666666,53.53333333333333],[-165.66666666666666,53.53333333333333],[-165.4,53.56666666666667],[-165.4,53.56666666666667],[-165.4,53.56666666666667],[-165.15,53.583333333333336],[-164.65,53.63333333333333],[-164.65,53.63333333333333],[-164.65,53.63333333333333],[-164.65,53.63333333333333],[-164.65,53.63333333333333],[-163.08333333333334,53.78333333333333],[-163.08333333333334,53.78333333333333],[-163.08333333333334,53.78333333333333],[-162.83333333333334,53.8],[-162.83333333333334,53.8],[-162.83333333333334,53.8],[-162.83333333333334,53.8],[-162.58333333333334,53.81666666666667],[-162.33333333333334,53.833333333333336],[-162.33333333333334,53.833333333333336],[-162.33333333333334,53.833333333333336],[-162.33333333333334,53.833333333333336],[-161.83333333333334,53.86666666666667],[-161.83333333333334,53.86666666666667],[-161.83333333333334,53.86666666666667],[-161.83333333333334,53.86666666666667],[-161.83333333333334,53.86666666666667],[-160.81666666666666,53.95],[-160.81666666666666,53.95],[-160.81666666666666,53.95],[-160.81666666666666,53.95],[-160.81666666666666,53.95],[-160.81666666666666,53.95],[-160.05,53.983333333333334],[-160.05,53.983333333333334],[-160.05,53.983333333333334],[-159.78333333333333,53.96666666666667],[-159.78333333333333,53.96666666666667],[-159.78333333333333,53.96666666666667],[-159.78333333333333,53.96666666666667],[-159.05,53.85],[-159.05,53.85],[-159.05,53.85],[-159.05,53.85],[-159.05,53.85],[-158.8,53.8],[-158.8,53.8],[-158.8,53.8],[-158.8,53.8],[-127.35777777777777,40.92166666666667],[-127.35777777777777,40.92166666666667],[-127.35777777777777,40.92166666666667],[-127.10138888888888,40.70944444444445],[-127.10138888888888,40.70944444444445],[-127.10138888888888,40.70944444444445],[-127.10138888888888,40.70944444444445],[-127.10138888888888,40.70944444444445],[-126.96111111111111,40.61027777777778],[-126.96111111111111,40.61027777777778],[-126.96111111111111,40.61027777777778],[-126.4,40.333333333333336],[-126.4,40.333333333333336],[-126.31388888888888,40.295833333333334],[-126.31388888888888,40.295833333333334],[-126.23333333333333,40.25],[-126.23333333333333,40.25],[-126.23333333333333,40.25],[-126.08333333333333,40.18333333333333],[-126.08333333333333,40.18333333333333],[-125.83138888888888,40.059999999999995],[-125.83138888888888,40.059999999999995],[-125.83138888888888,40.059999999999995],[-125.83138888888888,40.059999999999995],[-125.58333333333333,39.96666666666667],[-125.44277777777778,39.99111111111111],[-125.44277777777778,39.99111111111111],[-125.44277777777778,39.99111111111111],[-125.44277777777778,39.99111111111111],[-125.25444444444445,40.005833333333335],[-125.25444444444445,40.005833333333335],[-125.25444444444445,40.005833333333335],[-125.25444444444445,40.005833333333335],[-124.69111111111111,40.053888888888885],[-124.69111111111111,40.053888888888885],[-124.69111111111111,40.053888888888885],[-124.69111111111111,40.053888888888885],[-124.69111111111111,40.053888888888885],[-124.32722222222222,40.00805555555556],[-124.32722222222222,40.00805555555556],[-124.32722222222222,40.00805555555556],[-124.32722222222222,40.00805555555556],[-123.97500000000001,39.952222222222225],[-123.97500000000001,39.952222222222225],[-123.97500000000001,39.952222222222225],[-123.97500000000001,39.952222222222225],[-123.97500000000001,39.952222222222225],[-123.65083333333334,39.8425],[-123.65083333333334,39.8425],[-123.65083333333334,39.8425],[-123.65083333333334,39.8425],[-123.65083333333334,39.8425],[-123.65083333333334,39.8425],[-123.20166666666667,39.193888888888885],[-123.20166666666667,39.193888888888885],[-123.15166666666667,39.08361111111111],[-123.15166666666667,39.08361111111111],[-123.15166666666667,39.08361111111111],[-123.15166666666667,39.08361111111111],[-123.10194444444444,38.97361111111111],[-123.10194444444444,38.97361111111111],[-123.00805555555556,38.765],[-122.9175,38.56222222222222],[-122.9175,38.56222222222222],[-122.9175,38.56222222222222],[-122.9175,38.56222222222222],[-122.8736111111111,38.46361111111111],[-122.8736111111111,38.46361111111111],[-122.8736111111111,38.46361111111111],[-122.8736111111111,38.46361111111111],[-122.69694444444445,37.98083333333334],[-122.66666666666667,37.9],[-122.66666666666667,37.9],[-122.66666666666667,37.9],[-122.57944444444443,37.81111111111111],[-122.57944444444443,37.81111111111111],[-122.57944444444443,37.81111111111111],[-122.5038888888889,37.73916666666667],[-122.5038888888889,37.73916666666667],[-122.45,37.7],[-122.42972222222222,37.669444444444444],[-122.38333333333334,37.63333333333333],[-122.36472222222221,37.60861111111111],[-122.36472222222221,37.60861111111111],[-122.3,37.5],[-122.3,37.5],[-122.3,37.5],[-122.14055555555557,37.401944444444446],[-122.14055555555557,37.401944444444446],[-122.14055555555557,37.401944444444446],[-122.08916666666666,37.437777777777775],[-122.08916666666666,37.437777777777775],[-122.08916666666666,37.437777777777775],[-122.08916666666666,37.437777777777775],[-122.0775,37.48555555555556],[-122.0775,37.48555555555556],[-122.12333333333332,37.515],[-122.12333333333332,37.515],[-122.16666666666667,37.53333333333333],[-122.16666666666667,37.53333333333333],[-122.16666666666667,37.53333333333333],[-122.23027777777779,37.56027777777778],[-122.23027777777779,37.56027777777778],[-122.23027777777779,37.56027777777778],[-122.23027777777779,37.56027777777778],[-122.35,37.61666666666667],[-122.35,37.61666666666667],[-122.35,37.61666666666667],[-122.35,37.61666666666667],[-122.35,37.61666666666667],[-122.35,37.61666666666667]]],"type":"MultiLineString"}
}
