{
  "id": 2014890779,
  "type": "Feature",
  "properties": {
    "geom:area": 0,
    "geom:bbox": "-122.350590,37.424270,-121.278280,37.610790",
    "geom:latitude": 37.52702792212667,
    "geom:longitude": -121.82007540365694,
    "src:alt_label": "swim-approach",
    "src:geom": "swim",
    "swim:elevations": [
      4933,
      4662,
      4360,
      4103,
      4001,
      3840,
      3554,
      3448,
      3353,
      3292,
      3051,
      3048,
      3048,
      3048,
      2835,
      2577,
      2410,
      2240,
      2140,
      2127,
      1832,
      1829,
      1829,
      1767,
      1568,
      1492,
      1253,
      1119,
      933,
      766,
      728,
      449,
      427,
      240,
      208,
      85,
      56
    ],
    "swim:geom": "approach",
    "swim:timestamps": [
      1772105247,
      1772105271,
      1772105304,
      1772105331,
      1772105340,
      1772105355,
      1772105391,
      1772105412,
      1772105448,
      1772105472,
      1772105513,
      1772105537,
      1772105575,
      1772105596,
      1772105630,
      1772105663,
      1772105682,
      1772105706,
      1772105719,
      1772105742,
      1772105785,
      1772105799,
      1772105831,
      1772105867,
      1772105892,
      1772105916,
      1772105957,
      1772105990,
      1772106020,
      1772106055,
      1772106060,
      1772106116,
      1772106122,
      1772106164,
      1772106176,
      1772106204,
      1772106212
    ],
    "wof:geomhash": "b1a7039e5a7f4d3ccad802665faed676",
    "wof:id": 2014890779,
    "wof:repo": "sfomuseum-data-flights-2026-02"
  },
  "bbox": [
    -122.35059,
    37.42427,
    -121.27828,
    37.61079
  ],
  "geometry": {"coordinates":[[-121.27828,37.59047],[-121.3248,37.58533],[-121.38645,37.57871],[-121.43449,37.57313],[-121.45091,37.57119],[-121.47874,37.56801],[-121.54448,37.56049],[-121.57877,37.5563],[-121.63426,37.54949],[-121.66784,37.54887],[-121.71831,37.56566],[-121.74796,37.57117],[-121.78067,37.54198],[-121.78063,37.51736],[-121.77983,37.47611],[-121.79098,37.43879],[-121.81183,37.42621],[-121.84293,37.42456],[-121.86004,37.42441],[-121.88944,37.42427],[-121.94061,37.43718],[-121.95591,37.44335],[-121.99062,37.45882],[-122.03008,37.47562],[-122.05589,37.48645],[-122.08014,37.49677],[-122.11964,37.51354],[-122.15303,37.52755],[-122.18251,37.54004],[-122.21633,37.55432],[-122.22132,37.55641],[-122.27453,37.57882],[-122.27959,37.58092],[-122.31369,37.59527],[-122.3228,37.59908],[-122.34473,37.60833],[-122.35059,37.61079]],"type":"LineString"}
}
