{
  "id": 2014798081,
  "type": "Feature",
  "properties": {
    "geom:area": 0,
    "geom:bbox": "-123.399167,37.633333,-122.250000,47.615278",
    "geom:latitude": 42.761743810043086,
    "geom:longitude": -123.11782246326929,
    "src:alt_label": "swim-path",
    "src:geom": "swim",
    "swim:altitudes": [
      "011",
      "022",
      "022",
      "022",
      "058",
      "058",
      "071",
      "071",
      "079",
      "109",
      "109",
      "109",
      "109",
      "109",
      "171",
      "171",
      "171",
      "171",
      "202",
      "202",
      "202",
      "202",
      "202",
      "202",
      "255",
      "255",
      "255",
      "268",
      "268",
      "268",
      "277",
      "277",
      "289",
      "289",
      "289",
      "289",
      "304",
      "304",
      "304",
      "329C",
      "329C",
      "329C",
      "331C",
      "331C",
      "331C",
      "331C",
      "331C",
      "331C",
      "331C",
      "331C",
      "331C",
      "331C",
      "331C",
      "331C",
      "331C",
      "331C",
      "331C",
      "331C",
      "331C",
      "331C",
      "331C",
      "331C",
      "331C",
      "331C",
      "331C",
      "351C",
      "351C",
      "351C",
      "351C",
      "351C",
      "351C",
      "351C",
      "351C",
      "351C",
      "351C",
      "351C",
      "351C",
      "351C",
      "351C",
      "351C",
      "351C",
      "351C",
      "351C",
      "351C",
      "351C",
      "351C",
      "351C",
      "351C",
      "351C",
      "351C",
      "351C",
      "351C",
      "351C",
      "351C",
      "351C",
      "351C",
      "351C",
      "351C",
      "351C",
      "351C",
      "350C",
      "350C",
      "350C",
      "350C",
      "350C",
      "350C",
      "350C",
      "350C",
      "350C",
      "350C",
      "350C",
      "350C",
      "350C",
      "350C",
      "351C",
      "351C",
      "351C",
      "351C",
      "351C",
      "351C",
      "351C",
      "351C",
      "351C",
      "351C",
      "351C",
      "351C",
      "351C",
      "351C",
      "351C",
      "351C",
      "351C",
      "351C",
      "351C",
      "351C",
      "351C",
      "351C",
      "351C",
      "351C",
      "351C",
      "351C",
      "351C",
      "351C",
      "351C",
      "350C",
      "350C",
      "350C",
      "350C",
      "350C",
      "350C",
      "350C",
      "351C",
      "351C",
      "350",
      "350",
      "350",
      "350",
      "350",
      "314",
      "314",
      "314",
      "314",
      "281",
      "281",
      "281",
      "281",
      "260",
      "260",
      "260",
      "260",
      "251",
      "251",
      "251",
      "251",
      "171",
      "156",
      "156",
      "156",
      "156",
      "152",
      "152",
      "131",
      "131",
      "123",
      "061",
      "061",
      "061",
      "061",
      "061",
      "060",
      "043",
      "039",
      "039",
      "031",
      "031",
      "031",
      "031",
      "017",
      "017",
      "009",
      "008",
      "002",
      "002"
    ],
    "swim:geom": "path",
    "swim:speeds": [
      162,
      170,
      170,
      170,
      255,
      255,
      272,
      272,
      269,
      274,
      274,
      274,
      274,
      274,
      348,
      348,
      348,
      348,
      392,
      392,
      392,
      392,
      392,
      392,
      450,
      450,
      450,
      453,
      453,
      453,
      464,
      464,
      470,
      470,
      470,
      470,
      468,
      468,
      468,
      459,
      459,
      459,
      459,
      459,
      459,
      460,
      460,
      460,
      454,
      454,
      454,
      449,
      449,
      449,
      449,
      449,
      451,
      453,
      453,
      453,
      453,
      453,
      454,
      454,
      454,
      433,
      433,
      433,
      433,
      440,
      440,
      440,
      440,
      440,
      429,
      429,
      429,
      430,
      430,
      430,
      431,
      431,
      431,
      431,
      431,
      431,
      434,
      434,
      432,
      432,
      432,
      432,
      432,
      432,
      432,
      432,
      424,
      424,
      424,
      420,
      418,
      418,
      418,
      418,
      415,
      415,
      408,
      408,
      407,
      407,
      408,
      408,
      408,
      408,
      413,
      413,
      413,
      413,
      413,
      413,
      415,
      415,
      415,
      415,
      417,
      417,
      417,
      417,
      417,
      417,
      417,
      417,
      409,
      409,
      409,
      409,
      409,
      409,
      410,
      410,
      410,
      401,
      401,
      394,
      394,
      394,
      391,
      391,
      391,
      391,
      401,
      401,
      387,
      387,
      387,
      387,
      387,
      370,
      370,
      370,
      370,
      380,
      380,
      380,
      380,
      359,
      359,
      359,
      359,
      355,
      355,
      355,
      355,
      332,
      321,
      321,
      321,
      321,
      324,
      324,
      308,
      308,
      305,
      259,
      259,
      259,
      259,
      259,
      258,
      251,
      196,
      196,
      166,
      166,
      166,
      166,
      171,
      171,
      141,
      135,
      136,
      136
    ],
    "swim:timestamps": [
      1771187761,
      1771187791,
      1771187791,
      1771187791,
      1771187894,
      1771187894,
      1771187919,
      1771187919,
      1771187954,
      1771188014,
      1771188014,
      1771188014,
      1771188014,
      1771188014,
      1771188194,
      1771188194,
      1771188194,
      1771188194,
      1771188314,
      1771188314,
      1771188314,
      1771188314,
      1771188314,
      1771188314,
      1771188554,
      1771188554,
      1771188554,
      1771188614,
      1771188614,
      1771188614,
      1771188674,
      1771188674,
      1771188734,
      1771188734,
      1771188734,
      1771188734,
      1771188807,
      1771188807,
      1771188807,
      1771188927,
      1771188927,
      1771188927,
      1771188987,
      1771188987,
      1771188987,
      1771189167,
      1771189167,
      1771189167,
      1771189227,
      1771189227,
      1771189227,
      1771189407,
      1771189407,
      1771189407,
      1771189407,
      1771189407,
      1771189527,
      1771189587,
      1771189587,
      1771189587,
      1771189587,
      1771189587,
      1771189647,
      1771189647,
      1771189647,
      1771189888,
      1771189888,
      1771189888,
      1771189888,
      1771190008,
      1771190008,
      1771190008,
      1771190008,
      1771190008,
      1771190128,
      1771190128,
      1771190128,
      1771190188,
      1771190188,
      1771190188,
      1771190248,
      1771190248,
      1771190248,
      1771190248,
      1771190308,
      1771190308,
      1771190468,
      1771190468,
      1771190488,
      1771190488,
      1771190488,
      1771190488,
      1771190609,
      1771190609,
      1771190609,
      1771190609,
      1771190789,
      1771190789,
      1771190789,
      1771190829,
      1771190849,
      1771190849,
      1771190849,
      1771190849,
      1771190889,
      1771190889,
      1771191069,
      1771191069,
      1771191089,
      1771191089,
      1771191129,
      1771191129,
      1771191129,
      1771191129,
      1771191189,
      1771191189,
      1771191209,
      1771191209,
      1771191329,
      1771191329,
      1771191389,
      1771191389,
      1771191389,
      1771191389,
      1771191429,
      1771191429,
      1771191429,
      1771191449,
      1771191449,
      1771191449,
      1771191449,
      1771191509,
      1771191670,
      1771191670,
      1771191670,
      1771191690,
      1771191690,
      1771191690,
      1771191730,
      1771191750,
      1771191750,
      1771191850,
      1771191850,
      1771191910,
      1771191910,
      1771191910,
      1771191970,
      1771191970,
      1771191970,
      1771191970,
      1771192090,
      1771192090,
      1771192150,
      1771192150,
      1771192150,
      1771192150,
      1771192150,
      1771192391,
      1771192391,
      1771192391,
      1771192391,
      1771192571,
      1771192571,
      1771192571,
      1771192571,
      1771192691,
      1771192691,
      1771192691,
      1771192691,
      1771192751,
      1771192751,
      1771192751,
      1771192751,
      1771193051,
      1771193096,
      1771193096,
      1771193096,
      1771193096,
      1771193111,
      1771193111,
      1771193172,
      1771193172,
      1771193180,
      1771193352,
      1771193352,
      1771193352,
      1771193352,
      1771193352,
      1771193412,
      1771193472,
      1771193540,
      1771193540,
      1771193600,
      1771193600,
      1771193600,
      1771193600,
      1771193712,
      1771193712,
      1771193772,
      1771193780,
      1771193832,
      1771193832
    ],
    "wof:geomhash": "93780bace742c96652ace2e7a2108ccb",
    "wof:id": 2014798081,
    "wof:repo": "sfomuseum-data-flights-2026-02"
  },
  "bbox": [
    -123.39916666666667,
    37.63333333333333,
    -122.25,
    47.61527777777778
  ],
  "geometry": {"coordinates":[[-122.30722222222222,47.45888888888889],[-122.30777777777777,47.481388888888894],[-122.30777777777777,47.481388888888894],[-122.30777777777777,47.481388888888894],[-122.33444444444444,47.58166666666667],[-122.33444444444444,47.58166666666667],[-122.37027777777777,47.60611111111111],[-122.37027777777777,47.60611111111111],[-122.42583333333334,47.61527777777778],[-122.52277777777778,47.584722222222226],[-122.52277777777778,47.584722222222226],[-122.52277777777778,47.584722222222226],[-122.52277777777778,47.584722222222226],[-122.52277777777778,47.584722222222226],[-122.81805555555555,47.39138888888889],[-122.81805555555555,47.39138888888889],[-122.81805555555555,47.39138888888889],[-122.81805555555555,47.39138888888889],[-123.03999999999999,47.24305555555556],[-123.03999999999999,47.24305555555556],[-123.03999999999999,47.24305555555556],[-123.03999999999999,47.24305555555556],[-123.03999999999999,47.24305555555556],[-123.03999999999999,47.24305555555556],[-123.39916666666667,46.841944444444444],[-123.39916666666667,46.841944444444444],[-123.39916666666667,46.841944444444444],[-123.39527777777778,46.715833333333336],[-123.39527777777778,46.715833333333336],[-123.39527777777778,46.715833333333336],[-123.3913888888889,46.58777777777778],[-123.3913888888889,46.58777777777778],[-123.3875,46.456944444444446],[-123.3875,46.456944444444446],[-123.3875,46.456944444444446],[-123.3875,46.456944444444446],[-123.38361111111112,46.33222222222223],[-123.38361111111112,46.33222222222223],[-123.38361111111112,46.33222222222223],[-123.375,46.05277777777778],[-123.375,46.05277777777778],[-123.375,46.05277777777778],[-123.3711111111111,45.92444444444444],[-123.3711111111111,45.92444444444444],[-123.3711111111111,45.92444444444444],[-123.35972222222222,45.54111111111111],[-123.35972222222222,45.54111111111111],[-123.35972222222222,45.54111111111111],[-123.35583333333332,45.41444444444444],[-123.35583333333332,45.41444444444444],[-123.35583333333332,45.41444444444444],[-123.34472222222222,45.038333333333334],[-123.34472222222222,45.038333333333334],[-123.34472222222222,45.038333333333334],[-123.34472222222222,45.038333333333334],[-123.34472222222222,45.038333333333334],[-123.33722222222222,44.782777777777774],[-123.33361111111111,44.655],[-123.33361111111111,44.655],[-123.33361111111111,44.655],[-123.33361111111111,44.655],[-123.33361111111111,44.655],[-123.33,44.527499999999996],[-123.33,44.527499999999996],[-123.33,44.527499999999996],[-123.31083333333333,44.04194444444444],[-123.31083333333333,44.04194444444444],[-123.31083333333333,44.04194444444444],[-123.31083333333333,44.04194444444444],[-123.30194444444444,43.8175],[-123.30194444444444,43.8175],[-123.30194444444444,43.8175],[-123.30194444444444,43.8175],[-123.30194444444444,43.8175],[-123.29222222222222,43.5775],[-123.29222222222222,43.5775],[-123.29222222222222,43.5775],[-123.28777777777778,43.45805555555556],[-123.28777777777778,43.45805555555556],[-123.28777777777778,43.45805555555556],[-123.28305555555555,43.338055555555556],[-123.28305555555555,43.338055555555556],[-123.28305555555555,43.338055555555556],[-123.28305555555555,43.338055555555556],[-123.27833333333334,43.2175],[-123.27833333333334,43.2175],[-123.26611111111112,42.888888888888886],[-123.26611111111112,42.888888888888886],[-123.26444444444445,42.85805555555556],[-123.26444444444445,42.85805555555556],[-123.26444444444445,42.85805555555556],[-123.26444444444445,42.85805555555556],[-123.255,42.60305555555556],[-123.255,42.60305555555556],[-123.255,42.60305555555556],[-123.255,42.60305555555556],[-123.24166666666667,42.2475],[-123.24166666666667,42.2475],[-123.24166666666667,42.2475],[-123.2388888888889,42.17833333333333],[-123.2375,42.13361111111111],[-123.2375,42.13361111111111],[-123.2375,42.13361111111111],[-123.2375,42.13361111111111],[-123.23472222222222,42.06444444444444],[-123.23472222222222,42.06444444444444],[-123.2225,41.72694444444445],[-123.2225,41.72694444444445],[-123.22111111111111,41.68194444444444],[-123.22111111111111,41.68194444444444],[-123.21833333333333,41.61388888888889],[-123.21833333333333,41.61388888888889],[-123.21833333333333,41.61388888888889],[-123.21833333333333,41.61388888888889],[-123.21444444444445,41.49861111111111],[-123.21444444444445,41.49861111111111],[-123.21277777777777,41.4525],[-123.21277777777777,41.4525],[-123.20611111111111,41.23388888888889],[-123.20611111111111,41.23388888888889],[-123.20333333333333,41.118611111111115],[-123.20333333333333,41.118611111111115],[-123.20333333333333,41.118611111111115],[-123.20333333333333,41.118611111111115],[-123.20111111111112,41.025],[-123.20111111111112,41.025],[-123.20111111111112,41.025],[-123.20027777777779,41.00055555555556],[-123.20027777777779,41.00055555555556],[-123.20027777777779,41.00055555555556],[-123.20027777777779,41.00055555555556],[-123.1975,40.88583333333333],[-123.18972222222223,40.56916666666667],[-123.18972222222223,40.56916666666667],[-123.18972222222223,40.56916666666667],[-123.1888888888889,40.54222222222222],[-123.1888888888889,40.54222222222222],[-123.1888888888889,40.54222222222222],[-123.18666666666667,40.45611111111111],[-123.18611111111112,40.42722222222222],[-123.18611111111112,40.42722222222222],[-123.18111111111112,40.233333333333334],[-123.18111111111112,40.233333333333334],[-123.17861111111111,40.12444444444444],[-123.17861111111111,40.12444444444444],[-123.17861111111111,40.12444444444444],[-123.17611111111111,40.01722222222222],[-123.17611111111111,40.01722222222222],[-123.17611111111111,40.01722222222222],[-123.17611111111111,40.01722222222222],[-123.16694444444445,39.79611111111111],[-123.16694444444445,39.79611111111111],[-123.16194444444444,39.68805555555555],[-123.16194444444444,39.68805555555555],[-123.16194444444444,39.68805555555555],[-123.16194444444444,39.68805555555555],[-123.16194444444444,39.68805555555555],[-123.14277777777778,39.269999999999996],[-123.14277777777778,39.269999999999996],[-123.14277777777778,39.269999999999996],[-123.14277777777778,39.269999999999996],[-123.04333333333334,38.97888888888889],[-123.04333333333334,38.97888888888889],[-123.04333333333334,38.97888888888889],[-123.04333333333334,38.97888888888889],[-122.93555555555555,38.795833333333334],[-122.93555555555555,38.795833333333334],[-122.93555555555555,38.795833333333334],[-122.93555555555555,38.795833333333334],[-122.90722222222223,38.69972222222222],[-122.90722222222223,38.69972222222222],[-122.90722222222223,38.69972222222222],[-122.90722222222223,38.69972222222222],[-122.77194444444444,38.23916666666667],[-122.75,38.166666666666664],[-122.75,38.166666666666664],[-122.75,38.166666666666664],[-122.75,38.166666666666664],[-122.74638888888889,38.15222222222222],[-122.74638888888889,38.15222222222222],[-122.7225,38.06944444444445],[-122.7225,38.06944444444445],[-122.71666666666667,38.05],[-122.46638888888889,37.96083333333333],[-122.46638888888889,37.96083333333333],[-122.46638888888889,37.96083333333333],[-122.46638888888889,37.96083333333333],[-122.46638888888889,37.96083333333333],[-122.3863888888889,37.92611111111111],[-122.31805555555555,37.88166666666667],[-122.25,37.833333333333336],[-122.25,37.833333333333336],[-122.26666666666667,37.78333333333333],[-122.26666666666667,37.78333333333333],[-122.26666666666667,37.78333333333333],[-122.26666666666667,37.78333333333333],[-122.31555555555555,37.705000000000005],[-122.31555555555555,37.705000000000005],[-122.34138888888889,37.66611111111111],[-122.35,37.666666666666664],[-122.36333333333333,37.63333333333333],[-122.36333333333333,37.63333333333333]],"type":"LineString"}
}
