{
  "id": 2014789803,
  "type": "Feature",
  "properties": {
    "geom:area": 0,
    "geom:bbox": "-122.380000,37.490000,-104.670000,39.860000",
    "geom:latitude": 38.61851552554301,
    "geom:longitude": -113.52173834080251,
    "src:alt_label": "swim-route",
    "src:geom": "swim",
    "swim:geom": "route",
    "wof:geomhash": "af4cb72a511486c08e0345ca5436e08f",
    "wof:id": 2014789803,
    "wof:repo": "sfomuseum-data-flights-2026-02"
  },
  "bbox": [
    -122.38,
    37.49,
    -104.67,
    39.86
  ],
  "geometry": {"coordinates":[[-104.67,39.86],[-104.72,39.85],[-104.82,39.84],[-105.03,39.81],[-105.25,39.77],[-105.27,39.77],[-105.3,39.76],[-105.35,39.75],[-105.43,39.74],[-105.52,39.72],[-105.56,39.71],[-105.58,39.71],[-105.6,39.7],[-105.64,39.69],[-105.66,39.69],[-105.66,39.69],[-105.67,39.69],[-105.67,39.69],[-105.83,39.67],[-105.9,39.66],[-106.04,39.64],[-106.17,39.62],[-106.34,39.6],[-106.37,39.6],[-106.42,39.59],[-106.47,39.59],[-106.57,39.53],[-106.88,39.49],[-107.15,39.45],[-107.49,39.41],[-108.06,39.33],[-108.32,39.25],[-108.76,39.19],[-109.37,39.1],[-109.72,39.05],[-109.98,39.01],[-110.71,38.95],[-110.85,38.89],[-111.24,38.9],[-111.77,38.84],[-112.32,38.79],[-113.66,38.63],[-114.94,38.45],[-115.06,38.45],[-115.61,38.38],[-116.17,38.3],[-117,38.17],[-117.27,38.14],[-118.76,37.9],[-118.8,37.89],[-119.1,37.86],[-119.38,37.82],[-119.94,37.76],[-120.04,37.75],[-120.22,37.72],[-120.4,37.7],[-120.41,37.7],[-120.48,37.69],[-120.69,37.67],[-120.75,37.66],[-120.77,37.66],[-120.83,37.65],[-120.96,37.63],[-121,37.63],[-121.08,37.62],[-121.17,37.6],[-121.26,37.59],[-121.39,37.58],[-121.41,37.58],[-121.6,37.55],[-121.61,37.55],[-121.62,37.55],[-121.7,37.53],[-121.8,37.51],[-121.83,37.5],[-121.88,37.49],[-122.08,37.54],[-122.14,37.56],[-122.18,37.57],[-122.28,37.59],[-122.33,37.61],[-122.36,37.61],[-122.38,37.62]],"type":"LineString"}
}
