{
  "id": 2014883807,
  "type": "Feature",
  "properties": {
    "geom:area": 0,
    "geom:bbox": "-122.377500,33.433333,-111.770556,37.633333",
    "geom:latitude": 36.217460820947245,
    "geom:longitude": -116.70492538835641,
    "src:alt_label": "swim-path",
    "src:geom": "swim",
    "swim:altitudes": [
      "003",
      "125",
      "125",
      "225",
      "320",
      "330",
      "330",
      "385",
      "385",
      "390C",
      "390C",
      "390C",
      "390C",
      "390C",
      "390C",
      "390C",
      "390C",
      "390C",
      "390C",
      "390",
      "390",
      "371C",
      "370C",
      "370C",
      "350",
      "350",
      "347",
      "328",
      "290C",
      "280C",
      "280C",
      "252",
      "184",
      "163",
      "136",
      "121",
      "090",
      "073",
      "047",
      "022",
      "016"
    ],
    "swim:geom": "path",
    "swim:speeds": [
      154,
      335,
      335,
      447,
      501,
      525,
      525,
      520,
      520,
      522,
      522,
      518,
      518,
      484,
      484,
      484,
      495,
      507,
      509,
      516,
      516,
      518,
      517,
      517,
      515,
      515,
      516,
      513,
      493,
      488,
      488,
      471,
      436,
      427,
      387,
      373,
      326,
      301,
      213,
      144,
      136
    ],
    "swim:timestamps": [
      1772048123,
      1772048395,
      1772048395,
      1772048635,
      1772048938,
      1772048996,
      1772048996,
      1772049299,
      1772049299,
      1772049596,
      1772049596,
      1772050020,
      1772050020,
      1772050498,
      1772050498,
      1772050561,
      1772050678,
      1772050861,
      1772050921,
      1772051102,
      1772051102,
      1772051222,
      1772051330,
      1772051330,
      1772051631,
      1772051631,
      1772051751,
      1772051823,
      1772051991,
      1772052111,
      1772052111,
      1772052292,
      1772052472,
      1772052521,
      1772052641,
      1772052712,
      1772052833,
      1772052953,
      1772053133,
      1772053313,
      1772053361
    ],
    "wof:geomhash": "cff7d73d8bf0e8b5d0eac30918ae9e14",
    "wof:id": 2014883807,
    "wof:repo": "sfomuseum-data-flights-2026-02"
  },
  "bbox": [
    -122.3775,
    33.43333333333333,
    -111.77055555555556,
    37.63333333333333
  ],
  "geometry": {"coordinates":[[-122.36666666666666,37.63333333333333],[-122.3775,37.53944444444444],[-122.3775,37.53944444444444],[-121.83277777777778,37.39472222222222],[-121.01583333333333,37.189166666666665],[-120.84972222222221,37.14944444444444],[-120.84972222222221,37.14944444444444],[-119.9961111111111,36.873333333333335],[-119.9961111111111,36.873333333333335],[-119.15,37.13944444444444],[-119.15,37.13944444444444],[-117.92361111111111,37.337500000000006],[-117.92361111111111,37.337500000000006],[-116.84138888888889,36.8875],[-116.84138888888889,36.8875],[-116.74722222222222,36.77611111111111],[-116.5225,36.58361111111111],[-116.04222222222222,36.41694444444444],[-115.88027777777778,36.36027777777778],[-115.3938888888889,36.18833333333333],[-115.3938888888889,36.18833333333333],[-115.06916666666666,36.07194444444445],[-114.78527777777778,35.95861111111111],[-114.78527777777778,35.95861111111111],[-114.05583333333333,35.56916666666667],[-114.05583333333333,35.56916666666667],[-113.77083333333333,35.415],[-113.56611111111111,35.30333333333333],[-113.18138888888889,35.09277777777778],[-112.95305555555557,34.90555555555555],[-112.95305555555557,34.90555555555555],[-112.64361111111111,34.59722222222222],[-112.36277777777777,34.315],[-112.26666666666667,34.21666666666667],[-112.11666666666666,34.03333333333333],[-112.07777777777777,33.94083333333333],[-111.99944444444445,33.74611111111111],[-111.93333333333334,33.58277777777778],[-111.77055555555556,33.48083333333334],[-111.92805555555556,33.44083333333333],[-111.96666666666667,33.43333333333333]],"type":"LineString"}
}
