{
  "id": 2014768375,
  "type": "Feature",
  "properties": {
    "geom:area": 0,
    "geom:bbox": "-122.349510,36.741780,-121.245720,37.609070",
    "geom:latitude": 37.19445395758087,
    "geom:longitude": -121.7868507373861,
    "src:alt_label": "swim-takeoff",
    "src:geom": "swim",
    "swim:elevations": [
      402,
      709,
      1004,
      1248,
      1606,
      2124,
      2179,
      2615,
      2977,
      3360,
      3406,
      3485,
      3711,
      4307,
      4791,
      5103,
      5304,
      5615,
      5690,
      5941,
      5995,
      6207,
      6495,
      6645,
      6703,
      6975,
      7175,
      7509,
      7716,
      7752,
      7774
    ],
    "swim:geom": "takeoff",
    "swim:timestamps": [
      1770817316,
      1770817335,
      1770817362,
      1770817391,
      1770817431,
      1770817468,
      1770817472,
      1770817506,
      1770817532,
      1770817586,
      1770817592,
      1770817606,
      1770817624,
      1770817664,
      1770817701,
      1770817730,
      1770817748,
      1770817793,
      1770817804,
      1770817848,
      1770817861,
      1770817898,
      1770817939,
      1770817958,
      1770817964,
      1770817998,
      1770818022,
      1770818067,
      1770818095,
      1770818101,
      1770818107
    ],
    "wof:geomhash": "895fb83c042e6d7a335800751a7b8e16",
    "wof:id": 2014768375,
    "wof:repo": "sfomuseum-data-flights-2026-02"
  },
  "bbox": [
    -122.34951,
    36.74178,
    -121.24572,
    37.60907
  ],
  "geometry": {"coordinates":[[-122.34951,37.60907],[-122.32984,37.60375],[-122.30254,37.59664],[-122.27061,37.58816],[-122.22832,37.564],[-122.19043,37.53331],[-122.18641,37.53008],[-122.15099,37.50047],[-122.12309,37.47717],[-122.05865,37.42312],[-122.05083,37.41639],[-122.03214,37.40019],[-122.007,37.37987],[-121.94919,37.33372],[-121.89917,37.29209],[-121.85886,37.25755],[-121.83374,37.23657],[-121.76786,37.18281],[-121.75128,37.16914],[-121.68371,37.11195],[-121.66295,37.09435],[-121.60183,37.04282],[-121.53364,36.98526],[-121.50111,36.95795],[-121.49084,36.9493],[-121.43173,36.89958],[-121.39062,36.8649],[-121.31369,36.79949],[-121.26573,36.75866],[-121.25621,36.75056],[-121.24572,36.74178]],"type":"LineString"}
}
