{
  "id": 2014796191,
  "type": "Feature",
  "properties": {
    "geom:area": 0,
    "geom:bbox": "-122.380000,37.490000,-74.170000,45.000000",
    "geom:latitude": 41.6469219868396,
    "geom:longitude": -98.48103650442536,
    "src:alt_label": "swim-route",
    "src:geom": "swim",
    "swim:geom": "route",
    "wof:geomhash": "63989cc6dba349aec13aca544b51ab33",
    "wof:id": 2014796191,
    "wof:repo": "sfomuseum-data-flights-2026-02"
  },
  "bbox": [
    -122.38,
    37.49,
    -74.17,
    45
  ],
  "geometry": {"coordinates":[[-74.17,40.69],[-74.31,40.73],[-74.4,40.75],[-74.42,40.75],[-74.45,40.76],[-74.47,40.76],[-74.51,40.77],[-74.53,40.78],[-74.59,40.79],[-74.62,40.8],[-74.64,40.8],[-74.67,40.81],[-74.7,40.81],[-74.72,40.82],[-74.78,40.83],[-74.81,40.84],[-74.89,40.86],[-74.92,40.87],[-74.95,40.87],[-75.01,40.89],[-75.06,40.9],[-75.12,40.91],[-75.12,40.91],[-75.17,40.92],[-75.18,40.92],[-75.25,40.9],[-75.4,40.87],[-75.57,40.83],[-75.63,40.81],[-75.65,40.81],[-75.85,40.76],[-75.94,40.74],[-76.13,40.69],[-76.24,40.67],[-76.24,40.67],[-77.43,40.84],[-77.69,40.88],[-77.99,40.92],[-78.08,40.93],[-78.43,40.97],[-80.16,41.17],[-80.42,41.19],[-80.88,41.24],[-81.58,41.31],[-82.16,41.36],[-82.74,41.39],[-84.74,41.48],[-85.06,41.5],[-86.03,41.53],[-86.18,41.6],[-86.37,41.69],[-86.92,41.95],[-87,41.97],[-88.39,42.38],[-88.7,42.47],[-91.17,43.13],[-91.28,43.17],[-93.68,44],[-94.73,44.34],[-95.13,44.47],[-98.02,44.81],[-100,45],[-101.47,44.56],[-104.17,43.68],[-104.42,43.57],[-104.67,43.47],[-104.93,43.36],[-106.9,42.5],[-107.05,42.43],[-108,42],[-109.7,41.03],[-109.89,40.92],[-110.07,40.81],[-110.25,40.7],[-110.8,40.37],[-111.79,39.75],[-111.97,39.64],[-112.51,39.3],[-113.32,39.14],[-117.28,38.27],[-118.76,37.9],[-119.1,37.86],[-119.81,37.77],[-119.99,37.75],[-120.04,37.74],[-120.26,37.72],[-120.28,37.72],[-120.38,37.7],[-120.4,37.7],[-120.75,37.66],[-120.78,37.66],[-120.83,37.65],[-120.96,37.63],[-121,37.63],[-121.08,37.62],[-121.18,37.6],[-121.26,37.59],[-121.39,37.58],[-121.41,37.58],[-121.6,37.55],[-121.61,37.55],[-121.62,37.55],[-121.7,37.53],[-121.8,37.51],[-121.83,37.5],[-121.88,37.49],[-122.08,37.54],[-122.14,37.56],[-122.18,37.57],[-122.28,37.59],[-122.33,37.61],[-122.36,37.61],[-122.38,37.62]],"type":"LineString"}
}
