{
  "id": 2014868397,
  "type": "Feature",
  "properties": {
    "geom:area": 0,
    "geom:bbox": "-122.390000,37.620000,-87.750000,42.070000",
    "geom:latitude": 41.05281259203637,
    "geom:longitude": -105.43897018445165,
    "src:alt_label": "swim-route",
    "src:geom": "swim",
    "swim:geom": "route",
    "wof:geomhash": "d24bd25529e5e656351be51dd6cee97d",
    "wof:id": 2014868397,
    "wof:repo": "sfomuseum-data-flights-2026-02"
  },
  "bbox": [
    -122.39,
    37.62,
    -87.75,
    42.07
  ],
  "geometry": {"coordinates":[[-122.38,37.62],[-122.3,37.68],[-122.31,37.7],[-122.31,37.7],[-122.34,37.75],[-122.34,37.76],[-122.35,37.76],[-122.36,37.79],[-122.38,37.83],[-122.39,37.85],[-122.39,37.85],[-122.38,37.94],[-122.32,37.97],[-122.13,38.04],[-122.06,38.07],[-121.99,38.1],[-121.96,38.11],[-121.91,38.14],[-121.8,38.2],[-121.78,38.21],[-121.71,38.25],[-121.5,38.37],[-121.42,38.41],[-121.34,38.46],[-121.29,38.48],[-121.26,38.5],[-120.9,38.7],[-120.19,39.08],[-119.55,39.42],[-118.68,39.87],[-118.3,40.07],[-118.09,40.15],[-117.88,40.2],[-116.93,40.5],[-114.46,41.2],[-113.84,41.36],[-112.67,41.5],[-112.05,41.56],[-110.82,41.65],[-109.59,41.74],[-108.07,41.75],[-107.83,41.76],[-107.58,41.76],[-107.5,41.77],[-105.27,42.06],[-105.16,42.07],[-104.62,42.04],[-104,42],[-102.05,41.88],[-101.8,41.86],[-101.03,41.81],[-100.55,41.76],[-100.3,41.74],[-100.04,41.72],[-99.79,41.69],[-99.03,41.61],[-98.77,41.59],[-98,41.5],[-97.21,41.39],[-96.38,41.27],[-95.9,41.19],[-95.74,41.17],[-94.84,41.04],[-94.59,41],[-93.74,40.87],[-93.56,40.84],[-93.56,40.84],[-93.54,40.84],[-93.38,40.86],[-93.11,40.88],[-93.05,40.88],[-92.1,40.96],[-91.9,40.98],[-90.71,41.06],[-90.69,41.07],[-90.64,41.07],[-90.51,41.08],[-90.45,41.09],[-90.38,41.09],[-90.05,41.12],[-89.98,41.12],[-89.96,41.12],[-89.72,41.14],[-89.65,41.14],[-89.42,41.16],[-89.35,41.16],[-89.26,41.17],[-89.13,41.18],[-89.06,41.19],[-88.97,41.21],[-88.92,41.23],[-88.9,41.24],[-88.9,41.24],[-88.79,41.27],[-88.51,41.37],[-88.46,41.41],[-88.44,41.41],[-88.42,41.43],[-88.29,41.51],[-88.1,41.55],[-88.02,41.57],[-87.99,41.6],[-87.92,41.65],[-87.85,41.71],[-87.77,41.77],[-87.75,41.79]],"type":"LineString"}
}
