{
  "id": 2014769887,
  "type": "Feature",
  "properties": {
    "geom:area": 0,
    "geom:bbox": "-122.755540,37.440750,-122.156980,38.490880",
    "geom:latitude": 37.87332764413435,
    "geom:longitude": -122.49728892999596,
    "src:alt_label": "swim-approach",
    "src:geom": "swim",
    "swim:elevations": [
      7315,
      7309,
      7196,
      6870,
      6465,
      6221,
      5937,
      5833,
      5430,
      5212,
      4949,
      4791,
      4468,
      4204,
      3961,
      3724,
      3591,
      3396,
      3353,
      3353,
      3353,
      3345,
      3117,
      2967,
      2698,
      2461,
      2138,
      1949,
      1431,
      1304,
      1218,
      999,
      854,
      819,
      748,
      636,
      499,
      354,
      191,
      164,
      17
    ],
    "swim:geom": "approach",
    "swim:timestamps": [
      1770901075,
      1770901103,
      1770901121,
      1770901154,
      1770901196,
      1770901222,
      1770901255,
      1770901266,
      1770901308,
      1770901335,
      1770901367,
      1770901387,
      1770901428,
      1770901462,
      1770901491,
      1770901528,
      1770901544,
      1770901575,
      1770901616,
      1770901633,
      1770901678,
      1770901699,
      1770901731,
      1770901748,
      1770901780,
      1770901805,
      1770901842,
      1770901862,
      1770901918,
      1770901934,
      1770901960,
      1770901991,
      1770902031,
      1770902055,
      1770902081,
      1770902102,
      1770902147,
      1770902175,
      1770902218,
      1770902226,
      1770902268
    ],
    "wof:geomhash": "bd6801c6e4aee6e4992ec5e2354752ee",
    "wof:id": 2014769887,
    "wof:repo": "sfomuseum-data-flights-2026-02"
  },
  "bbox": [
    -122.75554,
    37.44075,
    -122.15698,
    38.49088
  ],
  "geometry": {"coordinates":[[-122.49316,38.49088],[-122.5391,38.44645],[-122.56863,38.41783],[-122.62275,38.36523],[-122.6894,38.30037],[-122.729,38.26151],[-122.75554,38.20155],[-122.75407,38.18225],[-122.73345,38.1072],[-122.72017,38.06142],[-122.70506,38.00925],[-122.69581,37.97715],[-122.67519,37.91075],[-122.63813,37.86624],[-122.60147,37.83156],[-122.55766,37.79022],[-122.53888,37.7725],[-122.50344,37.73897],[-122.45801,37.69615],[-122.44107,37.68026],[-122.39857,37.64027],[-122.37922,37.62207],[-122.35542,37.59194],[-122.34561,37.57444],[-122.32701,37.5423],[-122.31259,37.51803],[-122.29123,37.4829],[-122.27376,37.46905],[-122.20873,37.44418],[-122.18894,37.44075],[-122.16815,37.45634],[-122.15698,37.48155],[-122.18006,37.50968],[-122.19597,37.52545],[-122.21327,37.54287],[-122.22843,37.55545],[-122.26797,37.57366],[-122.29154,37.58364],[-122.32261,37.59665],[-122.32825,37.59899],[-122.35854,37.61177]],"type":"LineString"}
}
