{
  "id": 2014876353,
  "type": "Feature",
  "properties": {
    "geom:area": 0,
    "geom:bbox": "-122.360750,37.600490,-121.244720,38.426390",
    "geom:latitude": 37.97335390895804,
    "geom:longitude": -121.78231944914927,
    "src:alt_label": "swim-takeoff",
    "src:geom": "swim",
    "swim:elevations": [
      152,
      414,
      765,
      949,
      1073,
      1574,
      2057,
      2420,
      2940,
      3009,
      3243,
      3458,
      3845,
      4676,
      4847,
      4877,
      4877,
      4877,
      5145,
      5276,
      5531,
      5616,
      5755,
      5893,
      6112,
      6558,
      6580,
      6998,
      7182,
      7385
    ],
    "swim:geom": "takeoff",
    "swim:timestamps": [
      1771953228,
      1771953249,
      1771953280,
      1771953295,
      1771953305,
      1771953355,
      1771953388,
      1771953415,
      1771953448,
      1771953453,
      1771953472,
      1771953486,
      1771953511,
      1771953564,
      1771953593,
      1771953617,
      1771953628,
      1771953631,
      1771953686,
      1771953696,
      1771953742,
      1771953766,
      1771953791,
      1771953808,
      1771953831,
      1771953868,
      1771953871,
      1771953914,
      1771953937,
      1771953966
    ],
    "wof:geomhash": "65c913ee9f09227483ae3f5d958d3a58",
    "wof:id": 2014876353,
    "wof:repo": "sfomuseum-data-flights-2026-02"
  },
  "bbox": [
    -122.36075,
    37.60049,
    -121.24472,
    38.42639
  ],
  "geometry": {"coordinates":[[-122.36075,37.61533],[-122.34025,37.60959],[-122.3101,37.60348],[-122.29275,37.60049],[-122.28134,37.60179],[-122.22247,37.63456],[-122.17737,37.66053],[-122.13783,37.68356],[-122.08778,37.71302],[-122.07981,37.71758],[-122.0492,37.73516],[-122.02633,37.74812],[-121.98372,37.77204],[-121.89366,37.82574],[-121.85387,37.86356],[-121.8232,37.89607],[-121.80951,37.91019],[-121.80562,37.91419],[-121.73334,37.98844],[-121.72067,38.00145],[-121.65562,38.06771],[-121.61844,38.10498],[-121.57894,38.14527],[-121.55039,38.1744],[-121.5114,38.21379],[-121.44836,38.27685],[-121.44323,38.282],[-121.36172,38.35255],[-121.31162,38.38464],[-121.24472,38.42639]],"type":"LineString"}
}
