{
  "id": 2014771663,
  "type": "Feature",
  "properties": {
    "geom:area": 0,
    "geom:bbox": "-122.770000,37.620000,-73.780000,44.810000",
    "geom:latitude": 42.96995960433176,
    "geom:longitude": -98.43375766044726,
    "src:alt_label": "swim-route",
    "src:geom": "swim",
    "swim:geom": "route",
    "wof:geomhash": "325d1344840a4b696dd438e2014e9282",
    "wof:id": 2014771663,
    "wof:repo": "sfomuseum-data-flights-2026-02"
  },
  "bbox": [
    -122.77,
    37.62,
    -73.78,
    44.81
  ],
  "geometry": {"coordinates":[[-73.78,40.64],[-73.86,40.75],[-73.88,40.77],[-73.93,40.85],[-73.95,40.87],[-73.97,40.9],[-73.99,40.92],[-74.01,40.95],[-74.03,40.98],[-74.05,41],[-74.07,41.03],[-74.09,41.05],[-73.81,41.06],[-73.89,41.11],[-73.97,41.16],[-74.09,41.24],[-74.21,41.32],[-74.34,41.4],[-74.36,41.41],[-74.36,41.41],[-74.43,41.44],[-74.49,41.47],[-74.5,41.47],[-74.55,41.49],[-74.58,41.5],[-74.76,41.58],[-74.8,41.6],[-74.94,41.66],[-75.06,41.71],[-75.26,41.79],[-75.27,41.8],[-75.53,41.91],[-75.61,41.94],[-75.66,41.96],[-75.81,42.02],[-76.1,42.14],[-76.14,42.16],[-76.59,42.3],[-76.65,42.32],[-77.03,42.44],[-77.74,42.66],[-78.74,42.93],[-79.04,43.03],[-79.66,43.23],[-80.04,43.35],[-80.3,43.42],[-80.8,43.58],[-81.05,43.65],[-81.82,43.87],[-82.2,43.98],[-82.2,43.98],[-82.2,43.98],[-82.81,44.08],[-83.12,44.13],[-85.34,44.44],[-86.95,44.64],[-87.12,44.66],[-88.55,44.81],[-90.15,44.71],[-90.22,44.7],[-91.35,44.62],[-91.76,44.61],[-92.95,44.57],[-93.38,44.55],[-94.26,44.51],[-95.13,44.47],[-96.29,44.41],[-96.67,44.39],[-97.62,44.35],[-98.18,44.35],[-101.45,44.28],[-104.38,44.14],[-106.44,44],[-107.27,43.78],[-107.8,43.63],[-108.33,43.48],[-108.59,43.4],[-109.12,43.25],[-109.38,43.17],[-109.64,43.09],[-110.17,42.93],[-110.25,42.91],[-110.4,42.86],[-112.05,42.33],[-112.45,42.2],[-112.69,42.15],[-112.94,42.09],[-113.25,42.03],[-113.41,41.98],[-113.63,41.91],[-113.68,41.9],[-113.96,41.81],[-114.5,41.65],[-115.94,41.19],[-118.27,40.39],[-119.4,39.98],[-120.51,39.56],[-121.03,39.36],[-121.1,39.34],[-121.1,39.33],[-121.38,39.17],[-121.46,39.12],[-121.55,39.07],[-121.88,38.88],[-122.08,38.76],[-122.26,38.65],[-122.37,38.58],[-122.41,38.56],[-122.44,38.54],[-122.44,38.54],[-122.68,38.31],[-122.69,38.3],[-122.77,38.22],[-122.75,38.16],[-122.69,37.96],[-122.69,37.95],[-122.67,37.9],[-122.65,37.87],[-122.63,37.86],[-122.62,37.85],[-122.59,37.82],[-122.58,37.81],[-122.51,37.74],[-122.51,37.74],[-122.5,37.73],[-122.44,37.68],[-122.37,37.62],[-122.38,37.62]],"type":"LineString"}
}
