{
  "id": 2014907045,
  "type": "Feature",
  "properties": {
    "geom:area": 0,
    "geom:bbox": "-122.356120,37.491820,-121.252000,37.613090",
    "geom:latitude": 37.54641006007066,
    "geom:longitude": -121.80902409804787,
    "src:alt_label": "swim-approach",
    "src:geom": "swim",
    "swim:elevations": [
      5159,
      4536,
      4166,
      3822,
      3730,
      3295,
      3280,
      2909,
      2694,
      2546,
      2528,
      2175,
      2045,
      2010,
      1888,
      1714,
      1581,
      1336,
      1231,
      919,
      824,
      730,
      607,
      462,
      459,
      297,
      176,
      4
    ],
    "swim:geom": "approach",
    "swim:timestamps": [
      1772275768,
      1772275823,
      1772275855,
      1772275886,
      1772275894,
      1772275946,
      1772275950,
      1772276008,
      1772276034,
      1772276065,
      1772276078,
      1772276129,
      1772276155,
      1772276163,
      1772276196,
      1772276232,
      1772276254,
      1772276296,
      1772276311,
      1772276367,
      1772276385,
      1772276402,
      1772276431,
      1772276462,
      1772276466,
      1772276507,
      1772276529,
      1772276561
    ],
    "wof:geomhash": "42ff9b0493afd97a8b770f23072014c6",
    "wof:id": 2014907045,
    "wof:repo": "sfomuseum-data-flights-2026-02"
  },
  "bbox": [
    -122.35612,
    37.49182,
    -121.252,
    37.61309
  ],
  "geometry": {"coordinates":[[-121.252,37.59414],[-121.35607,37.58201],[-121.41651,37.57521],[-121.47588,37.56823],[-121.4909,37.56654],[-121.58659,37.5554],[-121.59366,37.55454],[-121.68939,37.53514],[-121.73065,37.52544],[-121.77965,37.5139],[-121.79737,37.50963],[-121.86967,37.49262],[-121.90847,37.49182],[-121.91994,37.49212],[-121.96537,37.4933],[-122.01264,37.50253],[-122.04019,37.51138],[-122.09314,37.52881],[-122.11037,37.53432],[-122.17538,37.55544],[-122.19545,37.56187],[-122.21398,37.5678],[-122.24356,37.57748],[-122.27223,37.58612],[-122.27617,37.58719],[-122.3131,37.59583],[-122.33184,37.60267],[-122.35612,37.61309]],"type":"LineString"}
}
