{
  "id": 2014859269,
  "type": "Feature",
  "properties": {
    "geom:area": 0,
    "geom:bbox": "-121.357778,40.326667,-111.911667,48.627500",
    "geom:latitude": 44.69118344433023,
    "geom:longitude": -116.83691073319491,
    "src:alt_label": "swim-path",
    "src:geom": "swim",
    "swim:altitudes": [
      "280C",
      "280C",
      "280C",
      "280C",
      "280C",
      "280C",
      "280C",
      "280C",
      "280C",
      "280C",
      "280",
      "291",
      "297",
      "307",
      "309",
      "322",
      "330",
      "339",
      "353",
      "354",
      "361",
      "363",
      "367",
      "368C",
      "370C",
      "370C",
      "370C",
      "370C",
      "370C",
      "370C",
      "370C",
      "370C",
      "370C",
      "370C",
      "370C",
      "370C",
      "370C",
      "370C",
      "370C",
      "370C",
      "370C",
      "370C",
      "370C",
      "370C",
      "370C",
      "370C",
      "370C",
      "370C",
      "370C",
      "370C",
      "370C",
      "370C",
      "370C",
      "370C",
      "370C",
      "370C",
      "370C",
      "370C",
      "370C",
      "370C",
      "370C",
      "370C",
      "370C",
      "370C",
      "370C"
    ],
    "swim:geom": "path",
    "swim:speeds": [
      524,
      523,
      522,
      523,
      523,
      523,
      523,
      524,
      524,
      524,
      525,
      526,
      534,
      539,
      540,
      550,
      556,
      557,
      553,
      552,
      548,
      548,
      547,
      547,
      547,
      546,
      545,
      544,
      550,
      549,
      551,
      552,
      556,
      555,
      555,
      555,
      555,
      554,
      553,
      553,
      554,
      553,
      554,
      552,
      553,
      554,
      556,
      559,
      557,
      556,
      556,
      555,
      554,
      551,
      550,
      551,
      551,
      549,
      538,
      536,
      535,
      536,
      539,
      544,
      546
    ],
    "swim:timestamps": [
      1771826805,
      1771826865,
      1771826927,
      1771826986,
      1771827046,
      1771827060,
      1771827226,
      1771827300,
      1771827406,
      1771827468,
      1771827526,
      1771827586,
      1771827648,
      1771827708,
      1771827721,
      1771827828,
      1771827901,
      1771827948,
      1771828021,
      1771828032,
      1771828081,
      1771828092,
      1771828141,
      1771828152,
      1771828201,
      1771828212,
      1771828272,
      1771828501,
      1771828621,
      1771828632,
      1771828692,
      1771828753,
      1771828813,
      1771828873,
      1771828982,
      1771829053,
      1771829113,
      1771829173,
      1771829222,
      1771829293,
      1771829318,
      1771829378,
      1771829413,
      1771829498,
      1771829533,
      1771829558,
      1771829618,
      1771829713,
      1771829833,
      1771829893,
      1771829918,
      1771829978,
      1771830073,
      1771830253,
      1771830339,
      1771830373,
      1771830399,
      1771830459,
      1771830639,
      1771830699,
      1771830759,
      1771830819,
      1771830939,
      1771830999,
      1771831059
    ],
    "wof:geomhash": "457ca52d5edc5e968e70ad79a2a50cc9",
    "wof:id": 2014859269,
    "wof:repo": "sfomuseum-data-flights-2026-02"
  },
  "bbox": [
    -121.35777777777777,
    40.32666666666667,
    -111.91166666666668,
    48.6275
  ],
  "geometry": {"coordinates":[[-121.35777777777777,40.32666666666667],[-121.26027777777777,40.45027777777778],[-121.16250000000001,40.57333333333334],[-121.06305555555555,40.698611111111106],[-120.965,40.821111111111115],[-120.94694444444445,40.844166666666666],[-120.66555555555556,41.19222222222222],[-120.5425,41.34305555555556],[-120.3611111111111,41.56444444444444],[-120.26,41.68722222222222],[-120.1563888888889,41.81166666666666],[-120.05416666666666,41.93444444444444],[-119.94444444444444,42.0575],[-119.8261111111111,42.18],[-119.78472222222221,42.22277777777778],[-119.58638888888889,42.42666666666666],[-119.42194444444445,42.594722222222224],[-119.34055555555555,42.677499999999995],[-119.17611111111111,42.843611111111116],[-119.15083333333334,42.86888888888889],[-119.05444444444444,42.96555555555556],[-119.02944444444444,42.990833333333335],[-118.93166666666667,43.08861111111111],[-118.90666666666667,43.11333333333334],[-118.8111111111111,43.208333333333336],[-118.78361111111111,43.23555555555556],[-118.6613888888889,43.35638888888889],[-118.18944444444445,43.816944444444445],[-117.92805555555556,44.05583333333333],[-117.92555555555556,44.0575],[-117.78166666666667,44.16888888888889],[-117.63472222222222,44.28194444444444],[-117.48805555555556,44.39416666666666],[-117.3386111111111,44.50833333333333],[-117.0436111111111,44.73111111111111],[-116.88944444444445,44.84638888888889],[-116.73944444444444,44.95805555555556],[-116.58777777777777,45.07055555555556],[-116.47,45.157222222222224],[-116.28555555555555,45.29222222222222],[-116.22611111111111,45.33583333333333],[-116.07527777777777,45.445277777777775],[-115.98,45.51416666666667],[-115.77833333333334,45.67194444444444],[-115.68944444444445,45.74055555555556],[-115.62833333333333,45.7875],[-115.48,45.90083333333333],[-115.23722222222223,46.08555555555556],[-114.92194444444445,46.32277777777778],[-114.77055555555556,46.43555555555555],[-114.71166666666667,46.47916666666667],[-114.56194444444444,46.58972222222222],[-114.31444444444445,46.77166666666667],[-113.86361111111111,47.11055555555556],[-113.665,47.27027777777778],[-113.57583333333334,47.34166666666667],[-113.51888888888888,47.38722222222222],[-113.37333333333332,47.50277777777778],[-112.94444444444444,47.84],[-112.80027777777778,47.95194444444445],[-112.65611111111112,48.06333333333333],[-112.51194444444444,48.17388888888889],[-112.21527777777779,48.39944444444444],[-112.06388888888888,48.51361111111111],[-111.91166666666668,48.6275]],"type":"LineString"}
}
