{
  "id": 2014700127,
  "type": "Feature",
  "properties": {
    "geom:area": 0,
    "geom:bbox": "-122.385240,37.627810,-121.451610,38.504510",
    "geom:latitude": 38.1149795038376,
    "geom:longitude": -122.02175823164296,
    "src:alt_label": "swim-takeoff",
    "src:geom": "swim",
    "swim:elevations": [
      122,
      442,
      819,
      1054,
      1503,
      2327,
      2814,
      3246,
      3504,
      3718,
      3763,
      4137,
      4557,
      4968,
      5277,
      5599,
      5968,
      6336,
      6689,
      6996,
      7295,
      7585,
      7814,
      7928,
      8483,
      8766,
      8971
    ],
    "swim:geom": "takeoff",
    "swim:timestamps": [
      1770099139,
      1770099159,
      1770099204,
      1770099225,
      1770099252,
      1770099296,
      1770099325,
      1770099355,
      1770099384,
      1770099417,
      1770099420,
      1770099454,
      1770099482,
      1770099507,
      1770099528,
      1770099559,
      1770099589,
      1770099622,
      1770099654,
      1770099683,
      1770099713,
      1770099746,
      1770099773,
      1770099785,
      1770099836,
      1770099857,
      1770099872
    ],
    "wof:geomhash": "f8bc277b819e08872c3f1e1a7827a82e",
    "wof:id": 2014700127,
    "wof:repo": "sfomuseum-data-flights-2026-02"
  },
  "bbox": [
    -122.38524,
    37.62781,
    -121.45161,
    38.50451
  ],
  "geometry": {"coordinates":[[-122.36683,37.62781],[-122.3567,37.6393],[-122.3233,37.66769],[-122.31234,37.68873],[-122.32186,37.71986],[-122.34902,37.77031],[-122.36596,37.80487],[-122.38273,37.84301],[-122.38524,37.88716],[-122.3702,37.94056],[-122.3665,37.94491],[-122.31055,37.98521],[-122.25642,38.01825],[-122.20748,38.04785],[-122.16799,38.07185],[-122.10729,38.10888],[-122.04892,38.1441],[-121.98269,38.18425],[-121.91619,38.22463],[-121.85563,38.26122],[-121.79249,38.2993],[-121.72232,38.34152],[-121.66505,38.37645],[-121.63922,38.39205],[-121.5285,38.45798],[-121.48249,38.48459],[-121.45161,38.50451]],"type":"LineString"}
}
