{
  "id": 2014731113,
  "type": "Feature",
  "properties": {
    "geom:area": 0,
    "geom:bbox": "-122.357410,37.638800,-121.249330,38.123130",
    "geom:latitude": 37.89580730071435,
    "geom:longitude": -121.8102391495828,
    "src:alt_label": "swim-takeoff",
    "src:geom": "swim",
    "swim:elevations": [
      302,
      742,
      993,
      1325,
      1536,
      2059,
      2255,
      2622,
      3195,
      3305,
      3672,
      3802,
      4043,
      4348,
      4410,
      4905,
      5247,
      5410,
      5698,
      5843,
      6111,
      6351,
      6558,
      6944,
      7135,
      7174
    ],
    "swim:geom": "takeoff",
    "swim:timestamps": [
      1770370185,
      1770370220,
      1770370237,
      1770370281,
      1770370312,
      1770370344,
      1770370358,
      1770370385,
      1770370434,
      1770370453,
      1770370493,
      1770370506,
      1770370531,
      1770370557,
      1770370563,
      1770370604,
      1770370633,
      1770370653,
      1770370681,
      1770370697,
      1770370722,
      1770370744,
      1770370770,
      1770370828,
      1770370854,
      1770370860
    ],
    "wof:geomhash": "a5675fd1e37c84960474a754cff6af9c",
    "wof:id": 2014731113,
    "wof:repo": "sfomuseum-data-flights-2026-02"
  },
  "bbox": [
    -122.35741,
    37.6388,
    -121.24933,
    38.12313
  ],
  "geometry": {"coordinates":[[-122.35741,37.6388],[-122.3244,37.65716],[-122.30875,37.66553],[-122.26489,37.6915],[-122.22627,37.71205],[-122.18346,37.73405],[-122.16483,37.74378],[-122.12903,37.76195],[-122.05998,37.79892],[-122.0302,37.81387],[-121.96188,37.84371],[-121.94007,37.85222],[-121.89342,37.87049],[-121.84327,37.89077],[-121.83189,37.8953],[-121.7561,37.92557],[-121.69981,37.94709],[-121.66224,37.9623],[-121.60719,37.98431],[-121.57541,37.99645],[-121.52672,38.01521],[-121.48463,38.03142],[-121.43354,38.05125],[-121.31553,38.09735],[-121.26195,38.11825],[-121.24933,38.12313]],"type":"LineString"}
}
