{
  "id": 2014811547,
  "type": "Feature",
  "properties": {
    "geom:area": 0,
    "geom:bbox": "-122.561389,32.666667,-116.880000,37.669167",
    "geom:latitude": 34.925942949913846,
    "geom:longitude": -119.90290922108379,
    "src:alt_label": "swim-path",
    "src:geom": "swim",
    "swim:altitudes": [
      "022",
      "033",
      "033",
      "033",
      "050",
      "050",
      "050",
      "050",
      "121",
      "121",
      "121",
      "121",
      "135",
      "156",
      "178",
      "178",
      "225",
      "238",
      "240",
      "240",
      "251",
      "251",
      "251",
      "281",
      "281",
      "293",
      "315",
      "315",
      "329C",
      "330C",
      "330C",
      "330C",
      "330C",
      "330C",
      "330C",
      "330C",
      "330C",
      "330C",
      "330C",
      "330C",
      "330C",
      "330C",
      "330C",
      "330C",
      "330C",
      "330C",
      "330C",
      "330C",
      "330C",
      "330C",
      "330C",
      "330C",
      "330C",
      "330C",
      "330C",
      "330C",
      "330C",
      "330C",
      "330C",
      "330C",
      "330C",
      "330C",
      "330C",
      "330C",
      "330C",
      "330C",
      "330C",
      "330C",
      "330",
      "330",
      "330",
      "330",
      "330",
      "292",
      "292",
      "269",
      "269",
      "248",
      "248",
      "248",
      "207",
      "207",
      "207",
      "207",
      "187",
      "187",
      "187",
      "168",
      "168",
      "110",
      "110",
      "110",
      "110",
      "090",
      "090",
      "090",
      "067",
      "067",
      "067",
      "056",
      "056",
      "050",
      "050",
      "050",
      "050",
      "050",
      "041",
      "041",
      "041",
      "041",
      "040",
      "033",
      "024",
      "015",
      "015",
      "007",
      "007"
    ],
    "swim:geom": "path",
    "swim:speeds": [
      169,
      171,
      171,
      171,
      210,
      210,
      210,
      210,
      304,
      304,
      304,
      304,
      381,
      402,
      432,
      432,
      448,
      456,
      457,
      457,
      464,
      464,
      464,
      476,
      476,
      487,
      487,
      487,
      485,
      478,
      478,
      479,
      479,
      480,
      480,
      480,
      480,
      490,
      490,
      490,
      490,
      502,
      502,
      502,
      502,
      505,
      505,
      505,
      410,
      410,
      410,
      410,
      383,
      383,
      383,
      382,
      382,
      382,
      477,
      477,
      477,
      477,
      482,
      482,
      482,
      482,
      484,
      484,
      491,
      491,
      491,
      491,
      491,
      445,
      445,
      445,
      445,
      435,
      435,
      435,
      409,
      409,
      409,
      409,
      397,
      397,
      397,
      378,
      378,
      298,
      298,
      298,
      298,
      267,
      267,
      267,
      254,
      254,
      254,
      251,
      251,
      225,
      183,
      183,
      183,
      183,
      169,
      169,
      173,
      173,
      168,
      163,
      151,
      138,
      138,
      136,
      136
    ],
    "swim:timestamps": [
      1771303085,
      1771303129,
      1771303129,
      1771303129,
      1771303189,
      1771303189,
      1771303189,
      1771303189,
      1771303379,
      1771303379,
      1771303379,
      1771303379,
      1771303430,
      1771303490,
      1771303550,
      1771303550,
      1771303679,
      1771303730,
      1771303739,
      1771303739,
      1771303790,
      1771303790,
      1771303790,
      1771303910,
      1771303910,
      1771303970,
      1771304090,
      1771304090,
      1771304160,
      1771304220,
      1771304220,
      1771304330,
      1771304330,
      1771304391,
      1771304391,
      1771304391,
      1771304391,
      1771304460,
      1771304460,
      1771304460,
      1771304460,
      1771304631,
      1771304631,
      1771304631,
      1771304631,
      1771304761,
      1771304761,
      1771304761,
      1771304931,
      1771304931,
      1771304931,
      1771304931,
      1771304991,
      1771304991,
      1771305001,
      1771305051,
      1771305051,
      1771305051,
      1771305302,
      1771305302,
      1771305302,
      1771305302,
      1771305422,
      1771305422,
      1771305422,
      1771305422,
      1771305482,
      1771305482,
      1771305662,
      1771305662,
      1771305662,
      1771305662,
      1771305662,
      1771305902,
      1771305902,
      1771305963,
      1771305963,
      1771306023,
      1771306023,
      1771306023,
      1771306143,
      1771306143,
      1771306143,
      1771306143,
      1771306203,
      1771306203,
      1771306203,
      1771306263,
      1771306263,
      1771306503,
      1771306503,
      1771306503,
      1771306503,
      1771306617,
      1771306617,
      1771306617,
      1771306744,
      1771306744,
      1771306744,
      1771306804,
      1771306804,
      1771306864,
      1771306984,
      1771306984,
      1771306984,
      1771306984,
      1771307038,
      1771307038,
      1771307044,
      1771307044,
      1771307104,
      1771307164,
      1771307224,
      1771307285,
      1771307285,
      1771307345,
      1771307345
    ],
    "wof:geomhash": "970690bf1359e0fcdf96f4a9cbfa95b3",
    "wof:id": 2014811547,
    "wof:repo": "sfomuseum-data-flights-2026-02"
  },
  "bbox": [
    -122.56138888888889,
    32.666666666666664,
    -116.88,
    37.66916666666666
  ],
  "geometry": {"coordinates":[[-122.4,37.63333333333333],[-122.43416666666667,37.64388888888889],[-122.43416666666667,37.64388888888889],[-122.43416666666667,37.64388888888889],[-122.49666666666667,37.66916666666666],[-122.49666666666667,37.66916666666666],[-122.49666666666667,37.66916666666666],[-122.49666666666667,37.66916666666666],[-122.56083333333333,37.44944444444444],[-122.56083333333333,37.44944444444444],[-122.56083333333333,37.44944444444444],[-122.56083333333333,37.44944444444444],[-122.56,37.36055555555556],[-122.56138888888889,37.24916666666667],[-122.50416666666666,37.14222222222222],[-122.50416666666666,37.14222222222222],[-122.31055555555555,36.92194444444444],[-122.23444444444445,36.838055555555556],[-122.21861111111112,36.82055555555556],[-122.21861111111112,36.82055555555556],[-122.14111111111112,36.734722222222224],[-122.14111111111112,36.734722222222224],[-122.14111111111112,36.734722222222224],[-121.92861111111111,36.496944444444445],[-121.92861111111111,36.496944444444445],[-121.83111111111111,36.3875],[-121.655,36.18861111111111],[-121.655,36.18861111111111],[-121.54083333333332,36.05888888888889],[-121.44694444444445,35.95111111111111],[-121.44694444444445,35.95111111111111],[-121.25527777777778,35.73111111111111],[-121.25527777777778,35.73111111111111],[-121.16027777777778,35.621944444444445],[-121.16027777777778,35.621944444444445],[-121.16027777777778,35.621944444444445],[-121.16027777777778,35.621944444444445],[-121.04055555555556,35.50138888888889],[-121.04055555555556,35.50138888888889],[-121.04055555555556,35.50138888888889],[-121.04055555555556,35.50138888888889],[-120.64916666666667,35.27194444444444],[-120.64916666666667,35.27194444444444],[-120.64916666666667,35.27194444444444],[-120.64916666666667,35.27194444444444],[-120.31722222222221,35.149166666666666],[-120.31722222222221,35.149166666666666],[-120.31722222222221,35.149166666666666],[-119.95222222222222,35.014722222222225],[-119.95222222222222,35.014722222222225],[-119.95222222222222,35.014722222222225],[-119.95222222222222,35.014722222222225],[-119.94388888888889,34.90833333333333],[-119.94388888888889,34.90833333333333],[-119.94361111111111,34.888888888888886],[-119.94166666666668,34.801944444444445],[-119.94166666666668,34.801944444444445],[-119.94166666666668,34.801944444444445],[-119.63611111111112,34.44583333333333],[-119.63611111111112,34.44583333333333],[-119.63611111111112,34.44583333333333],[-119.63611111111112,34.44583333333333],[-119.34694444444445,34.324444444444445],[-119.34694444444445,34.324444444444445],[-119.34694444444445,34.324444444444445],[-119.34694444444445,34.324444444444445],[-119.20027777777779,34.26222222222222],[-119.20027777777779,34.26222222222222],[-118.76277777777777,34.075833333333335],[-118.76277777777777,34.075833333333335],[-118.76277777777777,34.075833333333335],[-118.76277777777777,34.075833333333335],[-118.76277777777777,34.075833333333335],[-118.23472222222222,33.780277777777776],[-118.23472222222222,33.780277777777776],[-118.12277777777777,33.695277777777775],[-118.12277777777777,33.695277777777775],[-118.01555555555555,33.61333333333334],[-118.01555555555555,33.61333333333334],[-118.01555555555555,33.61333333333334],[-117.81805555555555,33.450833333333335],[-117.81805555555555,33.450833333333335],[-117.81805555555555,33.450833333333335],[-117.81805555555555,33.450833333333335],[-117.72916666666667,33.368611111111115],[-117.72916666666667,33.368611111111115],[-117.72916666666667,33.368611111111115],[-117.64416666666668,33.28944444444444],[-117.64416666666668,33.28944444444444],[-117.36361111111111,32.993611111111115],[-117.36361111111111,32.993611111111115],[-117.36361111111111,32.993611111111115],[-117.36361111111111,32.993611111111115],[-117.26666666666667,32.86666666666667],[-117.26666666666667,32.86666666666667],[-117.26666666666667,32.86666666666667],[-117.13027777777778,32.79333333333333],[-117.13027777777778,32.79333333333333],[-117.13027777777778,32.79333333333333],[-117.05,32.77638888888889],[-117.05,32.77638888888889],[-116.97500000000001,32.76138888888889],[-116.88,32.70722222222223],[-116.88,32.70722222222223],[-116.88,32.70722222222223],[-116.88,32.70722222222223],[-116.91666666666667,32.666666666666664],[-116.91666666666667,32.666666666666664],[-116.91055555555556,32.671388888888885],[-116.91055555555556,32.671388888888885],[-116.96388888888889,32.67833333333333],[-117.01472222222222,32.69083333333333],[-117.06388888888888,32.70305555555556],[-117.10722222222222,32.71333333333334],[-117.10722222222222,32.71333333333334],[-117.14944444444446,32.72361111111111],[-117.14944444444446,32.72361111111111]],"type":"LineString"}
}
