{
  "id": 2014857599,
  "type": "Feature",
  "properties": {
    "geom:area": 0,
    "geom:bbox": "-122.390000,37.620000,-74.820000,40.320000",
    "geom:latitude": 38.75471253258263,
    "geom:longitude": -98.5142126966184,
    "src:alt_label": "swim-route",
    "src:geom": "swim",
    "swim:geom": "route",
    "wof:geomhash": "52aee19f1f7c4331c0256f2fca17115e",
    "wof:id": 2014857599,
    "wof:repo": "sfomuseum-data-flights-2026-02"
  },
  "bbox": [
    -122.39,
    37.62,
    -74.82,
    40.32
  ],
  "geometry": {"coordinates":[[-122.38,37.62],[-122.3,37.68],[-122.34,37.75],[-122.34,37.75],[-122.34,37.75],[-122.38,37.83],[-122.38,37.84],[-122.39,37.85],[-122.39,37.87],[-122.38,37.93],[-122.38,37.94],[-122.31,37.96],[-122.15,37.99],[-122.1,37.99],[-121.96,37.99],[-121.83,37.99],[-121.81,37.99],[-121.77,37.99],[-121.53,37.99],[-121.52,37.99],[-121.36,37.99],[-121.24,37.99],[-121.1,37.99],[-121.05,38],[-121.01,38.01],[-120.89,38.02],[-120.47,38.09],[-120.31,38.11],[-119.18,38.27],[-117.29,38.52],[-117.28,38.52],[-116.16,38.42],[-114.39,38.25],[-114.02,38.23],[-113.6,38.2],[-112.53,38.13],[-112.33,38.13],[-110.42,38.02],[-110,38],[-109.05,38.03],[-107.48,38.07],[-107.25,38.07],[-106.22,38.03],[-106.15,38.03],[-105.78,38.01],[-104.45,37.97],[-103.11,37.92],[-102.97,37.91],[-101.79,37.92],[-100.73,37.92],[-100.01,37.85],[-99.56,37.84],[-98.46,37.8],[-97.98,37.77],[-97.58,37.75],[-97.04,37.84],[-96.77,37.89],[-94.59,38.26],[-94.49,38.27],[-94.23,38.33],[-93.97,38.39],[-91.33,38.95],[-90.06,39.19],[-88.13,39.53],[-87.59,39.62],[-87.04,39.71],[-86.37,39.81],[-85.32,39.93],[-84.4,40.02],[-83.39,40.08],[-81.62,40.17],[-80.1,40.26],[-78.83,40.32],[-78.41,40.32],[-78.36,40.32],[-78.02,40.31],[-77.97,40.31],[-77.9,40.31],[-77.88,40.31],[-77.54,40.31],[-77.53,40.31],[-77.48,40.31],[-77.16,40.3],[-77.07,40.3],[-77.04,40.29],[-76.91,40.27],[-76.63,40.2],[-76.55,40.18],[-76.5,40.17],[-76.36,40.14],[-76.34,40.13],[-76.29,40.12],[-76.21,40.11],[-75.94,40.1],[-75.78,40.08],[-75.77,40.08],[-75.75,40.08],[-75.64,40.08],[-75.59,40.08],[-75.42,40.07],[-75.4,40.07],[-75.21,40.06],[-75.2,40.06],[-75.17,39.97],[-75.11,39.99],[-75.08,39.99],[-74.93,40.03],[-74.88,40.04],[-74.82,40.05],[-74.9,40.02],[-74.96,39.99],[-75.06,39.95],[-75.15,39.91],[-75.24,39.87]],"type":"LineString"}
}
