{
  "id": 2014811761,
  "type": "Feature",
  "properties": {
    "geom:area": 0,
    "geom:bbox": "-122.380000,37.620000,-70.930000,43.780000",
    "geom:latitude": 42.42090177025948,
    "geom:longitude": -96.86542908515352,
    "src:alt_label": "swim-route",
    "src:geom": "swim",
    "swim:geom": "route",
    "wof:geomhash": "531234c6eaa09f197dc1545f7e7f34e3",
    "wof:id": 2014811761,
    "wof:repo": "sfomuseum-data-flights-2026-02"
  },
  "bbox": [
    -122.38,
    37.62,
    -70.93,
    43.78
  ],
  "geometry": {"coordinates":[[-122.38,37.62],[-122.27,37.69],[-122.26,37.69],[-122.26,37.69],[-122.21,37.72],[-122.2,37.73],[-122.2,37.73],[-122.18,37.75],[-122.14,37.8],[-122.13,37.81],[-122.07,37.88],[-122.01,37.92],[-121.85,38.02],[-121.85,38.03],[-121.77,38.08],[-121.74,38.1],[-121.7,38.13],[-121.59,38.2],[-121.54,38.23],[-121.54,38.24],[-121.53,38.25],[-121.39,38.34],[-121.38,38.35],[-121.26,38.41],[-121.24,38.43],[-121.17,38.47],[-120.92,38.63],[-120.85,38.67],[-120.83,38.68],[-120.75,38.73],[-120.66,38.78],[-120.41,38.93],[-120.3,39],[-120.18,39.08],[-119.71,39.35],[-119.59,39.43],[-119.19,39.66],[-118.8,39.88],[-118.76,39.9],[-118.08,40.17],[-118.02,40.2],[-117.94,40.22],[-117.57,40.33],[-116.84,40.55],[-116.52,40.64],[-116.34,40.69],[-115.95,40.8],[-115.87,40.82],[-115.64,40.89],[-114.46,41.2],[-113.84,41.36],[-113.02,41.62],[-112.91,41.65],[-112.81,41.68],[-112.59,41.75],[-112.23,41.83],[-111.8,41.89],[-110.9,41.97],[-107.46,42.26],[-107.22,42.28],[-104.65,42.42],[-103.77,42.45],[-102.3,42.49],[-102,42.5],[-100.24,42.92],[-99.86,43.01],[-97.67,43.47],[-96.78,43.65],[-96.35,43.67],[-95.21,43.71],[-93.79,43.75],[-93.3,43.76],[-91.74,43.78],[-90.93,43.78],[-90.68,43.78],[-87.98,43.73],[-87.19,43.7],[-84.87,43.6],[-82.27,43.42],[-82.21,43.42],[-79.03,43.12],[-77.15,42.89],[-76.67,42.88],[-74.55,42.79],[-74.19,42.77],[-73.81,42.75],[-73.76,42.75],[-73.51,42.74],[-73.11,42.74],[-72.94,42.72],[-72.63,42.68],[-72.38,42.65],[-72.32,42.65],[-72.16,42.63],[-72.04,42.61],[-71.84,42.59],[-71.82,42.59],[-71.72,42.57],[-71.71,42.57],[-71.61,42.55],[-71.59,42.55],[-71.37,42.5],[-71.35,42.5],[-71.25,42.48],[-71.16,42.46],[-71.16,42.46],[-71.06,42.45],[-71.03,42.45],[-70.99,42.39],[-70.96,42.35],[-70.95,42.34],[-70.93,42.31],[-70.95,42.27],[-70.97,42.24],[-70.98,42.21],[-70.99,42.18],[-70.99,42.2],[-71,42.28],[-71.01,42.35],[-71.01,42.36]],"type":"LineString"}
}
