{
  "id": 2014837423,
  "type": "Feature",
  "properties": {
    "geom:area": 0,
    "geom:bbox": "-122.357430,36.735080,-121.887000,37.611320",
    "geom:latitude": 37.21600217128492,
    "geom:longitude": -122.08182042725953,
    "src:alt_label": "swim-approach",
    "src:geom": "swim",
    "swim:elevations": [
      5449,
      4999,
      4921,
      4440,
      4112,
      3830,
      3685,
      3433,
      3186,
      2835,
      2775,
      2701,
      2620,
      2376,
      2284,
      2218,
      2182,
      2040,
      1858,
      1599,
      1357,
      1236,
      1219,
      1096,
      836,
      756,
      701,
      588,
      398,
      174,
      152,
      27
    ],
    "swim:geom": "approach",
    "swim:timestamps": [
      1771589047,
      1771589095,
      1771589102,
      1771589148,
      1771589183,
      1771589211,
      1771589226,
      1771589252,
      1771589282,
      1771589338,
      1771589350,
      1771589373,
      1771589407,
      1771589452,
      1771589470,
      1771589485,
      1771589490,
      1771589520,
      1771589554,
      1771589595,
      1771589633,
      1771589656,
      1771589675,
      1771589704,
      1771589757,
      1771589765,
      1771589794,
      1771589823,
      1771589854,
      1771589908,
      1771589915,
      1771589946
    ],
    "wof:geomhash": "230ef107af6bca5cedd8847a12ef459e",
    "wof:id": 2014837423,
    "wof:repo": "sfomuseum-data-flights-2026-02"
  },
  "bbox": [
    -122.35743,
    36.73508,
    -121.887,
    37.61132
  ],
  "geometry": {"coordinates":[[-121.887,36.73508],[-121.91356,36.81058],[-121.91684,36.82187],[-121.93734,36.89646],[-121.95288,36.95103],[-121.96966,36.99433],[-121.97794,37.01573],[-121.99285,37.05381],[-122.00994,37.0984],[-122.04034,37.17534],[-122.04629,37.19057],[-122.06538,37.21362],[-122.10966,37.225],[-122.14614,37.25681],[-122.14812,37.27576],[-122.14687,37.29062],[-122.14637,37.29627],[-122.14349,37.32784],[-122.13999,37.36281],[-122.14526,37.40613],[-122.15194,37.44647],[-122.15592,37.46947],[-122.1589,37.48666],[-122.16361,37.51317],[-122.1996,37.54404],[-122.20643,37.54733],[-122.23093,37.55796],[-122.25609,37.56862],[-122.28244,37.57977],[-122.32652,37.59835],[-122.33229,37.60076],[-122.35743,37.61132]],"type":"LineString"}
}
