{
  "id": 2014845293,
  "type": "Feature",
  "properties": {
    "geom:area": 0,
    "geom:bbox": "-177.140000,35.820000,180.000000,54.000000",
    "geom:latitude": 52.32359368396449,
    "geom:longitude": 1.3329022033593674,
    "src:alt_label": "swim-route",
    "src:geom": "swim",
    "swim:geom": "route",
    "wof:geomhash": "4263ee397c4faa040c602eea1a1a0814",
    "wof:id": 2014845293,
    "wof:repo": "sfomuseum-data-flights-2026-02"
  },
  "bbox": [
    -177.14,
    35.82,
    180,
    54
  ],
  "geometry": {"coordinates":[[[-122.38,37.62],[-122.5,37.67],[-122.5,37.67],[-122.5,37.68],[-122.59,37.73],[-122.59,37.73],[-122.63,37.75],[-122.69,37.79],[-122.7,37.79],[-122.74,37.81],[-122.76,37.82],[-122.79,37.87],[-122.91,38.01],[-123.15,38.3],[-123.16,38.3],[-123.3,38.48],[-123.42,38.61],[-123.48,38.68],[-123.59,38.82],[-123.64,38.87],[-123.73,38.98],[-123.75,39],[-123.81,39.06],[-124.3,39.56],[-124.68,39.93],[-124.97,40.22],[-126.5,41.66],[-126.79,41.95],[-126.81,41.97],[-126.82,41.98],[-129.4,44.47],[-130,45],[-133.62,47.02],[-137.17,48.77],[-138.57,49.39],[-140,50],[-150,53],[-151.25,53.05],[-152.17,53.07],[-152.4,53.07],[-153.67,53.09],[-157.47,53.08],[-159.92,53.03],[-160,53],[-160.52,53.05],[-161.53,53.08],[-161.78,53.06],[-161.86,53.06],[-162.83,53.09],[-164.73,53.13],[-165.73,53.1],[-167.87,53.07],[-170,53],[-172.45,53.33],[-173.27,53.45],[-173.69,53.47],[-173.92,53.52],[-174.94,53.6],[-174.97,53.63],[-176.2,53.72],[-177.14,53.8]],[[180,54],[175.98,53.97],[174.65,53.93],[169.34,53.63],[168.35,53.3],[168.35,53.3],[163.7,51.61],[160.38,50.2],[159.36,49.72],[159.35,49.71],[159.35,49.71],[155.03,47.41],[153.02,46.2],[152.04,45.59],[150.16,44.33],[149.31,43.74],[146.86,41.92],[145.92,41.17],[145,40.42],[143.79,39.85],[142.53,39.23],[140.92,38.14],[139.76,38.02],[139.11,37.95],[137.8,37.49],[136.4,36.98],[135.01,36.44],[134.5,36.24],[133.83,35.91],[130.72,35.82],[130.68,35.83],[129.82,35.94],[129.47,35.98],[129.03,36.23],[128.87,36.33],[128.85,36.34],[128.61,36.47],[128.52,36.52],[128.47,36.55],[128.33,36.63],[128.25,36.67],[128.16,36.72],[127.95,36.84],[127.94,36.85],[127.68,37],[127.64,37.02],[127.44,37.13],[127.35,37.18],[127.18,37.27],[127.11,37.31],[126.96,37.4],[126.93,37.41],[126.91,37.42],[126.76,37.44],[126.65,37.46],[126.55,37.48],[126.45,37.5]]],"type":"MultiLineString"}
}
