{
  "id": 2014705915,
  "type": "Feature",
  "properties": {
    "geom:area": 0,
    "geom:bbox": "-122.360340,37.636390,-121.243080,37.965970",
    "geom:latitude": 37.84005677869649,
    "geom:longitude": -121.8152706227673,
    "src:alt_label": "swim-takeoff",
    "src:geom": "swim",
    "swim:elevations": [
      366,
      540,
      807,
      869,
      1308,
      2034,
      2456,
      2777,
      3160,
      3329,
      3352,
      3354,
      3670,
      4143,
      4508,
      4636,
      5366,
      5604,
      5902,
      6286,
      6552,
      7041,
      7175
    ],
    "swim:geom": "takeoff",
    "swim:timestamps": [
      1770138686,
      1770138709,
      1770138743,
      1770138750,
      1770138782,
      1770138831,
      1770138865,
      1770138891,
      1770138926,
      1770138957,
      1770138960,
      1770138964,
      1770139005,
      1770139046,
      1770139074,
      1770139085,
      1770139138,
      1770139166,
      1770139193,
      1770139227,
      1770139252,
      1770139284,
      1770139294
    ],
    "wof:geomhash": "f45a9885cd30cb47b60b822d4c0c1ce2",
    "wof:id": 2014705915,
    "wof:repo": "sfomuseum-data-flights-2026-02"
  },
  "bbox": [
    -122.36034,
    37.63639,
    -121.24308,
    37.96597
  ],
  "geometry": {"coordinates":[[-122.36034,37.63639],[-122.34233,37.6472],[-122.30879,37.66564],[-122.30073,37.67035],[-122.26465,37.69164],[-122.20402,37.72316],[-122.16008,37.74544],[-122.12382,37.76447],[-122.07412,37.79006],[-122.02464,37.81456],[-122.01822,37.81731],[-122.01057,37.82023],[-121.9267,37.83968],[-121.83575,37.85682],[-121.77313,37.86869],[-121.74825,37.87336],[-121.62313,37.89675],[-121.55732,37.90886],[-121.49342,37.92053],[-121.4103,37.9357],[-121.34785,37.94702],[-121.26854,37.96135],[-121.24308,37.96597]],"type":"LineString"}
}
