{
  "id": 2014799649,
  "type": "Feature",
  "properties": {
    "geom:area": 0,
    "geom:bbox": "-122.380000,37.530000,-79.390000,43.980000",
    "geom:latitude": 42.41614249239635,
    "geom:longitude": -101.21666163964528,
    "src:alt_label": "swim-route",
    "src:geom": "swim",
    "swim:geom": "route",
    "wof:geomhash": "7ec1544388578222b12911f60a359d70",
    "wof:id": 2014799649,
    "wof:repo": "sfomuseum-data-flights-2026-02"
  },
  "bbox": [
    -122.38,
    37.53,
    -79.39,
    43.98
  ],
  "geometry": {"coordinates":[[-122.38,37.62],[-122.36,37.61],[-122.34,37.61],[-122.34,37.6],[-122.26,37.57],[-122.24,37.57],[-122.18,37.55],[-122.16,37.54],[-122.15,37.53],[-122.13,37.55],[-122.11,37.57],[-122.09,37.58],[-122.03,37.63],[-121.96,37.69],[-121.9,37.75],[-121.83,37.82],[-121.79,37.88],[-121.76,37.91],[-121.75,37.93],[-121.66,38.03],[-121.6,38.1],[-121.52,38.18],[-121.51,38.2],[-121.46,38.25],[-121.39,38.34],[-121.28,38.4],[-121.21,38.45],[-121.13,38.5],[-121.08,38.52],[-121.05,38.55],[-120.71,38.75],[-120.7,38.9],[-120.69,39.17],[-120.69,39.21],[-120.49,39.22],[-120.42,39.22],[-119.87,39.24],[-119.84,39.25],[-118.36,39.81],[-117.83,40.01],[-117.65,40.08],[-116.59,40.45],[-114.46,41.17],[-113.84,41.36],[-112.91,41.65],[-111.21,42.16],[-110,42.5],[-109.76,42.53],[-108.51,42.7],[-108.01,42.77],[-107.79,42.79],[-107.12,42.87],[-106,43],[-104.21,43.18],[-101.81,43.38],[-100.63,43.46],[-100,43.5],[-98.86,43.52],[-97.94,43.54],[-96.62,43.54],[-94,43.5],[-93.85,43.5],[-91.37,43.55],[-90.9,43.55],[-90.76,43.55],[-89.76,43.55],[-87,43.28],[-86.04,43.17],[-85,43.22],[-84.46,43.24],[-83.7,43.32],[-82.9,43.41],[-82.29,43.47],[-82.18,43.47],[-81.95,43.47],[-81.71,43.47],[-81.56,43.47],[-81.34,43.47],[-81.23,43.47],[-81.03,43.47],[-80.82,43.46],[-80.74,43.46],[-80.42,43.46],[-80.38,43.46],[-80.19,43.51],[-80.17,43.51],[-79.87,43.59],[-79.8,43.66],[-79.8,43.67],[-79.72,43.75],[-79.67,43.78],[-79.66,43.79],[-79.54,43.87],[-79.49,43.91],[-79.44,43.94],[-79.39,43.98],[-79.47,43.87],[-79.51,43.83],[-79.53,43.8],[-79.59,43.73],[-79.63,43.68]],"type":"LineString"}
}
