{
  "id": 2014899285,
  "type": "Feature",
  "properties": {
    "geom:area": 0,
    "geom:bbox": "-122.360250,36.833250,-121.919770,37.614680",
    "geom:latitude": 37.27168982435222,
    "geom:longitude": -122.09204919156105,
    "src:alt_label": "swim-approach",
    "src:geom": "swim",
    "swim:elevations": [
      4665,
      4336,
      4217,
      3758,
      3719,
      3239,
      3190,
      3053,
      3034,
      2725,
      2454,
      2350,
      2177,
      2153,
      1828,
      1818,
      1590,
      1434,
      1271,
      1116,
      861,
      683,
      546,
      470,
      311,
      177,
      177
    ],
    "swim:geom": "approach",
    "swim:timestamps": [
      1772211374,
      1772211410,
      1772211424,
      1772211477,
      1772211482,
      1772211536,
      1772211553,
      1772211595,
      1772211602,
      1772211649,
      1772211688,
      1772211705,
      1772211724,
      1772211728,
      1772211778,
      1772211782,
      1772211831,
      1772211862,
      1772211886,
      1772211912,
      1772211956,
      1772211987,
      1772212014,
      1772212028,
      1772212064,
      1772212096,
      1772212136
    ],
    "wof:geomhash": "a1a67fd3282214e05b3cc8e8de1e6841",
    "wof:id": 2014899285,
    "wof:repo": "sfomuseum-data-flights-2026-02"
  },
  "bbox": [
    -122.36025,
    36.83325,
    -121.91977,
    37.61468
  ],
  "geometry": {"coordinates":[[-121.91977,36.83325],[-121.93564,36.88974],[-121.94171,36.91209],[-121.96881,36.99259],[-121.97155,36.99976],[-122.00188,37.07722],[-122.01119,37.10087],[-122.03356,37.15782],[-122.03678,37.16613],[-122.06019,37.2254],[-122.07855,37.27277],[-122.08619,37.29223],[-122.09496,37.31483],[-122.09681,37.31959],[-122.11926,37.3766],[-122.12117,37.38178],[-122.13918,37.43489],[-122.15031,37.46762],[-122.15857,37.4934],[-122.16763,37.52035],[-122.18965,37.56126],[-122.22607,37.57074],[-122.25436,37.58072],[-122.26681,37.58467],[-122.2992,37.59416],[-122.32712,37.60248],[-122.36025,37.61468]],"type":"LineString"}
}
