{
  "id": 2014824563,
  "type": "Feature",
  "properties": {
    "geom:area": 0,
    "geom:bbox": "-122.380000,37.490000,-74.170000,41.120000",
    "geom:latitude": 40.07096136671291,
    "geom:longitude": -98.12819296214212,
    "src:alt_label": "swim-route",
    "src:geom": "swim",
    "swim:geom": "route",
    "wof:geomhash": "cf1168a01a6d01b15d27ba2379a6ea80",
    "wof:id": 2014824563,
    "wof:repo": "sfomuseum-data-flights-2026-02"
  },
  "bbox": [
    -122.38,
    37.49,
    -74.17,
    41.12
  ],
  "geometry": {"coordinates":[[-74.17,40.69],[-74.31,40.73],[-74.4,40.75],[-74.42,40.75],[-74.45,40.76],[-74.47,40.76],[-74.51,40.77],[-74.53,40.78],[-74.59,40.79],[-74.62,40.8],[-74.64,40.8],[-74.67,40.81],[-74.7,40.81],[-74.72,40.82],[-74.78,40.83],[-74.81,40.84],[-74.89,40.86],[-74.92,40.87],[-74.95,40.87],[-75.01,40.89],[-75.06,40.9],[-75.12,40.91],[-75.12,40.91],[-75.17,40.92],[-75.2,40.92],[-75.28,40.9],[-75.29,40.89],[-75.4,40.87],[-75.55,40.83],[-75.77,40.78],[-75.86,40.76],[-76.01,40.72],[-76.06,40.71],[-76.07,40.71],[-76.15,40.69],[-76.24,40.67],[-76.32,40.64],[-76.6,40.55],[-76.68,40.56],[-77.22,40.61],[-77.32,40.62],[-77.44,40.63],[-77.57,40.64],[-77.58,40.64],[-77.8,40.66],[-77.59,40.64],[-77.98,40.67],[-78.21,40.69],[-79.21,40.79],[-79.44,40.81],[-80.66,40.87],[-81.85,40.92],[-83.05,40.95],[-84.7,40.98],[-85.19,40.98],[-85.78,41.01],[-86.99,41.05],[-87.43,41.07],[-88.88,41.1],[-90.05,41.12],[-90.55,41.12],[-93.58,41.06],[-95.86,40.97],[-96.74,40.92],[-97.61,40.84],[-99.05,40.68],[-99.32,40.65],[-99.59,40.62],[-100.92,40.45],[-101.49,40.4],[-102.05,40.34],[-103.18,40.22],[-103.47,40.19],[-103.5,40.18],[-104.03,40.12],[-105.08,39.99],[-105.57,39.92],[-106.53,39.79],[-107.22,39.71],[-107.74,39.65],[-108.27,39.59],[-109.97,39.37],[-110.1,39.35],[-110.93,39.23],[-111.72,39.12],[-112.38,39.02],[-113.47,38.84],[-113.85,38.78],[-115.09,38.56],[-115.41,38.51],[-116.33,38.33],[-117.27,38.12],[-117.27,38.12],[-117.77,38],[-118.76,37.9],[-119.1,37.86],[-119.88,37.76],[-120.07,37.74],[-120.15,37.73],[-120.4,37.7],[-120.47,37.69],[-120.53,37.69],[-120.69,37.67],[-120.75,37.66],[-120.75,37.66],[-120.8,37.65],[-120.96,37.63],[-121,37.63],[-121.01,37.63],[-121.01,37.63],[-121.26,37.59],[-121.39,37.58],[-121.41,37.58],[-121.6,37.55],[-121.61,37.55],[-121.62,37.55],[-121.67,37.54],[-121.74,37.52],[-121.8,37.51],[-121.88,37.49],[-121.93,37.5],[-122.08,37.54],[-122.18,37.57],[-122.28,37.59],[-122.33,37.61],[-122.36,37.61],[-122.38,37.62]],"type":"LineString"}
}
