{
  "id": 2014731939,
  "type": "Feature",
  "properties": {
    "geom:area": 0,
    "geom:bbox": "-122.348790,37.492290,-121.266440,37.609980",
    "geom:latitude": 37.54555756406221,
    "geom:longitude": -121.81218844599877,
    "src:alt_label": "swim-approach",
    "src:geom": "swim",
    "swim:elevations": [
      4815,
      4551,
      4254,
      3967,
      3657,
      3434,
      3340,
      3214,
      2938,
      2844,
      2681,
      2560,
      2471,
      2344,
      2178,
      2011,
      1864,
      1635,
      1371,
      1262,
      1054,
      854,
      748,
      526,
      550,
      523,
      316,
      220,
      166,
      60
    ],
    "swim:geom": "approach",
    "swim:timestamps": [
      1770496168,
      1770496192,
      1770496223,
      1770496250,
      1770496282,
      1770496308,
      1770496329,
      1770496357,
      1770496395,
      1770496413,
      1770496441,
      1770496458,
      1770496473,
      1770496491,
      1770496515,
      1770496549,
      1770496587,
      1770496618,
      1770496645,
      1770496662,
      1770496701,
      1770496737,
      1770496760,
      1770496795,
      1770496804,
      1770496830,
      1770496884,
      1770496911,
      1770496926,
      1770496954
    ],
    "wof:geomhash": "b9c0ed405d5541e990b8873d5020e98c",
    "wof:id": 2014731939,
    "wof:repo": "sfomuseum-data-flights-2026-02"
  },
  "bbox": [
    -122.34879,
    37.49229,
    -121.26644,
    37.60998
  ],
  "geometry": {"coordinates":[[-121.26644,37.5924],[-121.31518,37.58631],[-121.37731,37.57966],[-121.43082,37.57353],[-121.49416,37.56624],[-121.54375,37.56042],[-121.58353,37.55576],[-121.63189,37.54914],[-121.69207,37.53465],[-121.71964,37.52816],[-121.76021,37.51842],[-121.78488,37.51249],[-121.80699,37.50722],[-121.83278,37.50097],[-121.86636,37.49314],[-121.91601,37.49229],[-121.97066,37.49358],[-122.01378,37.50327],[-122.04942,37.51493],[-122.0704,37.52167],[-122.11635,37.53642],[-122.15835,37.55006],[-122.1835,37.55817],[-122.21916,37.56975],[-122.2281,37.57263],[-122.25345,37.58071],[-122.29702,37.59373],[-122.31787,37.5998],[-122.32896,37.60301],[-122.34879,37.60998]],"type":"LineString"}
}
