{
  "id": 2014856769,
  "type": "Feature",
  "properties": {
    "geom:area": 0,
    "geom:bbox": "-122.348830,37.492280,-121.263030,37.609990",
    "geom:latitude": 37.545749267470576,
    "geom:longitude": -121.81057231631584,
    "src:alt_label": "swim-approach",
    "src:geom": "swim",
    "swim:elevations": [
      4857,
      4675,
      4140,
      3894,
      3703,
      3495,
      3470,
      3258,
      3109,
      3033,
      2794,
      2557,
      2337,
      2290,
      1957,
      1800,
      1729,
      1584,
      1528,
      1310,
      1207,
      1068,
      881,
      729,
      597,
      470,
      427,
      302,
      204,
      73
    ],
    "swim:geom": "approach",
    "swim:timestamps": [
      1771758946,
      1771758963,
      1771759016,
      1771759040,
      1771759058,
      1771759077,
      1771759080,
      1771759135,
      1771759155,
      1771759176,
      1771759203,
      1771759246,
      1771759285,
      1771759292,
      1771759346,
      1771759374,
      1771759394,
      1771759432,
      1771759441,
      1771759492,
      1771759504,
      1771759520,
      1771759541,
      1771759565,
      1771759593,
      1771759620,
      1771759629,
      1771759657,
      1771759681,
      1771759714
    ],
    "wof:geomhash": "999074ef9dcc3dab0d00783eefa1a0c3",
    "wof:id": 2014856769,
    "wof:repo": "sfomuseum-data-flights-2026-02"
  },
  "bbox": [
    -122.34883,
    37.49228,
    -121.26303,
    37.60999
  ],
  "geometry": {"coordinates":[[-121.26303,37.59255],[-121.29688,37.58837],[-121.39702,37.57752],[-121.4412,37.57244],[-121.47518,37.56856],[-121.50927,37.56441],[-121.51498,37.56368],[-121.61257,37.55234],[-121.64536,37.54597],[-121.677,37.53832],[-121.71553,37.52916],[-121.78095,37.5134],[-121.83547,37.50044],[-121.84509,37.49814],[-121.92218,37.49228],[-121.96205,37.49335],[-121.99226,37.49636],[-122.04286,37.51246],[-122.05623,37.51677],[-122.12488,37.5392],[-122.14063,37.54423],[-122.16085,37.55063],[-122.18796,37.55918],[-122.21442,37.56783],[-122.24331,37.57735],[-122.26837,37.58504],[-122.27552,37.58709],[-122.30066,37.59454],[-122.32091,37.60062],[-122.34883,37.60999]],"type":"LineString"}
}
