{
  "id": 2014908265,
  "type": "Feature",
  "properties": {
    "geom:area": 0,
    "geom:bbox": "-122.385760,37.636810,-121.262160,38.415760",
    "geom:latitude": 38.085071418772486,
    "geom:longitude": -121.93180265028546,
    "src:alt_label": "swim-takeoff",
    "src:geom": "swim",
    "swim:elevations": [
      366,
      756,
      856,
      1107,
      1361,
      1890,
      1967,
      2682,
      3033,
      3247,
      3300,
      3447,
      3518,
      3609,
      4188,
      4280,
      4579,
      4777,
      4915,
      5009,
      5197,
      5348,
      5700,
      5993,
      6145,
      6227,
      6447,
      6688,
      6792,
      7056,
      7168
    ],
    "swim:geom": "takeoff",
    "swim:timestamps": [
      1772318993,
      1772319025,
      1772319040,
      1772319088,
      1772319108,
      1772319147,
      1772319155,
      1772319207,
      1772319231,
      1772319261,
      1772319276,
      1772319300,
      1772319312,
      1772319330,
      1772319387,
      1772319396,
      1772319423,
      1772319448,
      1772319466,
      1772319480,
      1772319506,
      1772319527,
      1772319565,
      1772319595,
      1772319617,
      1772319627,
      1772319646,
      1772319688,
      1772319697,
      1772319733,
      1772319754
    ],
    "wof:geomhash": "a379bf9a77851a3b44530f2e3503e360",
    "wof:id": 2014908265,
    "wof:repo": "sfomuseum-data-flights-2026-02"
  },
  "bbox": [
    -122.38576,
    37.63681,
    -121.26216,
    38.41576
  ],
  "geometry": {"coordinates":[[-122.35953,37.63681],[-122.33655,37.65769],[-122.32405,37.66805],[-122.31262,37.71525],[-122.32809,37.73727],[-122.35425,37.78179],[-122.35886,37.79085],[-122.38576,37.85672],[-122.38478,37.89103],[-122.37541,37.93192],[-122.35687,37.95007],[-122.31291,37.96928],[-122.28933,37.9785],[-122.2529,37.99304],[-122.13127,38.04231],[-122.1118,38.05014],[-122.05282,38.07387],[-121.99912,38.09536],[-121.95715,38.11217],[-121.92423,38.12533],[-121.86334,38.14956],[-121.81351,38.16945],[-121.71942,38.20665],[-121.64581,38.23578],[-121.59158,38.25722],[-121.5663,38.26723],[-121.51911,38.28571],[-121.41282,38.3279],[-121.39092,38.33835],[-121.30929,38.38669],[-121.26216,38.41576]],"type":"LineString"}
}
