{
  "id": 2014859177,
  "type": "Feature",
  "properties": {
    "geom:area": 0,
    "geom:bbox": "-122.525833,33.949722,-118.195278,37.656944",
    "geom:latitude": 35.65957316184046,
    "geom:longitude": -120.3460527218794,
    "src:alt_label": "swim-path",
    "src:geom": "swim",
    "swim:altitudes": [
      "034",
      "034",
      "034",
      "071",
      "100",
      "100",
      "123",
      "123",
      "174",
      "174",
      "242",
      "259",
      "259",
      "259",
      "342",
      "342",
      "342",
      "342",
      "358",
      "370C",
      "370C",
      "370C",
      "370C",
      "370C",
      "370C",
      "370C",
      "370C",
      "370C",
      "361",
      "361",
      "361",
      "285",
      "260",
      "260",
      "260",
      "168",
      "144",
      "144",
      "128",
      "128",
      "128",
      "128",
      "095",
      "084",
      "084",
      "084",
      "081",
      "075",
      "075",
      "075",
      "061",
      "048",
      "048",
      "035",
      "029",
      "027",
      "027",
      "026",
      "026",
      "022",
      "022",
      "006",
      "006",
      "002",
      "002",
      "002"
    ],
    "swim:geom": "path",
    "swim:speeds": [
      181,
      181,
      181,
      253,
      268,
      268,
      325,
      325,
      368,
      368,
      424,
      450,
      450,
      450,
      483,
      483,
      483,
      483,
      474,
      468,
      468,
      468,
      468,
      460,
      456,
      456,
      456,
      456,
      451,
      451,
      451,
      469,
      452,
      452,
      452,
      359,
      351,
      351,
      337,
      337,
      337,
      337,
      275,
      273,
      273,
      273,
      274,
      250,
      250,
      250,
      234,
      226,
      226,
      214,
      173,
      176,
      176,
      182,
      182,
      185,
      185,
      154,
      154,
      140,
      140,
      140
    ],
    "swim:timestamps": [
      1771769379,
      1771769379,
      1771769379,
      1771769499,
      1771769559,
      1771769559,
      1771769619,
      1771769619,
      1771769739,
      1771769739,
      1771769919,
      1771769979,
      1771769979,
      1771769979,
      1771770279,
      1771770279,
      1771770279,
      1771770279,
      1771770339,
      1771770460,
      1771770460,
      1771770460,
      1771770460,
      1771770580,
      1771770820,
      1771770820,
      1771770820,
      1771770820,
      1771771120,
      1771771120,
      1771771120,
      1771771300,
      1771771360,
      1771771360,
      1771771360,
      1771771649,
      1771771721,
      1771771721,
      1771771781,
      1771771781,
      1771771781,
      1771771781,
      1771771955,
      1771772009,
      1771772009,
      1771772009,
      1771772022,
      1771772069,
      1771772069,
      1771772069,
      1771772142,
      1771772202,
      1771772202,
      1771772262,
      1771772308,
      1771772322,
      1771772322,
      1771772382,
      1771772382,
      1771772442,
      1771772442,
      1771772554,
      1771772554,
      1771772622,
      1771772622,
      1771772622
    ],
    "wof:geomhash": "15cbec49b331ef06f824464c8f35b92b",
    "wof:id": 2014859177,
    "wof:repo": "sfomuseum-data-flights-2026-02"
  },
  "bbox": [
    -122.52583333333334,
    33.94972222222222,
    -118.19527777777778,
    37.65694444444444
  ],
  "geometry": {"coordinates":[[-122.4625,37.65694444444444],[-122.4625,37.65694444444444],[-122.4625,37.65694444444444],[-122.52444444444444,37.572500000000005],[-122.52583333333334,37.4975],[-122.52583333333334,37.4975],[-122.48833333333333,37.42583333333333],[-122.48833333333333,37.42583333333333],[-122.3,37.28944444444444],[-122.3,37.28944444444444],[-121.99472222222222,37.04805555555556],[-121.87805555555555,36.96388888888889],[-121.87805555555555,36.96388888888889],[-121.87805555555555,36.96388888888889],[-121.28888888888889,36.49],[-121.28888888888889,36.49],[-121.28888888888889,36.49],[-121.28888888888889,36.49],[-121.16583333333334,36.39527777777778],[-120.94166666666668,36.21333333333334],[-120.94166666666668,36.21333333333334],[-120.94166666666668,36.21333333333334],[-120.94166666666668,36.21333333333334],[-120.71833333333333,36.03111111111111],[-120.27972222222222,35.66972222222222],[-120.27972222222222,35.66972222222222],[-120.27972222222222,35.66972222222222],[-120.27972222222222,35.66972222222222],[-119.76361111111112,35.223888888888894],[-119.76361111111112,35.223888888888894],[-119.76361111111112,35.223888888888894],[-119.4775,34.91583333333333],[-119.38444444444445,34.81222222222222],[-119.38444444444445,34.81222222222222],[-119.38444444444445,34.81222222222222],[-119,34.36666666666667],[-118.91555555555556,34.27916666666667],[-118.91555555555556,34.27916666666667],[-118.84777777777778,34.205000000000005],[-118.84777777777778,34.205000000000005],[-118.84777777777778,34.205000000000005],[-118.84777777777778,34.205000000000005],[-118.65,34.03333333333333],[-118.58333333333333,34.016666666666666],[-118.58333333333333,34.016666666666666],[-118.58333333333333,34.016666666666666],[-118.55805555555555,34.019444444444446],[-118.48333333333333,34.016666666666666],[-118.48333333333333,34.016666666666666],[-118.48333333333333,34.016666666666666],[-118.39611111111111,34.02055555555555],[-118.32083333333333,34.03111111111111],[-118.32083333333333,34.03111111111111],[-118.25055555555555,34.03805555555555],[-118.2,34.03333333333333],[-118.19527777777778,34.03111111111111],[-118.19527777777778,34.03111111111111],[-118.22444444444444,33.99277777777778],[-118.22444444444444,33.99277777777778],[-118.27694444444444,33.964444444444446],[-118.27694444444444,33.964444444444446],[-118.38333333333334,33.95],[-118.38333333333334,33.95],[-118.4238888888889,33.94972222222222],[-118.4238888888889,33.94972222222222],[-118.4238888888889,33.94972222222222]],"type":"LineString"}
}
