{
  "id": 2014899847,
  "type": "Feature",
  "properties": {
    "geom:area": 0,
    "geom:bbox": "-123.052500,37.518990,-122.056290,38.451750",
    "geom:latitude": 37.88055496154792,
    "geom:longitude": -122.51860373496073,
    "src:alt_label": "swim-approach",
    "src:geom": "swim",
    "swim:elevations": [
      7498,
      6814,
      6454,
      5918,
      5569,
      5408,
      4976,
      4908,
      4693,
      4309,
      3942,
      3561,
      3423,
      3381,
      3353,
      3353,
      3150,
      2791,
      2489,
      2424,
      2332,
      2092,
      1954,
      1669,
      1564,
      1524,
      1524,
      1524,
      1503,
      1457,
      1255,
      1121,
      992,
      911,
      822,
      741,
      701,
      580,
      457,
      306,
      200,
      165,
      121
    ],
    "swim:geom": "approach",
    "swim:timestamps": [
      1772217558,
      1772217634,
      1772217675,
      1772217733,
      1772217773,
      1772217794,
      1772217838,
      1772217848,
      1772217870,
      1772217915,
      1772217950,
      1772217986,
      1772218013,
      1772218022,
      1772218060,
      1772218085,
      1772218115,
      1772218156,
      1772218190,
      1772218196,
      1772218204,
      1772218227,
      1772218242,
      1772218286,
      1772218317,
      1772218336,
      1772218364,
      1772218370,
      1772218406,
      1772218420,
      1772218466,
      1772218489,
      1772218515,
      1772218538,
      1772218560,
      1772218582,
      1772218595,
      1772218629,
      1772218660,
      1772218703,
      1772218727,
      1772218736,
      1772218743
    ],
    "wof:geomhash": "036b284ffc465e6c39825fef55ff27cd",
    "wof:id": 2014899847,
    "wof:repo": "sfomuseum-data-flights-2026-02"
  },
  "bbox": [
    -123.0525,
    37.51899,
    -122.05629,
    38.45175
  ],
  "geometry": {"coordinates":[[-123.0525,38.45175],[-122.91947,38.34618],[-122.8495,38.29031],[-122.7646,38.20591],[-122.74222,38.13895],[-122.73224,38.10421],[-122.71159,38.03164],[-122.70666,38.01466],[-122.69695,37.98069],[-122.67395,37.90949],[-122.63416,37.86215],[-122.58515,37.81607],[-122.54967,37.7831],[-122.53928,37.77342],[-122.49593,37.73243],[-122.4629,37.71299],[-122.41584,37.7011],[-122.35426,37.68395],[-122.3054,37.66987],[-122.29648,37.66722],[-122.28522,37.66391],[-122.25308,37.65428],[-122.23291,37.64801],[-122.17674,37.62952],[-122.14228,37.61784],[-122.12233,37.61092],[-122.09336,37.6008],[-122.08721,37.59812],[-122.05834,37.57278],[-122.05629,37.55946],[-122.07961,37.52198],[-122.10397,37.51899],[-122.12764,37.5291],[-122.14769,37.53983],[-122.16676,37.55012],[-122.18606,37.55909],[-122.19823,37.56304],[-122.23075,37.57351],[-122.2605,37.58286],[-122.30036,37.59459],[-122.32249,37.60109],[-122.33048,37.60344],[-122.33639,37.60528]],"type":"LineString"}
}
