{
  "id": 2014903111,
  "type": "Feature",
  "properties": {
    "geom:area": 0,
    "geom:bbox": "-122.470000,33.280000,-112.010000,37.680000",
    "geom:latitude": 34.86745393017162,
    "geom:longitude": -117.58185646681498,
    "src:alt_label": "swim-route",
    "src:geom": "swim",
    "swim:geom": "route",
    "wof:geomhash": "86d142ad159eda5529b0ca546a1e4c20",
    "wof:id": 2014903111,
    "wof:repo": "sfomuseum-data-flights-2026-02"
  },
  "bbox": [
    -122.47,
    33.28,
    -112.01,
    37.68
  ],
  "geometry": {"coordinates":[[-122.38,37.62],[-122.36,37.68],[-122.38,37.64],[-122.39,37.64],[-122.42,37.58],[-122.42,37.58],[-122.44,37.55],[-122.46,37.51],[-122.47,37.49],[-122.47,37.49],[-122.43,37.46],[-122.33,37.4],[-122.17,37.29],[-122.14,37.27],[-122.11,37.25],[-122.05,37.21],[-121.86,37.2],[-121.81,37.15],[-121.81,37.15],[-121.75,37.11],[-121.68,37.06],[-121.64,37.03],[-121.63,37.02],[-121.57,36.98],[-121.56,36.98],[-121.45,36.89],[-121.39,36.84],[-121.27,36.75],[-121.21,36.7],[-121.14,36.64],[-121.04,36.56],[-121,36.53],[-120.95,36.49],[-120.69,36.31],[-120.5,36.19],[-120,35.85],[-119.96,35.82],[-119.82,35.72],[-119.68,35.62],[-119.4,35.42],[-119.2,35.28],[-118.81,35],[-118.04,34.43],[-118.03,34.42],[-117.35,34.26],[-116.89,34.15],[-116.34,34.01],[-115.23,33.72],[-115.14,33.7],[-114.76,33.6],[-114.47,33.54],[-114.08,33.47],[-114,33.45],[-113.54,33.39],[-113.43,33.37],[-113.34,33.36],[-113.33,33.36],[-113.31,33.35],[-113.3,33.35],[-113.29,33.35],[-113.19,33.34],[-113.02,33.31],[-112.96,33.3],[-112.82,33.28],[-112.79,33.29],[-112.69,33.33],[-112.63,33.35],[-112.59,33.37],[-112.52,33.39],[-112.5,33.4],[-112.44,33.42],[-112.43,33.43],[-112.42,33.43],[-112.36,33.43],[-112.35,33.43],[-112.3,33.43],[-112.28,33.43],[-112.24,33.43],[-112.24,33.43],[-112.21,33.43],[-112.15,33.43],[-112.13,33.43],[-112.05,33.43],[-112.01,33.43]],"type":"LineString"}
}
