{
  "id": 2014734705,
  "type": "Feature",
  "properties": {
    "geom:area": 0,
    "geom:bbox": "-122.347330,37.492120,-121.926570,37.609330",
    "geom:latitude": 37.54442093642502,
    "geom:longitude": -122.13811554873567,
    "src:alt_label": "swim-approach",
    "src:geom": "swim",
    "swim:elevations": [
      1846,
      1827,
      1799,
      1654,
      1415,
      1362,
      1131,
      960,
      859,
      663,
      547,
      481,
      354,
      276,
      139,
      87
    ],
    "swim:geom": "approach",
    "swim:timestamps": [
      1770484339,
      1770484358,
      1770484403,
      1770484433,
      1770484467,
      1770484474,
      1770484507,
      1770484544,
      1770484571,
      1770484613,
      1770484640,
      1770484660,
      1770484696,
      1770484726,
      1770484762,
      1770484780
    ],
    "wof:geomhash": "afa9a44623d55e9fae525d1ee6c23ccc",
    "wof:id": 2014734705,
    "wof:repo": "sfomuseum-data-flights-2026-02"
  },
  "bbox": [
    -122.34733,
    37.49212,
    -121.92657,
    37.60933
  ],
  "geometry": {"coordinates":[[-121.92657,37.49212],[-121.94968,37.4928],[-121.99751,37.49781],[-122.02762,37.50749],[-122.06094,37.51844],[-122.0683,37.52082],[-122.10173,37.53169],[-122.14072,37.54431],[-122.16682,37.55279],[-122.20877,37.56634],[-122.23507,37.5748],[-122.25512,37.58131],[-122.28729,37.59076],[-122.3098,37.5972],[-122.335,37.60488],[-122.34733,37.60933]],"type":"LineString"}
}
