{
  "id": 2014793813,
  "type": "Feature",
  "properties": {
    "date:cessation_lower": "2026-02-15",
    "date:cessation_upper": "2026-02-15",
    "date:inception_lower": "2026-02-15",
    "date:inception_upper": "2026-02-15",
    "edtf:cessation": "2026-02-15T10:38:00Z",
    "edtf:inception": "2026-02-15T05:48:00Z",
    "flysfo:actual_timestamp": -1,
    "flysfo:airline": "UA",
    "flysfo:base_airline": "",
    "flysfo:base_flight_number": "7937",
    "flysfo:date": "2026-02-14",
    "flysfo:estimated_timestamp": 1771133160,
    "flysfo:event": "D",
    "flysfo:flight_number": "UA1458",
    "flysfo:gate": "F22",
    "flysfo:journey": "SFO-FLL",
    "flysfo:scheduled_timestamp": 1771133400,
    "flysfo:timestamp": 1771133400,
    "geom:area": 0,
    "geom:bbox": "-122.370943,26.074860,-80.138518,37.617990",
    "geom:latitude": 31.846425,
    "geom:longitude": -101.2547305,
    "iata:airline": "UA",
    "iata:base_airline": "",
    "icao:aircraft": "B752",
    "icao:airline": "UAL",
    "icao:base_airline": "AZU",
    "lbl:latitude": 37.621107,
    "lbl:longitude": -122.389874,
    "sfomuseum:aircraft_id": 1159289939,
    "sfomuseum:airline_id": 1159285413,
    "sfomuseum:arrival_id": 102530841,
    "sfomuseum:base_flight_id": "20260214-D-AZU-7937",
    "sfomuseum:departure_id": 102527513,
    "sfomuseum:flight_id": "20260214-D-UAL-1458",
    "sfomuseum:flight_number": [
      "UAL1458",
      "UA1458"
    ],
    "sfomuseum:placetype": "flight",
    "src:geom": "flysfo",
    "src:geom_alt": [
      "swim-route",
      "swim-path",
      "swim-takeoff"
    ],
    "swim:tail_number": "N17126",
    "wof:belongsto": [
      1947304067,
      102527513,
      1947304451,
      102191575,
      85633793,
      102087579,
      85922583,
      554784711,
      85688637,
      1947304475,
      1947304447,
      102085387
    ],
    "wof:concordances": {
      "swim:gufi": "KO168491zf"
    },
    "wof:country": "US",
    "wof:created": 1771172058,
    "wof:geomhash": "2155b19e54308f477f2a379762b2f6c8",
    "wof:hierarchy": [
      {
        "building_id": 1947304067,
        "campus_id": 102527513,
        "concourse_id": 1947304451,
        "continent_id": 102191575,
        "country_id": 85633793,
        "county_id": 102087579,
        "custom_id": 2014793813,
        "flight_id": 2014793813,
        "locality_id": 85922583,
        "postalcode_id": 554784711,
        "region_id": 85688637,
        "venue_id": 1947304475,
        "wing_id": 1947304447
      },
      {
        "building_id": 1947304067,
        "campus_id": 102527513,
        "concourse_id": 1947304451,
        "continent_id": 102191575,
        "country_id": 85633793,
        "county_id": 102085387,
        "custom_id": 2014793813,
        "flight_id": 2014793813,
        "region_id": 85688637,
        "venue_id": 1947304475,
        "wing_id": 1947304447
      }
    ],
    "wof:id": 2014793813,
    "wof:involves": [
      1159289939,
      102530841,
      102527513,
      1159285413,
      1947304475,
      1779770723
    ],
    "wof:lastmodified": 1771172199,
    "wof:name": "UA1458 (SFO-FLL)",
    "wof:parent_id": 1947304475,
    "wof:placetype": "custom",
    "wof:placetype_alt": [
      "flight"
    ],
    "wof:repo": "sfomuseum-data-flights-2026-02",
    "wof:superseded_by": [],
    "wof:supersedes": []
  },
  "bbox": [
    -122.370943,
    26.07486,
    -80.138518,
    37.61799
  ],
  "geometry": {"coordinates":[[-122.370943,37.61799],[-80.138518,26.07486]],"type":"MultiPoint"}
}
