{
  "id": 2014791537,
  "type": "Feature",
  "properties": {
    "geom:area": 0,
    "geom:bbox": "-122.527970,37.630740,-122.118040,38.494060",
    "geom:latitude": 38.02459321564254,
    "geom:longitude": -122.31772239307779,
    "src:alt_label": "swim-takeoff",
    "src:geom": "swim",
    "swim:elevations": [
      202,
      527,
      610,
      914,
      1095,
      1308,
      1765,
      2202,
      2486,
      2737,
      2863,
      2949,
      3046,
      3048,
      3163,
      3294,
      3466,
      3945,
      4185,
      4522,
      5137,
      5446,
      5513
    ],
    "swim:geom": "takeoff",
    "swim:timestamps": [
      1771092046,
      1771092082,
      1771092102,
      1771092141,
      1771092165,
      1771092184,
      1771092214,
      1771092251,
      1771092274,
      1771092306,
      1771092332,
      1771092344,
      1771092377,
      1771092402,
      1771092441,
      1771092465,
      1771092489,
      1771092528,
      1771092546,
      1771092570,
      1771092625,
      1771092655,
      1771092661
    ],
    "wof:geomhash": "9fcaacef012910196b3ec54b80cf88f9",
    "wof:id": 2014791537,
    "wof:repo": "sfomuseum-data-flights-2026-02"
  },
  "bbox": [
    -122.52797,
    37.63074,
    -122.11804,
    38.49406
  ],
  "geometry": {"coordinates":[[-122.40254,37.63074],[-122.44107,37.64725],[-122.46619,37.65768],[-122.51645,37.68481],[-122.52703,37.71699],[-122.52797,37.74585],[-122.52013,37.79019],[-122.46911,37.82554],[-122.43284,37.84585],[-122.39982,37.88952],[-122.37605,37.92662],[-122.36485,37.94466],[-122.33415,37.99331],[-122.31018,38.03097],[-122.27225,38.08991],[-122.24759,38.12788],[-122.22144,38.16803],[-122.17869,38.23422],[-122.15809,38.26585],[-122.13122,38.30893],[-122.11804,38.41901],[-122.12235,38.48139],[-122.12324,38.49406]],"type":"LineString"}
}
