{
  "id": 2014775013,
  "type": "Feature",
  "properties": {
    "geom:area": 0,
    "geom:bbox": "-122.451850,36.720080,-121.412250,37.703600",
    "geom:latitude": 37.22707519939355,
    "geom:longitude": -122.01259527474765,
    "src:alt_label": "swim-takeoff",
    "src:geom": "swim",
    "swim:elevations": [
      152,
      414,
      618,
      937,
      1437,
      1889,
      1986,
      2663,
      3141,
      3213,
      3471,
      3894,
      3965,
      4435,
      4937,
      5167,
      5639,
      6051,
      6302,
      6387,
      6779,
      7022,
      7183,
      7340,
      7712,
      7840,
      8125,
      8307,
      8577,
      8677
    ],
    "swim:geom": "takeoff",
    "swim:timestamps": [
      1770934132,
      1770934152,
      1770934183,
      1770934219,
      1770934254,
      1770934284,
      1770934290,
      1770934337,
      1770934375,
      1770934386,
      1770934419,
      1770934467,
      1770934473,
      1770934509,
      1770934546,
      1770934567,
      1770934617,
      1770934646,
      1770934670,
      1770934682,
      1770934719,
      1770934743,
      1770934758,
      1770934773,
      1770934822,
      1770934837,
      1770934880,
      1770934908,
      1770934948,
      1770934959
    ],
    "wof:geomhash": "6841a9f4c959496ceff21548c9422217",
    "wof:id": 2014775013,
    "wof:repo": "sfomuseum-data-flights-2026-02"
  },
  "bbox": [
    -122.45185,
    36.72008,
    -121.41225,
    37.7036
  ],
  "geometry": {"coordinates":[[-122.36794,37.63014],[-122.36208,37.64411],[-122.36187,37.66968],[-122.37501,37.7036],[-122.42405,37.70084],[-122.44145,37.66699],[-122.44237,37.65932],[-122.45185,37.59825],[-122.44238,37.54796],[-122.42933,37.53679],[-122.38266,37.50259],[-122.31054,37.44607],[-122.30124,37.43851],[-122.24401,37.39243],[-122.18343,37.34391],[-122.14829,37.31586],[-122.06223,37.24653],[-122.01061,37.20489],[-121.96734,37.17034],[-121.94563,37.15295],[-121.87782,37.09795],[-121.83352,37.06194],[-121.80562,37.03928],[-121.77871,37.0178],[-121.68439,36.94174],[-121.65552,36.91822],[-121.5722,36.85062],[-121.51644,36.80525],[-121.43621,36.73972],[-121.41225,36.72008]],"type":"LineString"}
}
