{
  "id": 2014726939,
  "type": "Feature",
  "properties": {
    "geom:area": 0,
    "geom:bbox": "-122.341160,37.491300,-121.244070,37.606820",
    "geom:latitude": 37.54600842224488,
    "geom:longitude": -121.7971092449796,
    "src:alt_label": "swim-approach",
    "src:geom": "swim",
    "swim:elevations": [
      4626,
      4428,
      4188,
      4025,
      3918,
      3774,
      3714,
      3499,
      3156,
      3099,
      2951,
      2871,
      2724,
      2586,
      2529,
      2481,
      2157,
      2083,
      1979,
      1879,
      1638,
      1436,
      1309,
      1094,
      945,
      849,
      702,
      618,
      559,
      471,
      371,
      325,
      246,
      155,
      87
    ],
    "swim:geom": "approach",
    "swim:timestamps": [
      1770367402,
      1770367425,
      1770367452,
      1770367472,
      1770367493,
      1770367521,
      1770367530,
      1770367560,
      1770367616,
      1770367621,
      1770367642,
      1770367652,
      1770367677,
      1770367704,
      1770367721,
      1770367741,
      1770367798,
      1770367814,
      1770367840,
      1770367869,
      1770367914,
      1770367943,
      1770367967,
      1770368003,
      1770368034,
      1770368053,
      1770368081,
      1770368096,
      1770368110,
      1770368130,
      1770368151,
      1770368166,
      1770368184,
      1770368205,
      1770368220
    ],
    "wof:geomhash": "4f644fc9b0c76ab30203c07c541c4554",
    "wof:id": 2014726939,
    "wof:repo": "sfomuseum-data-flights-2026-02"
  },
  "bbox": [
    -122.34116,
    37.4913,
    -121.24407,
    37.60682
  ],
  "geometry": {"coordinates":[[-121.24407,37.5953],[-121.29009,37.58912],[-121.34084,37.58387],[-121.38017,37.57972],[-121.41709,37.57532],[-121.46662,37.56932],[-121.48169,37.56752],[-121.53223,37.56167],[-121.6233,37.55052],[-121.63038,37.54925],[-121.66106,37.54189],[-121.67613,37.53828],[-121.71049,37.53023],[-121.7479,37.52139],[-121.77034,37.51603],[-121.79688,37.50965],[-121.87138,37.49245],[-121.8939,37.4913],[-121.9309,37.49251],[-121.97081,37.4935],[-122.03042,37.50856],[-122.06788,37.52049],[-122.09759,37.53026],[-122.13962,37.54389],[-122.1732,37.55458],[-122.19238,37.56097],[-122.22095,37.5703],[-122.23691,37.57528],[-122.2497,37.57929],[-122.26875,37.58531],[-122.28619,37.59033],[-122.29841,37.59387],[-122.313,37.59823],[-122.32952,37.60311],[-122.34116,37.60682]],"type":"LineString"}
}
