{
  "id": 2014798683,
  "type": "Feature",
  "properties": {
    "geom:area": 0,
    "geom:bbox": "-123.504280,36.848110,-122.107930,37.612920",
    "geom:latitude": 37.26123914442093,
    "geom:longitude": -122.72424828920106,
    "src:alt_label": "swim-approach",
    "src:geom": "swim",
    "swim:elevations": [
      5547,
      5304,
      4877,
      4724,
      4511,
      4287,
      3998,
      3857,
      3589,
      3420,
      3353,
      3232,
      3227,
      3108,
      3081,
      3048,
      3048,
      3048,
      3048,
      2988,
      2949,
      2719,
      2598,
      2435,
      2438,
      2438,
      2438,
      2438,
      2438,
      2315,
      2047,
      1867,
      1813,
      1674,
      1490,
      1451,
      1163,
      1018,
      922,
      914,
      915,
      812,
      701,
      639,
      517,
      434,
      300,
      214,
      18
    ],
    "swim:geom": "approach",
    "swim:timestamps": [
      1771222042,
      1771222056,
      1771222104,
      1771222126,
      1771222161,
      1771222190,
      1771222224,
      1771222241,
      1771222270,
      1771222309,
      1771222330,
      1771222377,
      1771222381,
      1771222406,
      1771222413,
      1771222452,
      1771222475,
      1771222511,
      1771222535,
      1771222580,
      1771222586,
      1771222619,
      1771222637,
      1771222668,
      1771222695,
      1771222716,
      1771222767,
      1771222780,
      1771222798,
      1771222828,
      1771222858,
      1771222888,
      1771222895,
      1771222914,
      1771222948,
      1771222954,
      1771223007,
      1771223029,
      1771223052,
      1771223076,
      1771223095,
      1771223129,
      1771223150,
      1771223160,
      1771223186,
      1771223204,
      1771223235,
      1771223253,
      1771223301
    ],
    "wof:geomhash": "fc9029f61e35109ea714544ce7203239",
    "wof:id": 2014798683,
    "wof:repo": "sfomuseum-data-flights-2026-02"
  },
  "bbox": [
    -123.50428,
    36.84811,
    -122.10793,
    37.61292
  ],
  "geometry": {"coordinates":[[-123.50428,36.84811],[-123.48022,36.86292],[-123.39761,36.91664],[-123.36017,36.941],[-123.30072,36.97889],[-123.2548,37.00827],[-123.19968,37.04353],[-123.17257,37.06082],[-123.12754,37.08957],[-123.06735,37.12809],[-123.0359,37.1482],[-122.9631,37.19432],[-122.95662,37.19842],[-122.92082,37.2212],[-122.90991,37.22816],[-122.85169,37.25972],[-122.8094,37.2705],[-122.74342,37.2858],[-122.7011,37.29552],[-122.62523,37.313],[-122.61548,37.31531],[-122.56194,37.32784],[-122.53271,37.33468],[-122.48189,37.34639],[-122.43841,37.35634],[-122.40598,37.36381],[-122.33506,37.38011],[-122.31782,37.38415],[-122.29368,37.38966],[-122.2559,37.40242],[-122.21891,37.41656],[-122.18364,37.42553],[-122.17566,37.42733],[-122.15468,37.4323],[-122.11808,37.44289],[-122.11304,37.44669],[-122.10793,37.48962],[-122.12199,37.50511],[-122.13814,37.52042],[-122.16107,37.53076],[-122.18019,37.53891],[-122.21224,37.55258],[-122.23254,37.5611],[-122.24252,37.56532],[-122.26709,37.57566],[-122.28242,37.58212],[-122.30596,37.59206],[-122.31952,37.59763],[-122.35572,37.61292]],"type":"LineString"}
}
