{
  "id": 2014776425,
  "type": "Feature",
  "properties": {
    "geom:area": 0,
    "geom:bbox": "-122.355000,37.641389,-75.033889,43.078333",
    "geom:latitude": 41.65355168518051,
    "geom:longitude": -98.908825900741,
    "src:alt_label": "swim-path",
    "src:geom": "swim",
    "swim:altitudes": [
      "014",
      "036",
      "036",
      "227",
      "239",
      "286",
      "350C",
      "350C",
      "350C",
      "350C",
      "350C",
      "350C",
      "350C",
      "350C",
      "350C",
      "350C",
      "350C",
      "350C",
      "350C",
      "350C",
      "350C",
      "350C",
      "350C",
      "350C",
      "350C",
      "350C",
      "350C",
      "350C",
      "350C",
      "350C",
      "350C",
      "350C",
      "350C",
      "350C",
      "350C",
      "350C",
      "350C",
      "350C",
      "350C",
      "350C",
      "350C",
      "350C",
      "350C",
      "350C",
      "350C",
      "350C",
      "350C",
      "350C",
      "350C",
      "350C",
      "350C",
      "350C",
      "350C",
      "350C",
      "350C",
      "350C",
      "350C",
      "350C",
      "350C",
      "350C",
      "350C",
      "350C",
      "350C",
      "350C",
      "350C",
      "350C",
      "350C",
      "350C",
      "350C",
      "350C",
      "350C",
      "350C",
      "350C",
      "350C",
      "350C",
      "350C",
      "350C",
      "350C",
      "350C",
      "350C",
      "350C",
      "350C",
      "350C",
      "350C",
      "367",
      "370C",
      "370C",
      "370C",
      "370C",
      "370C",
      "370C",
      "370C",
      "370C",
      "370C",
      "370C",
      "370C",
      "370C",
      "370C",
      "370C",
      "370C",
      "370C",
      "370C",
      "370C",
      "370C",
      "370C",
      "370C",
      "370C",
      "370C",
      "370C",
      "370C",
      "370C",
      "370C",
      "370C",
      "370C",
      "370C",
      "370C",
      "370C",
      "370C",
      "370C",
      "370C",
      "370C",
      "370C",
      "370C",
      "370C",
      "370C",
      "370C",
      "370C",
      "370C",
      "370C",
      "370C",
      "370C",
      "370C",
      "370C",
      "370C",
      "370C",
      "370C",
      "370C",
      "370C",
      "370C",
      "370C",
      "370C",
      "370C",
      "370C",
      "370C",
      "370C",
      "370C",
      "370C",
      "370C",
      "370C",
      "370C",
      "370C",
      "370C",
      "370C",
      "370C",
      "370C",
      "370C",
      "370C",
      "370C",
      "370C",
      "370C",
      "370C",
      "370C",
      "370C",
      "370C",
      "370C",
      "370C",
      "370C",
      "370C",
      "370C",
      "370C",
      "370C",
      "370C",
      "370C",
      "370C",
      "370C",
      "370C",
      "370C",
      "370C",
      "370C",
      "370",
      "370",
      "370",
      "370",
      "370",
      "370",
      "370",
      "370",
      "370",
      "268",
      "250C",
      "250C",
      "250C",
      "250",
      "250",
      "250",
      "247",
      "242",
      "237",
      "233",
      "215",
      "206",
      "187",
      "116",
      "100",
      "099",
      "099",
      "088",
      "060",
      "061",
      "060",
      "061",
      "057",
      "048",
      "024",
      "022",
      "020",
      "020",
      "004"
    ],
    "swim:geom": "path",
    "swim:speeds": [
      183,
      185,
      185,
      418,
      432,
      447,
      442,
      442,
      450,
      450,
      450,
      451,
      451,
      451,
      452,
      453,
      453,
      454,
      454,
      455,
      455,
      456,
      453,
      453,
      453,
      453,
      451,
      451,
      449,
      450,
      454,
      455,
      455,
      456,
      458,
      458,
      464,
      466,
      466,
      469,
      477,
      477,
      477,
      477,
      480,
      480,
      481,
      481,
      481,
      482,
      485,
      493,
      495,
      499,
      499,
      499,
      499,
      499,
      500,
      500,
      500,
      500,
      500,
      499,
      499,
      499,
      500,
      499,
      499,
      498,
      495,
      495,
      496,
      497,
      497,
      497,
      498,
      498,
      499,
      499,
      491,
      491,
      491,
      487,
      495,
      501,
      507,
      507,
      507,
      507,
      508,
      508,
      509,
      509,
      510,
      511,
      512,
      514,
      515,
      514,
      514,
      514,
      514,
      514,
      514,
      514,
      514,
      516,
      515,
      515,
      515,
      515,
      514,
      514,
      514,
      514,
      514,
      514,
      514,
      513,
      512,
      511,
      511,
      510,
      509,
      509,
      509,
      509,
      509,
      509,
      509,
      509,
      510,
      510,
      511,
      511,
      511,
      511,
      510,
      510,
      510,
      511,
      512,
      514,
      515,
      516,
      517,
      518,
      518,
      518,
      519,
      519,
      519,
      519,
      519,
      520,
      519,
      519,
      520,
      520,
      519,
      518,
      518,
      518,
      516,
      520,
      525,
      525,
      532,
      530,
      530,
      529,
      530,
      529,
      527,
      525,
      524,
      522,
      520,
      517,
      516,
      515,
      515,
      516,
      515,
      515,
      516,
      516,
      491,
      467,
      440,
      438,
      437,
      437,
      438,
      438,
      442,
      442,
      439,
      405,
      398,
      393,
      364,
      309,
      290,
      290,
      285,
      266,
      266,
      267,
      266,
      261,
      263,
      207,
      186,
      164,
      164,
      146
    ],
    "swim:timestamps": [
      1770967842,
      1770967902,
      1770967902,
      1770968442,
      1770968502,
      1770968742,
      1770969235,
      1770969295,
      1770969595,
      1770969643,
      1770969655,
      1770969835,
      1770969943,
      1770970003,
      1770970063,
      1770970075,
      1770970123,
      1770970183,
      1770970243,
      1770970315,
      1770970315,
      1770970435,
      1770970543,
      1770970543,
      1770970555,
      1770970555,
      1770970603,
      1770970603,
      1770970723,
      1770970796,
      1770970976,
      1770971036,
      1770971036,
      1770971096,
      1770971156,
      1770971156,
      1770971276,
      1770971336,
      1770971336,
      1770971396,
      1770971636,
      1770971636,
      1770971636,
      1770971876,
      1770972116,
      1770972116,
      1770972176,
      1770972176,
      1770972176,
      1770972296,
      1770972537,
      1770972777,
      1770972837,
      1770973017,
      1770973017,
      1770973017,
      1770973017,
      1770973137,
      1770973427,
      1770973487,
      1770973497,
      1770973497,
      1770973557,
      1770973797,
      1770973857,
      1770973857,
      1770973908,
      1770973977,
      1770973977,
      1770974088,
      1770974208,
      1770974277,
      1770974328,
      1770974397,
      1770974397,
      1770974397,
      1770974508,
      1770974508,
      1770974568,
      1770974568,
      1770975048,
      1770975108,
      1770975108,
      1770975368,
      1770975608,
      1770975728,
      1770976149,
      1770976189,
      1770976269,
      1770976309,
      1770976429,
      1770976429,
      1770976449,
      1770976449,
      1770976489,
      1770976509,
      1770976569,
      1770976689,
      1770976809,
      1770976989,
      1770977049,
      1770977109,
      1770977169,
      1770977169,
      1770977169,
      1770977349,
      1770977409,
      1770977649,
      1770977709,
      1770977769,
      1770977769,
      1770977829,
      1770977889,
      1770977889,
      1770977949,
      1770978009,
      1770978033,
      1770978130,
      1770978153,
      1770978213,
      1770978310,
      1770978333,
      1770978333,
      1770978370,
      1770978490,
      1770978490,
      1770978550,
      1770978550,
      1770978633,
      1770978670,
      1770978730,
      1770978730,
      1770978790,
      1770978813,
      1770978873,
      1770978910,
      1770978933,
      1770978933,
      1770978970,
      1770978993,
      1770979090,
      1770979113,
      1770979173,
      1770979270,
      1770979293,
      1770979353,
      1770979413,
      1770979473,
      1770979594,
      1770979594,
      1770979654,
      1770979774,
      1770979774,
      1770979894,
      1770979954,
      1770980074,
      1770980389,
      1770980434,
      1770980570,
      1770980570,
      1770980614,
      1770980674,
      1770980690,
      1770980690,
      1770980914,
      1770981214,
      1770981951,
      1770981951,
      1770982210,
      1770982251,
      1770982251,
      1770982311,
      1770982330,
      1770982390,
      1770982431,
      1770982491,
      1770982551,
      1770982570,
      1770982611,
      1770982630,
      1770982671,
      1770982731,
      1770982811,
      1770982851,
      1770982871,
      1770982871,
      1770982911,
      1770982931,
      1770983171,
      1770983231,
      1770983272,
      1770983291,
      1770983332,
      1770983332,
      1770983351,
      1770983392,
      1770983412,
      1770983452,
      1770983472,
      1770983572,
      1770983632,
      1770983692,
      1770983892,
      1770984012,
      1770984029,
      1770984029,
      1770984089,
      1770984275,
      1770984313,
      1770984335,
      1770984433,
      1770984569,
      1770984613,
      1770984794,
      1770984809,
      1770984869,
      1770984869,
      1770984983
    ],
    "wof:geomhash": "3fedf6a5519e7ccfe01e3f8f372201e6",
    "wof:id": 2014776425,
    "wof:repo": "sfomuseum-data-flights-2026-02"
  },
  "bbox": [
    -122.35499999999999,
    37.64138888888889,
    -75.03388888888888,
    43.07833333333333
  ],
  "geometry": {"coordinates":[[-122.35499999999999,37.64138888888889],[-122.31333333333333,37.678888888888885],[-122.31333333333333,37.678888888888885],[-121.80527777777777,38.291666666666664],[-121.68361111111112,38.36472222222223],[-121.17166666666667,38.67527777777777],[-120.025,39.138333333333335],[-119.88,39.18833333333333],[-119.14083333333333,39.44138888888889],[-119.02083333333333,39.483333333333334],[-118.99111111111111,39.49277777777778],[-118.53916666666666,39.64416666666666],[-118.26694444444445,39.73361111111111],[-118.11527777777778,39.7825],[-117.965,39.831388888888895],[-117.93611111111112,39.840833333333336],[-117.81444444444445,39.88027777777778],[-117.66333333333334,39.92916666666667],[-117.51916666666666,39.975],[-117.3386111111111,40.032222222222224],[-117.3386111111111,40.032222222222224],[-117.03444444444445,40.128055555555555],[-116.76333333333334,40.21277777777778],[-116.76333333333334,40.21277777777778],[-116.73527777777778,40.22138888888889],[-116.73527777777778,40.22138888888889],[-116.5925,40.265277777777776],[-116.5925,40.265277777777776],[-116.31555555555555,40.35],[-116.10555555555555,40.413888888888884],[-115.64444444444445,40.55222222222222],[-115.49027777777778,40.59805555555556],[-115.49027777777778,40.59805555555556],[-115.33222222222221,40.644444444444446],[-115.17694444444444,40.69],[-115.17694444444444,40.69],[-114.85749999999999,40.7825],[-114.69777777777779,40.828611111111115],[-114.69777777777779,40.828611111111115],[-114.5363888888889,40.87444444444444],[-113.90611111111112,41.05166666666666],[-113.90611111111112,41.05166666666666],[-113.90611111111112,41.05166666666666],[-113.24444444444444,41.233333333333334],[-112.57583333333334,41.41138888888889],[-112.57583333333334,41.41138888888889],[-112.40583333333333,41.45611111111111],[-112.40583333333333,41.45611111111111],[-112.40583333333333,41.45611111111111],[-112.06638888888888,41.544444444444444],[-111.38055555555555,41.718611111111116],[-110.67,41.89388888888889],[-110.49388888888889,41.936388888888885],[-109.96000000000001,42.064166666666665],[-109.96000000000001,42.064166666666665],[-109.96000000000001,42.064166666666665],[-109.96000000000001,42.064166666666665],[-109.60249999999999,42.14722222222222],[-108.74166666666667,42.34277777777778],[-108.56194444444444,42.3825],[-108.56194444444444,42.3825],[-108.56194444444444,42.3825],[-108.38166666666666,42.42222222222222],[-107.65861111111111,42.57833333333333],[-107.47888888888889,42.61611111111111],[-107.47888888888889,42.61611111111111],[-107.29583333333333,42.64805555555556],[-107.11083333333333,42.675555555555555],[-107.11083333333333,42.675555555555555],[-106.76222222222222,42.7275],[-106.39694444444446,42.78055555555555],[-106.17666666666668,42.81027777777778],[-106.02805555555555,42.82416666666667],[-105.8025,42.84527777777778],[-105.8025,42.84527777777778],[-105.8025,42.84527777777778],[-105.46611111111112,42.87583333333333],[-105.46611111111112,42.87583333333333],[-105.2786111111111,42.891666666666666],[-105.2786111111111,42.891666666666666],[-103.77361111111111,42.96666666666667],[-103.5886111111111,42.975],[-103.5886111111111,42.975],[-102.78166666666667,43.00666666666667],[-102.03111111111112,43.030833333333334],[-101.65,43.04138888888889],[-100.30916666666667,43.0675],[-100.19638888888889,43.06888888888889],[-99.92722222222223,43.07222222222222],[-99.79305555555555,43.07333333333334],[-99.40555555555557,43.07638888888889],[-99.40555555555557,43.07638888888889],[-99.36722222222221,43.07638888888889],[-99.36722222222221,43.07638888888889],[-99.21277777777777,43.07694444444445],[-99.17083333333333,43.077222222222225],[-98.97500000000001,43.07777777777778],[-98.58583333333333,43.07833333333333],[-98.19694444444445,43.07694444444445],[-97.61333333333333,43.072500000000005],[-97.41861111111112,43.07083333333334],[-97.22472222222223,43.068333333333335],[-97.03027777777778,43.065555555555555],[-97.03027777777778,43.065555555555555],[-97.03027777777778,43.065555555555555],[-96.44861111111112,43.05555555555555],[-96.21555555555555,43.05083333333333],[-95.43583333333333,43.03055555555555],[-95.24083333333333,43.025],[-95.04583333333333,43.01888888888889],[-95.04583333333333,43.01888888888889],[-94.85194444444444,43.0125],[-94.65722222222223,43.005833333333335],[-94.65722222222223,43.005833333333335],[-94.47222222222223,42.99888888888889],[-94.27694444444444,42.99138888888889],[-94.20194444444445,42.98833333333334],[-93.88944444444445,42.97555555555556],[-93.81361111111111,42.972500000000004],[-93.62055555555555,42.96388888888889],[-93.30916666666667,42.95],[-93.2325,42.94638888888888],[-93.2325,42.94638888888888],[-93.11722222222221,42.940555555555555],[-92.73472222222222,42.920833333333334],[-92.73472222222222,42.920833333333334],[-92.54055555555556,42.910555555555554],[-92.54055555555556,42.910555555555554],[-92.27388888888889,42.89555555555555],[-92.15805555555556,42.88861111111111],[-91.96472222222222,42.87694444444445],[-91.96472222222222,42.87694444444445],[-91.77472222222222,42.85527777777778],[-91.69611111111111,42.84666666666667],[-91.535,42.82888888888889],[-91.41638888888889,42.815555555555555],[-91.34194444444444,42.80694444444444],[-91.34194444444444,42.80694444444444],[-91.22416666666666,42.79333333333333],[-91.15027777777779,42.78472222222222],[-90.84555555555555,42.74861111111111],[-90.7713888888889,42.73972222222222],[-90.5786111111111,42.71611111111111],[-90.26972222222223,42.67861111111111],[-90.19444444444444,42.66916666666666],[-90.00222222222222,42.64472222222222],[-89.81,42.62],[-89.61888888888888,42.59527777777778],[-89.23805555555556,42.544999999999995],[-89.23805555555556,42.544999999999995],[-89.04555555555555,42.51888888888889],[-88.62805555555555,42.461666666666666],[-88.62805555555555,42.461666666666666],[-88.2461111111111,42.407222222222224],[-88.05749999999999,42.38],[-87.67166666666667,42.323055555555555],[-86.7088888888889,42.17583333333333],[-86.5325,42.147777777777776],[-86.10638888888889,42.078611111111115],[-86.10638888888889,42.078611111111115],[-85.96361111111112,42.055277777777775],[-85.80361111111111,42.02916666666667],[-85.73777777777778,42.018055555555556],[-85.73777777777778,42.018055555555556],[-85.05416666666666,41.901666666666664],[-84.1125,41.727222222222224],[-81.85944444444443,41.16222222222222],[-81.85944444444443,41.16222222222222],[-81.06416666666667,40.94944444444444],[-80.95083333333334,40.91888888888889],[-80.95083333333334,40.91888888888889],[-80.76666666666667,40.86833333333333],[-80.69944444444445,40.85],[-80.51805555555555,40.8],[-80.40694444444445,40.76861111111111],[-80.19583333333334,40.70944444444445],[-80.01722222222222,40.659444444444446],[-79.98166666666667,40.64888888888889],[-79.83777777777777,40.61638888888889],[-79.80111111111111,40.61222222222222],[-79.65222222222222,40.596944444444446],[-79.4675,40.57777777777778],[-79.24583333333334,40.55444444444444],[-79.09583333333333,40.53861111111111],[-79.06222222222222,40.535],[-79.06222222222222,40.535],[-78.91166666666668,40.51888888888889],[-78.87722222222222,40.515],[-78.12027777777777,40.42944444444444],[-77.95027777777779,40.409166666666664],[-77.85444444444444,40.39805555555556],[-77.79472222222222,40.39111111111111],[-77.69972222222222,40.37888888888889],[-77.69972222222222,40.37888888888889],[-77.63777777777779,40.36972222222222],[-77.54277777777777,40.355555555555554],[-77.47972222222222,40.34638888888889],[-77.38527777777779,40.33277777777778],[-77.32388888888889,40.323888888888895],[-77.07527777777777,40.2875],[-76.93416666666667,40.26638888888889],[-76.79305555555555,40.24527777777778],[-76.3386111111111,40.17527777777777],[-76.10583333333332,40.138888888888886],[-76.08333333333333,40.13333333333333],[-76.08333333333333,40.13333333333333],[-75.98333333333333,40.11666666666667],[-75.66666666666667,40.083333333333336],[-75.61777777777777,40.068333333333335],[-75.58333333333333,40.06666666666667],[-75.42805555555556,40.04138888888889],[-75.21666666666667,40.016666666666666],[-75.1463888888889,40.00055555555556],[-75.03388888888888,39.920833333333334],[-75.05,39.916666666666664],[-75.1,39.9],[-75.1,39.9],[-75.2,39.88333333333333]],"type":"LineString"}
}
