{
  "id": 2014797487,
  "type": "Feature",
  "properties": {
    "geom:area": 0,
    "geom:bbox": "-122.476620,36.744150,-121.897940,37.843600",
    "geom:latitude": 37.362602969581985,
    "geom:longitude": -122.27954791372812,
    "src:alt_label": "swim-approach",
    "src:geom": "swim",
    "swim:elevations": [
      5735,
      5619,
      5316,
      5091,
      4705,
      4431,
      4291,
      4049,
      3740,
      3586,
      3355,
      3353,
      3353,
      3353,
      3353,
      3353,
      3167,
      3086,
      2840,
      2590,
      2403,
      2333,
      2076,
      1858,
      1829,
      1829,
      1829,
      1855,
      1829,
      1778,
      1674,
      1567,
      1498,
      1363,
      1189,
      1124,
      1014,
      903,
      769,
      731,
      700,
      552,
      394,
      264,
      137,
      8,
      0
    ],
    "swim:geom": "approach",
    "swim:timestamps": [
      1771179979,
      1771179991,
      1771180026,
      1771180055,
      1771180103,
      1771180138,
      1771180157,
      1771180187,
      1771180227,
      1771180248,
      1771180292,
      1771180318,
      1771180330,
      1771180374,
      1771180387,
      1771180434,
      1771180469,
      1771180480,
      1771180519,
      1771180558,
      1771180585,
      1771180594,
      1771180635,
      1771180673,
      1771180696,
      1771180702,
      1771180712,
      1771180746,
      1771180796,
      1771180819,
      1771180840,
      1771180861,
      1771180880,
      1771180911,
      1771180948,
      1771180966,
      1771180990,
      1771181019,
      1771181064,
      1771181070,
      1771181079,
      1771181105,
      1771181146,
      1771181185,
      1771181215,
      1771181248,
      1771181251
    ],
    "wof:geomhash": "d1d6665f4adf1ae52bac72afa807f156",
    "wof:id": 2014797487,
    "wof:repo": "sfomuseum-data-flights-2026-02"
  },
  "bbox": [
    -122.47662,
    36.74415,
    -121.89794,
    37.8436
  ],
  "geometry": {"coordinates":[[-121.89794,36.74415],[-121.91521,36.76127],[-121.96334,36.80741],[-122.00336,36.84554],[-122.0679,36.907],[-122.11542,36.95217],[-122.14076,36.97616],[-122.17965,37.013],[-122.22907,37.05973],[-122.25475,37.08388],[-122.29843,37.13844],[-122.31205,37.1765],[-122.31818,37.19432],[-122.3401,37.25824],[-122.34681,37.27784],[-122.37044,37.34642],[-122.38717,37.39499],[-122.39296,37.41175],[-122.41149,37.46528],[-122.42935,37.51719],[-122.44155,37.5525],[-122.44552,37.56414],[-122.46358,37.61637],[-122.47662,37.66313],[-122.47049,37.69106],[-122.46812,37.69803],[-122.4642,37.70917],[-122.44396,37.74667],[-122.39786,37.79215],[-122.37712,37.81297],[-122.35528,37.83125],[-122.32889,37.84165],[-122.30553,37.8436],[-122.27227,37.83553],[-122.25103,37.81325],[-122.25406,37.80033],[-122.26383,37.78406],[-122.27529,37.76493],[-122.29516,37.73544],[-122.29786,37.73153],[-122.30187,37.72572],[-122.31354,37.70813],[-122.32931,37.68422],[-122.34304,37.66363],[-122.35433,37.64656],[-122.36691,37.6279],[-122.36829,37.62618]],"type":"LineString"}
}
