{
  "id": 2014884551,
  "type": "Feature",
  "properties": {
    "geom:area": 0,
    "geom:bbox": "-156.033333,19.783333,-122.789722,37.766667",
    "geom:latitude": 30.71592686509465,
    "geom:longitude": -141.2477714727202,
    "src:alt_label": "swim-path",
    "src:geom": "swim",
    "swim:altitudes": [
      "113",
      "240",
      "289C",
      "342C",
      "380C",
      "380C",
      "380",
      "380C",
      "380C",
      "380C",
      "380C",
      "380C",
      "380C",
      "380",
      "380C",
      "380C",
      "380C",
      "380",
      "380",
      "380C",
      "380C",
      "380C",
      "380",
      "380",
      "380",
      "380",
      "380",
      "380",
      "380",
      "380",
      "380",
      "380",
      "380",
      "380",
      "380",
      "380",
      "380",
      "380T",
      "380T",
      "380T",
      "380T",
      "371T",
      "331T",
      "331T",
      "281T",
      "221T",
      "179T",
      "179T",
      "149T",
      "127T",
      "114T",
      "100T",
      "084T",
      "039T",
      "030T",
      "028T",
      "028T",
      "009T"
    ],
    "swim:geom": "path",
    "swim:speeds": [
      278,
      405,
      420,
      400,
      373,
      373,
      360,
      366,
      366,
      368,
      369,
      369,
      370,
      370,
      371,
      371,
      371,
      370,
      370,
      370,
      371,
      371,
      420,
      420,
      420,
      430,
      440,
      530,
      530,
      530,
      530,
      530,
      530,
      530,
      530,
      520,
      520,
      530,
      530,
      530,
      520,
      520,
      530,
      530,
      510,
      440,
      420,
      420,
      420,
      390,
      370,
      320,
      290,
      270,
      250,
      200,
      200,
      160
    ],
    "swim:timestamps": [
      1772073770,
      1772074131,
      1772074303,
      1772074483,
      1772074671,
      1772074671,
      1772074783,
      1772074791,
      1772074852,
      1772074912,
      1772074972,
      1772074972,
      1772075092,
      1772075144,
      1772075212,
      1772075212,
      1772075392,
      1772075444,
      1772075444,
      1772075572,
      1772075632,
      1772075632,
      1772090037,
      1772090037,
      1772090099,
      1772090261,
      1772090321,
      1772090441,
      1772090501,
      1772090562,
      1772090562,
      1772090802,
      1772090802,
      1772090862,
      1772090922,
      1772091042,
      1772091102,
      1772091162,
      1772091222,
      1772091283,
      1772091343,
      1772091463,
      1772091583,
      1772091583,
      1772091703,
      1772091883,
      1772092003,
      1772092003,
      1772092063,
      1772092123,
      1772092183,
      1772092243,
      1772092303,
      1772092483,
      1772092543,
      1772092663,
      1772092663,
      1772092783
    ],
    "wof:geomhash": "1f39074e5febfeab01b2846dd216a661",
    "wof:id": 2014884551,
    "wof:repo": "sfomuseum-data-flights-2026-02"
  },
  "bbox": [
    -156.03333333333333,
    19.783333333333335,
    -122.78972222222222,
    37.766666666666666
  ],
  "geometry": {"coordinates":[[-122.78972222222222,37.69222222222222],[-123.58,37.73583333333333],[-124,37.75],[-124.43333333333334,37.766666666666666],[-124.83722222222222,37.74305555555556],[-124.83722222222222,37.74305555555556],[-125.08333333333333,37.71666666666667],[-125.09027777777777,37.71666666666667],[-125.21833333333333,37.70305555555556],[-125.34694444444445,37.68944444444444],[-125.47527777777778,37.67583333333333],[-125.47527777777778,37.67583333333333],[-125.73111111111112,37.64805555555556],[-125.85,37.63333333333333],[-125.98805555555556,37.62027777777778],[-125.98805555555556,37.62027777777778],[-126.37222222222222,37.57805555555556],[-126.48333333333333,37.55],[-126.48333333333333,37.55],[-126.75777777777778,37.53444444444444],[-126.88527777777779,37.51972222222222],[-126.88527777777779,37.51972222222222],[-154.71666666666667,25.05],[-154.71666666666667,25.05],[-154.83333333333334,24.983333333333334],[-155.11666666666667,24.8],[-155.21666666666667,24.733333333333334],[-155.33333333333334,24.483333333333334],[-155.35,24.333333333333332],[-155.38333333333333,24.183333333333334],[-155.38333333333333,24.183333333333334],[-155.5,23.616666666666667],[-155.5,23.616666666666667],[-155.51666666666668,23.466666666666665],[-155.55,23.316666666666666],[-155.6,23.033333333333335],[-155.63333333333333,22.883333333333333],[-155.65,22.75],[-155.68333333333334,22.6],[-155.71666666666667,22.45],[-155.73333333333332,22.316666666666666],[-155.78333333333333,22.016666666666666],[-155.85,21.733333333333334],[-155.85,21.733333333333334],[-155.9,21.45],[-155.96666666666667,21.066666666666666],[-156,20.816666666666666],[-156,20.816666666666666],[-156,20.7],[-156,20.6],[-156,20.483333333333334],[-156.01666666666668,20.4],[-156.01666666666668,20.316666666666666],[-156.01666666666668,20.083333333333332],[-156.01666666666668,20.016666666666666],[-156.01666666666668,19.883333333333333],[-156.01666666666668,19.883333333333333],[-156.03333333333333,19.783333333333335]],"type":"LineString"}
}
