{
  "id": 2014792113,
  "type": "Feature",
  "properties": {
    "geom:area": 0,
    "geom:bbox": "-122.526944,37.631667,-73.439722,43.496944",
    "geom:latitude": 42.011385266864984,
    "geom:longitude": -97.8015219156341,
    "src:alt_label": "swim-path",
    "src:geom": "swim",
    "swim:altitudes": [
      "009",
      "024",
      "024",
      "026",
      "046",
      "046",
      "046",
      "046",
      "098",
      "098",
      "118",
      "137",
      "137",
      "137",
      "137",
      "137",
      "137",
      "232",
      "232",
      "232",
      "232",
      "256",
      "256",
      "256",
      "256",
      "281",
      "281",
      "281",
      "281",
      "289",
      "289",
      "289",
      "289",
      "297",
      "297",
      "297",
      "314",
      "314",
      "330",
      "330",
      "330",
      "330",
      "330",
      "330",
      "345",
      "350C",
      "350C",
      "350C",
      "350C",
      "350C",
      "350C",
      "350C",
      "350C",
      "350C",
      "350C",
      "350C",
      "350C",
      "350C",
      "350C",
      "350C",
      "350C",
      "350C",
      "350C",
      "350C",
      "350C",
      "350C",
      "350C",
      "350C",
      "350C",
      "350C",
      "350C",
      "350C",
      "350C",
      "350C",
      "350C",
      "350C",
      "350C",
      "350C",
      "350C",
      "350C",
      "350C",
      "350C",
      "350C",
      "350C",
      "350C",
      "350C",
      "350C",
      "350C",
      "350C",
      "350C",
      "350C",
      "350C",
      "350C",
      "350C",
      "350C",
      "350C",
      "350C",
      "350C",
      "350C",
      "350C",
      "350C",
      "350C",
      "350C",
      "350C",
      "350C",
      "350C",
      "350C",
      "350C",
      "350C",
      "350C",
      "350C",
      "350C",
      "350C",
      "350C",
      "350C",
      "350C",
      "350C",
      "350C",
      "350C",
      "350C",
      "350C",
      "350C",
      "350C",
      "350C",
      "350C",
      "350C",
      "350C",
      "350C",
      "350C",
      "350C",
      "350C",
      "350C",
      "350C",
      "350C",
      "350C",
      "350C",
      "350C",
      "350C",
      "350C",
      "350C",
      "350C",
      "350C",
      "350C",
      "350C",
      "350C",
      "350C",
      "350C",
      "350C",
      "350C",
      "350C",
      "350C",
      "350C",
      "350C",
      "350C",
      "350C",
      "350C",
      "350C",
      "350C",
      "350C",
      "350C",
      "350C",
      "350C",
      "350C",
      "350C",
      "350C",
      "350C",
      "350C",
      "350C",
      "350C",
      "350C",
      "350C",
      "350C",
      "350C",
      "350C",
      "350C",
      "350C",
      "350C",
      "350C",
      "350C",
      "350C",
      "350C",
      "350C",
      "350C",
      "350C",
      "350C",
      "350C",
      "350C",
      "350C",
      "350C",
      "350C",
      "350C",
      "350C",
      "350C",
      "350C",
      "350C",
      "350C",
      "350C",
      "350C",
      "350C",
      "350C",
      "350C",
      "350C",
      "350C",
      "350C",
      "350C",
      "350C",
      "350C",
      "350C",
      "350C",
      "350C",
      "350C",
      "350C",
      "350C",
      "350C",
      "350C",
      "350C",
      "350C",
      "350C",
      "350C",
      "350",
      "350",
      "350",
      "350",
      "358",
      "358",
      "358",
      "370C",
      "370C",
      "370C",
      "370C",
      "370C",
      "370C",
      "370C",
      "370C",
      "370C",
      "370C",
      "370C",
      "370C",
      "370C",
      "370C",
      "370C",
      "370C",
      "370C",
      "370C",
      "370C",
      "370C",
      "370C",
      "370C",
      "370C",
      "370C",
      "370C",
      "370C",
      "370C",
      "370C",
      "370C",
      "370C",
      "370C",
      "370C",
      "370C",
      "370C",
      "370C",
      "370C",
      "370C",
      "370C",
      "370C",
      "370C",
      "370C",
      "370C",
      "370C",
      "370C",
      "370C",
      "370C",
      "370C",
      "370C",
      "370C",
      "370C",
      "370C",
      "370C",
      "370C",
      "370C",
      "370C",
      "370C",
      "370C",
      "370C",
      "370C",
      "370C",
      "370C",
      "370C",
      "370C",
      "370C",
      "370C",
      "370C",
      "370C",
      "370C",
      "370C",
      "370C",
      "370C",
      "370C",
      "370C",
      "370C",
      "370C",
      "370C",
      "370C",
      "370C",
      "370C",
      "370C",
      "370C",
      "370C",
      "370C",
      "370C",
      "370C",
      "370C",
      "370C",
      "370C",
      "370C",
      "370C",
      "370C",
      "370C",
      "370C",
      "370C",
      "370C",
      "370C",
      "370C",
      "370C",
      "370C",
      "370C",
      "370C",
      "370C",
      "370C",
      "370C",
      "370C",
      "370C",
      "370C",
      "370C",
      "370C",
      "370C",
      "370C",
      "370C",
      "370C",
      "370C",
      "370C",
      "370C",
      "370C",
      "370C",
      "370C",
      "370C",
      "370C",
      "370C",
      "370C",
      "370C",
      "370C",
      "370C",
      "370C",
      "370C",
      "370C",
      "370C",
      "370C",
      "370C",
      "370C",
      "370C",
      "370C",
      "370C",
      "370C",
      "370C",
      "370C",
      "370C",
      "370C",
      "370C",
      "362",
      "362",
      "362",
      "314",
      "314",
      "314",
      "236",
      "236",
      "236",
      "230C",
      "230C",
      "230C",
      "230",
      "230",
      "216",
      "216",
      "216",
      "216",
      "195",
      "190C",
      "190C",
      "190C",
      "190C",
      "190",
      "190",
      "187",
      "177",
      "177",
      "160",
      "160",
      "160",
      "147",
      "141",
      "141",
      "141",
      "131",
      "131",
      "131",
      "106",
      "106",
      "098",
      "098",
      "082",
      "082",
      "040",
      "040",
      "040",
      "040",
      "040",
      "040",
      "040",
      "040",
      "040",
      "040",
      "040",
      "040",
      "040",
      "040",
      "040",
      "040",
      "040",
      "040",
      "040",
      "040",
      "040",
      "040",
      "040",
      "040",
      "032",
      "032",
      "032",
      "027",
      "027",
      "027",
      "020",
      "020",
      "009",
      "005",
      "005",
      "005"
    ],
    "swim:geom": "path",
    "swim:speeds": [
      190,
      246,
      246,
      275,
      285,
      285,
      285,
      285,
      303,
      303,
      330,
      354,
      354,
      354,
      354,
      354,
      354,
      458,
      458,
      458,
      458,
      477,
      477,
      477,
      477,
      491,
      491,
      491,
      491,
      499,
      499,
      499,
      499,
      509,
      509,
      509,
      521,
      521,
      526,
      526,
      526,
      527,
      527,
      527,
      532,
      534,
      534,
      534,
      534,
      534,
      534,
      531,
      531,
      531,
      531,
      532,
      531,
      531,
      530,
      530,
      530,
      529,
      529,
      530,
      530,
      530,
      530,
      531,
      532,
      533,
      533,
      534,
      534,
      534,
      534,
      529,
      528,
      528,
      527,
      527,
      527,
      526,
      526,
      525,
      525,
      524,
      524,
      523,
      523,
      523,
      523,
      521,
      521,
      521,
      521,
      522,
      523,
      522,
      522,
      522,
      521,
      519,
      519,
      519,
      519,
      519,
      516,
      516,
      516,
      515,
      515,
      515,
      515,
      514,
      514,
      514,
      515,
      515,
      515,
      517,
      518,
      518,
      518,
      518,
      519,
      519,
      518,
      518,
      517,
      517,
      517,
      515,
      515,
      515,
      515,
      514,
      512,
      512,
      512,
      511,
      511,
      511,
      511,
      510,
      510,
      511,
      511,
      511,
      511,
      511,
      511,
      511,
      511,
      509,
      509,
      509,
      509,
      509,
      514,
      513,
      513,
      513,
      512,
      512,
      512,
      510,
      510,
      510,
      508,
      508,
      509,
      508,
      508,
      509,
      509,
      509,
      509,
      508,
      508,
      508,
      505,
      505,
      505,
      500,
      500,
      500,
      500,
      500,
      498,
      498,
      498,
      498,
      496,
      495,
      494,
      495,
      495,
      495,
      493,
      490,
      490,
      489,
      489,
      488,
      488,
      488,
      482,
      482,
      482,
      482,
      480,
      480,
      480,
      480,
      480,
      480,
      483,
      483,
      483,
      487,
      487,
      487,
      487,
      487,
      487,
      487,
      495,
      495,
      495,
      495,
      498,
      498,
      498,
      498,
      498,
      498,
      498,
      498,
      499,
      499,
      499,
      499,
      504,
      504,
      504,
      504,
      507,
      507,
      507,
      510,
      510,
      510,
      510,
      507,
      507,
      507,
      507,
      509,
      509,
      509,
      518,
      518,
      518,
      518,
      526,
      526,
      526,
      530,
      530,
      530,
      530,
      532,
      533,
      533,
      534,
      534,
      536,
      536,
      536,
      536,
      536,
      537,
      540,
      540,
      545,
      545,
      547,
      547,
      547,
      547,
      547,
      552,
      552,
      552,
      552,
      552,
      552,
      552,
      551,
      551,
      550,
      550,
      550,
      544,
      544,
      544,
      542,
      542,
      542,
      542,
      542,
      543,
      543,
      543,
      546,
      546,
      546,
      546,
      546,
      547,
      548,
      548,
      548,
      549,
      550,
      550,
      550,
      553,
      553,
      553,
      553,
      553,
      548,
      548,
      550,
      550,
      545,
      545,
      545,
      545,
      537,
      537,
      537,
      537,
      536,
      536,
      535,
      535,
      535,
      535,
      535,
      535,
      535,
      535,
      535,
      536,
      536,
      536,
      536,
      539,
      539,
      540,
      540,
      541,
      541,
      541,
      541,
      541,
      542,
      542,
      542,
      542,
      542,
      542,
      463,
      463,
      463,
      454,
      454,
      454,
      398,
      398,
      371,
      371,
      371,
      371,
      353,
      375,
      375,
      375,
      375,
      373,
      373,
      376,
      374,
      374,
      355,
      355,
      355,
      346,
      347,
      347,
      347,
      341,
      341,
      341,
      311,
      311,
      295,
      295,
      303,
      303,
      255,
      255,
      257,
      257,
      255,
      257,
      257,
      256,
      256,
      254,
      254,
      254,
      255,
      254,
      232,
      232,
      232,
      208,
      212,
      208,
      208,
      208,
      196,
      196,
      177,
      177,
      177,
      172,
      172,
      172,
      179,
      179,
      158,
      161,
      161,
      161
    ],
    "swim:timestamps": [
      1771090178,
      1771090238,
      1771090238,
      1771090246,
      1771090298,
      1771090298,
      1771090298,
      1771090298,
      1771090418,
      1771090418,
      1771090479,
      1771090539,
      1771090539,
      1771090539,
      1771090539,
      1771090539,
      1771090539,
      1771090899,
      1771090899,
      1771090899,
      1771090899,
      1771091019,
      1771091019,
      1771091019,
      1771091019,
      1771091139,
      1771091139,
      1771091139,
      1771091139,
      1771091199,
      1771091199,
      1771091199,
      1771091199,
      1771091260,
      1771091260,
      1771091260,
      1771091380,
      1771091380,
      1771091500,
      1771091500,
      1771091522,
      1771091560,
      1771091560,
      1771091560,
      1771091715,
      1771091800,
      1771091800,
      1771091800,
      1771091835,
      1771092015,
      1771092015,
      1771092101,
      1771092101,
      1771092101,
      1771092101,
      1771092135,
      1771092195,
      1771092195,
      1771092315,
      1771092315,
      1771092315,
      1771092341,
      1771092341,
      1771092436,
      1771092436,
      1771092461,
      1771092521,
      1771092556,
      1771092616,
      1771092676,
      1771092676,
      1771092856,
      1771092856,
      1771092856,
      1771092856,
      1771093709,
      1771093769,
      1771093769,
      1771093829,
      1771093829,
      1771093829,
      1771093950,
      1771093950,
      1771094010,
      1771094010,
      1771094130,
      1771094130,
      1771094250,
      1771094310,
      1771094310,
      1771094310,
      1771094490,
      1771094490,
      1771094490,
      1771094490,
      1771094731,
      1771094791,
      1771094851,
      1771094851,
      1771094851,
      1771094911,
      1771095031,
      1771095031,
      1771095031,
      1771095031,
      1771095031,
      1771095271,
      1771095271,
      1771095271,
      1771095331,
      1771095331,
      1771095331,
      1771095331,
      1771095452,
      1771095452,
      1771095452,
      1771095512,
      1771095512,
      1771095512,
      1771095553,
      1771095632,
      1771095632,
      1771095632,
      1771095632,
      1771095692,
      1771095692,
      1771095854,
      1771095854,
      1771095884,
      1771095884,
      1771095884,
      1771095944,
      1771095944,
      1771095944,
      1771095944,
      1771096034,
      1771096154,
      1771096154,
      1771096154,
      1771096184,
      1771096184,
      1771096184,
      1771096184,
      1771096274,
      1771096274,
      1771096334,
      1771096334,
      1771096334,
      1771096394,
      1771096394,
      1771096394,
      1771096394,
      1771096394,
      1771096815,
      1771096815,
      1771096815,
      1771096815,
      1771096815,
      1771096935,
      1771097055,
      1771097055,
      1771097055,
      1771097115,
      1771097115,
      1771097115,
      1771097235,
      1771097235,
      1771097235,
      1771097279,
      1771097279,
      1771097296,
      1771097339,
      1771097339,
      1771097356,
      1771097356,
      1771097356,
      1771097356,
      1771097460,
      1771097460,
      1771097460,
      1771097596,
      1771097596,
      1771097596,
      1771097776,
      1771097776,
      1771097776,
      1771097820,
      1771097820,
      1771097836,
      1771097880,
      1771097880,
      1771097880,
      1771097896,
      1771097956,
      1771098017,
      1771098060,
      1771098060,
      1771098060,
      1771098137,
      1771098241,
      1771098241,
      1771098257,
      1771098257,
      1771098301,
      1771098301,
      1771098301,
      1771098481,
      1771098481,
      1771098481,
      1771098481,
      1771098601,
      1771098601,
      1771098601,
      1771098781,
      1771098781,
      1771098781,
      1771098902,
      1771098902,
      1771098902,
      1771099022,
      1771099022,
      1771099022,
      1771099022,
      1771099082,
      1771099082,
      1771099082,
      1771099262,
      1771099262,
      1771099262,
      1771099262,
      1771099622,
      1771099622,
      1771099622,
      1771099622,
      1771099806,
      1771099806,
      1771099806,
      1771099806,
      1771099923,
      1771099923,
      1771099923,
      1771099923,
      1771100163,
      1771100163,
      1771100163,
      1771100163,
      1771100223,
      1771100223,
      1771100223,
      1771100407,
      1771100407,
      1771100407,
      1771100407,
      1771100524,
      1771100524,
      1771100524,
      1771100524,
      1771100704,
      1771100704,
      1771100704,
      1771100767,
      1771100767,
      1771100767,
      1771100767,
      1771100944,
      1771100944,
      1771100944,
      1771101064,
      1771101064,
      1771101064,
      1771101064,
      1771101124,
      1771101185,
      1771101185,
      1771101248,
      1771101248,
      1771101428,
      1771101428,
      1771101428,
      1771101428,
      1771101428,
      1771101548,
      1771101668,
      1771101668,
      1771101729,
      1771101729,
      1771101789,
      1771101789,
      1771101789,
      1771101789,
      1771101789,
      1771101969,
      1771101969,
      1771101969,
      1771101969,
      1771102089,
      1771102089,
      1771102089,
      1771102149,
      1771102149,
      1771102209,
      1771102209,
      1771102209,
      1771102389,
      1771102389,
      1771102389,
      1771102450,
      1771102450,
      1771102450,
      1771102724,
      1771102724,
      1771102784,
      1771102784,
      1771102784,
      1771102904,
      1771102904,
      1771102930,
      1771102930,
      1771102930,
      1771102990,
      1771103024,
      1771103024,
      1771103050,
      1771103145,
      1771103205,
      1771103205,
      1771103205,
      1771103385,
      1771103385,
      1771103385,
      1771103385,
      1771103385,
      1771103561,
      1771103561,
      1771103681,
      1771103681,
      1771103862,
      1771103862,
      1771103862,
      1771103862,
      1771104286,
      1771104286,
      1771104286,
      1771104286,
      1771104342,
      1771104342,
      1771104466,
      1771104466,
      1771104466,
      1771104466,
      1771104587,
      1771104587,
      1771104587,
      1771104643,
      1771104643,
      1771104763,
      1771104763,
      1771104763,
      1771104763,
      1771105007,
      1771105007,
      1771105063,
      1771105063,
      1771105123,
      1771105123,
      1771105187,
      1771105187,
      1771105187,
      1771105304,
      1771105304,
      1771105304,
      1771105424,
      1771105424,
      1771105424,
      1771105664,
      1771105664,
      1771105664,
      1771105724,
      1771105724,
      1771105724,
      1771105904,
      1771105904,
      1771105993,
      1771105993,
      1771105993,
      1771105993,
      1771106113,
      1771106145,
      1771106145,
      1771106145,
      1771106145,
      1771106238,
      1771106238,
      1771106265,
      1771106298,
      1771106298,
      1771106418,
      1771106418,
      1771106418,
      1771106478,
      1771106505,
      1771106505,
      1771106505,
      1771106538,
      1771106538,
      1771106538,
      1771106626,
      1771106626,
      1771106658,
      1771106658,
      1771106719,
      1771106719,
      1771106926,
      1771106926,
      1771106953,
      1771106953,
      1771106986,
      1771107013,
      1771107013,
      1771107106,
      1771107106,
      1771107133,
      1771107133,
      1771107133,
      1771107166,
      1771107253,
      1771107286,
      1771107286,
      1771107286,
      1771107313,
      1771107347,
      1771107373,
      1771107373,
      1771107373,
      1771107433,
      1771107433,
      1771107527,
      1771107527,
      1771107527,
      1771107553,
      1771107553,
      1771107553,
      1771107613,
      1771107613,
      1771107734,
      1771107767,
      1771107767,
      1771107767
    ],
    "wof:geomhash": "dc708029471743d654d85fcb8ce3511d",
    "wof:id": 2014792113,
    "wof:repo": "sfomuseum-data-flights-2026-02"
  },
  "bbox": [
    -122.52694444444444,
    37.63166666666667,
    -73.43972222222223,
    43.496944444444445
  ],
  "geometry": {"coordinates":[[-122.40527777777778,37.63166666666667],[-122.47416666666666,37.66138888888889],[-122.47416666666666,37.66138888888889],[-122.48333333333333,37.666666666666664],[-122.52694444444444,37.72027777777778],[-122.52694444444444,37.72027777777778],[-122.52694444444444,37.72027777777778],[-122.52694444444444,37.72027777777778],[-122.44638888888889,37.85638888888889],[-122.44638888888889,37.85638888888889],[-122.36138888888888,37.913888888888884],[-122.26722222222222,37.97555555555556],[-122.26722222222222,37.97555555555556],[-122.26722222222222,37.97555555555556],[-122.26722222222222,37.97555555555556],[-122.26722222222222,37.97555555555556],[-122.26722222222222,37.97555555555556],[-121.58999999999999,38.41861111111111],[-121.58999999999999,38.41861111111111],[-121.58999999999999,38.41861111111111],[-121.58999999999999,38.41861111111111],[-121.35055555555554,38.56666666666667],[-121.35055555555554,38.56666666666667],[-121.35055555555554,38.56666666666667],[-121.35055555555554,38.56666666666667],[-121.06583333333333,38.739444444444445],[-121.06583333333333,38.739444444444445],[-121.06583333333333,38.739444444444445],[-121.06583333333333,38.739444444444445],[-120.92444444444445,38.82472222222223],[-120.92444444444445,38.82472222222223],[-120.92444444444445,38.82472222222223],[-120.92444444444445,38.82472222222223],[-120.77833333333334,38.9125],[-120.77833333333334,38.9125],[-120.77833333333334,38.9125],[-120.48416666666667,39.08777777777778],[-120.48416666666667,39.08777777777778],[-120.16583333333334,39.245],[-120.16583333333334,39.245],[-120.09805555555555,39.27305555555555],[-119.99833333333333,39.31666666666667],[-119.99833333333333,39.31666666666667],[-119.99833333333333,39.31666666666667],[-119.56166666666667,39.499722222222225],[-119.32138888888889,39.60305555555556],[-119.32138888888889,39.60305555555556],[-119.32138888888889,39.60305555555556],[-119.22111111111111,39.644444444444446],[-118.7075,39.85777777777778],[-118.7075,39.85777777777778],[-118.46861111111112,39.955555555555556],[-118.46861111111112,39.955555555555556],[-118.46861111111112,39.955555555555556],[-118.46861111111112,39.955555555555556],[-118.40472222222223,39.981388888888894],[-118.19972222222222,40.06444444444444],[-118.19972222222222,40.06444444444444],[-117.86333333333333,40.19944444444444],[-117.86333333333333,40.19944444444444],[-117.86333333333333,40.19944444444444],[-117.7875,40.22972222222222],[-117.7875,40.22972222222222],[-117.52111111111111,40.33527777777778],[-117.52111111111111,40.33527777777778],[-117.45111111111112,40.36277777777778],[-117.2775,40.43083333333333],[-117.17555555555556,40.470555555555556],[-116.99777777777778,40.53972222222222],[-116.81611111111111,40.60277777777778],[-116.81611111111111,40.60277777777778],[-116.30722222222222,40.76277777777778],[-116.30722222222222,40.76277777777778],[-116.30722222222222,40.76277777777778],[-116.30722222222222,40.76277777777778],[-113.71527777777779,41.532222222222224],[-113.53055555555555,41.58416666666667],[-113.53055555555555,41.58416666666667],[-113.34833333333333,41.635],[-113.34833333333333,41.635],[-113.34833333333333,41.635],[-112.98111111111112,41.73638888888889],[-112.98111111111112,41.73638888888889],[-112.79666666666667,41.78666666666666],[-112.79666666666667,41.78666666666666],[-112.42944444444444,41.88583333333333],[-112.42944444444444,41.88583333333333],[-112.06166666666667,41.98388888888889],[-111.87555555555555,42.03111111111111],[-111.87555555555555,42.03111111111111],[-111.87555555555555,42.03111111111111],[-111.31944444444444,42.16444444444444],[-111.31944444444444,42.16444444444444],[-111.31944444444444,42.16444444444444],[-111.31944444444444,42.16444444444444],[-110.55055555555555,42.34388888888889],[-110.36361111111111,42.386944444444445],[-110.17694444444444,42.42944444444444],[-110.17694444444444,42.42944444444444],[-110.17694444444444,42.42944444444444],[-109.98972222222223,42.47138888888889],[-109.65194444444445,42.546388888888885],[-109.65194444444445,42.546388888888885],[-109.65194444444445,42.546388888888885],[-109.65194444444445,42.546388888888885],[-109.65194444444445,42.546388888888885],[-108.90527777777778,42.708333333333336],[-108.90527777777778,42.708333333333336],[-108.90527777777778,42.708333333333336],[-108.72,42.7475],[-108.72,42.7475],[-108.72,42.7475],[-108.72,42.7475],[-108.34583333333333,42.825833333333335],[-108.34583333333333,42.825833333333335],[-108.34583333333333,42.825833333333335],[-108.1563888888889,42.86472222222223],[-108.1563888888889,42.86472222222223],[-108.1563888888889,42.86472222222223],[-108.00666666666666,42.89333333333333],[-107.77555555555556,42.9325],[-107.77555555555556,42.9325],[-107.77555555555556,42.9325],[-107.77555555555556,42.9325],[-107.56666666666666,42.9675],[-107.56666666666666,42.9675],[-107.065,43.04944444444444],[-107.065,43.04944444444444],[-106.95666666666666,43.066944444444445],[-106.95666666666666,43.066944444444445],[-106.95666666666666,43.066944444444445],[-106.75916666666667,43.09861111111111],[-106.75916666666667,43.09861111111111],[-106.75916666666667,43.09861111111111],[-106.75916666666667,43.09861111111111],[-106.49361111111111,43.14055555555556],[-106.11333333333333,43.19888888888889],[-106.11333333333333,43.19888888888889],[-106.11333333333333,43.19888888888889],[-105.99666666666667,43.21666666666667],[-105.99666666666667,43.21666666666667],[-105.99666666666667,43.21666666666667],[-105.99666666666667,43.21666666666667],[-105.73111111111112,43.256388888888885],[-105.73111111111112,43.256388888888885],[-105.53999999999999,43.28472222222222],[-105.53999999999999,43.28472222222222],[-105.53999999999999,43.28472222222222],[-105.34944444444444,43.3125],[-105.34944444444444,43.3125],[-105.34944444444444,43.3125],[-105.34944444444444,43.3125],[-105.34944444444444,43.3125],[-104.00638888888889,43.496944444444445],[-104.00638888888889,43.496944444444445],[-104.00638888888889,43.496944444444445],[-104.00638888888889,43.496944444444445],[-104.00638888888889,43.496944444444445],[-103.61222222222221,43.48861111111111],[-103.22,43.476111111111116],[-103.22,43.476111111111116],[-103.22,43.476111111111116],[-103.02333333333333,43.469166666666666],[-103.02333333333333,43.469166666666666],[-103.02333333333333,43.469166666666666],[-102.63722222222223,43.45472222222222],[-102.63722222222223,43.45472222222222],[-102.63722222222223,43.45472222222222],[-102.48777777777778,43.44888888888889],[-102.48777777777778,43.44888888888889],[-102.44083333333333,43.44694444444444],[-102.29555555555555,43.44083333333333],[-102.29555555555555,43.44083333333333],[-102.24722222222222,43.43888888888888],[-102.24722222222222,43.43888888888888],[-102.24722222222222,43.43888888888888],[-102.24722222222222,43.43888888888888],[-101.9113888888889,43.424166666666665],[-101.9113888888889,43.424166666666665],[-101.9113888888889,43.424166666666665],[-101.47666666666667,43.40361111111111],[-101.47666666666667,43.40361111111111],[-101.47666666666667,43.40361111111111],[-100.88527777777779,43.37277777777778],[-100.88527777777779,43.37277777777778],[-100.88527777777779,43.37277777777778],[-100.76944444444445,43.36638888888889],[-100.76944444444445,43.36638888888889],[-100.69722222222222,43.362500000000004],[-100.58083333333333,43.35583333333334],[-100.58083333333333,43.35583333333334],[-100.58083333333333,43.35583333333334],[-100.51166666666667,43.35194444444445],[-100.32138888888889,43.34055555555556],[-100.13361111111112,43.32916666666667],[-100.02166666666666,43.32222222222222],[-100.02166666666666,43.32222222222222],[-100.02166666666666,43.32222222222222],[-99.76138888888889,43.30555555555555],[-99.465,43.28638888888889],[-99.465,43.28638888888889],[-99.40305555555557,43.282222222222224],[-99.40305555555557,43.282222222222224],[-99.28305555555555,43.27388888888889],[-99.28305555555555,43.27388888888889],[-99.28305555555555,43.27388888888889],[-98.715,43.233333333333334],[-98.715,43.233333333333334],[-98.715,43.233333333333334],[-98.715,43.233333333333334],[-98.35444444444444,43.20638888888889],[-98.35444444444444,43.20638888888889],[-98.35444444444444,43.20638888888889],[-97.81166666666667,43.16305555555555],[-97.81166666666667,43.16305555555555],[-97.81166666666667,43.16305555555555],[-97.44888888888889,43.132777777777775],[-97.44888888888889,43.132777777777775],[-97.44888888888889,43.132777777777775],[-97.08055555555555,43.100833333333334],[-97.08055555555555,43.100833333333334],[-97.08055555555555,43.100833333333334],[-97.08055555555555,43.100833333333334],[-96.90027777777779,43.084722222222226],[-96.90027777777779,43.084722222222226],[-96.90027777777779,43.084722222222226],[-96.3425,43.03333333333333],[-96.3425,43.03333333333333],[-96.3425,43.03333333333333],[-96.3425,43.03333333333333],[-95.21666666666667,42.976111111111116],[-95.21666666666667,42.976111111111116],[-95.21666666666667,42.976111111111116],[-95.21666666666667,42.976111111111116],[-94.6613888888889,42.95583333333334],[-94.6613888888889,42.95583333333334],[-94.6613888888889,42.95583333333334],[-94.6613888888889,42.95583333333334],[-94.28444444444445,42.94027777777777],[-94.28444444444445,42.94027777777777],[-94.28444444444445,42.94027777777777],[-94.28444444444445,42.94027777777777],[-93.53083333333333,42.906388888888884],[-93.53083333333333,42.906388888888884],[-93.53083333333333,42.906388888888884],[-93.53083333333333,42.906388888888884],[-93.33611111111111,42.89666666666667],[-93.33611111111111,42.89666666666667],[-93.33611111111111,42.89666666666667],[-92.72055555555556,42.86361111111111],[-92.72055555555556,42.86361111111111],[-92.72055555555556,42.86361111111111],[-92.72055555555556,42.86361111111111],[-92.37888888888888,42.844166666666666],[-92.37888888888888,42.844166666666666],[-92.37888888888888,42.844166666666666],[-92.37888888888888,42.844166666666666],[-91.80583333333333,42.808055555555555],[-91.80583333333333,42.808055555555555],[-91.80583333333333,42.808055555555555],[-91.59777777777778,42.794999999999995],[-91.59777777777778,42.794999999999995],[-91.59777777777778,42.794999999999995],[-91.59777777777778,42.794999999999995],[-90.99805555555555,42.75388888888889],[-90.99805555555555,42.75388888888889],[-90.99805555555555,42.75388888888889],[-90.59888888888888,42.724722222222226],[-90.59888888888888,42.724722222222226],[-90.59888888888888,42.724722222222226],[-90.59888888888888,42.724722222222226],[-90.39944444444446,42.70944444444445],[-90.19805555555556,42.693888888888885],[-90.19805555555556,42.693888888888885],[-89.99722222222222,42.67805555555555],[-89.99722222222222,42.67805555555555],[-89.36888888888888,42.62583333333333],[-89.36888888888888,42.62583333333333],[-89.36888888888888,42.62583333333333],[-89.36888888888888,42.62583333333333],[-89.36888888888888,42.62583333333333],[-88.96972222222223,42.590833333333336],[-88.56805555555555,42.553888888888885],[-88.56805555555555,42.553888888888885],[-88.36666666666666,42.54888888888889],[-88.36666666666666,42.54888888888889],[-88.16027777777778,42.54805555555556],[-88.16027777777778,42.54805555555556],[-88.16027777777778,42.54805555555556],[-88.16027777777778,42.54805555555556],[-88.16027777777778,42.54805555555556],[-87.5261111111111,42.54416666666666],[-87.5261111111111,42.54416666666666],[-87.5261111111111,42.54416666666666],[-87.5261111111111,42.54416666666666],[-87.11055555555555,42.53944444444444],[-87.11055555555555,42.53944444444444],[-87.11055555555555,42.53944444444444],[-86.90166666666667,42.53638888888889],[-86.90166666666667,42.53638888888889],[-86.69694444444445,42.533055555555556],[-86.69694444444445,42.533055555555556],[-86.69694444444445,42.533055555555556],[-86.11194444444443,42.521388888888886],[-86.11194444444443,42.521388888888886],[-86.11194444444443,42.521388888888886],[-85.91305555555556,42.51694444444444],[-85.91305555555556,42.51694444444444],[-85.91305555555556,42.51694444444444],[-84.98222222222222,42.490833333333335],[-84.98222222222222,42.490833333333335],[-84.78,42.48444444444444],[-84.78,42.48444444444444],[-84.78,42.48444444444444],[-84.3611111111111,42.469166666666666],[-84.3611111111111,42.469166666666666],[-84.2461111111111,42.465],[-84.2461111111111,42.465],[-84.2461111111111,42.465],[-84.03888888888889,42.456944444444446],[-83.94833333333334,42.45305555555556],[-83.94833333333334,42.45305555555556],[-83.83666666666666,42.44833333333333],[-83.53083333333333,42.43527777777778],[-83.33916666666666,42.42666666666666],[-83.33916666666666,42.42666666666666],[-83.33916666666666,42.42666666666666],[-82.69250000000001,42.39472222222222],[-82.69250000000001,42.39472222222222],[-82.69250000000001,42.39472222222222],[-82.69250000000001,42.39472222222222],[-82.69250000000001,42.39472222222222],[-82.07833333333333,42.35888888888889],[-82.07833333333333,42.35888888888889],[-81.66472222222222,42.33583333333333],[-81.66472222222222,42.33583333333333],[-81.05388888888889,42.30472222222222],[-81.05388888888889,42.30472222222222],[-81.05388888888889,42.30472222222222],[-81.05388888888889,42.30472222222222],[-79.64694444444446,42.22361111111111],[-79.64694444444446,42.22361111111111],[-79.64694444444446,42.22361111111111],[-79.64694444444446,42.22361111111111],[-79.46722222222222,42.21083333333333],[-79.46722222222222,42.21083333333333],[-79.05083333333333,42.17111111111111],[-79.05083333333333,42.17111111111111],[-79.05083333333333,42.17111111111111],[-79.05083333333333,42.17111111111111],[-78.67194444444445,42.07611111111112],[-78.67194444444445,42.07611111111112],[-78.67194444444445,42.07611111111112],[-78.5075,42.034166666666664],[-78.5075,42.034166666666664],[-78.13138888888888,41.937777777777775],[-78.13138888888888,41.937777777777775],[-78.13138888888888,41.937777777777775],[-78.13138888888888,41.937777777777775],[-77.34416666666667,41.730555555555554],[-77.34416666666667,41.730555555555554],[-77.15361111111112,41.67972222222222],[-77.15361111111112,41.67972222222222],[-76.965,41.628055555555555],[-76.965,41.628055555555555],[-76.77666666666667,41.57666666666667],[-76.77666666666667,41.57666666666667],[-76.77666666666667,41.57666666666667],[-76.43194444444445,41.48166666666667],[-76.43194444444445,41.48166666666667],[-76.43194444444445,41.48166666666667],[-76.04472222222222,41.37388888888889],[-76.04472222222222,41.37388888888889],[-76.04472222222222,41.37388888888889],[-75.38388888888889,41.17055555555555],[-75.38388888888889,41.17055555555555],[-75.38388888888889,41.17055555555555],[-75.21777777777778,41.114444444444445],[-75.21777777777778,41.114444444444445],[-75.21777777777778,41.114444444444445],[-74.79583333333333,40.987500000000004],[-74.79583333333333,40.987500000000004],[-74.58333333333333,40.983333333333334],[-74.58333333333333,40.983333333333334],[-74.58333333333333,40.983333333333334],[-74.58333333333333,40.983333333333334],[-74.35,41.06666666666667],[-74.275,41.05611111111111],[-74.275,41.05611111111111],[-74.275,41.05611111111111],[-74.275,41.05611111111111],[-74.16666666666667,40.916666666666664],[-74.16666666666667,40.916666666666664],[-74.1575,40.87638888888889],[-74.13333333333334,40.81666666666667],[-74.13333333333334,40.81666666666667],[-74.05,40.63333333333333],[-74.05,40.63333333333333],[-74.05,40.63333333333333],[-74,40.53333333333333],[-73.98111111111112,40.49722222222222],[-73.98111111111112,40.49722222222222],[-73.98111111111112,40.49722222222222],[-73.93333333333334,40.45],[-73.93333333333334,40.45],[-73.93333333333334,40.45],[-73.86666666666666,40.34],[-73.86666666666666,40.34],[-73.88333333333334,40.3],[-73.88333333333334,40.3],[-73.91666666666667,40.21666666666667],[-73.91666666666667,40.21666666666667],[-73.70472222222223,40.221944444444446],[-73.70472222222223,40.221944444444446],[-73.68333333333334,40.25],[-73.68333333333334,40.25],[-73.67194444444445,40.276666666666664],[-73.63333333333334,40.31666666666667],[-73.63333333333334,40.31666666666667],[-73.57444444444444,40.39833333333333],[-73.57444444444444,40.39833333333333],[-73.55,40.43333333333333],[-73.55,40.43333333333333],[-73.55,40.43333333333333],[-73.52638888888889,40.45805555555556],[-73.45,40.55],[-73.43972222222223,40.57972222222222],[-73.43972222222223,40.57972222222222],[-73.43972222222223,40.57972222222222],[-73.45,40.61666666666667],[-73.4525,40.63805555555555],[-73.46666666666667,40.666666666666664],[-73.46666666666667,40.666666666666664],[-73.46666666666667,40.666666666666664],[-73.48333333333333,40.733333333333334],[-73.48333333333333,40.733333333333334],[-73.55805555555555,40.76861111111111],[-73.55805555555555,40.76861111111111],[-73.55805555555555,40.76861111111111],[-73.58333333333333,40.766666666666666],[-73.58333333333333,40.766666666666666],[-73.58333333333333,40.766666666666666],[-73.65,40.766666666666666],[-73.65,40.766666666666666],[-73.71666666666667,40.68333333333333],[-73.73972222222223,40.66444444444444],[-73.73972222222223,40.66444444444444],[-73.73972222222223,40.66444444444444]],"type":"LineString"}
}
