{
  "id": 2014880387,
  "type": "Feature",
  "properties": {
    "geom:area": 0,
    "geom:bbox": "-122.345000,37.454167,-88.042222,42.040556",
    "geom:latitude": 40.13998196304809,
    "geom:longitude": -105.2795355517033,
    "src:alt_label": "swim-path",
    "src:geom": "swim",
    "swim:altitudes": [
      "035",
      "035",
      "035",
      "197",
      "197",
      "197",
      "229",
      "229",
      "229",
      "229",
      "270",
      "270",
      "270",
      "270",
      "297",
      "300C",
      "300C",
      "300C",
      "300C",
      "300C",
      "300C",
      "300C",
      "300C",
      "300C",
      "300C",
      "300C",
      "300C",
      "300C",
      "300C",
      "300C",
      "300C",
      "300C",
      "300C",
      "300C",
      "300C",
      "300C",
      "300C",
      "300C",
      "300C",
      "300C",
      "300C",
      "300C",
      "300C",
      "300C",
      "300C",
      "300C",
      "300C",
      "300C",
      "300C",
      "300C",
      "300C",
      "300C",
      "300C",
      "300C",
      "300C",
      "300C",
      "300C",
      "300C",
      "300C",
      "300C",
      "300C",
      "300C",
      "300C",
      "300C",
      "300C",
      "300C",
      "300C",
      "300C",
      "300C",
      "300C",
      "300C",
      "300C",
      "300C",
      "300C",
      "300C",
      "300C",
      "300C",
      "300C",
      "300C",
      "300C",
      "300C",
      "300C",
      "300C",
      "300C",
      "300C",
      "300C",
      "300C",
      "300C",
      "300C",
      "300C",
      "300C",
      "300C",
      "300C",
      "300C",
      "300C",
      "300C",
      "300C",
      "300C",
      "300C",
      "300C",
      "300C",
      "300C",
      "300C",
      "300C",
      "300C",
      "300C",
      "300C",
      "300C",
      "300C",
      "300C",
      "300C",
      "300C",
      "300C",
      "300C",
      "300C",
      "300C",
      "300C",
      "300C",
      "300C",
      "300C",
      "300C",
      "300C",
      "300C",
      "300C",
      "300C",
      "300C",
      "300C",
      "300C",
      "300C",
      "300C",
      "300C",
      "300C",
      "300C",
      "300C",
      "300",
      "300",
      "300",
      "320C",
      "320C",
      "320C",
      "320C",
      "320C",
      "320C",
      "320C",
      "320C",
      "320C",
      "320C",
      "320C",
      "320C",
      "320C",
      "320C",
      "320C",
      "320C",
      "320C",
      "320C",
      "320C",
      "320C",
      "320C",
      "320C",
      "320C",
      "320C",
      "320C",
      "320C",
      "320C",
      "320C",
      "320C",
      "320C",
      "320C",
      "320C",
      "320C",
      "320C",
      "320C",
      "320C",
      "320C",
      "320C",
      "320C",
      "320C",
      "320C",
      "320C",
      "320C",
      "320C",
      "320C",
      "320C",
      "320C",
      "320C",
      "320C",
      "320C",
      "320C",
      "320C",
      "320C",
      "320C",
      "320C",
      "320C",
      "320C",
      "320C",
      "320C",
      "320C",
      "320C",
      "320C",
      "320C",
      "320C",
      "320C",
      "320C",
      "320C",
      "320C",
      "320C",
      "320C",
      "320C",
      "320C",
      "320C",
      "320C",
      "320C",
      "320C",
      "320C",
      "320C",
      "320C",
      "320C",
      "320C",
      "320C",
      "320C",
      "320C",
      "320C",
      "320C",
      "320C",
      "320C",
      "320C",
      "320C",
      "320C",
      "320C",
      "320C",
      "320C",
      "320C",
      "320C",
      "320C",
      "320C",
      "320C",
      "320C",
      "320C",
      "320C",
      "320C",
      "320C",
      "320C",
      "320C",
      "320C",
      "320",
      "309",
      "309",
      "276",
      "276",
      "276",
      "234",
      "195",
      "195",
      "195",
      "157",
      "157",
      "110",
      "110",
      "110",
      "110",
      "107",
      "105",
      "094",
      "094",
      "080",
      "080",
      "070",
      "060",
      "053",
      "053",
      "053",
      "038",
      "038",
      "031",
      "011",
      "003",
      "003"
    ],
    "swim:geom": "path",
    "swim:speeds": [
      231,
      231,
      231,
      361,
      361,
      361,
      372,
      372,
      372,
      372,
      392,
      392,
      392,
      392,
      389,
      377,
      377,
      377,
      374,
      374,
      372,
      372,
      363,
      359,
      359,
      359,
      357,
      356,
      356,
      353,
      353,
      353,
      353,
      353,
      353,
      358,
      358,
      358,
      359,
      362,
      363,
      363,
      363,
      363,
      364,
      365,
      365,
      366,
      366,
      367,
      368,
      368,
      368,
      369,
      369,
      369,
      367,
      367,
      365,
      365,
      365,
      365,
      365,
      365,
      365,
      365,
      364,
      364,
      364,
      364,
      364,
      364,
      365,
      367,
      367,
      367,
      368,
      368,
      369,
      369,
      369,
      370,
      378,
      378,
      378,
      380,
      380,
      381,
      381,
      382,
      383,
      383,
      383,
      384,
      384,
      384,
      384,
      384,
      384,
      384,
      384,
      384,
      386,
      387,
      387,
      389,
      389,
      390,
      390,
      390,
      390,
      390,
      388,
      388,
      380,
      380,
      380,
      380,
      382,
      382,
      384,
      384,
      384,
      384,
      384,
      383,
      383,
      383,
      383,
      380,
      380,
      364,
      364,
      364,
      388,
      388,
      388,
      361,
      361,
      361,
      359,
      359,
      361,
      362,
      363,
      363,
      370,
      370,
      370,
      370,
      376,
      376,
      355,
      355,
      355,
      349,
      349,
      349,
      362,
      362,
      364,
      364,
      364,
      364,
      366,
      366,
      366,
      361,
      365,
      365,
      359,
      359,
      359,
      359,
      361,
      361,
      364,
      364,
      364,
      367,
      368,
      368,
      369,
      369,
      369,
      369,
      371,
      371,
      371,
      373,
      373,
      373,
      375,
      375,
      382,
      382,
      382,
      384,
      384,
      384,
      389,
      390,
      390,
      390,
      388,
      388,
      377,
      377,
      377,
      380,
      380,
      386,
      386,
      386,
      394,
      394,
      391,
      392,
      393,
      393,
      392,
      395,
      396,
      396,
      396,
      396,
      396,
      397,
      397,
      397,
      398,
      398,
      397,
      397,
      397,
      398,
      400,
      401,
      401,
      403,
      403,
      403,
      400,
      400,
      398,
      385,
      385,
      364,
      364,
      364,
      331,
      321,
      321,
      321,
      304,
      304,
      297,
      297,
      241,
      241,
      228,
      232,
      234,
      234,
      234,
      234,
      229,
      227,
      221,
      221,
      221,
      219,
      219,
      195,
      158,
      157,
      157
    ],
    "swim:timestamps": [
      1772033934,
      1772033934,
      1772033934,
      1772034415,
      1772034415,
      1772034415,
      1772034535,
      1772034535,
      1772034535,
      1772034535,
      1772034715,
      1772034715,
      1772034715,
      1772034715,
      1772034836,
      1772034896,
      1772034967,
      1772034967,
      1772035027,
      1772035027,
      1772035136,
      1772035136,
      1772035376,
      1772035437,
      1772035437,
      1772035448,
      1772035497,
      1772035508,
      1772035568,
      1772035737,
      1772035748,
      1772035808,
      1772035868,
      1772035929,
      1772035929,
      1772036158,
      1772036158,
      1772036158,
      1772036218,
      1772036349,
      1772036398,
      1772036409,
      1772036469,
      1772036529,
      1772036578,
      1772036649,
      1772036649,
      1772036698,
      1772036770,
      1772036819,
      1772036890,
      1772036950,
      1772036950,
      1772037130,
      1772037130,
      1772037310,
      1772037431,
      1772037431,
      1772037671,
      1772037731,
      1772037731,
      1772037731,
      1772037851,
      1772037851,
      1772037851,
      1772037851,
      1772038031,
      1772038031,
      1772038031,
      1772038091,
      1772038091,
      1772038091,
      1772038272,
      1772038512,
      1772038512,
      1772038512,
      1772038572,
      1772038572,
      1772038615,
      1772038632,
      1772038632,
      1772038692,
      1772038752,
      1772038752,
      1772038752,
      1772038796,
      1772038796,
      1772038856,
      1772038856,
      1772038916,
      1772038976,
      1772039036,
      1772039036,
      1772039096,
      1772039096,
      1772039156,
      1772039156,
      1772039156,
      1772039216,
      1772039216,
      1772039293,
      1772039293,
      1772039336,
      1772039413,
      1772039413,
      1772039456,
      1772039456,
      1772039517,
      1772039517,
      1772039517,
      1772039577,
      1772039577,
      1772039817,
      1772039817,
      1772039937,
      1772039937,
      1772039937,
      1772039937,
      1772040057,
      1772040057,
      1772040117,
      1772040177,
      1772040177,
      1772040238,
      1772040238,
      1772040478,
      1772040478,
      1772040478,
      1772040478,
      1772040898,
      1772040898,
      1772040959,
      1772040959,
      1772040959,
      1772041139,
      1772041139,
      1772041139,
      1772041319,
      1772041319,
      1772041319,
      1772041379,
      1772041379,
      1772041439,
      1772041499,
      1772041559,
      1772041559,
      1772041619,
      1772041619,
      1772041619,
      1772041619,
      1772041679,
      1772041679,
      1772041860,
      1772041860,
      1772041860,
      1772041920,
      1772041920,
      1772042040,
      1772042100,
      1772042100,
      1772042160,
      1772042160,
      1772042220,
      1772042220,
      1772042295,
      1772042355,
      1772042355,
      1772042400,
      1772042415,
      1772042415,
      1772042581,
      1772042581,
      1772042581,
      1772042581,
      1772042821,
      1772042821,
      1772042881,
      1772042881,
      1772042881,
      1772043076,
      1772043121,
      1772043121,
      1772043182,
      1772043182,
      1772043182,
      1772043182,
      1772043302,
      1772043302,
      1772043302,
      1772043437,
      1772043482,
      1772043482,
      1772043542,
      1772043542,
      1772043782,
      1772043782,
      1772043782,
      1772043902,
      1772043902,
      1772043902,
      1772043963,
      1772044083,
      1772044083,
      1772044098,
      1772044158,
      1772044158,
      1772044638,
      1772044638,
      1772044638,
      1772044939,
      1772044939,
      1772045119,
      1772045119,
      1772045119,
      1772045780,
      1772045780,
      1772045900,
      1772046020,
      1772046140,
      1772046140,
      1772046148,
      1772046388,
      1772046448,
      1772046448,
      1772046561,
      1772046561,
      1772046568,
      1772046748,
      1772046748,
      1772046748,
      1772046981,
      1772046981,
      1772047169,
      1772047169,
      1772047169,
      1772047349,
      1772047469,
      1772047650,
      1772047650,
      1772047890,
      1772047890,
      1772047890,
      1772048130,
      1772048130,
      1772048251,
      1772048431,
      1772048431,
      1772048525,
      1772048525,
      1772048525,
      1772048671,
      1772048791,
      1772048791,
      1772048791,
      1772048911,
      1772048911,
      1772049092,
      1772049092,
      1772049152,
      1772049152,
      1772049212,
      1772049221,
      1772049272,
      1772049272,
      1772049332,
      1772049332,
      1772049392,
      1772049452,
      1772049512,
      1772049512,
      1772049512,
      1772049572,
      1772049572,
      1772049632,
      1772049753,
      1772049813,
      1772049813
    ],
    "wof:geomhash": "244c55fae6d5855cb7046cd716f9453c",
    "wof:id": 2014880387,
    "wof:repo": "sfomuseum-data-flights-2026-02"
  },
  "bbox": [
    -122.345,
    37.45416666666667,
    -88.04222222222222,
    42.04055555555556
  ],
  "geometry": {"coordinates":[[-88.04222222222222,41.980000000000004],[-88.04222222222222,41.980000000000004],[-88.04222222222222,41.980000000000004],[-88.90083333333334,42.04055555555556],[-88.90083333333334,42.04055555555556],[-88.90083333333334,42.04055555555556],[-89.17694444444444,42.025],[-89.17694444444444,42.025],[-89.17694444444444,42.025],[-89.17694444444444,42.025],[-89.61,41.99805555555556],[-89.61,41.99805555555556],[-89.61,41.99805555555556],[-89.61,41.99805555555556],[-89.9,41.97888888888889],[-90.05444444444444,41.968611111111116],[-90.21861111111112,41.958333333333336],[-90.21861111111112,41.958333333333336],[-90.35666666666665,41.94888888888889],[-90.35666666666665,41.94888888888889],[-90.60472222222222,41.92972222222222],[-90.60472222222222,41.92972222222222],[-91.1463888888889,41.888888888888886],[-91.27833333333334,41.87833333333333],[-91.27833333333334,41.87833333333333],[-91.30499999999999,41.87638888888889],[-91.40944444444445,41.86805555555556],[-91.43694444444445,41.865833333333335],[-91.5675,41.85527777777778],[-91.92166666666667,41.830000000000005],[-91.96194444444444,41.82777777777778],[-92.09222222222222,41.82027777777778],[-92.22444444444444,41.81222222222222],[-92.35555555555555,41.80416666666667],[-92.35555555555555,41.80416666666667],[-92.8411111111111,41.77361111111111],[-92.8411111111111,41.77361111111111],[-92.8411111111111,41.77361111111111],[-92.97444444444444,41.764722222222225],[-93.26972222222223,41.74472222222222],[-93.37527777777777,41.737500000000004],[-93.40416666666667,41.73555555555556],[-93.53805555555556,41.72833333333333],[-93.6713888888889,41.72138888888889],[-93.77972222222222,41.71555555555556],[-93.96083333333334,41.705555555555556],[-93.96083333333334,41.705555555555556],[-94.07694444444444,41.69916666666666],[-94.23277777777778,41.69],[-94.34888888888888,41.68333333333333],[-94.50416666666666,41.674166666666665],[-94.63972222222223,41.66583333333333],[-94.63972222222223,41.66583333333333],[-95.04833333333333,41.63972222222222],[-95.04833333333333,41.63972222222222],[-95.45694444444445,41.612500000000004],[-95.73277777777778,41.59305555555556],[-95.73277777777778,41.59305555555556],[-96.27027777777778,41.55361111111111],[-96.39111111111112,41.54416666666666],[-96.39111111111112,41.54416666666666],[-96.39111111111112,41.54416666666666],[-96.65777777777778,41.52333333333333],[-96.65777777777778,41.52333333333333],[-96.65777777777778,41.52333333333333],[-96.65777777777778,41.52333333333333],[-97.06,41.49055555555556],[-97.06,41.49055555555556],[-97.06,41.49055555555556],[-97.19361111111111,41.47944444444445],[-97.19361111111111,41.47944444444445],[-97.19361111111111,41.47944444444445],[-97.59416666666667,41.44499999999999],[-98.15055555555556,41.39472222222222],[-98.15055555555556,41.39472222222222],[-98.15055555555556,41.39472222222222],[-98.28555555555555,41.382222222222225],[-98.28555555555555,41.382222222222225],[-98.36722222222221,41.37444444444444],[-98.42111111111112,41.36972222222222],[-98.42111111111112,41.36972222222222],[-98.53861111111111,41.356944444444444],[-98.67333333333333,41.328611111111115],[-98.67333333333333,41.328611111111115],[-98.67333333333333,41.328611111111115],[-98.77361111111111,41.30555555555555],[-98.77361111111111,41.30555555555555],[-98.90805555555556,41.272777777777776],[-98.90805555555556,41.272777777777776],[-99.0411111111111,41.24027777777778],[-99.19277777777778,41.20277777777778],[-99.3275,41.169444444444444],[-99.3275,41.169444444444444],[-99.45972222222223,41.13666666666666],[-99.45972222222223,41.13666666666666],[-99.5786111111111,41.106944444444444],[-99.5786111111111,41.106944444444444],[-99.5786111111111,41.106944444444444],[-99.72833333333334,41.06916666666667],[-99.72833333333334,41.06916666666667],[-99.89305555555556,41.027499999999996],[-99.89305555555556,41.027499999999996],[-99.98083333333334,41.005],[-100.16222222222223,40.95861111111111],[-100.16222222222223,40.95861111111111],[-100.25305555555556,40.93527777777778],[-100.25305555555556,40.93527777777778],[-100.38777777777779,40.900277777777774],[-100.38777777777779,40.900277777777774],[-100.38777777777779,40.900277777777774],[-100.525,40.86472222222223],[-100.525,40.86472222222223],[-101.0736111111111,40.72],[-101.0736111111111,40.72],[-101.34722222222221,40.69277777777778],[-101.34722222222221,40.69277777777778],[-101.34722222222221,40.69277777777778],[-101.34722222222221,40.69277777777778],[-101.6261111111111,40.674166666666665],[-101.6261111111111,40.674166666666665],[-101.76722222222222,40.66416666666667],[-101.90583333333333,40.654444444444444],[-101.90583333333333,40.654444444444444],[-102.04555555555555,40.644444444444446],[-102.04555555555555,40.644444444444446],[-102.60111111111111,40.60333333333333],[-102.60111111111111,40.60333333333333],[-102.60111111111111,40.60333333333333],[-102.60111111111111,40.60333333333333],[-103.5786111111111,40.52361111111111],[-103.5786111111111,40.52361111111111],[-103.71055555555556,40.5125],[-103.71055555555556,40.5125],[-103.71055555555556,40.5125],[-104.11833333333333,40.47638888888889],[-104.11833333333333,40.47638888888889],[-104.11833333333333,40.47638888888889],[-104.52027777777778,40.439166666666665],[-104.52027777777778,40.439166666666665],[-104.52027777777778,40.439166666666665],[-104.64833333333334,40.42722222222222],[-104.64833333333334,40.42722222222222],[-104.77944444444444,40.414722222222224],[-104.91027777777778,40.401944444444446],[-105.03999999999999,40.38916666666667],[-105.03999999999999,40.38916666666667],[-105.17194444444445,40.376111111111115],[-105.17194444444445,40.376111111111115],[-105.17194444444445,40.376111111111115],[-105.17194444444445,40.376111111111115],[-105.30944444444444,40.36222222222222],[-105.30944444444444,40.36222222222222],[-105.70083333333334,40.32222222222222],[-105.70083333333334,40.32222222222222],[-105.70083333333334,40.32222222222222],[-105.82472222222222,40.30916666666666],[-105.82472222222222,40.30916666666666],[-106.07694444444444,40.282222222222224],[-106.21055555555556,40.26777777777777],[-106.21055555555556,40.26777777777777],[-106.34277777777777,40.253055555555555],[-106.34277777777777,40.253055555555555],[-106.47166666666666,40.23888888888889],[-106.47166666666666,40.23888888888889],[-106.63111111111111,40.22027777777778],[-106.76138888888889,40.20583333333334],[-106.76138888888889,40.20583333333334],[-106.86333333333333,40.19444444444444],[-106.88972222222223,40.190555555555555],[-106.88972222222223,40.190555555555555],[-107.25055555555555,40.14944444444444],[-107.25055555555555,40.14944444444444],[-107.25055555555555,40.14944444444444],[-107.25055555555555,40.14944444444444],[-107.76805555555555,40.08694444444445],[-107.76805555555555,40.08694444444445],[-107.89861111111112,40.07055555555556],[-107.89861111111112,40.07055555555556],[-107.89861111111112,40.07055555555556],[-108.33555555555554,40.00666666666667],[-108.4238888888889,39.993611111111115],[-108.4238888888889,39.993611111111115],[-108.55444444444444,39.973888888888894],[-108.55444444444444,39.973888888888894],[-108.55444444444444,39.973888888888894],[-108.55444444444444,39.973888888888894],[-108.81888888888888,39.933611111111105],[-108.81888888888888,39.933611111111105],[-108.81888888888888,39.933611111111105],[-109.11138888888888,39.88805555555555],[-109.21361111111112,39.871944444444445],[-109.21361111111112,39.871944444444445],[-109.35083333333333,39.85027777777778],[-109.35083333333333,39.85027777777778],[-109.89055555555557,39.76305555555555],[-109.89055555555557,39.76305555555555],[-109.89055555555557,39.76305555555555],[-110.16305555555556,39.71805555555556],[-110.16305555555556,39.71805555555556],[-110.16305555555556,39.71805555555556],[-110.29944444444445,39.695277777777775],[-110.5761111111111,39.64861111111111],[-110.5761111111111,39.64861111111111],[-110.60527777777777,39.64361111111111],[-110.74277777777777,39.62],[-110.74277777777777,39.62],[-111.815,39.430277777777775],[-111.815,39.430277777777775],[-111.815,39.430277777777775],[-112.47638888888889,39.30777777777777],[-112.47638888888889,39.30777777777777],[-112.8825,39.216944444444444],[-112.8825,39.216944444444444],[-112.8825,39.216944444444444],[-114.35055555555554,38.871944444444445],[-114.35055555555554,38.871944444444445],[-114.615,38.8075],[-114.8825,38.74138888888889],[-115.14750000000001,38.67527777777777],[-115.14750000000001,38.67527777777777],[-115.17500000000001,38.66888888888889],[-115.69972222222222,38.53611111111111],[-115.83333333333333,38.50194444444445],[-115.83333333333333,38.50194444444445],[-116.09777777777778,38.43222222222222],[-116.09777777777778,38.43222222222222],[-116.1,38.431666666666665],[-116.50055555555555,38.32638888888889],[-116.50055555555555,38.32638888888889],[-116.50055555555555,38.32638888888889],[-117.0325,38.18416666666666],[-117.0325,38.18416666666666],[-117.45861111111111,38.117777777777775],[-117.45861111111111,38.117777777777775],[-117.45861111111111,38.117777777777775],[-117.87555555555555,38.06333333333333],[-118.15527777777778,38.02611111111111],[-118.57249999999999,37.96888888888889],[-118.57249999999999,37.96888888888889],[-119.13138888888888,37.88972222222222],[-119.13138888888888,37.88972222222222],[-119.13138888888888,37.88972222222222],[-119.66611111111112,37.811388888888885],[-119.66611111111112,37.811388888888885],[-119.94083333333333,37.77027777777778],[-120.34388888888888,37.70861111111111],[-120.34388888888888,37.70861111111111],[-120.55,37.68333333333333],[-120.55,37.68333333333333],[-120.55,37.68333333333333],[-120.83333333333333,37.64861111111111],[-121.05583333333333,37.620555555555555],[-121.05583333333333,37.620555555555555],[-121.05583333333333,37.620555555555555],[-121.27166666666666,37.59166666666667],[-121.27166666666666,37.59166666666667],[-121.58611111111111,37.555277777777775],[-121.58611111111111,37.555277777777775],[-121.67527777777778,37.55027777777777],[-121.67527777777778,37.55027777777777],[-121.75111111111111,37.55888888888889],[-121.76666666666667,37.55],[-121.78166666666667,37.50083333333333],[-121.78166666666667,37.50083333333333],[-121.83083333333333,37.45416666666667],[-121.83083333333333,37.45416666666667],[-121.90972222222223,37.458333333333336],[-121.99,37.46361111111111],[-122.05805555555555,37.48722222222222],[-122.05805555555555,37.48722222222222],[-122.05805555555555,37.48722222222222],[-122.125,37.51555555555556],[-122.125,37.51555555555556],[-122.18944444444445,37.543055555555554],[-122.29666666666667,37.588055555555556],[-122.345,37.608333333333334],[-122.345,37.608333333333334]],"type":"LineString"}
}
