{
  "id": 2014719969,
  "type": "Feature",
  "properties": {
    "geom:area": 0,
    "geom:bbox": "-121.902750,37.872580,-121.252330,38.420950",
    "geom:latitude": 38.15637505197597,
    "geom:longitude": -121.584916610685,
    "src:alt_label": "swim-takeoff",
    "src:geom": "swim",
    "swim:elevations": [
      4027,
      4465,
      4629,
      5034,
      5334,
      5760,
      6067,
      6573,
      6913,
      6956,
      7360,
      7717,
      7891,
      8271,
      8447,
      8837
    ],
    "swim:geom": "takeoff",
    "swim:timestamps": [
      1770312594,
      1770312624,
      1770312636,
      1770312663,
      1770312684,
      1770312714,
      1770312733,
      1770312768,
      1770312807,
      1770312810,
      1770312859,
      1770312895,
      1770312911,
      1770312953,
      1770312972,
      1770313014
    ],
    "wof:geomhash": "78ee50f2cd8f0a063f3c2b07a4b3d396",
    "wof:id": 2014719969,
    "wof:repo": "sfomuseum-data-flights-2026-02"
  },
  "bbox": [
    -121.90275,
    37.87258,
    -121.25233,
    38.42095
  ],
  "geometry": {"coordinates":[[-121.90275,37.87258],[-121.86298,37.9088],[-121.84673,37.92377],[-121.80798,37.95905],[-121.77898,37.98534],[-121.73649,38.02385],[-121.70902,38.04859],[-121.65958,38.09351],[-121.60414,38.14344],[-121.59968,38.14746],[-121.52388,38.21568],[-121.46632,38.26739],[-121.44006,38.29091],[-121.3695,38.34838],[-121.33459,38.37002],[-121.25233,38.42095]],"type":"LineString"}
}
