{
  "id": 2014873453,
  "type": "Feature",
  "properties": {
    "geom:area": 0,
    "geom:bbox": "-122.404900,37.623940,-121.310900,37.953920",
    "geom:latitude": 37.824393595235236,
    "geom:longitude": -121.88103812971035,
    "src:alt_label": "swim-takeoff",
    "src:geom": "swim",
    "swim:elevations": [
      152,
      506,
      673,
      899,
      1634,
      1945,
      2026,
      2346,
      2988,
      3208,
      3400,
      3480,
      3537,
      3655,
      3857,
      4226,
      4668,
      5218,
      5608,
      5766
    ],
    "swim:geom": "takeoff",
    "swim:timestamps": [
      1771937113,
      1771937138,
      1771937172,
      1771937210,
      1771937277,
      1771937309,
      1771937315,
      1771937340,
      1771937398,
      1771937424,
      1771937454,
      1771937473,
      1771937492,
      1771937521,
      1771937555,
      1771937599,
      1771937635,
      1771937661,
      1771937685,
      1771937704
    ],
    "wof:geomhash": "8139fd6b2d710f527afeb6bd930a90f8",
    "wof:id": 2014873453,
    "wof:repo": "sfomuseum-data-flights-2026-02"
  },
  "bbox": [
    -122.4049,
    37.62394,
    -121.3109,
    37.95392
  ],
  "geometry": {"coordinates":[[-122.38706,37.62394],[-122.4049,37.63836],[-122.38631,37.66384],[-122.33693,37.67599],[-122.2358,37.71035],[-122.18681,37.73203],[-122.1776,37.73685],[-122.13801,37.75757],[-122.04316,37.80654],[-121.9981,37.82681],[-121.9359,37.83911],[-121.89471,37.84672],[-121.85088,37.85494],[-121.78184,37.86774],[-121.69579,37.88376],[-121.57803,37.90537],[-121.48279,37.92281],[-121.41437,37.93524],[-121.35705,37.94554],[-121.3109,37.95392]],"type":"LineString"}
}
