{
  "id": 2014793837,
  "type": "Feature",
  "properties": {
    "geom:area": 0,
    "geom:bbox": "-122.530000,33.640000,-84.040000,38.680000",
    "geom:latitude": 37.19857042517913,
    "geom:longitude": -103.0707733996995,
    "src:alt_label": "swim-route",
    "src:geom": "swim",
    "swim:geom": "route",
    "wof:geomhash": "df31925b62e369e714339dc595f45ce9",
    "wof:id": 2014793837,
    "wof:repo": "sfomuseum-data-flights-2026-02"
  },
  "bbox": [
    -122.53,
    33.64,
    -84.04,
    38.68
  ],
  "geometry": {"coordinates":[[-122.38,37.62],[-122.49,37.67],[-122.49,37.67],[-122.52,37.68],[-122.53,37.72],[-122.53,37.72],[-122.53,37.75],[-122.53,37.8],[-122.53,37.8],[-122.52,37.81],[-122.43,37.84],[-122.34,37.85],[-122.13,37.87],[-122.05,37.88],[-121.97,37.89],[-121.86,37.91],[-121.82,37.91],[-121.77,37.92],[-121.71,37.92],[-121.58,37.94],[-121.55,37.94],[-121.47,37.95],[-121.22,37.98],[-121.12,37.99],[-121.1,37.99],[-121.02,38],[-120.97,38.01],[-120.92,38.02],[-120.5,38.08],[-120.26,38.12],[-119.18,38.27],[-118.94,38.31],[-118,38.43],[-117.29,38.52],[-117.28,38.52],[-115.88,38.59],[-115.32,38.61],[-113.64,38.66],[-113.18,38.67],[-111.8,38.68],[-111.54,38.68],[-109.98,38.68],[-109.94,38.68],[-108.13,38.58],[-106.64,38.47],[-105.75,38.4],[-105.09,38.34],[-104.61,38.28],[-103.41,38.13],[-102.34,37.99],[-101.81,37.91],[-99.89,37.58],[-97.74,37.17],[-97.61,37.15],[-96.01,36.81],[-94.69,36.43],[-94.11,36.25],[-93.09,35.94],[-92.61,35.79],[-92.14,35.64],[-91.9,35.56],[-91.19,35.36],[-89.98,35.02],[-89.54,34.95],[-88.54,34.81],[-88.34,34.78],[-88.29,34.77],[-87.43,34.63],[-87.1,34.57],[-87,34.55],[-86.94,34.54],[-86.71,34.48],[-86.15,34.34],[-85.75,34.23],[-85.4,34.14],[-85.05,34.05],[-84.92,33.92],[-84.9,33.9],[-84.88,33.88],[-84.8,33.81],[-84.72,33.73],[-84.58,33.73],[-84.43,33.73],[-84.39,33.73],[-84.31,33.73],[-84.14,33.73],[-84.05,33.73],[-84.04,33.73],[-84.22,33.69],[-84.32,33.66],[-84.41,33.64],[-84.43,33.64]],"type":"LineString"}
}
