{
  "id": 2014860543,
  "type": "Feature",
  "properties": {
    "geom:area": 0,
    "geom:bbox": "-122.380000,37.620000,-117.540000,47.620000",
    "geom:latitude": 42.61602899726634,
    "geom:longitude": -120.01336971216513,
    "src:alt_label": "swim-route",
    "src:geom": "swim",
    "swim:geom": "route",
    "wof:geomhash": "8b5cfcc053fe536ae47959d27aef012c",
    "wof:id": 2014860543,
    "wof:repo": "sfomuseum-data-flights-2026-02"
  },
  "bbox": [
    -122.38,
    37.62,
    -117.54,
    47.62
  ],
  "geometry": {"coordinates":[[-122.38,37.62],[-122.27,37.69],[-122.27,37.69],[-122.26,37.69],[-122.21,37.72],[-122.21,37.74],[-122.21,37.74],[-122.21,37.77],[-122.2,37.82],[-122.2,37.82],[-122.19,37.84],[-122.19,37.84],[-122.19,37.85],[-122.13,37.98],[-122.07,38.14],[-122.04,38.24],[-122.03,38.24],[-122,38.33],[-121.92,38.52],[-121.92,38.52],[-121.84,38.72],[-121.83,38.76],[-121.79,38.86],[-121.77,38.89],[-121.74,38.98],[-121.73,38.99],[-121.73,39],[-121.51,39.24],[-121.43,39.33],[-121.34,39.43],[-121.34,39.44],[-121.28,39.55],[-121.15,39.77],[-121.14,39.79],[-121.01,40.12],[-120.98,40.19],[-120.88,40.46],[-120.77,40.73],[-120.83,40.78],[-120.66,41],[-119.98,42.79],[-119.92,42.94],[-119.85,43.11],[-119.48,43.95],[-119.31,44.31],[-119.31,44.32],[-119.14,44.69],[-118.79,45.44],[-118.62,45.78],[-118.33,46.38],[-117.98,47.08],[-117.92,47.2],[-117.91,47.23],[-117.89,47.26],[-117.82,47.4],[-117.8,47.44],[-117.68,47.52],[-117.67,47.53],[-117.58,47.59],[-117.54,47.62]],"type":"LineString"}
}
