{
  "id": 2014832307,
  "type": "Feature",
  "properties": {
    "geom:area": 0,
    "geom:bbox": "-156.233333,19.900000,-122.133333,37.583333",
    "geom:latitude": 30.882240420882418,
    "geom:longitude": -140.82331732969973,
    "src:alt_label": "swim-path",
    "src:geom": "swim",
    "swim:altitudes": [
      "090C",
      "090C",
      "110C",
      "110C",
      "121C",
      "121C",
      "133C",
      "167C",
      "167C",
      "184C",
      "201C",
      "201C",
      "235C",
      "235C",
      "248C",
      "257C",
      "269C",
      "269C",
      "269C",
      "290",
      "290",
      "290",
      "290",
      "290",
      "290",
      "290",
      "290",
      "290",
      "290",
      "290",
      "290",
      "290",
      "290",
      "290",
      "290",
      "290",
      "290",
      "290",
      "290",
      "290",
      "290",
      "290",
      "290",
      "290",
      "290",
      "290",
      "290",
      "290",
      "290",
      "290",
      "290",
      "290",
      "290",
      "290",
      "290",
      "290",
      "290",
      "290",
      "290",
      "290",
      "290",
      "290",
      "290",
      "290",
      "290C",
      "290C",
      "290C",
      "290C",
      "290C",
      "290C",
      "290C",
      "290",
      "290",
      "290",
      "290",
      "290",
      "289",
      "289",
      "269",
      "236",
      "236",
      "211",
      "211",
      "189",
      "189",
      "170",
      "170",
      "153",
      "153",
      "153",
      "100",
      "100",
      "100C",
      "100C",
      "100C",
      "098C",
      "098C",
      "062",
      "061",
      "061",
      "047",
      "040",
      "040",
      "037",
      "037",
      "031",
      "030",
      "030",
      "030",
      "030",
      "016",
      "016",
      "016"
    ],
    "swim:geom": "path",
    "swim:speeds": [
      290,
      290,
      310,
      310,
      350,
      350,
      390,
      420,
      420,
      420,
      420,
      420,
      460,
      460,
      470,
      470,
      470,
      470,
      470,
      460,
      460,
      460,
      460,
      460,
      460,
      460,
      460,
      460,
      460,
      460,
      460,
      460,
      460,
      460,
      460,
      460,
      440,
      440,
      440,
      440,
      450,
      450,
      450,
      450,
      450,
      450,
      450,
      450,
      450,
      450,
      450,
      450,
      450,
      450,
      450,
      450,
      450,
      450,
      450,
      450,
      450,
      450,
      450,
      450,
      525,
      525,
      539,
      545,
      545,
      545,
      545,
      550,
      550,
      550,
      546,
      546,
      547,
      547,
      548,
      542,
      542,
      495,
      495,
      494,
      494,
      467,
      467,
      451,
      451,
      451,
      247,
      247,
      248,
      256,
      256,
      256,
      256,
      203,
      202,
      202,
      231,
      203,
      203,
      200,
      205,
      153,
      149,
      149,
      149,
      149,
      139,
      140,
      140
    ],
    "swim:timestamps": [
      1771548724,
      1771548724,
      1771548784,
      1771548784,
      1771548844,
      1771548844,
      1771548904,
      1771549025,
      1771549025,
      1771549085,
      1771549145,
      1771549145,
      1771549326,
      1771549326,
      1771549386,
      1771549446,
      1771549506,
      1771549506,
      1771549506,
      1771549987,
      1771549987,
      1771549987,
      1771549987,
      1771550228,
      1771550228,
      1771550228,
      1771550288,
      1771550288,
      1771550349,
      1771550349,
      1771550349,
      1771550408,
      1771550408,
      1771550469,
      1771550529,
      1771550529,
      1771550589,
      1771550589,
      1771550589,
      1771550709,
      1771550769,
      1771550769,
      1771550769,
      1771550830,
      1771550830,
      1771550838,
      1771550890,
      1771550898,
      1771550898,
      1771550950,
      1771550950,
      1771550950,
      1771551078,
      1771551078,
      1771551078,
      1771551078,
      1771551240,
      1771551240,
      1771551240,
      1771551240,
      1771551301,
      1771551364,
      1771551364,
      1771551364,
      1771563279,
      1771563279,
      1771563399,
      1771563520,
      1771563580,
      1771563640,
      1771563640,
      1771563877,
      1771563877,
      1771563877,
      1771564120,
      1771564120,
      1771564180,
      1771564180,
      1771564240,
      1771564300,
      1771564300,
      1771564360,
      1771564360,
      1771564420,
      1771564420,
      1771564481,
      1771564481,
      1771564541,
      1771564541,
      1771564541,
      1771564893,
      1771564893,
      1771564901,
      1771564961,
      1771564961,
      1771565021,
      1771565021,
      1771565247,
      1771565261,
      1771565261,
      1771565381,
      1771565442,
      1771565442,
      1771565493,
      1771565502,
      1771565552,
      1771565607,
      1771565622,
      1771565622,
      1771565622,
      1771565727,
      1771565742,
      1771565742
    ],
    "wof:geomhash": "df339dd5956e996fc8ef5f375ca6da2c",
    "wof:id": 2014832307,
    "wof:repo": "sfomuseum-data-flights-2026-02"
  },
  "bbox": [
    -156.23333333333332,
    19.9,
    -122.13333333333334,
    37.583333333333336
  ],
  "geometry": {"coordinates":[[-156.18333333333334,19.9],[-156.18333333333334,19.9],[-156.2,19.983333333333334],[-156.2,19.983333333333334],[-156.2,20.083333333333332],[-156.2,20.083333333333332],[-156.2,20.183333333333334],[-156.2,20.416666666666668],[-156.2,20.416666666666668],[-156.21666666666667,20.533333333333335],[-156.21666666666667,20.65],[-156.21666666666667,20.65],[-156.21666666666667,21.016666666666666],[-156.21666666666667,21.016666666666666],[-156.23333333333332,21.15],[-156.23333333333332,21.283333333333335],[-156.23333333333332,21.416666666666668],[-156.23333333333332,21.416666666666668],[-156.23333333333332,21.416666666666668],[-156.01666666666668,22.433333333333334],[-156.01666666666668,22.433333333333334],[-156.01666666666668,22.433333333333334],[-156.01666666666668,22.433333333333334],[-155.85,22.916666666666668],[-155.85,22.916666666666668],[-155.85,22.916666666666668],[-155.81666666666666,23.05],[-155.81666666666666,23.05],[-155.76666666666668,23.166666666666668],[-155.76666666666668,23.166666666666668],[-155.76666666666668,23.166666666666668],[-155.73333333333332,23.283333333333335],[-155.73333333333332,23.283333333333335],[-155.68333333333334,23.416666666666668],[-155.65,23.533333333333335],[-155.65,23.533333333333335],[-155.61666666666667,23.65],[-155.61666666666667,23.65],[-155.61666666666667,23.65],[-155.53333333333333,23.883333333333333],[-155.5,24],[-155.5,24],[-155.5,24],[-155.45,24.116666666666667],[-155.45,24.116666666666667],[-155.45,24.133333333333333],[-155.41666666666666,24.25],[-155.4,24.25],[-155.4,24.25],[-155.36666666666667,24.35],[-155.36666666666667,24.35],[-155.36666666666667,24.35],[-155.28333333333333,24.6],[-155.28333333333333,24.6],[-155.28333333333333,24.6],[-155.28333333333333,24.6],[-155.03333333333333,24.85],[-155.03333333333333,24.85],[-155.03333333333333,24.85],[-155.03333333333333,24.85],[-154.91666666666666,24.916666666666668],[-154.8,25],[-154.8,25],[-154.8,25],[-127.28944444444444,37.42305555555555],[-127.28944444444444,37.42305555555555],[-126.93583333333333,37.50194444444445],[-126.55527777777777,37.48527777777778],[-126.36527777777778,37.47638888888889],[-126.17472222222223,37.466944444444444],[-126.17472222222223,37.466944444444444],[-125.41666666666667,37.416666666666664],[-125.41666666666667,37.416666666666664],[-125.41666666666667,37.416666666666664],[-124.6575,37.382777777777775],[-124.6575,37.382777777777775],[-124.46944444444445,37.37083333333334],[-124.46944444444445,37.37083333333334],[-124.27888888888889,37.35861111111111],[-124.08972222222222,37.346111111111114],[-124.08972222222222,37.346111111111114],[-123.91666666666667,37.33444444444444],[-123.91666666666667,37.33444444444444],[-123.74333333333334,37.322500000000005],[-123.74333333333334,37.322500000000005],[-123.58,37.31083333333333],[-123.58,37.31083333333333],[-123.42527777777778,37.3],[-123.42527777777778,37.3],[-123.42527777777778,37.3],[-122.7,37.3],[-122.7,37.3],[-122.70805555555556,37.29388888888889],[-122.62305555555555,37.306666666666665],[-122.62305555555555,37.306666666666665],[-122.53861111111111,37.28722222222222],[-122.53861111111111,37.28722222222222],[-122.31666666666666,37.3],[-122.31083333333333,37.311388888888885],[-122.31083333333333,37.311388888888885],[-122.18083333333334,37.370555555555555],[-122.14972222222222,37.419999999999995],[-122.14972222222222,37.419999999999995],[-122.13333333333334,37.483333333333334],[-122.13722222222223,37.47694444444445],[-122.15,37.516666666666666],[-122.18333333333334,37.53333333333333],[-122.18972222222223,37.5425],[-122.18972222222223,37.5425],[-122.18972222222223,37.5425],[-122.26666666666667,37.583333333333336],[-122.27583333333334,37.57944444444445],[-122.27583333333334,37.57944444444445]],"type":"LineString"}
}
