{
  "id": 2014828337,
  "type": "Feature",
  "properties": {
    "geom:area": 0,
    "geom:bbox": "-122.519722,37.666111,-74.200000,42.608056",
    "geom:latitude": 41.54540874684264,
    "geom:longitude": -98.68317076668295,
    "src:alt_label": "swim-path",
    "src:geom": "swim",
    "swim:altitudes": [
      "030",
      "030",
      "030",
      "071",
      "116",
      "116",
      "116",
      "132",
      "132",
      "132",
      "132",
      "192",
      "192",
      "211",
      "211",
      "211",
      "242",
      "242",
      "242",
      "269",
      "269",
      "284",
      "284",
      "313",
      "328",
      "328",
      "349C",
      "349C",
      "349C",
      "349C",
      "349C",
      "350C",
      "350C",
      "350C",
      "350C",
      "350C",
      "350C",
      "350C",
      "350C",
      "350C",
      "350C",
      "350C",
      "350C",
      "350C",
      "350C",
      "350C",
      "350C",
      "350C",
      "350C",
      "350C",
      "350C",
      "350C",
      "350C",
      "350C",
      "350C",
      "350C",
      "350C",
      "350C",
      "350C",
      "350C",
      "350C",
      "350C",
      "350C",
      "350C",
      "350C",
      "353",
      "353",
      "363",
      "367",
      "370C",
      "370C",
      "370C",
      "370C",
      "370C",
      "370C",
      "370C",
      "370C",
      "370C",
      "370C",
      "370C",
      "370C",
      "370C",
      "370C",
      "370C",
      "370C",
      "370C",
      "370C",
      "370C",
      "370C",
      "370C",
      "370C",
      "370C",
      "370C",
      "370C",
      "370C",
      "370C",
      "370C",
      "370C",
      "370C",
      "370C",
      "370C",
      "370C",
      "370C",
      "370C",
      "370C",
      "370C",
      "370C",
      "370C",
      "370C",
      "370C",
      "370C",
      "370C",
      "370C",
      "370C",
      "370C",
      "370C",
      "370C",
      "370C",
      "370C",
      "370C",
      "370C",
      "370C",
      "370C",
      "370C",
      "370C",
      "370C",
      "370C",
      "370C",
      "370C",
      "370C",
      "370C",
      "370C",
      "370C",
      "370C",
      "370C",
      "370C",
      "370C",
      "370C",
      "370C",
      "370C",
      "370C",
      "370C",
      "370C",
      "370C",
      "370C",
      "370C",
      "370C",
      "370C",
      "370C",
      "370C",
      "370C",
      "370C",
      "370C",
      "370C",
      "370C",
      "370C",
      "370C",
      "370C",
      "370C",
      "370C",
      "370C",
      "370C",
      "370C",
      "370C",
      "370C",
      "370C",
      "370C",
      "370C",
      "370C",
      "370C",
      "370C",
      "370C",
      "370C",
      "370C",
      "370C",
      "370C",
      "370C",
      "370C",
      "370C",
      "370C",
      "370C",
      "370C",
      "370C",
      "370C",
      "370C",
      "370C",
      "370C",
      "370C",
      "370C",
      "370C",
      "370C",
      "370C",
      "370C",
      "370C",
      "370C",
      "370C",
      "370C",
      "370C",
      "370C",
      "370C",
      "370C",
      "370C",
      "370C",
      "370C",
      "370C",
      "370C",
      "370C",
      "370C",
      "370C",
      "370C",
      "370C",
      "370C",
      "370C",
      "370C",
      "370C",
      "370C",
      "370C",
      "370C",
      "370C",
      "370C",
      "370C",
      "370C",
      "370C",
      "370C",
      "370C",
      "370C",
      "370C",
      "370C",
      "370C",
      "370C",
      "370C",
      "370C",
      "370C",
      "370C",
      "370C",
      "370C",
      "370C",
      "370C",
      "370C",
      "370C",
      "370C",
      "370C",
      "370C",
      "370C",
      "370C",
      "370C",
      "370C",
      "370C",
      "370C",
      "370C",
      "370C",
      "370C",
      "370C",
      "370C",
      "370C",
      "370C",
      "370C",
      "370C",
      "370C",
      "370C",
      "370C",
      "370C",
      "370C",
      "370C",
      "370C",
      "370C",
      "370C",
      "370C",
      "370C",
      "370C",
      "390C",
      "390C",
      "390C",
      "390C",
      "390C",
      "390C",
      "390C",
      "390C",
      "390C",
      "390C",
      "390C",
      "390C",
      "390C",
      "390C",
      "390C",
      "390C",
      "390C",
      "390C",
      "390C",
      "390C",
      "390C",
      "390C",
      "390C",
      "390C",
      "390C",
      "390C",
      "390C",
      "390C",
      "390C",
      "390C",
      "390C",
      "390C",
      "390C",
      "390C",
      "390C",
      "390C",
      "390C",
      "390C",
      "390C",
      "390C",
      "390C",
      "390C",
      "390C",
      "390C",
      "390C",
      "390C",
      "390C",
      "390C",
      "390C",
      "390C",
      "390C",
      "390C",
      "390C",
      "390C",
      "390C",
      "390C",
      "390C",
      "390C",
      "390C",
      "390C",
      "390",
      "362",
      "362",
      "362",
      "336",
      "317",
      "317",
      "284",
      "266",
      "252",
      "252",
      "252",
      "176",
      "176",
      "108",
      "108",
      "108",
      "103",
      "086",
      "076",
      "076",
      "062",
      "062",
      "028",
      "028",
      "028",
      "022",
      "021",
      "009",
      "009"
    ],
    "swim:geom": "path",
    "swim:speeds": [
      231,
      231,
      231,
      274,
      334,
      334,
      334,
      380,
      380,
      380,
      380,
      432,
      432,
      443,
      443,
      443,
      474,
      474,
      474,
      512,
      512,
      530,
      530,
      536,
      527,
      527,
      544,
      544,
      544,
      544,
      544,
      545,
      545,
      545,
      545,
      545,
      545,
      545,
      545,
      545,
      544,
      544,
      542,
      542,
      542,
      542,
      546,
      542,
      542,
      543,
      543,
      543,
      544,
      544,
      541,
      541,
      541,
      542,
      542,
      546,
      546,
      544,
      544,
      544,
      544,
      540,
      540,
      541,
      542,
      548,
      548,
      548,
      550,
      548,
      548,
      543,
      541,
      541,
      541,
      541,
      541,
      541,
      540,
      540,
      540,
      537,
      537,
      537,
      537,
      535,
      535,
      533,
      533,
      533,
      533,
      535,
      535,
      535,
      535,
      536,
      534,
      534,
      534,
      541,
      541,
      541,
      541,
      541,
      541,
      541,
      539,
      539,
      534,
      534,
      534,
      536,
      536,
      534,
      534,
      533,
      533,
      533,
      534,
      534,
      534,
      531,
      531,
      531,
      531,
      531,
      533,
      533,
      532,
      532,
      533,
      534,
      534,
      534,
      534,
      533,
      533,
      533,
      534,
      534,
      534,
      534,
      534,
      534,
      535,
      535,
      532,
      532,
      532,
      532,
      530,
      530,
      530,
      530,
      530,
      530,
      530,
      531,
      531,
      530,
      530,
      529,
      529,
      529,
      529,
      529,
      529,
      527,
      527,
      527,
      527,
      523,
      523,
      522,
      522,
      523,
      523,
      523,
      523,
      523,
      523,
      523,
      523,
      523,
      523,
      522,
      522,
      522,
      522,
      523,
      523,
      523,
      527,
      527,
      527,
      529,
      529,
      529,
      529,
      530,
      530,
      530,
      530,
      530,
      530,
      530,
      531,
      531,
      531,
      532,
      532,
      533,
      534,
      534,
      534,
      535,
      535,
      535,
      535,
      542,
      543,
      543,
      543,
      543,
      543,
      543,
      543,
      542,
      542,
      543,
      543,
      543,
      544,
      544,
      544,
      544,
      544,
      547,
      547,
      547,
      547,
      547,
      547,
      547,
      547,
      545,
      545,
      545,
      547,
      547,
      547,
      549,
      549,
      549,
      555,
      555,
      555,
      555,
      555,
      555,
      555,
      556,
      556,
      556,
      556,
      556,
      546,
      546,
      545,
      545,
      554,
      554,
      567,
      567,
      558,
      562,
      562,
      562,
      562,
      562,
      563,
      563,
      563,
      563,
      563,
      563,
      563,
      564,
      564,
      564,
      564,
      566,
      566,
      566,
      567,
      567,
      567,
      567,
      567,
      567,
      568,
      570,
      570,
      571,
      571,
      572,
      576,
      577,
      577,
      577,
      579,
      579,
      579,
      580,
      582,
      582,
      583,
      582,
      583,
      582,
      561,
      561,
      561,
      555,
      556,
      556,
      555,
      566,
      566,
      566,
      577,
      559,
      559,
      554,
      530,
      518,
      518,
      518,
      440,
      440,
      404,
      404,
      404,
      362,
      304,
      296,
      296,
      295,
      295,
      242,
      242,
      242,
      190,
      164,
      142,
      142
    ],
    "swim:timestamps": [
      1771461847,
      1771461847,
      1771461847,
      1771461967,
      1771462087,
      1771462087,
      1771462087,
      1771462147,
      1771462147,
      1771462147,
      1771462147,
      1771462327,
      1771462327,
      1771462387,
      1771462387,
      1771462387,
      1771462508,
      1771462508,
      1771462508,
      1771462628,
      1771462628,
      1771462688,
      1771462688,
      1771462764,
      1771462824,
      1771462824,
      1771462928,
      1771462928,
      1771462928,
      1771462928,
      1771462928,
      1771463048,
      1771463108,
      1771463108,
      1771463185,
      1771463185,
      1771463245,
      1771463245,
      1771463245,
      1771463245,
      1771463305,
      1771463305,
      1771463409,
      1771463409,
      1771463409,
      1771463409,
      1771463425,
      1771463469,
      1771463469,
      1771463545,
      1771463545,
      1771463545,
      1771463666,
      1771463666,
      1771463709,
      1771463709,
      1771463709,
      1771463846,
      1771463846,
      1771463906,
      1771463906,
      1771463949,
      1771463949,
      1771463949,
      1771463949,
      1771464069,
      1771464069,
      1771464129,
      1771464146,
      1771464189,
      1771464189,
      1771464189,
      1771464206,
      1771464266,
      1771464266,
      1771464310,
      1771464326,
      1771464387,
      1771464387,
      1771464447,
      1771464447,
      1771464447,
      1771464507,
      1771464507,
      1771464507,
      1771464567,
      1771464567,
      1771464567,
      1771464567,
      1771464807,
      1771464807,
      1771464927,
      1771464927,
      1771464927,
      1771464927,
      1771464987,
      1771464987,
      1771465047,
      1771465047,
      1771465108,
      1771465168,
      1771465168,
      1771465168,
      1771465889,
      1771465889,
      1771465889,
      1771465889,
      1771465889,
      1771466129,
      1771466129,
      1771466189,
      1771466189,
      1771466249,
      1771466249,
      1771466249,
      1771466351,
      1771466351,
      1771466369,
      1771466369,
      1771466429,
      1771466429,
      1771466429,
      1771466472,
      1771466532,
      1771466532,
      1771466712,
      1771466712,
      1771466712,
      1771466712,
      1771466730,
      1771466772,
      1771466772,
      1771466790,
      1771466790,
      1771466832,
      1771466910,
      1771466910,
      1771466910,
      1771466970,
      1771467012,
      1771467012,
      1771467012,
      1771467132,
      1771467150,
      1771467150,
      1771467150,
      1771467210,
      1771467210,
      1771467373,
      1771467373,
      1771467433,
      1771467433,
      1771467433,
      1771467433,
      1771467493,
      1771467493,
      1771467493,
      1771467613,
      1771467613,
      1771467613,
      1771467673,
      1771467733,
      1771467733,
      1771467793,
      1771467793,
      1771467853,
      1771467853,
      1771467914,
      1771467914,
      1771467914,
      1771467914,
      1771468094,
      1771468094,
      1771468094,
      1771468094,
      1771468394,
      1771468454,
      1771468514,
      1771468514,
      1771468549,
      1771468549,
      1771468549,
      1771468549,
      1771468850,
      1771468850,
      1771468850,
      1771468910,
      1771469030,
      1771469030,
      1771469055,
      1771469055,
      1771469055,
      1771469055,
      1771469090,
      1771469090,
      1771469090,
      1771469270,
      1771469270,
      1771469270,
      1771469330,
      1771469390,
      1771469390,
      1771469390,
      1771469416,
      1771469416,
      1771469450,
      1771469450,
      1771469476,
      1771469476,
      1771469510,
      1771469631,
      1771469631,
      1771469631,
      1771469656,
      1771469656,
      1771469776,
      1771469811,
      1771469811,
      1771469811,
      1771469871,
      1771469871,
      1771469871,
      1771469871,
      1771470051,
      1771470111,
      1771470111,
      1771470111,
      1771470111,
      1771470171,
      1771470171,
      1771470171,
      1771470412,
      1771470412,
      1771470472,
      1771470532,
      1771470532,
      1771470592,
      1771470592,
      1771470592,
      1771470592,
      1771470592,
      1771470892,
      1771470892,
      1771470952,
      1771470952,
      1771470952,
      1771471132,
      1771471132,
      1771471132,
      1771471313,
      1771471313,
      1771471313,
      1771471433,
      1771471433,
      1771471433,
      1771471733,
      1771471733,
      1771471733,
      1771472033,
      1771472033,
      1771472033,
      1771472033,
      1771472154,
      1771472154,
      1771472154,
      1771472338,
      1771472398,
      1771472398,
      1771472398,
      1771472398,
      1771472579,
      1771472579,
      1771472639,
      1771472639,
      1771473179,
      1771473179,
      1771473275,
      1771473275,
      1771473299,
      1771473335,
      1771473335,
      1771473335,
      1771473335,
      1771473479,
      1771473515,
      1771473539,
      1771473539,
      1771473636,
      1771473636,
      1771473660,
      1771473660,
      1771473696,
      1771473720,
      1771473720,
      1771473756,
      1771473840,
      1771473840,
      1771473840,
      1771473996,
      1771473996,
      1771474056,
      1771474056,
      1771474080,
      1771474080,
      1771474116,
      1771474200,
      1771474200,
      1771474236,
      1771474236,
      1771474297,
      1771474417,
      1771474477,
      1771474477,
      1771474477,
      1771474537,
      1771474537,
      1771474537,
      1771474597,
      1771474717,
      1771474897,
      1771475005,
      1771475018,
      1771475065,
      1771475138,
      1771475258,
      1771475258,
      1771475258,
      1771475425,
      1771475558,
      1771475558,
      1771475605,
      1771475725,
      1771475725,
      1771475725,
      1771475845,
      1771475977,
      1771475977,
      1771476086,
      1771476157,
      1771476206,
      1771476206,
      1771476206,
      1771476446,
      1771476446,
      1771476686,
      1771476686,
      1771476686,
      1771476746,
      1771476926,
      1771476986,
      1771476986,
      1771477046,
      1771477046,
      1771477329,
      1771477329,
      1771477329,
      1771477407,
      1771477467,
      1771477569,
      1771477569
    ],
    "wof:geomhash": "a4eba062a45d35b331c23c4af302eade",
    "wof:id": 2014828337,
    "wof:repo": "sfomuseum-data-flights-2026-02"
  },
  "bbox": [
    -122.51972222222223,
    37.66611111111111,
    -74.2,
    42.60805555555556
  ],
  "geometry": {"coordinates":[[-122.48583333333333,37.66611111111111],[-122.48583333333333,37.66611111111111],[-122.48583333333333,37.66611111111111],[-122.51972222222223,37.79888888888889],[-122.35194444444444,37.9],[-122.35194444444444,37.9],[-122.35194444444444,37.9],[-122.25305555555556,37.967222222222226],[-122.25305555555556,37.967222222222226],[-122.25305555555556,37.967222222222226],[-122.25305555555556,37.967222222222226],[-121.93083333333334,38.1875],[-121.93083333333334,38.1875],[-121.81222222222222,38.26777777777777],[-121.81222222222222,38.26777777777777],[-121.81222222222222,38.26777777777777],[-121.57055555555556,38.43111111111111],[-121.57055555555556,38.43111111111111],[-121.57055555555556,38.43111111111111],[-121.28416666666666,38.60666666666667],[-121.28416666666666,38.60666666666667],[-121.12944444444443,38.70027777777778],[-121.12944444444443,38.70027777777778],[-120.94222222222223,38.809444444444445],[-120.79444444444444,38.89888888888889],[-120.79444444444444,38.89888888888889],[-120.52722222222222,39.061388888888885],[-120.52722222222222,39.061388888888885],[-120.52722222222222,39.061388888888885],[-120.52722222222222,39.061388888888885],[-120.52722222222222,39.061388888888885],[-120.21583333333334,39.24611111111111],[-120.05305555555556,39.34138888888889],[-120.05305555555556,39.34138888888889],[-119.86555555555555,39.448611111111106],[-119.86555555555555,39.448611111111106],[-119.71000000000001,39.53916666666667],[-119.71000000000001,39.53916666666667],[-119.71000000000001,39.53916666666667],[-119.71000000000001,39.53916666666667],[-119.55416666666666,39.63],[-119.55416666666666,39.63],[-119.26694444444445,39.79527777777778],[-119.26694444444445,39.79527777777778],[-119.26694444444445,39.79527777777778],[-119.26694444444445,39.79527777777778],[-119.23833333333333,39.81166666666666],[-119.10916666666667,39.88472222222222],[-119.10916666666667,39.88472222222222],[-118.91388888888889,39.98305555555556],[-118.91388888888889,39.98305555555556],[-118.91388888888889,39.98305555555556],[-118.56805555555555,40.13166666666667],[-118.56805555555555,40.13166666666667],[-118.46083333333334,40.176944444444445],[-118.46083333333334,40.176944444444445],[-118.46083333333334,40.176944444444445],[-118.04583333333333,40.33583333333333],[-118.04583333333333,40.33583333333333],[-117.85555555555555,40.376111111111115],[-117.85555555555555,40.376111111111115],[-117.73805555555556,40.40083333333333],[-117.73805555555556,40.40083333333333],[-117.73805555555556,40.40083333333333],[-117.73805555555556,40.40083333333333],[-117.36,40.47972222222222],[-117.36,40.47972222222222],[-117.16611111111112,40.519444444444446],[-117.08916666666666,40.53527777777778],[-116.97,40.55972222222222],[-116.97,40.55972222222222],[-116.97,40.55972222222222],[-116.8913888888889,40.57805555555556],[-116.70111111111112,40.629444444444445],[-116.70111111111112,40.629444444444445],[-116.58611111111111,40.660555555555554],[-116.51277777777777,40.680277777777775],[-116.3261111111111,40.730555555555554],[-116.3261111111111,40.730555555555554],[-116.14027777777778,40.78],[-116.14027777777778,40.78],[-116.14027777777778,40.78],[-115.95166666666667,40.830000000000005],[-115.95166666666667,40.830000000000005],[-115.95166666666667,40.830000000000005],[-115.76638888888888,40.87861111111111],[-115.76638888888888,40.87861111111111],[-115.76638888888888,40.87861111111111],[-115.76638888888888,40.87861111111111],[-115.0225,41.07055555555556],[-115.0225,41.07055555555556],[-114.67777777777778,41.157222222222224],[-114.67777777777778,41.157222222222224],[-114.67777777777778,41.157222222222224],[-114.67777777777778,41.157222222222224],[-114.49166666666667,41.203611111111115],[-114.49166666666667,41.203611111111115],[-114.3025,41.250277777777775],[-114.3025,41.250277777777775],[-114.115,41.29611111111111],[-113.92611111111111,41.342222222222226],[-113.92611111111111,41.342222222222226],[-113.92611111111111,41.342222222222226],[-111.54027777777777,41.49666666666667],[-111.54027777777777,41.49666666666667],[-111.54027777777777,41.49666666666667],[-111.54027777777777,41.49666666666667],[-111.54027777777777,41.49666666666667],[-110.7238888888889,41.533055555555556],[-110.7238888888889,41.533055555555556],[-110.52444444444444,41.54111111111111],[-110.52444444444444,41.54111111111111],[-110.32694444444444,41.54861111111111],[-110.32694444444444,41.54861111111111],[-110.32694444444444,41.54861111111111],[-110.01361111111112,41.55972222222222],[-110.01361111111112,41.55972222222222],[-109.9325,41.5625],[-109.9325,41.5625],[-109.73666666666666,41.56916666666667],[-109.73666666666666,41.56916666666667],[-109.73666666666666,41.56916666666667],[-109.61666666666666,41.573055555555555],[-109.41972222222223,41.57888888888889],[-109.41972222222223,41.57888888888889],[-108.8175,41.60583333333334],[-108.8175,41.60583333333334],[-108.8175,41.60583333333334],[-108.8175,41.60583333333334],[-108.7786111111111,41.60888888888889],[-108.61972222222222,41.62083333333334],[-108.61972222222222,41.62083333333334],[-108.58,41.62388888888889],[-108.58,41.62388888888889],[-108.42222222222223,41.635555555555555],[-108.18388888888889,41.653055555555554],[-108.18388888888889,41.653055555555554],[-108.18388888888889,41.653055555555554],[-107.98722222222223,41.66694444444444],[-107.83388888888888,41.67777777777778],[-107.83388888888888,41.67777777777778],[-107.83388888888888,41.67777777777778],[-107.43861111111111,41.70416666666667],[-107.39583333333334,41.706944444444446],[-107.39583333333334,41.706944444444446],[-107.39583333333334,41.706944444444446],[-107.19972222222222,41.719722222222224],[-107.19972222222222,41.719722222222224],[-106.64722222222223,41.75333333333333],[-106.64722222222223,41.75333333333333],[-106.44638888888889,41.765],[-106.44638888888889,41.765],[-106.44638888888889,41.765],[-106.44638888888889,41.765],[-106.24361111111111,41.77611111111111],[-106.24361111111111,41.77611111111111],[-106.24361111111111,41.77611111111111],[-105.85166666666666,41.79694444444444],[-105.85166666666666,41.79694444444444],[-105.85166666666666,41.79694444444444],[-105.65416666666667,41.80694444444444],[-105.45833333333334,41.81638888888889],[-105.45833333333334,41.81638888888889],[-105.26472222222222,41.82555555555556],[-105.26472222222222,41.82555555555556],[-105.06888888888888,41.83444444444444],[-105.06888888888888,41.83444444444444],[-104.87416666666665,41.84305555555556],[-104.87416666666665,41.84305555555556],[-104.87416666666665,41.84305555555556],[-104.87416666666665,41.84305555555556],[-104.29138888888889,41.86666666666667],[-104.29138888888889,41.86666666666667],[-104.29138888888889,41.86666666666667],[-104.29138888888889,41.86666666666667],[-103.32472222222222,41.91638888888889],[-103.13333333333334,41.94333333333333],[-102.94361111111111,41.96944444444445],[-102.94361111111111,41.96944444444445],[-102.82194444444444,41.98972222222222],[-102.82194444444444,41.98972222222222],[-102.82194444444444,41.98972222222222],[-102.82194444444444,41.98972222222222],[-101.8625,42.11333333333334],[-101.8625,42.11333333333334],[-101.8625,42.11333333333334],[-101.67027777777778,42.13666666666666],[-101.285,42.184999999999995],[-101.285,42.184999999999995],[-101.20472222222223,42.19416666666666],[-101.20472222222223,42.19416666666666],[-101.20472222222223,42.19416666666666],[-101.20472222222223,42.19416666666666],[-101.09138888888889,42.206944444444446],[-101.09138888888889,42.206944444444446],[-101.09138888888889,42.206944444444446],[-100.49805555555555,42.277499999999996],[-100.49805555555555,42.277499999999996],[-100.49805555555555,42.277499999999996],[-100.30083333333333,42.3],[-100.10416666666666,42.32194444444445],[-100.10416666666666,42.32194444444445],[-100.10416666666666,42.32194444444445],[-100.02638888888889,42.33083333333334],[-100.02638888888889,42.33083333333334],[-99.9075,42.343611111111116],[-99.9075,42.343611111111116],[-99.83055555555555,42.35194444444445],[-99.83055555555555,42.35194444444445],[-99.70916666666668,42.36527777777778],[-99.35277777777777,42.403055555555554],[-99.35277777777777,42.403055555555554],[-99.35277777777777,42.403055555555554],[-99.23416666666667,42.415277777777774],[-99.23416666666667,42.415277777777774],[-98.835,42.45583333333334],[-98.75222222222222,42.46388888888889],[-98.75222222222222,42.46388888888889],[-98.75222222222222,42.46388888888889],[-98.55166666666666,42.477222222222224],[-98.55166666666666,42.477222222222224],[-98.55166666666666,42.477222222222224],[-98.55166666666666,42.477222222222224],[-97.9375,42.506388888888885],[-97.7275,42.51555555555556],[-97.7275,42.51555555555556],[-97.7275,42.51555555555556],[-97.7275,42.51555555555556],[-97.52361111111111,42.524166666666666],[-97.52361111111111,42.524166666666666],[-97.52361111111111,42.524166666666666],[-96.7075,42.55472222222222],[-96.7075,42.55472222222222],[-96.5,42.56166666666666],[-96.29583333333333,42.56777777777778],[-96.29583333333333,42.56777777777778],[-96.0925,42.573888888888895],[-96.0925,42.573888888888895],[-96.0925,42.573888888888895],[-96.0925,42.573888888888895],[-96.0925,42.573888888888895],[-95.05944444444444,42.598888888888894],[-95.05944444444444,42.598888888888894],[-94.85166666666666,42.6025],[-94.85166666666666,42.6025],[-94.85166666666666,42.6025],[-94.22305555555556,42.60805555555556],[-94.22305555555556,42.60805555555556],[-94.22305555555556,42.60805555555556],[-93.61027777777777,42.57972222222222],[-93.61027777777777,42.57972222222222],[-93.61027777777777,42.57972222222222],[-93.20083333333334,42.55916666666666],[-93.20083333333334,42.55916666666666],[-93.20083333333334,42.55916666666666],[-92.17277777777778,42.50055555555556],[-92.17277777777778,42.50055555555556],[-92.17277777777778,42.50055555555556],[-91.14805555555556,42.433055555555555],[-91.14805555555556,42.433055555555555],[-91.14805555555556,42.433055555555555],[-91.14805555555556,42.433055555555555],[-90.7363888888889,42.40361111111111],[-90.7363888888889,42.40361111111111],[-90.7363888888889,42.40361111111111],[-90.07222222222222,42.36666666666667],[-89.86083333333333,42.35388888888889],[-89.86083333333333,42.35388888888889],[-89.86083333333333,42.35388888888889],[-89.86083333333333,42.35388888888889],[-89.2461111111111,42.315555555555555],[-89.2461111111111,42.315555555555555],[-89.04166666666667,42.30138888888889],[-89.04166666666667,42.30138888888889],[-87.21666666666667,42.181666666666665],[-87.21666666666667,42.181666666666665],[-86.885,42.16111111111111],[-86.885,42.16111111111111],[-86.79944444444445,42.156666666666666],[-86.70444444444445,42.15138888888889],[-86.70444444444445,42.15138888888889],[-86.70444444444445,42.15138888888889],[-86.70444444444445,42.15138888888889],[-86.1725,42.11638888888889],[-86.03666666666666,42.10722222222223],[-85.96194444444444,42.102222222222224],[-85.96194444444444,42.102222222222224],[-85.62555555555555,42.078611111111115],[-85.62555555555555,42.078611111111115],[-85.53555555555555,42.07222222222222],[-85.53555555555555,42.07222222222222],[-85.41472222222222,42.06333333333333],[-85.32722222222222,42.05694444444444],[-85.32722222222222,42.05694444444444],[-85.20277777777778,42.0475],[-84.9075,42.038888888888884],[-84.9075,42.038888888888884],[-84.9075,42.038888888888884],[-84.35249999999999,42.02388888888889],[-84.35249999999999,42.02388888888889],[-84.1463888888889,42.01305555555555],[-84.1463888888889,42.01305555555555],[-84.06611111111111,42.00861111111111],[-84.06611111111111,42.00861111111111],[-83.93805555555556,42.001666666666665],[-83.64083333333333,41.984722222222224],[-83.64083333333333,41.984722222222224],[-83.51694444444445,41.9775],[-83.51694444444445,41.9775],[-83.30055555555555,41.964444444444446],[-82.8825,41.93833333333333],[-82.66555555555556,41.924166666666665],[-82.66555555555556,41.924166666666665],[-82.66555555555556,41.924166666666665],[-82.45277777777778,41.90972222222222],[-82.45277777777778,41.90972222222222],[-82.45277777777778,41.90972222222222],[-82.2363888888889,41.89472222222222],[-81.78805555555556,41.86222222222222],[-81.13972222222223,41.81194444444444],[-80.78472222222221,41.781666666666666],[-80.7088888888889,41.77638888888889],[-80.56916666666666,41.76611111111111],[-80.2775,41.739444444444445],[-79.86083333333333,41.70194444444445],[-79.86083333333333,41.70194444444445],[-79.86083333333333,41.70194444444445],[-79.32222222222222,41.65138888888889],[-78.87138888888889,41.606944444444444],[-78.87138888888889,41.606944444444444],[-78.69361111111111,41.58888888888889],[-78.2875,41.54694444444444],[-78.2875,41.54694444444444],[-78.2875,41.54694444444444],[-77.86611111111111,41.493611111111115],[-77.43361111111112,41.40277777777778],[-77.43361111111112,41.40277777777778],[-77.07805555555555,41.32666666666667],[-76.84916666666666,41.276666666666664],[-76.70694444444445,41.245555555555555],[-76.70694444444445,41.245555555555555],[-76.70694444444445,41.245555555555555],[-76.00527777777778,41.08861111111111],[-76.00527777777778,41.08861111111111],[-75.42722222222223,40.955000000000005],[-75.42722222222223,40.955000000000005],[-75.42722222222223,40.955000000000005],[-75.29055555555556,40.92333333333333],[-74.96333333333334,40.83694444444445],[-74.87305555555555,40.794999999999995],[-74.87305555555555,40.794999999999995],[-74.78111111111112,40.75194444444445],[-74.78111111111112,40.75194444444445],[-74.36666666666666,40.56666666666667],[-74.36666666666666,40.56666666666667],[-74.36666666666666,40.56666666666667],[-74.28222222222222,40.55138888888889],[-74.23833333333333,40.57638888888889],[-74.2,40.65],[-74.2,40.65]],"type":"LineString"}
}
