{
  "id": 2014798369,
  "type": "Feature",
  "properties": {
    "geom:area": 0,
    "geom:bbox": "-122.788590,37.624920,-122.255860,38.484540",
    "geom:latitude": 37.97660123359931,
    "geom:longitude": -122.5731037391597,
    "src:alt_label": "swim-approach",
    "src:geom": "swim",
    "swim:elevations": [
      6685,
      6675,
      6348,
      6160,
      6010,
      5633,
      5351,
      5086,
      5028,
      4898,
      4669,
      4482,
      4220,
      3983,
      3808,
      3778,
      3575,
      3460,
      3249,
      2963,
      2841,
      2692,
      2510,
      2293,
      2123,
      1949,
      1912,
      1830,
      1829,
      1845,
      1792,
      1519,
      1496,
      1127,
      1071,
      946,
      944,
      945,
      872,
      735,
      670,
      508,
      307,
      211,
      62,
      34
    ],
    "swim:geom": "approach",
    "swim:timestamps": [
      1771153915,
      1771153920,
      1771153972,
      1771153994,
      1771154011,
      1771154055,
      1771154089,
      1771154125,
      1771154133,
      1771154146,
      1771154179,
      1771154206,
      1771154243,
      1771154277,
      1771154303,
      1771154311,
      1771154338,
      1771154359,
      1771154386,
      1771154427,
      1771154439,
      1771154460,
      1771154483,
      1771154515,
      1771154542,
      1771154575,
      1771154581,
      1771154603,
      1771154634,
      1771154644,
      1771154665,
      1771154698,
      1771154701,
      1771154758,
      1771154776,
      1771154810,
      1771154814,
      1771154846,
      1771154867,
      1771154899,
      1771154913,
      1771154946,
      1771154995,
      1771155019,
      1771155058,
      1771155073
    ],
    "wof:geomhash": "0853247015789cdf4dc0c5bdfa81e47a",
    "wof:id": 2014798369,
    "wof:repo": "sfomuseum-data-flights-2026-02"
  },
  "bbox": [
    -122.78859,
    37.62492,
    -122.25586,
    38.48454
  ],
  "geometry": {"coordinates":[[-122.78859,38.48454],[-122.7881,38.47877],[-122.78259,38.40893],[-122.78026,38.38007],[-122.77838,38.35717],[-122.77327,38.29643],[-122.76959,38.24998],[-122.76085,38.20134],[-122.75776,38.19148],[-122.75247,38.17322],[-122.74013,38.13049],[-122.73023,38.09642],[-122.71727,38.05183],[-122.70568,38.01122],[-122.6964,37.97918],[-122.69391,37.9706],[-122.68442,37.93807],[-122.6774,37.91379],[-122.67668,37.88168],[-122.68161,37.83481],[-122.67359,37.8217],[-122.64602,37.80735],[-122.60811,37.81003],[-122.55809,37.82649],[-122.51471,37.84082],[-122.46448,37.85781],[-122.45591,37.8607],[-122.42193,37.87189],[-122.37744,37.88047],[-122.36521,37.8771],[-122.3437,37.86821],[-122.31191,37.85513],[-122.3091,37.85398],[-122.2586,37.82959],[-122.25586,37.81671],[-122.25824,37.79191],[-122.25975,37.78901],[-122.27452,37.76692],[-122.28391,37.75309],[-122.29784,37.73205],[-122.30385,37.72281],[-122.31873,37.70058],[-122.33856,37.6705],[-122.34755,37.65702],[-122.36233,37.63461],[-122.36842,37.62492]],"type":"LineString"}
}
