{
  "id": 2014810465,
  "type": "Feature",
  "properties": {
    "geom:area": 0,
    "geom:bbox": "-122.470000,33.270000,-111.830000,37.680000",
    "geom:latitude": 34.917288311070536,
    "geom:longitude": -117.29697426658211,
    "src:alt_label": "swim-route",
    "src:geom": "swim",
    "swim:geom": "route",
    "wof:geomhash": "6b297f7e80417ec2cc9a554c5ab17da5",
    "wof:id": 2014810465,
    "wof:repo": "sfomuseum-data-flights-2026-02"
  },
  "bbox": [
    -122.47,
    33.27,
    -111.83,
    37.68
  ],
  "geometry": {"coordinates":[[-122.38,37.62],[-122.36,37.68],[-122.39,37.63],[-122.39,37.63],[-122.43,37.57],[-122.43,37.56],[-122.45,37.54],[-122.47,37.49],[-122.47,37.49],[-122.46,37.48],[-122.43,37.46],[-122.33,37.4],[-122.17,37.29],[-122.14,37.27],[-122.07,37.23],[-121.97,37.17],[-121.79,37.04],[-121.78,37.04],[-121.75,37.02],[-121.59,36.91],[-121.41,36.79],[-121.32,36.74],[-121.31,36.73],[-121.13,36.61],[-121.03,36.54],[-120.95,36.49],[-120.92,36.47],[-120.7,36.32],[-120.47,36.16],[-120.24,36.01],[-120.23,36.01],[-120.03,35.87],[-120,35.85],[-119.93,35.83],[-119.49,35.65],[-119.07,35.46],[-118.58,35.28],[-117.8,34.93],[-117.53,34.83],[-116.94,34.58],[-116.33,34.31],[-115.6,33.98],[-115.14,33.77],[-115.09,33.75],[-114.92,33.67],[-114.84,33.63],[-114.76,33.6],[-114.42,33.53],[-114.11,33.47],[-114.08,33.46],[-114.08,33.46],[-114,33.45],[-113.97,33.44],[-113.95,33.44],[-113.64,33.37],[-113.46,33.34],[-113.41,33.33],[-113.23,33.3],[-113.07,33.27],[-113.02,33.28],[-112.82,33.28],[-112.79,33.29],[-112.69,33.33],[-112.63,33.35],[-112.59,33.37],[-112.52,33.39],[-112.5,33.4],[-112.44,33.42],[-112.43,33.43],[-112.42,33.43],[-112.36,33.43],[-112.35,33.43],[-112.3,33.43],[-112.28,33.33],[-112.27,33.34],[-112.22,33.36],[-112.19,33.37],[-112.16,33.38],[-112.13,33.39],[-112.07,33.41],[-111.83,33.35],[-112.01,33.43]],"type":"LineString"}
}
