{
  "id": 2014822273,
  "type": "Feature",
  "properties": {
    "geom:area": 0,
    "geom:bbox": "-178.450000,35.550000,170.180000,51.850000",
    "geom:latitude": 49.0009951413605,
    "geom:longitude": -11.921368678730943,
    "src:alt_label": "swim-route",
    "src:geom": "swim",
    "swim:geom": "route",
    "wof:geomhash": "744eb49620a09645186c50613b0ab858",
    "wof:id": 2014822273,
    "wof:repo": "sfomuseum-data-flights-2026-02"
  },
  "bbox": [
    -178.45,
    35.55,
    170.18,
    51.85
  ],
  "geometry": {"coordinates":[[[139.78,35.55],[141.49,36.62],[142.45,37.2],[143.42,37.76],[144.4,38.32],[151.71,41.97],[155.1,43.38],[170.18,47.89]],[[-178.45,51.58],[-176.85,51.83],[-176.41,51.85],[-174.98,51.68],[-173.62,51.52],[-166.6,51.77],[-166.56,51.77],[-163.55,51.1],[-154.6,51.1],[-147.95,50.48],[-137.71,47.03],[-130,44],[-126.84,41.7],[-126.84,41.69],[-126.83,41.69],[-126.81,41.67],[-125.1,40.22],[-124.81,39.96],[-124.67,39.83],[-124.53,39.71],[-124.25,39.45],[-123.93,39.17],[-123.88,39.12],[-123.83,39.08],[-123.75,39],[-123.65,38.92],[-123.59,38.88],[-123.37,38.7],[-123.33,38.67],[-123.14,38.52],[-123.13,38.52],[-122.87,38.3],[-122.85,38.29],[-122.77,38.22],[-122.75,38.16],[-122.72,38.06],[-122.69,37.95],[-122.67,37.9],[-122.67,37.9],[-122.65,37.87],[-122.62,37.85],[-122.59,37.82],[-122.58,37.81],[-122.51,37.74],[-122.5,37.73],[-122.44,37.68],[-122.37,37.62],[-122.38,37.62]]],"type":"MultiLineString"}
}
