{
  "id": 2014855111,
  "type": "Feature",
  "properties": {
    "geom:area": 0,
    "geom:bbox": "-122.380000,33.640000,-84.430000,38.250000",
    "geom:latitude": 36.628587200829095,
    "geom:longitude": -103.35206631594818,
    "src:alt_label": "swim-route",
    "src:geom": "swim",
    "swim:geom": "route",
    "wof:geomhash": "55d7ce7f78eddda9b6b5ff3fffe58ac2",
    "wof:id": 2014855111,
    "wof:repo": "sfomuseum-data-flights-2026-02"
  },
  "bbox": [
    -122.38,
    33.64,
    -84.43,
    38.25
  ],
  "geometry": {"coordinates":[[-84.43,33.64],[-86.45,34.16],[-87.06,34.31],[-87.31,34.37],[-87.83,34.49],[-88.08,34.55],[-89.63,34.9],[-90.28,35.04],[-91.15,35.22],[-92.65,35.52],[-93.08,35.6],[-95.24,35.98],[-97.74,36.37],[-99.85,36.65],[-102.08,36.91],[-103.76,37.08],[-103.86,37.09],[-104.16,37.11],[-104.46,37.14],[-106.26,37.28],[-108.08,37.4],[-109.13,37.45],[-110.6,37.51],[-111.48,37.53],[-111.55,37.55],[-111.58,37.56],[-112.75,37.85],[-113.1,37.94],[-113.19,37.96],[-113.36,38],[-114.06,38.17],[-114.32,38.23],[-114.39,38.25],[-114.62,38.24],[-116.78,38.08],[-117.23,38.04],[-117.74,37.99],[-118.35,37.94],[-118.53,37.92],[-118.76,37.9],[-119.1,37.86],[-119.65,37.79],[-119.99,37.75],[-120.04,37.74],[-120.26,37.72],[-120.28,37.72],[-120.38,37.7],[-120.4,37.7],[-120.75,37.66],[-120.78,37.66],[-120.83,37.65],[-120.96,37.63],[-121,37.63],[-121.08,37.62],[-121.18,37.6],[-121.26,37.59],[-121.39,37.58],[-121.41,37.58],[-121.6,37.55],[-121.61,37.55],[-121.62,37.55],[-121.7,37.53],[-121.8,37.51],[-121.83,37.5],[-121.88,37.49],[-122.08,37.54],[-122.14,37.56],[-122.18,37.57],[-122.28,37.59],[-122.33,37.61],[-122.36,37.61],[-122.38,37.62]],"type":"LineString"}
}
