{
  "id": 2014894669,
  "type": "Feature",
  "properties": {
    "geom:area": 0,
    "geom:bbox": "-122.386250,37.632170,-121.279820,38.069560",
    "geom:latitude": 37.95157935716783,
    "geom:longitude": -121.95065708230632,
    "src:alt_label": "swim-takeoff",
    "src:geom": "swim",
    "swim:elevations": [
      213,
      446,
      1121,
      1397,
      1736,
      2739,
      2814,
      2982,
      3293,
      3526,
      4287,
      4473,
      4725,
      4843,
      5079,
      5437,
      5614,
      5645,
      5743,
      6274,
      6438,
      6683,
      6930,
      7224,
      7318,
      7443
    ],
    "swim:geom": "takeoff",
    "swim:timestamps": [
      1772147722,
      1772147736,
      1772147801,
      1772147839,
      1772147866,
      1772147938,
      1772147944,
      1772147956,
      1772147991,
      1772148018,
      1772148086,
      1772148110,
      1772148128,
      1772148137,
      1772148159,
      1772148196,
      1772148233,
      1772148242,
      1772148265,
      1772148326,
      1772148342,
      1772148367,
      1772148398,
      1772148434,
      1772148446,
      1772148466
    ],
    "wof:geomhash": "a97bee27d1b1525cac5e5052e6ee0f13",
    "wof:id": 2014894669,
    "wof:repo": "sfomuseum-data-flights-2026-02"
  },
  "bbox": [
    -122.38625,
    37.63217,
    -121.27982,
    38.06956
  ],
  "geometry": {"coordinates":[[-122.364,37.63217],[-122.35548,37.64134],[-122.31351,37.68422],[-122.32377,37.72437],[-122.34002,37.75354],[-122.38189,37.83657],[-122.38412,37.84406],[-122.38625,37.85943],[-122.38409,37.90515],[-122.35775,37.9393],[-122.22423,37.97248],[-122.17544,37.98189],[-122.13565,37.98724],[-122.11494,37.98835],[-122.06913,37.9887],[-121.98601,37.98902],[-121.90172,37.98943],[-121.88031,37.99003],[-121.82406,37.99672],[-121.66484,38.01844],[-121.62321,38.02403],[-121.55586,38.033],[-121.46884,38.04455],[-121.369,38.05796],[-121.33544,38.06236],[-121.27982,38.06956]],"type":"LineString"}
}
