{
  "id": 2014902003,
  "type": "Feature",
  "properties": {
    "geom:area": 0,
    "geom:bbox": "-122.380000,37.620000,-83.350000,43.910000",
    "geom:latitude": 42.27560648376093,
    "geom:longitude": -102.99938357671611,
    "src:alt_label": "swim-route",
    "src:geom": "swim",
    "swim:geom": "route",
    "wof:geomhash": "4764435e4da6ef15e95d2e887bbb9eed",
    "wof:id": 2014902003,
    "wof:repo": "sfomuseum-data-flights-2026-02"
  },
  "bbox": [
    -122.38,
    37.62,
    -83.35,
    43.91
  ],
  "geometry": {"coordinates":[[-122.38,37.62],[-122.28,37.68],[-122.27,37.69],[-122.27,37.69],[-122.21,37.72],[-122.21,37.73],[-122.2,37.73],[-122.18,37.75],[-122.14,37.79],[-122.13,37.81],[-122.07,37.88],[-122.01,37.92],[-121.85,38.02],[-121.85,38.03],[-121.79,38.07],[-121.74,38.1],[-121.73,38.11],[-121.6,38.19],[-121.53,38.25],[-121.51,38.26],[-121.42,38.32],[-121.39,38.33],[-121.39,38.34],[-121.33,38.37],[-121.31,38.38],[-121.16,38.48],[-121.08,38.53],[-121.01,38.57],[-120.94,38.62],[-120.76,38.73],[-120.61,38.81],[-120.34,38.98],[-120.19,39.07],[-120.18,39.08],[-119.39,39.54],[-119.21,39.65],[-119.03,39.75],[-118.8,39.88],[-118.02,40.2],[-117.94,40.22],[-114.46,41.2],[-113.84,41.36],[-113.3,41.46],[-112.76,41.56],[-110.88,41.87],[-110,42],[-107.14,42.34],[-106.87,42.37],[-106,42.5],[-104.86,42.72],[-102.04,43.2],[-101.03,43.35],[-100.52,43.43],[-100,43.5],[-98.57,43.58],[-98.27,43.59],[-98.17,43.59],[-96.78,43.65],[-96.34,43.67],[-93.79,43.76],[-92.6,43.78],[-91.88,43.87],[-91.47,43.91],[-90.65,43.8],[-90.36,43.76],[-89.18,43.59],[-88,43.41],[-87.12,43.26],[-87.09,43.26],[-87,43.26],[-86.98,43.27],[-86.15,43.29],[-86.05,43.3],[-85.21,43.3],[-85.01,43.21],[-85,43.2],[-84.91,43.16],[-84.86,43.14],[-84.81,43.11],[-84.48,42.95],[-84.35,42.88],[-84.11,42.76],[-83.99,42.7],[-83.96,42.69],[-83.76,42.65],[-83.67,42.63],[-83.64,42.63],[-83.58,42.61],[-83.49,42.59],[-83.38,42.57],[-83.36,42.57],[-83.35,42.53],[-83.35,42.46],[-83.35,42.42],[-83.35,42.39],[-83.35,42.33],[-83.35,42.25],[-83.35,42.21]],"type":"LineString"}
}
