{
  "id": 2014714563,
  "type": "Feature",
  "properties": {
    "geom:area": 0,
    "geom:bbox": "-123.483720,37.633030,-122.359890,38.344810",
    "geom:latitude": 38.00234031769485,
    "geom:longitude": -122.88444734310345,
    "src:alt_label": "swim-takeoff",
    "src:geom": "swim",
    "swim:elevations": [
      213,
      501,
      884,
      976,
      1445,
      2041,
      2472,
      2567,
      2986,
      3255,
      3359,
      3481,
      3831,
      4357,
      4558,
      4884,
      5178,
      5619,
      5877,
      6162,
      6462,
      6586,
      6799,
      7041,
      7224
    ],
    "swim:geom": "takeoff",
    "swim:timestamps": [
      1770206398,
      1770206415,
      1770206448,
      1770206463,
      1770206506,
      1770206545,
      1770206575,
      1770206583,
      1770206622,
      1770206658,
      1770206682,
      1770206700,
      1770206741,
      1770206782,
      1770206799,
      1770206830,
      1770206860,
      1770206905,
      1770206933,
      1770206962,
      1770206994,
      1770207010,
      1770207040,
      1770207069,
      1770207093
    ],
    "wof:geomhash": "8548473f67294a52dc492bbbac8776b7",
    "wof:id": 2014714563,
    "wof:repo": "sfomuseum-data-flights-2026-02"
  },
  "bbox": [
    -123.48372,
    37.63303,
    -122.35989,
    38.34481
  ],
  "geometry": {"coordinates":[[-122.36353,37.63303],[-122.35989,37.64685],[-122.3645,37.67671],[-122.36249,37.69185],[-122.36324,37.74294],[-122.41183,37.77242],[-122.45819,37.78811],[-122.46956,37.79197],[-122.53281,37.81226],[-122.59221,37.83169],[-122.63462,37.8502],[-122.66615,37.86887],[-122.741,37.91303],[-122.81913,37.95865],[-122.85232,37.97809],[-122.91492,38.01495],[-122.97386,38.04944],[-123.0684,38.10454],[-123.12634,38.13828],[-123.18878,38.17439],[-123.25772,38.21423],[-123.29424,38.23525],[-123.3598,38.27315],[-123.42775,38.31219],[-123.48372,38.34481]],"type":"LineString"}
}
