{
  "id": 2014906075,
  "type": "Feature",
  "properties": {
    "geom:area": 0,
    "geom:bbox": "-176.680000,23.180000,180.000000,52.000000",
    "geom:latitude": 49.54846477975376,
    "geom:longitude": 5.980152737332276,
    "src:alt_label": "swim-route",
    "src:geom": "swim",
    "swim:geom": "route",
    "wof:geomhash": "61a91eeec763819630d0c305f2e9fc94",
    "wof:id": 2014906075,
    "wof:repo": "sfomuseum-data-flights-2026-02"
  },
  "bbox": [
    -176.68,
    23.18,
    180,
    52
  ],
  "geometry": {"coordinates":[[[113.27,23.18],[113.35,23.27],[113.41,23.34],[113.48,23.41],[113.56,23.5],[113.68,23.63],[113.93,23.89],[114.08,24.05],[114.26,24.24],[114.37,24.36],[114.42,24.41],[114.43,24.42],[115.02,25.05],[121.34,31.12],[122.25,31],[122.42,31],[122.65,31],[123,31],[124,31.61],[125,31.83],[126.48,32.6],[128.23,33.46],[128.23,33.47],[130.23,34.41],[132.45,35.39],[132.66,35.48],[134.5,36.24],[135.01,36.44],[137.8,37.5],[139.11,37.96],[139.76,37.95],[141.75,37.89],[143.54,37.82],[145.52,38.33],[145.66,38.45],[146.35,39.03],[148.94,41.08],[154.42,44.86],[160.68,48.28],[160.68,48.28],[161.85,48.83],[165.51,50.41],[171.55,51.4],[174.88,51.78],[177.1,51.89],[178.55,51.91],[180,51.92]],[[-176.68,51.87],[-173.34,51.98],[-170,52],[-166.64,51.76],[-166.6,51.76],[-162.17,51.29],[-160,51],[-150,49],[-142.99,47.03],[-141.48,46.52],[-140,46],[-130,42],[-127,40.63],[-126.99,40.62],[-124.27,39.49],[-123.77,39.27],[-123.27,39.05],[-123.15,38.76],[-123.15,38.75],[-123.06,38.55],[-123.04,38.49],[-122.94,38.26],[-122.92,38.21],[-122.87,38.08],[-122.84,38.01],[-122.79,37.9],[-122.75,37.81],[-122.71,37.72],[-122.71,37.71],[-122.64,37.55],[-122.62,37.51],[-122.6,37.46],[-122.6,37.45],[-122.58,37.41],[-122.58,37.4],[-122.5,37.4],[-122.45,37.4],[-122.29,37.39],[-122.28,37.39],[-122.31,37.46],[-122.34,37.54],[-122.37,37.6],[-122.37,37.61],[-122.38,37.62]]],"type":"MultiLineString"}
}
