{
  "id": 2014899333,
  "type": "Feature",
  "properties": {
    "geom:area": 0,
    "geom:bbox": "-156.050000,19.740000,-122.280000,37.620000",
    "geom:latitude": 28.16234651595082,
    "geom:longitude": -138.4925907442627,
    "src:alt_label": "swim-route",
    "src:geom": "swim",
    "swim:geom": "route",
    "wof:geomhash": "e4ba1d79331c7359d31cdbc06d0a40ef",
    "wof:id": 2014899333,
    "wof:repo": "sfomuseum-data-flights-2026-02"
  },
  "bbox": [
    -156.05,
    19.74,
    -122.28,
    37.62
  ],
  "geometry": {"coordinates":[[-156.05,19.74],[-154.5,20.61],[-152.73,21.57],[-151.84,22.05],[-150.94,22.52],[-139.67,27.73],[-137.69,28.51],[-127.38,31.95],[-126.47,33.48],[-125.06,35.74],[-125.05,35.75],[-125,35.83],[-124.76,36.18],[-124.38,36.42],[-124.37,36.43],[-124.31,36.46],[-124.25,36.5],[-123.99,36.67],[-123.93,36.71],[-123.66,36.87],[-123.61,36.91],[-123.57,36.93],[-123.34,37.07],[-123.13,37.19],[-122.96,37.24],[-122.86,37.26],[-122.84,37.26],[-122.84,37.26],[-122.76,37.28],[-122.68,37.3],[-122.66,37.3],[-122.55,37.33],[-122.5,37.34],[-122.3,37.39],[-122.28,37.39],[-122.29,37.41],[-122.31,37.46],[-122.34,37.54],[-122.37,37.6],[-122.37,37.61],[-122.38,37.62]],"type":"LineString"}
}
