{
  "id": 2014899333,
  "type": "Feature",
  "properties": {
    "geom:area": 0,
    "geom:bbox": "-156.033333,19.800000,-122.171944,37.600000",
    "geom:latitude": 28.73532850999428,
    "geom:longitude": -139.08401796950008,
    "src:alt_label": "swim-path",
    "src:geom": "swim",
    "swim:altitudes": [
      "023C",
      "023C",
      "065C",
      "065C",
      "065C",
      "090C",
      "090C",
      "145C",
      "145C",
      "145C",
      "161C",
      "203C",
      "214C",
      "214C",
      "214C",
      "237C",
      "237C",
      "246C",
      "258C",
      "258C",
      "271C",
      "271C",
      "271C",
      "302C",
      "302C",
      "310",
      "310",
      "310",
      "310",
      "310",
      "310",
      "310",
      "310",
      "310",
      "310",
      "310",
      "310",
      "310",
      "310",
      "310",
      "310",
      "310",
      "310",
      "310",
      "310",
      "310",
      "310",
      "310",
      "310",
      "310",
      "310",
      "310",
      "310",
      "310",
      "310",
      "310C",
      "310C",
      "277",
      "277",
      "240",
      "228",
      "170",
      "170",
      "130",
      "125",
      "089",
      "089",
      "080",
      "060",
      "056",
      "046",
      "032",
      "025",
      "020",
      "012",
      "009",
      "004",
      "004"
    ],
    "swim:geom": "path",
    "swim:speeds": [
      210,
      210,
      280,
      280,
      280,
      290,
      290,
      420,
      420,
      420,
      430,
      470,
      480,
      480,
      480,
      500,
      500,
      510,
      520,
      520,
      510,
      510,
      510,
      490,
      490,
      500,
      500,
      500,
      500,
      480,
      480,
      490,
      490,
      490,
      490,
      490,
      490,
      490,
      490,
      490,
      490,
      490,
      490,
      490,
      490,
      500,
      500,
      500,
      500,
      500,
      500,
      530,
      530,
      530,
      530,
      534,
      534,
      448,
      448,
      416,
      397,
      359,
      359,
      330,
      326,
      295,
      295,
      284,
      235,
      230,
      221,
      198,
      191,
      173,
      169,
      168,
      159,
      159
    ],
    "swim:timestamps": [
      1772239796,
      1772239796,
      1772239916,
      1772239916,
      1772239916,
      1772239976,
      1772239976,
      1772240216,
      1772240216,
      1772240216,
      1772240276,
      1772240456,
      1772240516,
      1772240516,
      1772240516,
      1772240636,
      1772240636,
      1772240696,
      1772240756,
      1772240756,
      1772240817,
      1772240817,
      1772240817,
      1772240936,
      1772240936,
      1772241057,
      1772241057,
      1772241057,
      1772241057,
      1772241297,
      1772241297,
      1772241357,
      1772241357,
      1772241417,
      1772241417,
      1772241417,
      1772241477,
      1772241477,
      1772241477,
      1772241536,
      1772241536,
      1772241536,
      1772241717,
      1772241717,
      1772241717,
      1772241837,
      1772241837,
      1772241897,
      1772241897,
      1772241897,
      1772241897,
      1772242077,
      1772242077,
      1772242077,
      1772242077,
      1772254017,
      1772254017,
      1772254497,
      1772254497,
      1772254737,
      1772254798,
      1772254998,
      1772254998,
      1772255136,
      1772255158,
      1772255338,
      1772255338,
      1772255458,
      1772255638,
      1772255670,
      1772255724,
      1772255818,
      1772255879,
      1772255910,
      1772255970,
      1772255999,
      1772256030,
      1772256030
    ],
    "wof:geomhash": "c1a52a1d89c86905b6c4049bef52505a",
    "wof:id": 2014899333,
    "wof:repo": "sfomuseum-data-flights-2026-02"
  },
  "bbox": [
    -156.03333333333333,
    19.8,
    -122.17194444444445,
    37.6
  ],
  "geometry": {"coordinates":[[-156.03333333333333,19.8],[-156.03333333333333,19.8],[-156.03333333333333,19.95],[-156.03333333333333,19.95],[-156.03333333333333,19.95],[-156.03333333333333,20.033333333333335],[-156.03333333333333,20.033333333333335],[-155.85,20.35],[-155.85,20.35],[-155.85,20.35],[-155.73333333333332,20.4],[-155.35,20.483333333333334],[-155.21666666666667,20.533333333333335],[-155.21666666666667,20.533333333333335],[-155.21666666666667,20.533333333333335],[-154.96666666666667,20.683333333333334],[-154.96666666666667,20.683333333333334],[-154.83333333333334,20.75],[-154.7,20.833333333333332],[-154.7,20.833333333333332],[-154.56666666666666,20.9],[-154.56666666666666,20.9],[-154.56666666666666,20.9],[-154.31666666666666,21.05],[-154.31666666666666,21.05],[-154.06666666666666,21.183333333333334],[-154.06666666666666,21.183333333333334],[-154.06666666666666,21.183333333333334],[-154.06666666666666,21.183333333333334],[-153.56666666666666,21.466666666666665],[-153.56666666666666,21.466666666666665],[-153.45,21.533333333333335],[-153.45,21.533333333333335],[-153.31666666666666,21.6],[-153.31666666666666,21.6],[-153.31666666666666,21.6],[-153.2,21.666666666666668],[-153.2,21.666666666666668],[-153.2,21.666666666666668],[-153.06666666666666,21.733333333333334],[-153.06666666666666,21.733333333333334],[-153.06666666666666,21.733333333333334],[-152.68333333333334,21.933333333333334],[-152.68333333333334,21.933333333333334],[-152.68333333333334,21.933333333333334],[-152.43333333333334,22.066666666666666],[-152.43333333333334,22.066666666666666],[-152.28333333333333,22.133333333333333],[-152.28333333333333,22.133333333333333],[-152.28333333333333,22.133333333333333],[-152.28333333333333,22.133333333333333],[-151.9,22.333333333333332],[-151.9,22.333333333333332],[-151.9,22.333333333333332],[-151.9,22.333333333333332],[-125.11138888888888,35.659166666666664],[-125.11138888888888,35.659166666666664],[-124.22694444444444,36.51833333333333],[-124.22694444444444,36.51833333333333],[-123.75972222222222,36.809999999999995],[-123.65138888888889,36.87694444444445],[-123.3,37.1],[-123.3,37.1],[-123.08333333333333,37.2],[-123.04055555555556,37.21638888888889],[-122.73027777777779,37.288888888888884],[-122.73027777777779,37.288888888888884],[-122.53999999999999,37.33305555555556],[-122.28222222222222,37.37444444444444],[-122.25,37.4],[-122.18333333333334,37.43333333333333],[-122.17194444444445,37.49666666666667],[-122.21722222222222,37.535555555555554],[-122.25,37.55],[-122.28333333333333,37.583333333333336],[-122.31166666666667,37.591944444444444],[-122.35,37.6],[-122.35,37.6]],"type":"LineString"}
}
