{
  "id": 2014807589,
  "type": "Feature",
  "properties": {
    "geom:area": 0,
    "geom:bbox": "-122.670000,33.640000,-84.280000,39.310000",
    "geom:latitude": 37.28006374413953,
    "geom:longitude": -103.67208130895824,
    "src:alt_label": "swim-route",
    "src:geom": "swim",
    "swim:geom": "route",
    "wof:geomhash": "ff27ba538fe6a8f5adcffb57a93147ef",
    "wof:id": 2014807589,
    "wof:repo": "sfomuseum-data-flights-2026-02"
  },
  "bbox": [
    -122.67,
    33.64,
    -84.28,
    39.31
  ],
  "geometry": {"coordinates":[[-84.43,33.64],[-84.28,33.68],[-84.28,33.81],[-84.53,33.81],[-84.62,33.82],[-84.62,33.82],[-85.19,33.82],[-85.2,33.82],[-85.42,33.83],[-85.65,33.84],[-85.92,33.91],[-87.14,34.23],[-87.65,34.36],[-88.16,34.48],[-88.3,34.56],[-88.93,34.75],[-89.56,34.94],[-90.02,35.08],[-90.49,35.21],[-91.2,35.41],[-92.08,35.65],[-93.09,35.92],[-94.79,36.35],[-95.32,36.47],[-96.12,36.66],[-97.74,37.02],[-98.01,37.08],[-99.96,37.47],[-100.1,37.5],[-101.52,37.75],[-101.94,37.84],[-102.92,38],[-103.32,38.07],[-104.24,38.21],[-105.09,38.34],[-105.66,38.38],[-105.76,38.38],[-106.81,38.44],[-107.04,38.45],[-107.64,38.45],[-108.24,38.45],[-108.44,38.45],[-109.3,38.44],[-109.98,38.43],[-110.09,38.43],[-110.43,38.43],[-110.87,38.42],[-111.91,38.4],[-113.01,38.36],[-113.8,38.48],[-114.09,38.44],[-114.13,38.45],[-114.19,38.46],[-114.29,38.47],[-114.92,38.57],[-115.36,38.64],[-115.92,38.72],[-115.97,38.73],[-116.19,38.76],[-116.28,38.77],[-116.34,38.78],[-116.38,38.78],[-116.98,38.87],[-117.18,38.89],[-117.3,38.91],[-118.77,39.09],[-119.6,39.18],[-119.73,39.2],[-119.91,39.22],[-120.45,39.27],[-120.63,39.28],[-120.64,39.27],[-120.68,39.31],[-120.79,39.31],[-120.92,39.24],[-121.28,39.05],[-121.44,38.96],[-121.52,38.91],[-121.83,38.76],[-121.98,38.68],[-122.18,38.48],[-122.32,38.3],[-122.35,38.26],[-122.36,38.25],[-122.48,38.12],[-122.6,37.98],[-122.64,37.94],[-122.67,37.9],[-122.65,37.87],[-122.59,37.82],[-122.58,37.81],[-122.53,37.77],[-122.51,37.74],[-122.5,37.74],[-122.5,37.73],[-122.44,37.68],[-122.37,37.62],[-122.38,37.62]],"type":"LineString"}
}
