{
  "id": 2014889399,
  "type": "Feature",
  "properties": {
    "geom:area": 0,
    "geom:bbox": "-122.708889,37.323056,-73.588889,45.410278",
    "geom:latitude": 42.977076380178005,
    "geom:longitude": -98.95199378513603,
    "src:alt_label": "swim-path",
    "src:geom": "swim",
    "swim:altitudes": [
      "005",
      "005",
      "005",
      "005",
      "170",
      "170",
      "170",
      "170",
      "170",
      "170",
      "170",
      "170",
      "170",
      "170",
      "170",
      "190",
      "190",
      "190",
      "190",
      "190",
      "236",
      "236",
      "236",
      "236",
      "273",
      "273",
      "273",
      "273",
      "273",
      "293",
      "293",
      "293",
      "293",
      "293",
      "328",
      "328",
      "328",
      "328",
      "328",
      "328",
      "328",
      "357",
      "357",
      "360C",
      "360C",
      "360C",
      "360C",
      "360C",
      "360C",
      "360C",
      "360C",
      "360C",
      "360C",
      "360C",
      "360C",
      "360C",
      "360C",
      "360C",
      "360C",
      "360C",
      "360C",
      "360C",
      "360C",
      "360C",
      "360C",
      "360C",
      "360C",
      "360C",
      "360C",
      "360C",
      "360C",
      "360C",
      "360C",
      "360C",
      "360C",
      "360C",
      "360C",
      "360C",
      "360C",
      "360C",
      "360C",
      "360C",
      "360C",
      "360C",
      "360C",
      "360C",
      "360C",
      "360C",
      "360C",
      "360C",
      "360C",
      "360C",
      "360C",
      "360C",
      "360C",
      "360C",
      "360C",
      "360C",
      "360C",
      "360C",
      "360C",
      "360C",
      "360C",
      "360C",
      "360C",
      "360C",
      "360C",
      "360C",
      "360C",
      "360C",
      "360C",
      "360C",
      "360C",
      "360C",
      "360C",
      "360C",
      "360C",
      "360C",
      "360C",
      "360C",
      "360C",
      "360C",
      "360C",
      "360C",
      "360C",
      "360C",
      "360C",
      "360C",
      "360C",
      "360C",
      "360C",
      "360C",
      "360C",
      "360C",
      "360C",
      "360C",
      "360C",
      "360C",
      "360C",
      "360C",
      "360C",
      "360C",
      "360C",
      "360C",
      "360C",
      "360C",
      "360C",
      "360C",
      "360C",
      "360C",
      "360C",
      "360C",
      "360C",
      "360C",
      "360C",
      "360C",
      "360C",
      "360C",
      "360C",
      "360C",
      "360C",
      "360C",
      "360C",
      "360C",
      "360C",
      "360C",
      "360C",
      "360C",
      "360C",
      "360C",
      "360C",
      "360C",
      "360C",
      "360C",
      "360C",
      "360C",
      "360C",
      "360C",
      "360C",
      "360C",
      "360C",
      "360C",
      "360C",
      "360C",
      "360C",
      "360C",
      "360C",
      "360C",
      "360C",
      "360C",
      "360C",
      "360C",
      "360C",
      "360C",
      "360C",
      "360C",
      "360C",
      "360C",
      "360C",
      "360C",
      "360C",
      "360C",
      "360C",
      "360C",
      "360C",
      "360C",
      "360C",
      "360C",
      "360C",
      "360C",
      "360C",
      "360C",
      "360C",
      "360C",
      "360C",
      "360C",
      "360C",
      "360C",
      "360C",
      "360C",
      "360C",
      "360C",
      "360C",
      "360C",
      "360C",
      "360C",
      "360C",
      "360C",
      "360C",
      "360C",
      "360C",
      "360C",
      "360C",
      "360C",
      "360C",
      "360C",
      "360C",
      "360C",
      "360C",
      "360C",
      "360C",
      "360C",
      "360C",
      "360C",
      "360C",
      "360C",
      "360C",
      "360C",
      "360C",
      "360C",
      "360C",
      "360C",
      "360C",
      "360C",
      "360C",
      "360C",
      "360C",
      "360C",
      "360C",
      "360C",
      "360C",
      "360C",
      "360C",
      "360C",
      "360C",
      "360",
      "360",
      "360",
      "360",
      "360",
      "360",
      "376",
      "376",
      "376",
      "380C",
      "380C",
      "380C",
      "380C",
      "380C",
      "380C",
      "380C",
      "380C",
      "380C",
      "380C",
      "380C",
      "380C",
      "380C",
      "380C",
      "380C",
      "380C",
      "380C",
      "380C",
      "380C",
      "380C",
      "380C",
      "380C",
      "380C",
      "380C",
      "380C",
      "380C",
      "380C",
      "380C",
      "380C",
      "380C",
      "380C",
      "380C",
      "380C",
      "380C",
      "380C",
      "380C",
      "380C",
      "380C",
      "380C",
      "380C",
      "380C",
      "380C",
      "380C",
      "380C",
      "380C",
      "380C",
      "380C",
      "380C",
      "380C",
      "380C",
      "380C",
      "380C",
      "380C",
      "380C",
      "380C",
      "380C",
      "380C",
      "380C",
      "380C",
      "380C",
      "380C",
      "380C",
      "380C",
      "380C",
      "380C",
      "380C",
      "380C",
      "380C",
      "380C",
      "380C",
      "380C",
      "380C",
      "380C",
      "380C",
      "380C",
      "380C",
      "380C",
      "380C",
      "380C",
      "380C",
      "380C",
      "380C",
      "380C",
      "380C",
      "380C",
      "380C",
      "380C",
      "380C",
      "380C",
      "380C",
      "380C",
      "380C",
      "380C",
      "380C",
      "380C",
      "380C",
      "380C",
      "380C",
      "380C",
      "380C",
      "380C",
      "380C",
      "380C",
      "380C",
      "380C",
      "380C",
      "380C",
      "380C",
      "380C",
      "380C",
      "380C",
      "380C",
      "380C",
      "380C",
      "380C",
      "380C",
      "380C",
      "380C",
      "380C",
      "380C",
      "380C",
      "380C",
      "380C",
      "380C",
      "380C",
      "380C",
      "380C",
      "380C",
      "380C",
      "380C",
      "380C",
      "380C",
      "380C",
      "380C",
      "380C",
      "380C",
      "380C",
      "380C",
      "380C",
      "380C",
      "380C",
      "380C",
      "380C",
      "380C",
      "380C",
      "380C",
      "380C",
      "380C",
      "380C",
      "380C",
      "380C",
      "380C",
      "380C",
      "380C",
      "380C",
      "380C",
      "380C",
      "380C",
      "380C",
      "380C",
      "380C",
      "380C",
      "380C",
      "380C",
      "380C",
      "380C",
      "380C",
      "380C",
      "380C",
      "380C",
      "380C",
      "380C",
      "380C",
      "380C",
      "380C",
      "380C",
      "380C",
      "380C",
      "380C",
      "380C",
      "380C",
      "380C",
      "380C",
      "380C",
      "380C",
      "380C",
      "380C",
      "380C",
      "380C",
      "380C",
      "380C",
      "380C",
      "380C",
      "380C",
      "380C",
      "380C",
      "380C",
      "380C",
      "381C",
      "381C",
      "381C",
      "381C",
      "381C",
      "381C",
      "381C",
      "380C",
      "380C",
      "380C",
      "380C",
      "380C",
      "380C",
      "380C",
      "380C",
      "380C",
      "380C",
      "380C",
      "380C",
      "380C",
      "380C",
      "380C",
      "380C",
      "380C",
      "380C",
      "380C",
      "380C",
      "380C",
      "380C",
      "380C",
      "380C",
      "380C",
      "380C",
      "380C",
      "380C",
      "380C",
      "380C",
      "380C",
      "380C",
      "380C",
      "380C",
      "380C",
      "380C",
      "380C",
      "380C",
      "380C",
      "380C",
      "380C",
      "380C",
      "380C",
      "380C",
      "380C",
      "380C",
      "380C",
      "380C",
      "380C",
      "380C",
      "380C",
      "380C",
      "380C",
      "380C",
      "380C",
      "380C",
      "380C",
      "380C",
      "380C",
      "380C",
      "380C",
      "380C",
      "380C",
      "380C",
      "380C",
      "380C",
      "380C",
      "380C",
      "380C",
      "380C",
      "380C",
      "380C",
      "380C",
      "380C",
      "380C",
      "380C",
      "380C",
      "380C",
      "380C",
      "380C",
      "380C",
      "380C",
      "364",
      "364",
      "364",
      "360C",
      "360C",
      "360C",
      "360C",
      "360C",
      "360C",
      "360C",
      "360C",
      "360C",
      "360C",
      "360C",
      "360C",
      "360C",
      "360C",
      "360C",
      "360C",
      "360C",
      "360C",
      "360C",
      "360C",
      "360C",
      "360C",
      "360C",
      "360C",
      "360C",
      "360C",
      "360C",
      "360C",
      "360C",
      "360C",
      "360C",
      "360C",
      "360C",
      "360C",
      "360C",
      "360C",
      "360C",
      "360C",
      "360C",
      "360C",
      "360C",
      "360C",
      "360C",
      "360C",
      "360C",
      "360C",
      "360C",
      "360C",
      "360C",
      "360C",
      "360C",
      "360C",
      "360C",
      "360C",
      "360C",
      "360C",
      "360C",
      "360C",
      "360C",
      "360C",
      "360C",
      "360C",
      "360C",
      "360C",
      "360C",
      "360C",
      "360C",
      "360C",
      "360C",
      "360C",
      "360C",
      "360C",
      "360C",
      "360",
      "360",
      "360",
      "360",
      "360",
      "353",
      "353",
      "340C",
      "340C",
      "340C",
      "340C",
      "340C",
      "340C",
      "340C",
      "340C",
      "340",
      "340",
      "340",
      "340",
      "340",
      "340",
      "310C",
      "307",
      "307",
      "307",
      "307",
      "307",
      "307",
      "290",
      "290",
      "290",
      "290",
      "290",
      "290",
      "243",
      "243",
      "243",
      "243",
      "193",
      "193",
      "193",
      "193",
      "193",
      "174",
      "174",
      "170",
      "170",
      "170",
      "160",
      "153",
      "143",
      "143",
      "143",
      "137",
      "137",
      "137",
      "137",
      "111C",
      "111C",
      "110",
      "110",
      "110C",
      "110C",
      "110C",
      "110C",
      "110",
      "110",
      "093",
      "093",
      "093",
      "090",
      "090",
      "090",
      "089",
      "089",
      "082",
      "082",
      "082",
      "071",
      "071",
      "071",
      "069",
      "062",
      "062",
      "057",
      "057",
      "057",
      "050",
      "050",
      "049",
      "049",
      "049",
      "034",
      "034",
      "028",
      "028",
      "028",
      "024",
      "024",
      "018",
      "018",
      "018",
      "007",
      "003",
      "003",
      "001",
      "001",
      "001",
      "001"
    ],
    "swim:geom": "path",
    "swim:speeds": [
      179,
      179,
      179,
      179,
      362,
      362,
      362,
      362,
      346,
      346,
      346,
      346,
      342,
      342,
      342,
      337,
      337,
      337,
      337,
      337,
      355,
      355,
      355,
      355,
      365,
      365,
      365,
      365,
      365,
      371,
      371,
      371,
      371,
      371,
      375,
      375,
      375,
      375,
      375,
      375,
      375,
      377,
      377,
      377,
      383,
      383,
      383,
      383,
      383,
      383,
      383,
      383,
      378,
      378,
      378,
      375,
      375,
      373,
      373,
      373,
      373,
      373,
      373,
      372,
      372,
      372,
      372,
      373,
      373,
      373,
      374,
      374,
      374,
      374,
      374,
      374,
      376,
      376,
      375,
      375,
      375,
      377,
      377,
      377,
      381,
      381,
      383,
      383,
      383,
      383,
      383,
      383,
      383,
      383,
      384,
      384,
      384,
      386,
      386,
      386,
      386,
      389,
      389,
      389,
      389,
      389,
      389,
      394,
      394,
      394,
      394,
      394,
      394,
      394,
      399,
      399,
      399,
      399,
      399,
      399,
      399,
      399,
      399,
      399,
      401,
      401,
      401,
      401,
      401,
      400,
      400,
      400,
      398,
      398,
      398,
      398,
      398,
      397,
      397,
      397,
      397,
      397,
      397,
      397,
      397,
      397,
      397,
      397,
      397,
      397,
      398,
      398,
      398,
      398,
      399,
      399,
      399,
      399,
      399,
      399,
      399,
      399,
      399,
      400,
      400,
      400,
      400,
      400,
      400,
      400,
      400,
      400,
      399,
      399,
      399,
      399,
      399,
      399,
      399,
      399,
      398,
      398,
      398,
      398,
      398,
      398,
      398,
      398,
      398,
      398,
      398,
      398,
      398,
      397,
      397,
      397,
      397,
      397,
      397,
      396,
      396,
      396,
      395,
      395,
      395,
      396,
      396,
      396,
      396,
      396,
      396,
      396,
      397,
      397,
      397,
      397,
      397,
      397,
      397,
      404,
      404,
      404,
      404,
      404,
      404,
      404,
      404,
      404,
      404,
      404,
      404,
      404,
      404,
      404,
      404,
      404,
      407,
      407,
      407,
      407,
      407,
      407,
      407,
      407,
      405,
      405,
      405,
      401,
      401,
      401,
      401,
      393,
      393,
      393,
      393,
      391,
      391,
      391,
      391,
      391,
      394,
      394,
      394,
      394,
      395,
      403,
      403,
      403,
      403,
      403,
      403,
      393,
      393,
      393,
      381,
      381,
      381,
      381,
      381,
      381,
      381,
      386,
      386,
      387,
      387,
      387,
      387,
      387,
      387,
      387,
      387,
      387,
      387,
      389,
      389,
      389,
      389,
      389,
      390,
      392,
      392,
      392,
      392,
      392,
      392,
      392,
      392,
      392,
      392,
      392,
      392,
      392,
      392,
      392,
      392,
      392,
      392,
      392,
      392,
      392,
      392,
      392,
      392,
      392,
      396,
      396,
      396,
      396,
      396,
      397,
      397,
      397,
      397,
      397,
      404,
      404,
      404,
      402,
      402,
      402,
      402,
      399,
      399,
      399,
      399,
      399,
      396,
      396,
      396,
      393,
      393,
      393,
      386,
      386,
      386,
      386,
      386,
      386,
      386,
      386,
      387,
      387,
      387,
      387,
      387,
      387,
      387,
      386,
      386,
      386,
      387,
      387,
      387,
      387,
      387,
      387,
      387,
      392,
      392,
      392,
      392,
      392,
      392,
      394,
      394,
      394,
      394,
      395,
      397,
      397,
      397,
      397,
      397,
      400,
      400,
      400,
      402,
      402,
      402,
      403,
      403,
      403,
      403,
      402,
      404,
      404,
      403,
      403,
      405,
      405,
      405,
      406,
      406,
      406,
      406,
      406,
      406,
      406,
      407,
      407,
      408,
      408,
      410,
      410,
      410,
      409,
      409,
      409,
      409,
      412,
      412,
      412,
      413,
      413,
      413,
      413,
      416,
      416,
      416,
      416,
      416,
      416,
      413,
      413,
      413,
      411,
      411,
      411,
      411,
      411,
      403,
      403,
      403,
      401,
      401,
      401,
      401,
      401,
      401,
      402,
      402,
      402,
      402,
      402,
      402,
      402,
      402,
      405,
      405,
      405,
      405,
      405,
      416,
      416,
      416,
      416,
      416,
      416,
      416,
      388,
      388,
      388,
      388,
      388,
      388,
      411,
      411,
      411,
      411,
      413,
      413,
      413,
      413,
      413,
      413,
      408,
      408,
      408,
      408,
      408,
      408,
      408,
      403,
      403,
      403,
      403,
      403,
      403,
      398,
      398,
      398,
      398,
      398,
      398,
      394,
      394,
      394,
      392,
      392,
      392,
      392,
      392,
      389,
      389,
      389,
      389,
      389,
      385,
      385,
      385,
      385,
      385,
      385,
      385,
      385,
      385,
      385,
      385,
      385,
      385,
      387,
      387,
      391,
      391,
      391,
      391,
      393,
      393,
      393,
      393,
      394,
      394,
      394,
      394,
      394,
      392,
      391,
      391,
      391,
      391,
      391,
      387,
      387,
      387,
      383,
      383,
      381,
      380,
      380,
      380,
      380,
      380,
      381,
      381,
      381,
      381,
      385,
      385,
      386,
      386,
      386,
      386,
      386,
      384,
      387,
      387,
      387,
      387,
      388,
      388,
      388,
      388,
      389,
      389,
      390,
      390,
      390,
      390,
      390,
      390,
      392,
      393,
      393,
      393,
      392,
      393,
      393,
      393,
      393,
      393,
      393,
      392,
      392,
      392,
      392,
      392,
      392,
      392,
      392,
      393,
      393,
      393,
      393,
      393,
      393,
      393,
      393,
      394,
      394,
      395,
      395,
      395,
      395,
      395,
      395,
      396,
      396,
      396,
      396,
      396,
      396,
      396,
      396,
      396,
      377,
      377,
      377,
      377,
      377,
      377,
      376,
      376,
      374,
      374,
      374,
      374,
      374,
      374,
      382,
      382,
      382,
      382,
      382,
      382,
      382,
      372,
      372,
      372,
      372,
      372,
      372,
      339,
      339,
      339,
      339,
      356,
      356,
      356,
      356,
      356,
      357,
      357,
      353,
      353,
      353,
      356,
      357,
      356,
      356,
      356,
      360,
      360,
      360,
      360,
      345,
      345,
      326,
      326,
      320,
      320,
      320,
      320,
      317,
      317,
      263,
      263,
      263,
      260,
      260,
      260,
      248,
      248,
      250,
      250,
      250,
      242,
      242,
      242,
      232,
      231,
      231,
      228,
      228,
      228,
      211,
      211,
      175,
      175,
      175,
      187,
      187,
      184,
      184,
      184,
      186,
      186,
      167,
      167,
      167,
      146,
      145,
      145,
      130,
      130,
      130,
      130
    ],
    "swim:timestamps": [
      1772115664,
      1772115664,
      1772115664,
      1772115664,
      1772116160,
      1772116160,
      1772116160,
      1772116160,
      1772116221,
      1772116221,
      1772116221,
      1772116221,
      1772116341,
      1772116341,
      1772116341,
      1772116401,
      1772116401,
      1772116401,
      1772116401,
      1772116401,
      1772116521,
      1772116521,
      1772116521,
      1772116521,
      1772116641,
      1772116641,
      1772116641,
      1772116641,
      1772116641,
      1772116701,
      1772116701,
      1772116701,
      1772116701,
      1772116701,
      1772116942,
      1772116942,
      1772116942,
      1772116942,
      1772116942,
      1772116942,
      1772116942,
      1772117076,
      1772117076,
      1772117182,
      1772117242,
      1772117242,
      1772117242,
      1772117256,
      1772117256,
      1772117256,
      1772117256,
      1772117256,
      1772117302,
      1772117302,
      1772117316,
      1772117362,
      1772117362,
      1772117436,
      1772117436,
      1772117436,
      1772117436,
      1772117436,
      1772117436,
      1772117497,
      1772117557,
      1772117617,
      1772117617,
      1772117663,
      1772117663,
      1772117663,
      1772117737,
      1772117737,
      1772117737,
      1772117737,
      1772117737,
      1772117737,
      1772117843,
      1772117843,
      1772117857,
      1772117857,
      1772117857,
      1772117903,
      1772117903,
      1772117903,
      1772118037,
      1772118037,
      1772118098,
      1772118098,
      1772118098,
      1772118098,
      1772118143,
      1772118143,
      1772118143,
      1772118143,
      1772118204,
      1772118204,
      1772118204,
      1772118218,
      1772118264,
      1772118264,
      1772118264,
      1772118338,
      1772118338,
      1772118338,
      1772118338,
      1772118338,
      1772118338,
      1772118578,
      1772118578,
      1772118578,
      1772118578,
      1772118578,
      1772118578,
      1772118578,
      1772119360,
      1772119360,
      1772119360,
      1772119360,
      1772119360,
      1772119420,
      1772119480,
      1772119480,
      1772119480,
      1772119480,
      1772119780,
      1772119780,
      1772119780,
      1772119780,
      1772119780,
      1772119840,
      1772119840,
      1772119840,
      1772119961,
      1772119961,
      1772119961,
      1772119961,
      1772119961,
      1772120261,
      1772120261,
      1772120261,
      1772120261,
      1772120321,
      1772120321,
      1772120321,
      1772120321,
      1772120321,
      1772120501,
      1772120501,
      1772120562,
      1772120626,
      1772120742,
      1772120742,
      1772120742,
      1772120742,
      1772120927,
      1772120927,
      1772120927,
      1772120927,
      1772120927,
      1772120927,
      1772121102,
      1772121102,
      1772121102,
      1772121167,
      1772121167,
      1772121167,
      1772121167,
      1772121347,
      1772121347,
      1772121347,
      1772121347,
      1772121347,
      1772121468,
      1772121468,
      1772121468,
      1772121468,
      1772121528,
      1772121528,
      1772121588,
      1772121588,
      1772121648,
      1772121648,
      1772121648,
      1772121768,
      1772121768,
      1772121768,
      1772121768,
      1772121768,
      1772121888,
      1772121888,
      1772121888,
      1772121888,
      1772121888,
      1772122068,
      1772122068,
      1772122068,
      1772122068,
      1772122068,
      1772122068,
      1772122249,
      1772122249,
      1772122249,
      1772122309,
      1772122309,
      1772122309,
      1772122369,
      1772122369,
      1772122369,
      1772122369,
      1772122429,
      1772122429,
      1772122429,
      1772122609,
      1772122609,
      1772122609,
      1772122609,
      1772122609,
      1772122609,
      1772122609,
      1772123090,
      1772123090,
      1772123090,
      1772123090,
      1772123090,
      1772123150,
      1772123150,
      1772123150,
      1772123150,
      1772123330,
      1772123330,
      1772123330,
      1772123390,
      1772123390,
      1772123390,
      1772123390,
      1772123390,
      1772123570,
      1772123570,
      1772123570,
      1772123751,
      1772123751,
      1772123751,
      1772123751,
      1772123751,
      1772123811,
      1772123811,
      1772123811,
      1772123871,
      1772123871,
      1772123871,
      1772123871,
      1772123991,
      1772123991,
      1772123991,
      1772123991,
      1772124051,
      1772124051,
      1772124051,
      1772124051,
      1772124051,
      1772124472,
      1772124472,
      1772124472,
      1772124472,
      1772124532,
      1772124892,
      1772124892,
      1772124892,
      1772124892,
      1772124892,
      1772124892,
      1772124952,
      1772124952,
      1772124952,
      1772125253,
      1772125253,
      1772125253,
      1772125253,
      1772125253,
      1772125253,
      1772125253,
      1772125373,
      1772125373,
      1772125433,
      1772125433,
      1772125433,
      1772125433,
      1772125433,
      1772125433,
      1772125433,
      1772125493,
      1772125493,
      1772125493,
      1772125553,
      1772125553,
      1772125553,
      1772125553,
      1772125553,
      1772125613,
      1772125733,
      1772125733,
      1772125733,
      1772125733,
      1772125733,
      1772125793,
      1772125793,
      1772125793,
      1772125793,
      1772125914,
      1772125914,
      1772125914,
      1772125914,
      1772125974,
      1772125974,
      1772125974,
      1772125974,
      1772125974,
      1772126034,
      1772126034,
      1772126094,
      1772126094,
      1772126094,
      1772126094,
      1772126094,
      1772126274,
      1772126274,
      1772126274,
      1772126274,
      1772126274,
      1772126334,
      1772126334,
      1772126334,
      1772126334,
      1772126334,
      1772126574,
      1772126574,
      1772126574,
      1772126634,
      1772126634,
      1772126634,
      1772126634,
      1772126695,
      1772126695,
      1772126695,
      1772126695,
      1772126695,
      1772126815,
      1772126815,
      1772126815,
      1772126935,
      1772126935,
      1772126935,
      1772127235,
      1772127235,
      1772127235,
      1772127295,
      1772127295,
      1772127295,
      1772127295,
      1772127355,
      1772127377,
      1772127377,
      1772127377,
      1772127377,
      1772127377,
      1772127437,
      1772127437,
      1772127476,
      1772127476,
      1772127476,
      1772127596,
      1772127596,
      1772127596,
      1772127596,
      1772127656,
      1772127656,
      1772127656,
      1772127797,
      1772127797,
      1772127797,
      1772127797,
      1772127797,
      1772127797,
      1772127857,
      1772127857,
      1772127857,
      1772127857,
      1772127918,
      1772128016,
      1772128016,
      1772128016,
      1772128016,
      1772128016,
      1772128136,
      1772128136,
      1772128136,
      1772128218,
      1772128218,
      1772128218,
      1772128278,
      1772128278,
      1772128278,
      1772128278,
      1772128317,
      1772128338,
      1772128338,
      1772128377,
      1772128377,
      1772128398,
      1772128398,
      1772128437,
      1772128458,
      1772128458,
      1772128458,
      1772128557,
      1772128557,
      1772128557,
      1772128557,
      1772128578,
      1772128617,
      1772128677,
      1772128677,
      1772128699,
      1772128699,
      1772128699,
      1772128737,
      1772128737,
      1772128737,
      1772128737,
      1772128879,
      1772128879,
      1772128879,
      1772128939,
      1772128939,
      1772128939,
      1772128939,
      1772129119,
      1772129119,
      1772129119,
      1772129119,
      1772129119,
      1772129119,
      1772129420,
      1772129420,
      1772129420,
      1772129480,
      1772129480,
      1772129480,
      1772129480,
      1772129480,
      1772129600,
      1772129600,
      1772129600,
      1772129660,
      1772129660,
      1772129660,
      1772129660,
      1772129660,
      1772129660,
      1772129840,
      1772129840,
      1772129840,
      1772129840,
      1772129960,
      1772129960,
      1772129960,
      1772129960,
      1772130020,
      1772130020,
      1772130020,
      1772130020,
      1772130020,
      1772130321,
      1772130321,
      1772130321,
      1772130321,
      1772130321,
      1772130321,
      1772130321,
      1772130741,
      1772130741,
      1772130801,
      1772130801,
      1772130801,
      1772130801,
      1772131102,
      1772131102,
      1772131102,
      1772131102,
      1772131162,
      1772131162,
      1772131162,
      1772131162,
      1772131162,
      1772131162,
      1772131402,
      1772131402,
      1772131402,
      1772131402,
      1772131402,
      1772131402,
      1772131402,
      1772131522,
      1772131522,
      1772131522,
      1772131522,
      1772131522,
      1772131522,
      1772131703,
      1772131703,
      1772131703,
      1772131703,
      1772131703,
      1772131703,
      1772131823,
      1772131823,
      1772131823,
      1772131883,
      1772131883,
      1772131883,
      1772131883,
      1772131883,
      1772132003,
      1772132003,
      1772132003,
      1772132003,
      1772132003,
      1772132123,
      1772132123,
      1772132123,
      1772132123,
      1772132123,
      1772132123,
      1772132363,
      1772132363,
      1772132363,
      1772132363,
      1772132363,
      1772132363,
      1772132363,
      1772132423,
      1772132423,
      1772132484,
      1772132484,
      1772132484,
      1772132484,
      1772132544,
      1772132544,
      1772132544,
      1772132544,
      1772132784,
      1772132784,
      1772132784,
      1772132784,
      1772132784,
      1772132844,
      1772132904,
      1772132904,
      1772132904,
      1772132904,
      1772132904,
      1772133024,
      1772133024,
      1772133024,
      1772133144,
      1772133144,
      1772133205,
      1772133265,
      1772133265,
      1772133325,
      1772133325,
      1772133325,
      1772133385,
      1772133385,
      1772133397,
      1772133397,
      1772133685,
      1772133685,
      1772133745,
      1772133745,
      1772133805,
      1772133805,
      1772133805,
      1772133818,
      1772133865,
      1772133865,
      1772133938,
      1772133938,
      1772133986,
      1772133986,
      1772133998,
      1772133998,
      1772134106,
      1772134106,
      1772134166,
      1772134179,
      1772134179,
      1772134179,
      1772134179,
      1772134179,
      1772134299,
      1772134346,
      1772134346,
      1772134346,
      1772134359,
      1772134466,
      1772134466,
      1772134526,
      1772134526,
      1772134526,
      1772134539,
      1772134586,
      1772134586,
      1772134659,
      1772134659,
      1772134659,
      1772134707,
      1772134707,
      1772134707,
      1772134840,
      1772134840,
      1772134840,
      1772134840,
      1772135007,
      1772135007,
      1772135007,
      1772135007,
      1772135080,
      1772135080,
      1772135140,
      1772135200,
      1772135200,
      1772135200,
      1772135200,
      1772135260,
      1772135307,
      1772135307,
      1772135367,
      1772135367,
      1772135367,
      1772135380,
      1772135380,
      1772135440,
      1772135440,
      1772135921,
      1772135921,
      1772135921,
      1772135921,
      1772135921,
      1772135921,
      1772136101,
      1772136101,
      1772136161,
      1772136161,
      1772136161,
      1772136161,
      1772136161,
      1772136161,
      1772136342,
      1772136402,
      1772136402,
      1772136402,
      1772136402,
      1772136402,
      1772136402,
      1772136762,
      1772136762,
      1772136762,
      1772136762,
      1772136762,
      1772136762,
      1772136942,
      1772136942,
      1772136942,
      1772136942,
      1772137123,
      1772137123,
      1772137123,
      1772137123,
      1772137123,
      1772137243,
      1772137243,
      1772137250,
      1772137250,
      1772137250,
      1772137303,
      1772137322,
      1772137363,
      1772137363,
      1772137363,
      1772137382,
      1772137382,
      1772137382,
      1772137382,
      1772137483,
      1772137483,
      1772137502,
      1772137502,
      1772137543,
      1772137543,
      1772137543,
      1772137543,
      1772137562,
      1772137562,
      1772137724,
      1772137724,
      1772137724,
      1772137742,
      1772137742,
      1772137742,
      1772137802,
      1772137802,
      1772137844,
      1772137844,
      1772137844,
      1772137904,
      1772137904,
      1772137904,
      1772137922,
      1772137964,
      1772137964,
      1772137982,
      1772137982,
      1772137982,
      1772138042,
      1772138042,
      1772138102,
      1772138102,
      1772138102,
      1772138222,
      1772138222,
      1772138264,
      1772138264,
      1772138264,
      1772138282,
      1772138282,
      1772138324,
      1772138324,
      1772138324,
      1772138402,
      1772138445,
      1772138445,
      1772138505,
      1772138505,
      1772138505,
      1772138505
    ],
    "wof:geomhash": "86b381862a5c6e6c5e397ee645ece158",
    "wof:id": 2014889399,
    "wof:repo": "sfomuseum-data-flights-2026-02"
  },
  "bbox": [
    -122.7088888888889,
    37.323055555555555,
    -73.58888888888889,
    45.41027777777778
  ],
  "geometry": {"coordinates":[[-73.78333333333333,40.61666666666667],[-73.78333333333333,40.61666666666667],[-73.78333333333333,40.61666666666667],[-73.78333333333333,40.61666666666667],[-73.58888888888889,40.98083333333334],[-73.58888888888889,40.98083333333334],[-73.58888888888889,40.98083333333334],[-73.58888888888889,40.98083333333334],[-73.68666666666667,41.04],[-73.68666666666667,41.04],[-73.68666666666667,41.04],[-73.68666666666667,41.04],[-73.88583333333334,41.1475],[-73.88583333333334,41.1475],[-73.88583333333334,41.1475],[-73.99694444444445,41.18555555555555],[-73.99694444444445,41.18555555555555],[-73.99694444444445,41.18555555555555],[-73.99694444444445,41.18555555555555],[-73.99694444444445,41.18555555555555],[-74.24472222222222,41.26111111111111],[-74.24472222222222,41.26111111111111],[-74.24472222222222,41.26111111111111],[-74.24472222222222,41.26111111111111],[-74.47638888888889,41.33111111111111],[-74.47638888888889,41.33111111111111],[-74.47638888888889,41.33111111111111],[-74.47638888888889,41.33111111111111],[-74.47638888888889,41.33111111111111],[-74.61555555555555,41.37444444444444],[-74.61555555555555,41.37444444444444],[-74.61555555555555,41.37444444444444],[-74.61555555555555,41.37444444444444],[-74.61555555555555,41.37444444444444],[-75.12722222222222,41.53055555555555],[-75.12722222222222,41.53055555555555],[-75.12722222222222,41.53055555555555],[-75.12722222222222,41.53055555555555],[-75.12722222222222,41.53055555555555],[-75.12722222222222,41.53055555555555],[-75.12722222222222,41.53055555555555],[-75.40416666666667,41.61388888888889],[-75.40416666666667,41.61388888888889],[-75.64583333333334,41.68583333333333],[-75.77777777777777,41.724722222222226],[-75.77777777777777,41.724722222222226],[-75.77777777777777,41.724722222222226],[-75.79805555555555,41.730555555555554],[-75.79805555555555,41.730555555555554],[-75.79805555555555,41.730555555555554],[-75.79805555555555,41.730555555555554],[-75.79805555555555,41.730555555555554],[-75.9075,41.76305555555555],[-75.9075,41.76305555555555],[-75.92694444444444,41.76861111111111],[-76.03527777777778,41.80027777777777],[-76.03527777777778,41.80027777777777],[-76.20277777777778,41.848888888888894],[-76.20277777777778,41.848888888888894],[-76.20277777777778,41.848888888888894],[-76.20277777777778,41.848888888888894],[-76.20277777777778,41.848888888888894],[-76.20277777777778,41.848888888888894],[-76.33194444444445,41.88638888888889],[-76.46222222222222,41.92388888888889],[-76.59027777777777,41.96055555555556],[-76.59027777777777,41.96055555555556],[-76.69333333333334,41.99],[-76.69333333333334,41.99],[-76.69333333333334,41.99],[-76.85388888888889,42.035555555555554],[-76.85388888888889,42.035555555555554],[-76.85388888888889,42.035555555555554],[-76.85388888888889,42.035555555555554],[-76.85388888888889,42.035555555555554],[-76.85388888888889,42.035555555555554],[-77.08944444444444,42.10166666666667],[-77.08944444444444,42.10166666666667],[-77.11638888888888,42.10916666666667],[-77.11638888888888,42.10916666666667],[-77.11638888888888,42.10916666666667],[-77.22083333333333,42.138333333333335],[-77.22083333333333,42.138333333333335],[-77.22083333333333,42.138333333333335],[-77.51888888888888,42.22083333333334],[-77.51888888888888,42.22083333333334],[-77.65611111111112,42.25861111111111],[-77.65611111111112,42.25861111111111],[-77.65611111111112,42.25861111111111],[-77.65611111111112,42.25861111111111],[-77.7363888888889,42.28055555555555],[-77.7363888888889,42.28055555555555],[-77.7363888888889,42.28055555555555],[-77.7363888888889,42.28055555555555],[-77.87527777777777,42.318333333333335],[-77.87527777777777,42.318333333333335],[-77.87527777777777,42.318333333333335],[-77.9038888888889,42.32611111111112],[-78.01166666666667,42.355000000000004],[-78.01166666666667,42.355000000000004],[-78.01166666666667,42.355000000000004],[-78.18166666666667,42.40083333333333],[-78.18166666666667,42.40083333333333],[-78.18166666666667,42.40083333333333],[-78.18166666666667,42.40083333333333],[-78.18166666666667,42.40083333333333],[-78.18166666666667,42.40083333333333],[-78.74083333333333,42.54888888888889],[-78.74083333333333,42.54888888888889],[-78.74083333333333,42.54888888888889],[-78.74083333333333,42.54888888888889],[-78.74083333333333,42.54888888888889],[-78.74083333333333,42.54888888888889],[-78.74083333333333,42.54888888888889],[-80.60166666666666,43.01694444444444],[-80.60166666666666,43.01694444444444],[-80.60166666666666,43.01694444444444],[-80.60166666666666,43.01694444444444],[-80.60166666666666,43.01694444444444],[-80.74277777777777,43.051111111111105],[-80.8863888888889,43.08555555555556],[-80.8863888888889,43.08555555555556],[-80.8863888888889,43.08555555555556],[-80.8863888888889,43.08555555555556],[-81.63083333333333,43.26027777777778],[-81.63083333333333,43.26027777777778],[-81.63083333333333,43.26027777777778],[-81.63083333333333,43.26027777777778],[-81.63083333333333,43.26027777777778],[-81.77166666666666,43.29277777777778],[-81.77166666666666,43.29277777777778],[-81.77166666666666,43.29277777777778],[-82.07166666666666,43.36083333333333],[-82.07166666666666,43.36083333333333],[-82.07166666666666,43.36083333333333],[-82.07166666666666,43.36083333333333],[-82.07166666666666,43.36083333333333],[-82.78611111111111,43.51972222222222],[-82.78611111111111,43.51972222222222],[-82.78611111111111,43.51972222222222],[-82.78611111111111,43.51972222222222],[-82.93222222222222,43.55166666666666],[-82.93222222222222,43.55166666666666],[-82.93222222222222,43.55166666666666],[-82.93222222222222,43.55166666666666],[-82.93222222222222,43.55166666666666],[-83.36694444444444,43.64527777777778],[-83.36694444444444,43.64527777777778],[-83.51277777777777,43.67611111111111],[-83.66194444444444,43.7075],[-83.9525,43.768055555555556],[-83.9525,43.768055555555556],[-83.9525,43.768055555555556],[-83.9525,43.768055555555556],[-84.39583333333334,43.85861111111111],[-84.39583333333334,43.85861111111111],[-84.39583333333334,43.85861111111111],[-84.39583333333334,43.85861111111111],[-84.39583333333334,43.85861111111111],[-84.39583333333334,43.85861111111111],[-84.83722222222222,43.94694444444444],[-84.83722222222222,43.94694444444444],[-84.83722222222222,43.94694444444444],[-85.01777777777778,43.9825],[-85.01777777777778,43.9825],[-85.01777777777778,43.9825],[-85.01777777777778,43.9825],[-85.45444444444445,44.06722222222223],[-85.45444444444445,44.06722222222223],[-85.45444444444445,44.06722222222223],[-85.45444444444445,44.06722222222223],[-85.45444444444445,44.06722222222223],[-85.75305555555556,44.12388888888889],[-85.75305555555556,44.12388888888889],[-85.75305555555556,44.12388888888889],[-85.75305555555556,44.12388888888889],[-85.90111111111112,44.151666666666664],[-85.90111111111112,44.151666666666664],[-86.05166666666666,44.17972222222222],[-86.05166666666666,44.17972222222222],[-86.20222222222222,44.2075],[-86.20222222222222,44.2075],[-86.20222222222222,44.2075],[-86.50222222222222,44.2625],[-86.50222222222222,44.2625],[-86.50222222222222,44.2625],[-86.50222222222222,44.2625],[-86.50222222222222,44.2625],[-86.80166666666666,44.316111111111105],[-86.80166666666666,44.316111111111105],[-86.80166666666666,44.316111111111105],[-86.80166666666666,44.316111111111105],[-86.80166666666666,44.316111111111105],[-87.24972222222222,44.39527777777778],[-87.24972222222222,44.39527777777778],[-87.24972222222222,44.39527777777778],[-87.24972222222222,44.39527777777778],[-87.24972222222222,44.39527777777778],[-87.24972222222222,44.39527777777778],[-87.69944444444445,44.472500000000004],[-87.69944444444445,44.472500000000004],[-87.69944444444445,44.472500000000004],[-87.84805555555555,44.4975],[-87.84805555555555,44.4975],[-87.84805555555555,44.4975],[-87.99444444444444,44.52194444444444],[-87.99444444444444,44.52194444444444],[-87.99444444444444,44.52194444444444],[-87.99444444444444,44.52194444444444],[-88.14361111111111,44.54666666666667],[-88.14361111111111,44.54666666666667],[-88.14361111111111,44.54666666666667],[-88.59583333333333,44.61],[-88.59583333333333,44.61],[-88.59583333333333,44.61],[-88.59583333333333,44.61],[-88.59583333333333,44.61],[-88.59583333333333,44.61],[-88.59583333333333,44.61],[-89.82472222222222,44.76777777777777],[-89.82472222222222,44.76777777777777],[-89.82472222222222,44.76777777777777],[-89.82472222222222,44.76777777777777],[-89.82472222222222,44.76777777777777],[-89.98138888888889,44.78666666666666],[-89.98138888888889,44.78666666666666],[-89.98138888888889,44.78666666666666],[-89.98138888888889,44.78666666666666],[-90.44277777777778,44.84166666666667],[-90.44277777777778,44.84166666666667],[-90.44277777777778,44.84166666666667],[-90.59777777777778,44.86],[-90.59777777777778,44.86],[-90.59777777777778,44.86],[-90.59777777777778,44.86],[-90.59777777777778,44.86],[-91.07249999999999,44.913888888888884],[-91.07249999999999,44.913888888888884],[-91.07249999999999,44.913888888888884],[-91.54277777777777,44.965],[-91.54277777777777,44.965],[-91.54277777777777,44.965],[-91.54277777777777,44.965],[-91.54277777777777,44.965],[-91.69972222222222,44.98166666666667],[-91.69972222222222,44.98166666666667],[-91.69972222222222,44.98166666666667],[-91.85277777777777,44.99777777777778],[-91.85277777777777,44.99777777777778],[-91.85277777777777,44.99777777777778],[-91.85277777777777,44.99777777777778],[-92.15416666666667,45.028888888888886],[-92.15416666666667,45.028888888888886],[-92.15416666666667,45.028888888888886],[-92.15416666666667,45.028888888888886],[-92.30361111111111,45.04388888888889],[-92.30361111111111,45.04388888888889],[-92.30361111111111,45.04388888888889],[-92.30361111111111,45.04388888888889],[-92.30361111111111,45.04388888888889],[-93.39,45.14722222222222],[-93.39,45.14722222222222],[-93.39,45.14722222222222],[-93.39,45.14722222222222],[-93.5425,45.15833333333333],[-94.48111111111112,45.225],[-94.48111111111112,45.225],[-94.48111111111112,45.225],[-94.48111111111112,45.225],[-94.48111111111112,45.225],[-94.48111111111112,45.225],[-94.63527777777779,45.23527777777778],[-94.63527777777779,45.23527777777778],[-94.63527777777779,45.23527777777778],[-95.37027777777777,45.280833333333334],[-95.37027777777777,45.280833333333334],[-95.37027777777777,45.280833333333334],[-95.37027777777777,45.280833333333334],[-95.37027777777777,45.280833333333334],[-95.37027777777777,45.280833333333334],[-95.37027777777777,45.280833333333334],[-95.6725,45.29805555555556],[-95.6725,45.29805555555556],[-95.82666666666667,45.306666666666665],[-95.82666666666667,45.306666666666665],[-95.82666666666667,45.306666666666665],[-95.82666666666667,45.306666666666665],[-95.82666666666667,45.306666666666665],[-95.82666666666667,45.306666666666665],[-95.82666666666667,45.306666666666665],[-95.97833333333334,45.315],[-95.97833333333334,45.315],[-95.97833333333334,45.315],[-96.13166666666666,45.323055555555555],[-96.13166666666666,45.323055555555555],[-96.13166666666666,45.323055555555555],[-96.13166666666666,45.323055555555555],[-96.13166666666666,45.323055555555555],[-96.2863888888889,45.33083333333334],[-96.57944444444443,45.345555555555556],[-96.57944444444443,45.345555555555556],[-96.57944444444443,45.345555555555556],[-96.57944444444443,45.345555555555556],[-96.57944444444443,45.345555555555556],[-96.76638888888888,45.35416666666667],[-96.76638888888888,45.35416666666667],[-96.76638888888888,45.35416666666667],[-96.76638888888888,45.35416666666667],[-97.07388888888889,45.36805555555556],[-97.07388888888889,45.36805555555556],[-97.07388888888889,45.36805555555556],[-97.07388888888889,45.36805555555556],[-97.22722222222222,45.374722222222225],[-97.22722222222222,45.374722222222225],[-97.22722222222222,45.374722222222225],[-97.22722222222222,45.374722222222225],[-97.22722222222222,45.374722222222225],[-97.38083333333333,45.38111111111111],[-97.38083333333333,45.38111111111111],[-97.53666666666666,45.3875],[-97.53666666666666,45.3875],[-97.53666666666666,45.3875],[-97.53666666666666,45.3875],[-97.53666666666666,45.3875],[-98.0025,45.405],[-98.0025,45.405],[-98.0025,45.405],[-98.0025,45.405],[-98.0025,45.405],[-98.1588888888889,45.41027777777778],[-98.1588888888889,45.41027777777778],[-98.1588888888889,45.41027777777778],[-98.1588888888889,45.41027777777778],[-98.1588888888889,45.41027777777778],[-98.7911111111111,45.38],[-98.7911111111111,45.38],[-98.7911111111111,45.38],[-98.94611111111111,45.36611111111111],[-98.94611111111111,45.36611111111111],[-98.94611111111111,45.36611111111111],[-98.94611111111111,45.36611111111111],[-99.10194444444444,45.35166666666667],[-99.10194444444444,45.35166666666667],[-99.10194444444444,45.35166666666667],[-99.10194444444444,45.35166666666667],[-99.10194444444444,45.35166666666667],[-99.40833333333335,45.32277777777778],[-99.40833333333335,45.32277777777778],[-99.40833333333335,45.32277777777778],[-99.7125,45.29333333333333],[-99.7125,45.29333333333333],[-99.7125,45.29333333333333],[-100.45583333333333,45.217777777777776],[-100.45583333333333,45.217777777777776],[-100.45583333333333,45.217777777777776],[-100.60555555555555,45.20194444444445],[-100.60555555555555,45.20194444444445],[-100.60555555555555,45.20194444444445],[-100.60555555555555,45.20194444444445],[-100.75361111111111,45.18611111111111],[-100.80194444444444,45.17972222222222],[-100.80194444444444,45.17972222222222],[-100.80194444444444,45.17972222222222],[-100.80194444444444,45.17972222222222],[-100.80194444444444,45.17972222222222],[-100.9525,45.16305555555555],[-100.9525,45.16305555555555],[-101.05361111111111,45.15333333333333],[-101.05361111111111,45.15333333333333],[-101.05361111111111,45.15333333333333],[-101.3536111111111,45.11972222222222],[-101.3536111111111,45.11972222222222],[-101.3536111111111,45.11972222222222],[-101.3536111111111,45.11972222222222],[-101.50555555555556,45.1025],[-101.50555555555556,45.1025],[-101.50555555555556,45.1025],[-101.85194444444444,45.05027777777777],[-101.85194444444444,45.05027777777777],[-101.85194444444444,45.05027777777777],[-101.85194444444444,45.05027777777777],[-101.85194444444444,45.05027777777777],[-101.85194444444444,45.05027777777777],[-102.01444444444445,45.016666666666666],[-102.01444444444445,45.016666666666666],[-102.01444444444445,45.016666666666666],[-102.01444444444445,45.016666666666666],[-102.16250000000001,44.98583333333333],[-102.4025,44.93555555555555],[-102.4025,44.93555555555555],[-102.4025,44.93555555555555],[-102.4025,44.93555555555555],[-102.4025,44.93555555555555],[-102.69972222222222,44.8725],[-102.69972222222222,44.8725],[-102.69972222222222,44.8725],[-102.91333333333334,44.82666666666667],[-102.91333333333334,44.82666666666667],[-102.91333333333334,44.82666666666667],[-103.06555555555555,44.79333333333333],[-103.06555555555555,44.79333333333333],[-103.06555555555555,44.79333333333333],[-103.06555555555555,44.79333333333333],[-103.15361111111112,44.774166666666666],[-103.21611111111112,44.760555555555555],[-103.21611111111112,44.760555555555555],[-103.3025,44.74166666666667],[-103.3025,44.74166666666667],[-103.36666666666666,44.7275],[-103.36666666666666,44.7275],[-103.45555555555556,44.70777777777778],[-103.5175,44.69416666666666],[-103.5175,44.69416666666666],[-103.5175,44.69416666666666],[-103.75777777777778,44.640277777777776],[-103.75777777777778,44.640277777777776],[-103.75777777777778,44.640277777777776],[-103.75777777777778,44.640277777777776],[-103.82,44.626111111111115],[-103.91055555555556,44.60583333333334],[-104.06444444444445,44.57083333333334],[-104.06444444444445,44.57083333333334],[-104.12527777777777,44.55694444444444],[-104.12527777777777,44.55694444444444],[-104.12527777777777,44.55694444444444],[-104.21694444444445,44.53583333333333],[-104.21694444444445,44.53583333333333],[-104.21694444444445,44.53583333333333],[-104.21694444444445,44.53583333333333],[-104.57916666666667,44.45194444444445],[-104.57916666666667,44.45194444444445],[-104.57916666666667,44.45194444444445],[-104.73361111111112,44.41583333333333],[-104.73361111111112,44.41583333333333],[-104.73361111111112,44.41583333333333],[-104.73361111111112,44.41583333333333],[-105.19083333333333,44.30694444444444],[-105.19083333333333,44.30694444444444],[-105.19083333333333,44.30694444444444],[-105.19083333333333,44.30694444444444],[-105.19083333333333,44.30694444444444],[-105.19083333333333,44.30694444444444],[-105.94916666666667,44.121944444444445],[-105.94916666666667,44.121944444444445],[-105.94916666666667,44.121944444444445],[-106.0975,44.085],[-106.0975,44.085],[-106.0975,44.085],[-106.0975,44.085],[-106.0975,44.085],[-106.40555555555557,44.007222222222225],[-106.40555555555557,44.007222222222225],[-106.40555555555557,44.007222222222225],[-106.54944444444445,43.968333333333334],[-106.54944444444445,43.968333333333334],[-106.54944444444445,43.968333333333334],[-106.54944444444445,43.968333333333334],[-106.54944444444445,43.968333333333334],[-106.54944444444445,43.968333333333334],[-106.9825,43.84666666666667],[-106.9825,43.84666666666667],[-106.9825,43.84666666666667],[-106.9825,43.84666666666667],[-107.27277777777778,43.76361111111111],[-107.27277777777778,43.76361111111111],[-107.27277777777778,43.76361111111111],[-107.27277777777778,43.76361111111111],[-107.41777777777779,43.72222222222222],[-107.41777777777779,43.72222222222222],[-107.41777777777779,43.72222222222222],[-107.41777777777779,43.72222222222222],[-107.41777777777779,43.72222222222222],[-108.1575,43.50555555555555],[-108.1575,43.50555555555555],[-108.1575,43.50555555555555],[-108.1575,43.50555555555555],[-108.1575,43.50555555555555],[-108.1575,43.50555555555555],[-108.1575,43.50555555555555],[-109.16333333333334,43.216944444444444],[-109.16333333333334,43.216944444444444],[-109.30083333333333,43.176944444444445],[-109.30083333333333,43.176944444444445],[-109.30083333333333,43.176944444444445],[-109.30083333333333,43.176944444444445],[-110.00472222222223,42.968611111111116],[-110.00472222222223,42.968611111111116],[-110.00472222222223,42.968611111111116],[-110.00472222222223,42.968611111111116],[-110.14972222222222,42.925],[-110.14972222222222,42.925],[-110.14972222222222,42.925],[-110.14972222222222,42.925],[-110.14972222222222,42.925],[-110.14972222222222,42.925],[-110.72222222222223,42.75055555555556],[-110.72222222222223,42.75055555555556],[-110.72222222222223,42.75055555555556],[-110.72222222222223,42.75055555555556],[-110.72222222222223,42.75055555555556],[-110.72222222222223,42.75055555555556],[-110.72222222222223,42.75055555555556],[-110.99472222222222,42.66611111111111],[-110.99472222222222,42.66611111111111],[-110.99472222222222,42.66611111111111],[-110.99472222222222,42.66611111111111],[-110.99472222222222,42.66611111111111],[-110.99472222222222,42.66611111111111],[-111.40555555555557,42.53722222222222],[-111.40555555555557,42.53722222222222],[-111.40555555555557,42.53722222222222],[-111.40555555555557,42.53722222222222],[-111.40555555555557,42.53722222222222],[-111.40555555555557,42.53722222222222],[-111.67694444444444,42.450833333333335],[-111.67694444444444,42.450833333333335],[-111.67694444444444,42.450833333333335],[-111.8111111111111,42.407777777777774],[-111.8111111111111,42.407777777777774],[-111.8111111111111,42.407777777777774],[-111.8111111111111,42.407777777777774],[-111.8111111111111,42.407777777777774],[-112.0761111111111,42.322500000000005],[-112.0761111111111,42.322500000000005],[-112.0761111111111,42.322500000000005],[-112.0761111111111,42.322500000000005],[-112.0761111111111,42.322500000000005],[-112.33972222222222,42.23638888888889],[-112.33972222222222,42.23638888888889],[-112.33972222222222,42.23638888888889],[-112.33972222222222,42.23638888888889],[-112.33972222222222,42.23638888888889],[-112.33972222222222,42.23638888888889],[-112.86,42.061388888888885],[-112.86,42.061388888888885],[-112.86,42.061388888888885],[-112.86,42.061388888888885],[-112.86,42.061388888888885],[-112.86,42.061388888888885],[-112.86,42.061388888888885],[-112.99222222222222,42.01611111111111],[-112.99222222222222,42.01611111111111],[-113.12555555555555,41.97],[-113.12555555555555,41.97],[-113.12555555555555,41.97],[-113.12555555555555,41.97],[-113.25805555555556,41.92444444444444],[-113.25805555555556,41.92444444444444],[-113.25805555555556,41.92444444444444],[-113.25805555555556,41.92444444444444],[-113.79888888888888,41.755],[-113.79888888888888,41.755],[-113.79888888888888,41.755],[-113.79888888888888,41.755],[-113.79888888888888,41.755],[-113.93555555555555,41.71527777777778],[-114.06944444444444,41.67666666666666],[-114.06944444444444,41.67666666666666],[-114.06944444444444,41.67666666666666],[-114.06944444444444,41.67666666666666],[-114.06944444444444,41.67666666666666],[-114.36083333333333,41.59111111111111],[-114.36083333333333,41.59111111111111],[-114.36083333333333,41.59111111111111],[-114.62194444444444,41.51361111111111],[-114.62194444444444,41.51361111111111],[-114.7538888888889,41.47416666666667],[-114.87472222222222,41.437777777777775],[-114.87472222222222,41.437777777777775],[-115.00722222222223,41.397777777777776],[-115.00722222222223,41.397777777777776],[-115.00722222222223,41.397777777777776],[-115.13611111111112,41.35888888888889],[-115.13611111111112,41.35888888888889],[-115.16416666666667,41.3525],[-115.16416666666667,41.3525],[-115.79083333333332,41.157222222222224],[-115.79083333333332,41.157222222222224],[-115.92416666666666,41.115833333333335],[-115.92416666666666,41.115833333333335],[-116.05499999999999,41.07472222222223],[-116.05499999999999,41.07472222222223],[-116.05499999999999,41.07472222222223],[-116.0825,41.06777777777778],[-116.18555555555555,41.03361111111111],[-116.18555555555555,41.03361111111111],[-116.345,40.984722222222224],[-116.345,40.984722222222224],[-116.44666666666667,40.95055555555556],[-116.44666666666667,40.95055555555556],[-116.47722222222222,40.94222222222222],[-116.47722222222222,40.94222222222222],[-116.71027777777778,40.86611111111111],[-116.71027777777778,40.86611111111111],[-116.83944444444444,40.82416666666667],[-116.86666666666666,40.815555555555555],[-116.86666666666666,40.815555555555555],[-116.86666666666666,40.815555555555555],[-116.86666666666666,40.815555555555555],[-116.86666666666666,40.815555555555555],[-117.12972222222221,40.72972222222222],[-117.23361111111112,40.69583333333333],[-117.23361111111112,40.69583333333333],[-117.23361111111112,40.69583333333333],[-117.25944444444444,40.68722222222222],[-117.49388888888889,40.61],[-117.49388888888889,40.61],[-117.62388888888889,40.56666666666667],[-117.62388888888889,40.56666666666667],[-117.62388888888889,40.56666666666667],[-117.65194444444445,40.5575],[-117.75583333333333,40.5225],[-117.75583333333333,40.5225],[-117.91305555555556,40.469722222222224],[-117.91305555555556,40.469722222222224],[-117.91305555555556,40.469722222222224],[-118.01583333333333,40.43527777777778],[-118.01583333333333,40.43527777777778],[-118.01583333333333,40.43527777777778],[-118.30583333333333,40.336666666666666],[-118.30583333333333,40.336666666666666],[-118.30583333333333,40.336666666666666],[-118.30583333333333,40.336666666666666],[-118.66638888888889,40.21277777777778],[-118.66638888888889,40.21277777777778],[-118.66638888888889,40.21277777777778],[-118.66638888888889,40.21277777777778],[-118.8261111111111,40.1575],[-118.8261111111111,40.1575],[-118.98194444444445,40.10305555555556],[-119.11138888888888,40.05777777777777],[-119.11138888888888,40.05777777777777],[-119.11138888888888,40.05777777777777],[-119.11138888888888,40.05777777777777],[-119.23916666666666,40.01277777777778],[-119.34222222222222,39.97638888888889],[-119.34222222222222,39.97638888888889],[-119.47,39.93111111111111],[-119.47,39.93111111111111],[-119.47,39.93111111111111],[-119.5,39.92055555555555],[-119.5,39.92055555555555],[-119.62916666666666,39.87444444444444],[-119.62916666666666,39.87444444444444],[-120.59833333333333,39.52194444444444],[-120.59833333333333,39.52194444444444],[-120.59833333333333,39.52194444444444],[-120.59833333333333,39.52194444444444],[-120.59833333333333,39.52194444444444],[-120.59833333333333,39.52194444444444],[-120.96194444444444,39.38666666666666],[-120.96194444444444,39.38666666666666],[-121.08222222222221,39.34111111111111],[-121.08222222222221,39.34111111111111],[-121.08222222222221,39.34111111111111],[-121.08222222222221,39.34111111111111],[-121.08222222222221,39.34111111111111],[-121.08222222222221,39.34111111111111],[-121.43027777777779,39.14194444444444],[-121.53722222222223,39.07944444444445],[-121.53722222222223,39.07944444444445],[-121.53722222222223,39.07944444444445],[-121.53722222222223,39.07944444444445],[-121.53722222222223,39.07944444444445],[-121.53722222222223,39.07944444444445],[-122.165,38.7075],[-122.165,38.7075],[-122.165,38.7075],[-122.165,38.7075],[-122.165,38.7075],[-122.165,38.7075],[-122.44583333333334,38.51305555555555],[-122.44583333333334,38.51305555555555],[-122.44583333333334,38.51305555555555],[-122.44583333333334,38.51305555555555],[-122.68777777777778,38.29611111111111],[-122.68777777777778,38.29611111111111],[-122.68777777777778,38.29611111111111],[-122.68777777777778,38.29611111111111],[-122.68777777777778,38.29611111111111],[-122.7088888888889,38.10583333333334],[-122.7088888888889,38.10583333333334],[-122.7,38.083333333333336],[-122.7,38.083333333333336],[-122.7,38.083333333333336],[-122.69194444444445,38.01027777777778],[-122.68333333333334,37.96666666666667],[-122.67055555555557,37.89722222222222],[-122.67055555555557,37.89722222222222],[-122.67055555555557,37.89722222222222],[-122.65,37.86666666666667],[-122.65,37.86666666666667],[-122.65,37.86666666666667],[-122.65,37.86666666666667],[-122.51222222222222,37.74944444444444],[-122.51222222222222,37.74944444444444],[-122.48333333333333,37.733333333333334],[-122.48333333333333,37.733333333333334],[-122.44111111111111,37.68111111111111],[-122.44111111111111,37.68111111111111],[-122.44111111111111,37.68111111111111],[-122.44111111111111,37.68111111111111],[-122.41666666666667,37.65],[-122.41666666666667,37.65],[-122.29194444444444,37.48111111111111],[-122.29194444444444,37.48111111111111],[-122.29194444444444,37.48111111111111],[-122.28333333333333,37.45],[-122.28333333333333,37.45],[-122.28333333333333,37.45],[-122.28333333333333,37.38333333333333],[-122.28333333333333,37.38333333333333],[-122.29861111111111,37.348888888888894],[-122.29861111111111,37.348888888888894],[-122.29861111111111,37.348888888888894],[-122.23111111111112,37.323055555555555],[-122.23111111111112,37.323055555555555],[-122.23111111111112,37.323055555555555],[-122.2,37.333333333333336],[-122.16388888888889,37.356944444444444],[-122.16388888888889,37.356944444444444],[-122.13333333333334,37.36666666666667],[-122.13333333333334,37.36666666666667],[-122.13333333333334,37.36666666666667],[-122.1,37.416666666666664],[-122.1,37.416666666666664],[-122.1,37.46666666666667],[-122.1,37.46666666666667],[-122.1,37.46666666666667],[-122.16666666666667,37.53333333333333],[-122.16666666666667,37.53333333333333],[-122.20416666666667,37.549166666666665],[-122.20416666666667,37.549166666666665],[-122.20416666666667,37.549166666666665],[-122.23333333333333,37.55],[-122.23333333333333,37.55],[-122.25916666666667,37.57222222222222],[-122.25916666666667,37.57222222222222],[-122.25916666666667,37.57222222222222],[-122.31666666666666,37.6],[-122.34888888888888,37.61],[-122.34888888888888,37.61],[-122.38444444444445,37.625],[-122.38444444444445,37.625],[-122.38444444444445,37.625],[-122.38444444444445,37.625]],"type":"LineString"}
}
