{
  "id": 2014800739,
  "type": "Feature",
  "properties": {
    "geom:area": 0,
    "geom:bbox": "-122.734167,37.586111,-122.041389,47.390556",
    "geom:latitude": 42.49319867207027,
    "geom:longitude": -122.31550943961746,
    "src:alt_label": "swim-path",
    "src:geom": "swim",
    "swim:altitudes": [
      "016",
      "016",
      "037",
      "091",
      "091",
      "091",
      "099",
      "099",
      "117",
      "137",
      "137",
      "145",
      "145",
      "172",
      "172",
      "172",
      "193",
      "193",
      "193",
      "193",
      "193",
      "282",
      "282",
      "282",
      "328",
      "328",
      "328",
      "328",
      "340C",
      "340C",
      "340C",
      "340C",
      "340C",
      "340C",
      "340C",
      "340C",
      "340C",
      "340C",
      "340C",
      "340C",
      "340C",
      "340C",
      "340C",
      "340C",
      "340C",
      "340C",
      "340C",
      "340C",
      "340C",
      "340C",
      "340C",
      "340C",
      "340C",
      "340C",
      "340C",
      "340C",
      "340C",
      "340C",
      "340C",
      "340C",
      "340C",
      "340C",
      "340C",
      "340C",
      "340C",
      "340C",
      "340C",
      "340C",
      "340C",
      "340C",
      "340C",
      "340C",
      "340C",
      "340C",
      "340C",
      "340C",
      "340C",
      "340C",
      "340C",
      "340C",
      "340C",
      "340C",
      "340C",
      "340C",
      "340C",
      "340C",
      "340C",
      "340C",
      "340C",
      "340C",
      "340C",
      "340C",
      "340C",
      "340C",
      "340C",
      "340C",
      "340C",
      "340C",
      "340C",
      "340",
      "340",
      "340",
      "340",
      "340",
      "340",
      "340",
      "340",
      "340",
      "334",
      "334",
      "323",
      "323",
      "323",
      "304",
      "304",
      "304",
      "304",
      "293",
      "293",
      "293",
      "293",
      "210",
      "210",
      "210",
      "210",
      "210",
      "210",
      "210",
      "189",
      "189",
      "189",
      "173",
      "173",
      "157",
      "157",
      "153",
      "153",
      "153",
      "145",
      "145",
      "134",
      "134",
      "134",
      "118",
      "118",
      "112",
      "112",
      "112",
      "098",
      "098",
      "098",
      "072",
      "072",
      "072",
      "072",
      "059",
      "056",
      "056",
      "053",
      "053",
      "042",
      "042",
      "031",
      "031",
      "018",
      "018",
      "014",
      "014"
    ],
    "swim:geom": "path",
    "swim:speeds": [
      156,
      156,
      217,
      302,
      302,
      302,
      311,
      311,
      365,
      383,
      383,
      386,
      386,
      401,
      401,
      401,
      431,
      431,
      431,
      431,
      431,
      509,
      509,
      509,
      521,
      521,
      521,
      521,
      520,
      521,
      521,
      521,
      522,
      522,
      522,
      523,
      523,
      523,
      525,
      525,
      525,
      525,
      524,
      524,
      524,
      524,
      524,
      520,
      520,
      515,
      515,
      515,
      511,
      511,
      510,
      510,
      510,
      509,
      509,
      506,
      506,
      506,
      506,
      506,
      506,
      506,
      506,
      504,
      504,
      504,
      504,
      504,
      508,
      508,
      508,
      508,
      511,
      511,
      511,
      511,
      511,
      488,
      488,
      488,
      488,
      488,
      475,
      475,
      475,
      475,
      475,
      475,
      464,
      464,
      464,
      464,
      464,
      464,
      464,
      467,
      467,
      467,
      468,
      468,
      468,
      468,
      468,
      470,
      471,
      471,
      451,
      451,
      451,
      450,
      450,
      450,
      450,
      430,
      430,
      430,
      430,
      381,
      381,
      381,
      381,
      381,
      381,
      381,
      374,
      374,
      374,
      363,
      363,
      350,
      350,
      353,
      353,
      353,
      343,
      343,
      342,
      342,
      342,
      330,
      330,
      326,
      326,
      326,
      287,
      287,
      287,
      234,
      234,
      234,
      234,
      181,
      184,
      184,
      178,
      178,
      177,
      177,
      158,
      158,
      128,
      128,
      123,
      123
    ],
    "swim:timestamps": [
      1771164004,
      1771164004,
      1771164064,
      1771164163,
      1771164163,
      1771164163,
      1771164184,
      1771164184,
      1771164244,
      1771164283,
      1771164283,
      1771164304,
      1771164304,
      1771164364,
      1771164364,
      1771164364,
      1771164424,
      1771164424,
      1771164424,
      1771164424,
      1771164424,
      1771164724,
      1771164724,
      1771164724,
      1771164904,
      1771164904,
      1771164904,
      1771164904,
      1771164964,
      1771165024,
      1771165024,
      1771165024,
      1771165145,
      1771165145,
      1771165145,
      1771165205,
      1771165205,
      1771165205,
      1771165385,
      1771165385,
      1771165385,
      1771165385,
      1771165505,
      1771165505,
      1771165505,
      1771165505,
      1771165505,
      1771165567,
      1771165567,
      1771165625,
      1771165625,
      1771165625,
      1771165805,
      1771165805,
      1771165865,
      1771165865,
      1771165865,
      1771165925,
      1771165925,
      1771166045,
      1771166045,
      1771166045,
      1771166105,
      1771166105,
      1771166105,
      1771166105,
      1771166105,
      1771166347,
      1771166347,
      1771166347,
      1771166347,
      1771166347,
      1771166467,
      1771166467,
      1771166467,
      1771166467,
      1771166587,
      1771166587,
      1771166587,
      1771166587,
      1771166587,
      1771166767,
      1771166767,
      1771166767,
      1771166767,
      1771166767,
      1771166887,
      1771166887,
      1771166887,
      1771166887,
      1771166887,
      1771166887,
      1771167187,
      1771167187,
      1771167187,
      1771167187,
      1771167187,
      1771167187,
      1771167187,
      1771167428,
      1771167428,
      1771167428,
      1771167488,
      1771167488,
      1771167488,
      1771167488,
      1771167488,
      1771167548,
      1771167608,
      1771167608,
      1771167668,
      1771167668,
      1771167668,
      1771167788,
      1771167788,
      1771167788,
      1771167788,
      1771167848,
      1771167848,
      1771167848,
      1771167848,
      1771168148,
      1771168148,
      1771168148,
      1771168148,
      1771168148,
      1771168148,
      1771168148,
      1771168208,
      1771168208,
      1771168208,
      1771168268,
      1771168268,
      1771168308,
      1771168308,
      1771168328,
      1771168328,
      1771168328,
      1771168345,
      1771168345,
      1771168388,
      1771168388,
      1771168388,
      1771168448,
      1771168448,
      1771168466,
      1771168466,
      1771168466,
      1771168568,
      1771168568,
      1771168568,
      1771168688,
      1771168688,
      1771168688,
      1771168688,
      1771168776,
      1771168808,
      1771168808,
      1771168837,
      1771168837,
      1771168928,
      1771168928,
      1771169001,
      1771169001,
      1771169109,
      1771169109,
      1771169134,
      1771169134
    ],
    "wof:geomhash": "2638e3ef2b2a037893603f28004b2f2c",
    "wof:id": 2014800739,
    "wof:repo": "sfomuseum-data-flights-2026-02"
  },
  "bbox": [
    -122.73416666666667,
    37.586111111111116,
    -122.04138888888889,
    47.39055555555556
  ],
  "geometry": {"coordinates":[[-122.34888888888888,37.61027777777778],[-122.34888888888888,37.61027777777778],[-122.28777777777778,37.586111111111116],[-122.15,37.6],[-122.15,37.6],[-122.15,37.6],[-122.14250000000001,37.62861111111111],[-122.14250000000001,37.62861111111111],[-122.14111111111112,37.723888888888894],[-122.13333333333334,37.8],[-122.13333333333334,37.8],[-122.13555555555556,37.83083333333334],[-122.13555555555556,37.83083333333334],[-122.13055555555555,37.94027777777777],[-122.13055555555555,37.94027777777777],[-122.13055555555555,37.94027777777777],[-122.12555555555555,38.05888888888889],[-122.12555555555555,38.05888888888889],[-122.12555555555555,38.05888888888889],[-122.12555555555555,38.05888888888889],[-122.12555555555555,38.05888888888889],[-122.15277777777779,38.736666666666665],[-122.15277777777779,38.736666666666665],[-122.15277777777779,38.736666666666665],[-122.17583333333334,39.146388888888886],[-122.17583333333334,39.146388888888886],[-122.17583333333334,39.146388888888886],[-122.17583333333334,39.146388888888886],[-122.18388888888889,39.29277777777778],[-122.19250000000001,39.43722222222222],[-122.19250000000001,39.43722222222222],[-122.19250000000001,39.43722222222222],[-122.21027777777778,39.74861111111111],[-122.21027777777778,39.74861111111111],[-122.21027777777778,39.74861111111111],[-122.21861111111112,39.8925],[-122.21861111111112,39.8925],[-122.21861111111112,39.8925],[-122.24361111111111,40.31888888888889],[-122.24361111111111,40.31888888888889],[-122.24361111111111,40.31888888888889],[-122.24361111111111,40.31888888888889],[-122.26083333333334,40.609722222222224],[-122.26083333333334,40.609722222222224],[-122.26083333333334,40.609722222222224],[-122.26083333333334,40.609722222222224],[-122.26083333333334,40.609722222222224],[-122.26916666666666,40.75333333333333],[-122.26916666666666,40.75333333333333],[-122.2775,40.89472222222222],[-122.2775,40.89472222222222],[-122.2775,40.89472222222222],[-122.30333333333333,41.32194444444445],[-122.30333333333333,41.32194444444445],[-122.3125,41.47083333333334],[-122.3125,41.47083333333334],[-122.3125,41.47083333333334],[-122.32111111111111,41.611666666666665],[-122.32111111111111,41.611666666666665],[-122.3386111111111,41.89388888888889],[-122.3386111111111,41.89388888888889],[-122.3386111111111,41.89388888888889],[-122.34722222222221,42.03722222222222],[-122.34722222222221,42.03722222222222],[-122.34722222222221,42.03722222222222],[-122.34722222222221,42.03722222222222],[-122.34722222222221,42.03722222222222],[-122.38305555555554,42.6075],[-122.38305555555554,42.6075],[-122.38305555555554,42.6075],[-122.38305555555554,42.6075],[-122.38305555555554,42.6075],[-122.37722222222222,42.87833333333333],[-122.37722222222222,42.87833333333333],[-122.37722222222222,42.87833333333333],[-122.37722222222222,42.87833333333333],[-122.18527777777778,43.12722222222222],[-122.18527777777778,43.12722222222222],[-122.18527777777778,43.12722222222222],[-122.18527777777778,43.12722222222222],[-122.18527777777778,43.12722222222222],[-122.04138888888889,43.50944444444445],[-122.04138888888889,43.50944444444445],[-122.04138888888889,43.50944444444445],[-122.04138888888889,43.50944444444445],[-122.04138888888889,43.50944444444445],[-122.10249999999999,43.76777777777777],[-122.10249999999999,43.76777777777777],[-122.10249999999999,43.76777777777777],[-122.10249999999999,43.76777777777777],[-122.10249999999999,43.76777777777777],[-122.10249999999999,43.76777777777777],[-122.25611111111111,44.40472222222222],[-122.25611111111111,44.40472222222222],[-122.25611111111111,44.40472222222222],[-122.25611111111111,44.40472222222222],[-122.25611111111111,44.40472222222222],[-122.25611111111111,44.40472222222222],[-122.25611111111111,44.40472222222222],[-122.38222222222221,44.91583333333333],[-122.38222222222221,44.91583333333333],[-122.38222222222221,44.91583333333333],[-122.41416666666667,45.044999999999995],[-122.41416666666667,45.044999999999995],[-122.41416666666667,45.044999999999995],[-122.41416666666667,45.044999999999995],[-122.41416666666667,45.044999999999995],[-122.44638888888889,45.17444444444444],[-122.47833333333334,45.30305555555555],[-122.47833333333334,45.30305555555555],[-122.50916666666667,45.42611111111111],[-122.50916666666667,45.42611111111111],[-122.50916666666667,45.42611111111111],[-122.57166666666666,45.669444444444444],[-122.57166666666666,45.669444444444444],[-122.57166666666666,45.669444444444444],[-122.57166666666666,45.669444444444444],[-122.60138888888888,45.78805555555555],[-122.60138888888888,45.78805555555555],[-122.60138888888888,45.78805555555555],[-122.60138888888888,45.78805555555555],[-122.69916666666667,46.345],[-122.69916666666667,46.345],[-122.69916666666667,46.345],[-122.69916666666667,46.345],[-122.69916666666667,46.345],[-122.69916666666667,46.345],[-122.69916666666667,46.345],[-122.70833333333334,46.44888888888889],[-122.70833333333334,46.44888888888889],[-122.70833333333334,46.44888888888889],[-122.71694444444445,46.53861111111111],[-122.71694444444445,46.53861111111111],[-122.72527777777778,46.61638888888889],[-122.72527777777778,46.61638888888889],[-122.72527777777778,46.63472222222222],[-122.72527777777778,46.63472222222222],[-122.72527777777778,46.63472222222222],[-122.73027777777779,46.67333333333333],[-122.73027777777779,46.67333333333333],[-122.73416666666667,46.73027777777778],[-122.73416666666667,46.73027777777778],[-122.73416666666667,46.73027777777778],[-122.69611111111111,46.82083333333334],[-122.69611111111111,46.82083333333334],[-122.66694444444445,46.84583333333334],[-122.66694444444445,46.84583333333334],[-122.66694444444445,46.84583333333334],[-122.5225,46.946666666666665],[-122.5225,46.946666666666665],[-122.5225,46.946666666666665],[-122.40444444444445,47.058611111111105],[-122.40444444444445,47.058611111111105],[-122.40444444444445,47.058611111111105],[-122.40444444444445,47.058611111111105],[-122.34666666666666,47.13111111111111],[-122.33749999999999,47.15416666666667],[-122.33749999999999,47.15416666666667],[-122.32972222222222,47.18],[-122.32972222222222,47.18],[-122.31972222222223,47.25138888888889],[-122.31972222222223,47.25138888888889],[-122.32083333333333,47.30888888888889],[-122.32083333333333,47.30888888888889],[-122.31861111111111,47.37416666666667],[-122.31861111111111,47.37416666666667],[-122.31861111111111,47.39055555555556],[-122.31861111111111,47.39055555555556]],"type":"LineString"}
}
