{
  "id": 2014856695,
  "type": "Feature",
  "properties": {
    "geom:area": 0,
    "geom:bbox": "-124.140278,37.449722,-122.116667,49.157778",
    "geom:latitude": 42.996518462906,
    "geom:longitude": -123.30682581899892,
    "src:alt_label": "swim-path",
    "src:geom": "swim",
    "swim:altitudes": [
      "040",
      "040",
      "040",
      "066",
      "066",
      "120",
      "120",
      "129",
      "129",
      "148",
      "148",
      "239",
      "239",
      "276",
      "276",
      "287",
      "308",
      "308",
      "308",
      "308",
      "331",
      "331",
      "346",
      "346",
      "346",
      "350C",
      "350C",
      "350C",
      "350C",
      "350C",
      "350C",
      "350C",
      "350C",
      "350C",
      "350C",
      "350C",
      "350C",
      "350C",
      "350C",
      "350C",
      "350C",
      "350C",
      "350C",
      "350C",
      "350C",
      "350C",
      "350C",
      "350C",
      "350C",
      "350C",
      "350C",
      "350C",
      "350C",
      "350C",
      "350C",
      "350C",
      "350C",
      "350C",
      "350C",
      "350C",
      "350C",
      "350C",
      "350C",
      "350C",
      "350C",
      "350C",
      "350C",
      "350C",
      "350C",
      "350C",
      "350C",
      "350C",
      "350C",
      "350C",
      "350C",
      "350C",
      "350C",
      "350C",
      "350C",
      "350C",
      "350C",
      "350C",
      "350C",
      "350C",
      "350C",
      "350C",
      "350C",
      "350C",
      "350C",
      "350C",
      "350C",
      "350C",
      "350C",
      "350C",
      "350C",
      "350C",
      "350C",
      "350C",
      "350C",
      "350C",
      "350C",
      "350C",
      "350C",
      "350C",
      "350C",
      "350C",
      "350C",
      "350C",
      "350C",
      "350C",
      "350C",
      "350C",
      "350C",
      "350C",
      "350C",
      "350C",
      "350C",
      "350C",
      "350C",
      "350C",
      "350C",
      "350C",
      "350C",
      "350C",
      "350C",
      "350C",
      "350C",
      "350C",
      "350C",
      "350C",
      "350C",
      "350C",
      "350C",
      "350C",
      "350C",
      "350C",
      "350C",
      "350C",
      "350C",
      "350C",
      "350C",
      "350C",
      "350C",
      "350",
      "350",
      "350",
      "350",
      "350",
      "350",
      "350",
      "350",
      "308",
      "308",
      "308",
      "270",
      "270",
      "270",
      "252",
      "233",
      "233",
      "214",
      "214",
      "214",
      "184",
      "184",
      "179",
      "179",
      "160",
      "160",
      "138",
      "138",
      "119",
      "119",
      "119",
      "092",
      "092",
      "092",
      "092",
      "079",
      "079",
      "051",
      "051",
      "040",
      "040",
      "034",
      "034",
      "034"
    ],
    "swim:geom": "path",
    "swim:speeds": [
      230,
      230,
      230,
      238,
      238,
      302,
      302,
      301,
      301,
      315,
      315,
      319,
      319,
      351,
      351,
      396,
      386,
      386,
      386,
      386,
      381,
      381,
      382,
      382,
      382,
      388,
      393,
      393,
      396,
      396,
      398,
      398,
      399,
      399,
      392,
      392,
      392,
      390,
      390,
      390,
      379,
      379,
      379,
      372,
      372,
      371,
      372,
      372,
      372,
      372,
      362,
      362,
      362,
      357,
      358,
      358,
      358,
      360,
      360,
      364,
      364,
      366,
      366,
      366,
      366,
      371,
      371,
      371,
      374,
      374,
      381,
      381,
      381,
      382,
      382,
      387,
      387,
      386,
      388,
      388,
      388,
      388,
      386,
      387,
      387,
      388,
      388,
      388,
      388,
      388,
      387,
      387,
      387,
      387,
      386,
      386,
      382,
      378,
      377,
      377,
      374,
      374,
      371,
      371,
      371,
      371,
      373,
      373,
      373,
      373,
      373,
      381,
      381,
      382,
      382,
      382,
      386,
      386,
      390,
      392,
      392,
      392,
      364,
      364,
      350,
      350,
      350,
      348,
      347,
      347,
      347,
      347,
      347,
      345,
      347,
      347,
      347,
      347,
      348,
      350,
      350,
      366,
      366,
      432,
      432,
      467,
      467,
      472,
      472,
      472,
      472,
      462,
      462,
      462,
      431,
      431,
      431,
      413,
      403,
      403,
      399,
      399,
      399,
      341,
      341,
      339,
      339,
      337,
      337,
      336,
      336,
      332,
      332,
      332,
      239,
      239,
      239,
      239,
      233,
      233,
      221,
      221,
      232,
      232,
      203,
      203,
      203
    ],
    "swim:timestamps": [
      1771773312,
      1771773312,
      1771773312,
      1771773372,
      1771773372,
      1771773552,
      1771773552,
      1771773612,
      1771773612,
      1771773672,
      1771773672,
      1771773972,
      1771773972,
      1771774153,
      1771774153,
      1771774273,
      1771774333,
      1771774333,
      1771774333,
      1771774333,
      1771774453,
      1771774453,
      1771774573,
      1771774573,
      1771774573,
      1771774633,
      1771774693,
      1771774693,
      1771774753,
      1771774753,
      1771774813,
      1771774813,
      1771774873,
      1771774933,
      1771775053,
      1771775053,
      1771775053,
      1771775113,
      1771775113,
      1771775113,
      1771775233,
      1771775233,
      1771775233,
      1771775353,
      1771775353,
      1771775473,
      1771775534,
      1771775534,
      1771775534,
      1771775534,
      1771775774,
      1771775774,
      1771775774,
      1771775894,
      1771775954,
      1771775954,
      1771775954,
      1771776014,
      1771776014,
      1771776194,
      1771776194,
      1771776314,
      1771776314,
      1771776314,
      1771776314,
      1771776554,
      1771776554,
      1771776554,
      1771776674,
      1771776674,
      1771776855,
      1771776855,
      1771776855,
      1771776975,
      1771776975,
      1771777155,
      1771777155,
      1771777197,
      1771777215,
      1771777215,
      1771777275,
      1771777275,
      1771777317,
      1771777437,
      1771777437,
      1771777455,
      1771777515,
      1771777515,
      1771777515,
      1771777515,
      1771777557,
      1771777575,
      1771777575,
      1771777617,
      1771777678,
      1771777678,
      1771777738,
      1771777798,
      1771777815,
      1771777815,
      1771777875,
      1771777875,
      1771777996,
      1771777996,
      1771778056,
      1771778056,
      1771778158,
      1771778158,
      1771778158,
      1771778236,
      1771778236,
      1771778476,
      1771778476,
      1771778579,
      1771778579,
      1771778579,
      1771778639,
      1771778639,
      1771778776,
      1771778819,
      1771778836,
      1771778836,
      1771778896,
      1771778896,
      1771778939,
      1771778939,
      1771778939,
      1771779016,
      1771779059,
      1771779059,
      1771779059,
      1771779076,
      1771779076,
      1771779239,
      1771779299,
      1771779299,
      1771779299,
      1771779299,
      1771779360,
      1771779420,
      1771779420,
      1771779480,
      1771779480,
      1771779540,
      1771779540,
      1771779600,
      1771779600,
      1771779720,
      1771779720,
      1771779720,
      1771779720,
      1771779960,
      1771779960,
      1771779960,
      1771780080,
      1771780080,
      1771780080,
      1771780141,
      1771780201,
      1771780201,
      1771780261,
      1771780261,
      1771780261,
      1771780353,
      1771780353,
      1771780381,
      1771780381,
      1771780441,
      1771780441,
      1771780501,
      1771780501,
      1771780563,
      1771780563,
      1771780563,
      1771780801,
      1771780801,
      1771780801,
      1771780801,
      1771780861,
      1771780861,
      1771780982,
      1771780982,
      1771781049,
      1771781049,
      1771781109,
      1771781109,
      1771781109
    ],
    "wof:geomhash": "3d56721e54ad48d51957111fd705e45b",
    "wof:id": 2014856695,
    "wof:repo": "sfomuseum-data-flights-2026-02"
  },
  "bbox": [
    -124.14027777777778,
    37.44972222222222,
    -122.11666666666666,
    49.157777777777774
  ],
  "geometry": {"coordinates":[[-123.05833333333334,49.157777777777774],[-123.05833333333334,49.157777777777774],[-123.05833333333334,49.157777777777774],[-122.97583333333334,49.13166666666667],[-122.97583333333334,49.13166666666667],[-123.25861111111111,49.031666666666666],[-123.25861111111111,49.031666666666666],[-123.38055555555555,49.00694444444444],[-123.38055555555555,49.00694444444444],[-123.50666666666666,48.9825],[-123.50666666666666,48.9825],[-123.58027777777778,48.59916666666667],[-123.58027777777778,48.59916666666667],[-123.54694444444445,48.32416666666667],[-123.54694444444445,48.32416666666667],[-123.5213888888889,48.11],[-123.5075,47.992222222222225],[-123.5075,47.992222222222225],[-123.5075,47.992222222222225],[-123.5075,47.992222222222225],[-123.4825,47.78],[-123.4825,47.78],[-123.45833333333334,47.57083333333334],[-123.45833333333334,47.57083333333334],[-123.45833333333334,47.57083333333334],[-123.44555555555556,47.46277777777778],[-123.43305555555555,47.352222222222224],[-123.43305555555555,47.352222222222224],[-123.42027777777778,47.243611111111115],[-123.42027777777778,47.243611111111115],[-123.4088888888889,47.1325],[-123.4088888888889,47.1325],[-123.40555555555557,47.02166666666667],[-123.40166666666667,46.910555555555554],[-123.39500000000001,46.69472222222222],[-123.39500000000001,46.69472222222222],[-123.39500000000001,46.69472222222222],[-123.39194444444445,46.58722222222222],[-123.39194444444445,46.58722222222222],[-123.39194444444445,46.58722222222222],[-123.385,46.37555555555556],[-123.385,46.37555555555556],[-123.385,46.37555555555556],[-123.3786111111111,46.169444444444444],[-123.3786111111111,46.169444444444444],[-123.37249999999999,45.963055555555556],[-123.36916666666666,45.86055555555556],[-123.36916666666666,45.86055555555556],[-123.36916666666666,45.86055555555556],[-123.36916666666666,45.86055555555556],[-123.35722222222222,45.45638888888889],[-123.35722222222222,45.45638888888889],[-123.35722222222222,45.45638888888889],[-123.35111111111111,45.2575],[-123.34833333333333,45.157222222222224],[-123.34833333333333,45.157222222222224],[-123.34833333333333,45.157222222222224],[-123.345,45.05583333333333],[-123.345,45.05583333333333],[-123.33583333333333,44.74666666666667],[-123.33583333333333,44.74666666666667],[-123.33027777777778,44.543055555555554],[-123.33027777777778,44.543055555555554],[-123.33027777777778,44.543055555555554],[-123.33027777777778,44.543055555555554],[-123.31416666666667,44.13138888888889],[-123.31416666666667,44.13138888888889],[-123.31416666666667,44.13138888888889],[-123.30638888888889,43.92972222222222],[-123.30638888888889,43.92972222222222],[-123.2936111111111,43.611666666666665],[-123.2936111111111,43.611666666666665],[-123.2936111111111,43.611666666666665],[-123.28527777777778,43.39861111111111],[-123.28527777777778,43.39861111111111],[-123.27305555555556,43.07694444444445],[-123.27305555555556,43.07694444444445],[-123.26944444444445,43.00888888888889],[-123.26861111111111,42.969166666666666],[-123.26861111111111,42.969166666666666],[-123.26472222222222,42.86],[-123.26472222222222,42.86],[-123.26138888888889,42.79416666666666],[-123.25416666666666,42.57972222222222],[-123.25416666666666,42.57972222222222],[-123.2525,42.53611111111111],[-123.24833333333333,42.42916666666667],[-123.24833333333333,42.42916666666667],[-123.24833333333333,42.42916666666667],[-123.24833333333333,42.42916666666667],[-123.24583333333334,42.36472222222223],[-123.24416666666667,42.322500000000005],[-123.24416666666667,42.322500000000005],[-123.24222222222222,42.259166666666665],[-123.23805555555556,42.152499999999996],[-123.23805555555556,42.152499999999996],[-123.23361111111112,42.02583333333333],[-123.22972222222222,41.921388888888885],[-123.22916666666667,41.901111111111106],[-123.22916666666667,41.901111111111106],[-123.22527777777778,41.79972222222222],[-123.22527777777778,41.79972222222222],[-123.21777777777778,41.59444444444445],[-123.21777777777778,41.59444444444445],[-123.21444444444445,41.49166666666667],[-123.21444444444445,41.49166666666667],[-123.20833333333334,41.315],[-123.20833333333334,41.315],[-123.20833333333334,41.315],[-123.20527777777778,41.18555555555555],[-123.20527777777778,41.18555555555555],[-123.19444444444444,40.76111111111111],[-123.19444444444444,40.76111111111111],[-123.1913888888889,40.57694444444445],[-123.1913888888889,40.57694444444445],[-123.1913888888889,40.57694444444445],[-123.1875,40.46944444444445],[-123.1875,40.46944444444445],[-123.18111111111112,40.219166666666666],[-123.17916666666667,40.144444444444446],[-123.17833333333334,40.10916666666667],[-123.17833333333334,40.10916666666667],[-123.19694444444445,40.00472222222222],[-123.19694444444445,40.00472222222222],[-123.27972222222222,39.96194444444445],[-123.27972222222222,39.96194444444445],[-123.27972222222222,39.96194444444445],[-123.41611111111112,39.9125],[-123.50722222222223,39.87916666666667],[-123.50722222222223,39.87916666666667],[-123.50722222222223,39.87916666666667],[-123.52916666666667,39.87138888888889],[-123.52916666666667,39.87138888888889],[-123.83138888888888,39.742222222222225],[-123.9113888888889,39.66638888888889],[-123.9113888888889,39.66638888888889],[-123.9113888888889,39.66638888888889],[-123.9113888888889,39.66638888888889],[-123.99111111111111,39.590833333333336],[-124.07111111111111,39.51444444444444],[-124.07111111111111,39.51444444444444],[-124.14027777777778,39.4325],[-124.14027777777778,39.4325],[-124.12083333333332,39.33722222222222],[-124.12083333333332,39.33722222222222],[-124.00555555555556,39.240833333333335],[-124.00555555555556,39.240833333333335],[-123.77166666666666,39.051111111111105],[-123.77166666666666,39.051111111111105],[-123.77166666666666,39.051111111111105],[-123.77166666666666,39.051111111111105],[-123.30833333333334,38.6725],[-123.30833333333334,38.6725],[-123.30833333333334,38.6725],[-123.095,38.49666666666667],[-123.095,38.49666666666667],[-123.095,38.49666666666667],[-122.99416666666667,38.41305555555555],[-122.8963888888889,38.33222222222223],[-122.8963888888889,38.33222222222223],[-122.8,38.251666666666665],[-122.8,38.251666666666665],[-122.8,38.251666666666665],[-122.73333333333333,38.1],[-122.73333333333333,38.1],[-122.72194444444445,38.0675],[-122.72194444444445,38.0675],[-122.69611111111111,37.978611111111114],[-122.69611111111111,37.978611111111114],[-122.65083333333334,37.878055555555555],[-122.65083333333334,37.878055555555555],[-122.56666666666666,37.8],[-122.56666666666666,37.8],[-122.56666666666666,37.8],[-122.3411111111111,37.56916666666667],[-122.3411111111111,37.56916666666667],[-122.3411111111111,37.56916666666667],[-122.3411111111111,37.56916666666667],[-122.30694444444444,37.5075],[-122.30694444444444,37.5075],[-122.17833333333334,37.44972222222222],[-122.17833333333334,37.44972222222222],[-122.11666666666666,37.483333333333334],[-122.11666666666666,37.483333333333334],[-122.16666666666667,37.53333333333333],[-122.16666666666667,37.53333333333333],[-122.16666666666667,37.53333333333333]],"type":"LineString"}
}
