{
  "id": 2014801805,
  "type": "Feature",
  "properties": {
    "geom:area": 0,
    "geom:bbox": "-176.800000,1.360000,178.980000,40.110000",
    "geom:latitude": 36.69248724099897,
    "geom:longitude": 8.137712103213829,
    "src:alt_label": "swim-route",
    "src:geom": "swim",
    "swim:geom": "route",
    "wof:geomhash": "4c16f86d1a19df0b538f9bf51f980efe",
    "wof:id": 2014801805,
    "wof:repo": "sfomuseum-data-flights-2026-02"
  },
  "bbox": [
    -176.8,
    1.36,
    178.98,
    40.11
  ],
  "geometry": {"coordinates":[[[-122.38,37.62],[-122.36,37.61],[-122.33,37.61],[-122.23,37.59],[-122.29,37.61],[-122.33,37.63],[-122.33,37.63],[-122.36,37.64],[-122.37,37.65],[-122.44,37.68],[-122.45,37.69],[-122.56,37.73],[-122.6,37.76],[-122.68,37.81],[-122.72,37.49],[-122.8,37.52],[-122.85,37.54],[-122.98,37.59],[-123.24,37.69],[-123.5,38.02],[-123.66,38.07],[-124.25,38.53],[-124.85,38.7],[-124.92,38.94],[-124.94,38.99],[-125.24,39.06],[-125.6,39.42],[-126.19,39.81],[-127,39.86],[-127.02,40.01],[-130,40],[-135,40.11],[-140,40],[-142.53,39.83],[-150,39],[-155,39.11],[-160,39],[-163.72,39.48],[-169.82,39.63],[-170,39.66],[-173.75,40.1],[-176.8,39.47]],[[178.98,39.84],[176.53,38.92],[170,38],[166.56,37.09],[165,36.63],[164.15,36.38],[160,35],[150.23,28.18],[150,28],[140,21],[130,17],[122.33,14.7],[121.67,14.14],[119.71,12.42],[117.13,10.11],[115.86,8.95],[113.58,7.53],[112.83,7.05],[110.57,5.61],[109.07,4.65],[107.57,3.69],[106.08,2.72],[105.87,2.59],[105.83,2.56],[105.56,2.38],[105.51,2.34],[105.29,2.21],[105.1,2.08],[104.93,1.97],[104.66,1.8],[104.52,1.7],[104.34,1.59],[104.3,1.56],[104.2,1.49],[104.13,1.45],[104.06,1.4],[103.99,1.36]]],"type":"MultiLineString"}
}
