{
  "id": 2014792177,
  "type": "Feature",
  "properties": {
    "geom:area": 0,
    "geom:bbox": "-122.470000,21.030000,-86.880000,37.680000",
    "geom:latitude": 28.702123587514855,
    "geom:longitude": -105.05116728879501,
    "src:alt_label": "swim-route",
    "src:geom": "swim",
    "swim:geom": "route",
    "wof:geomhash": "0e10fc4c53c1156287eb7c2655b78612",
    "wof:id": 2014792177,
    "wof:repo": "sfomuseum-data-flights-2026-02"
  },
  "bbox": [
    -122.47,
    21.03,
    -86.88,
    37.68
  ],
  "geometry": {"coordinates":[[-122.38,37.62],[-122.36,37.68],[-122.38,37.64],[-122.39,37.64],[-122.42,37.58],[-122.42,37.57],[-122.44,37.55],[-122.47,37.5],[-122.47,37.49],[-122.47,37.49],[-122.43,37.46],[-122.33,37.4],[-122.17,37.29],[-122.14,37.27],[-122.1,37.25],[-122.04,37.21],[-121.91,37.13],[-121.9,37.12],[-121.82,37.07],[-121.71,36.99],[-121.65,36.95],[-121.63,36.94],[-121.53,36.88],[-121.48,36.84],[-121.41,36.79],[-121.27,36.7],[-121.1,36.59],[-120.95,36.49],[-120.78,36.37],[-120,35.85],[-119.96,35.82],[-119.4,35.42],[-118.33,34.65],[-118.04,34.43],[-118.03,34.42],[-117.69,34.08],[-117.53,33.92],[-117.2,33.65],[-116.84,33.35],[-116.59,33.14],[-115.68,32.67],[-115.65,32.65],[-115.61,32.63],[-115.51,32.57],[-115.06,32.34],[-114.34,32.08],[-113.86,31.91],[-112.2,31.29],[-111.97,31.2],[-111.28,30.93],[-110.97,30.81],[-110.75,30.72],[-108.5,29.81],[-107.15,29.24],[-105.96,28.72],[-105.52,28.55],[-104.84,28.3],[-102.13,27.23],[-101.47,26.96],[-100.78,26.73],[-100.22,26.54],[-99.38,26.32],[-99.3,26.3],[-99.29,26.3],[-98.67,26.13],[-98.23,26.01],[-97.88,25.89],[-97.52,25.77],[-97.1,25.55],[-96.83,25.4],[-96.55,25.25],[-96.01,24.95],[-95.67,24.77],[-95.13,24.46],[-94.99,24.39],[-94.57,24.15],[-94.2,24.02],[-93.84,23.88],[-91.93,23.14],[-91.47,22.96],[-90.39,22.52],[-89.59,22.4],[-89.19,22.34],[-89.19,22.34],[-88.66,22.25],[-88.43,22.21],[-88.38,22.21],[-88.2,22.18],[-88.18,22.17],[-87.95,22.14],[-87.82,22],[-87.46,21.63],[-87.35,21.52],[-87.34,21.51],[-87.18,21.34],[-87.06,21.22],[-87.02,21.18],[-87,21.16],[-86.94,21.1],[-86.88,21.03]],"type":"LineString"}
}
