{
  "id": 2014790119,
  "type": "Feature",
  "properties": {
    "geom:area": 0,
    "geom:bbox": "-122.656610,37.436950,-122.127130,38.510250",
    "geom:latitude": 37.86122203868932,
    "geom:longitude": -122.39625661499437,
    "src:alt_label": "swim-approach",
    "src:geom": "swim",
    "swim:elevations": [
      8534,
      8534,
      8534,
      8534,
      8463,
      8101,
      7603,
      7543,
      7264,
      6870,
      6482,
      6020,
      5630,
      5470,
      5245,
      4944,
      4548,
      4269,
      4125,
      3962,
      3747,
      3666,
      3567,
      3351,
      3353,
      3353,
      3353,
      3353,
      3353,
      3271,
      3080,
      2958,
      2679,
      2513,
      2379,
      2228,
      2074,
      1967,
      1819,
      1507,
      1273,
      1097,
      1097,
      1062,
      974,
      824,
      738,
      509,
      326,
      200,
      44,
      28
    ],
    "swim:geom": "approach",
    "swim:timestamps": [
      1771101685,
      1771101698,
      1771101741,
      1771101768,
      1771101793,
      1771101822,
      1771101864,
      1771101870,
      1771101891,
      1771101921,
      1771101951,
      1771101987,
      1771102018,
      1771102029,
      1771102047,
      1771102070,
      1771102105,
      1771102137,
      1771102158,
      1771102188,
      1771102224,
      1771102236,
      1771102251,
      1771102283,
      1771102313,
      1771102339,
      1771102350,
      1771102396,
      1771102414,
      1771102438,
      1771102465,
      1771102483,
      1771102522,
      1771102540,
      1771102558,
      1771102573,
      1771102592,
      1771102608,
      1771102626,
      1771102671,
      1771102698,
      1771102737,
      1771102766,
      1771102786,
      1771102800,
      1771102827,
      1771102841,
      1771102882,
      1771102917,
      1771102941,
      1771102979,
      1771102981
    ],
    "wof:geomhash": "1e4e5c4ffeef0ec957ae6cf3b1a8fb2a",
    "wof:id": 2014790119,
    "wof:repo": "sfomuseum-data-flights-2026-02"
  },
  "bbox": [
    -122.65661,
    37.43695,
    -122.12713,
    38.51025
  ],
  "geometry": {"coordinates":[[-122.24661,38.51025],[-122.26048,38.4906],[-122.30635,38.42534],[-122.33528,38.38434],[-122.36081,38.34773],[-122.38938,38.30685],[-122.43054,38.24852],[-122.43642,38.24008],[-122.45716,38.21081],[-122.48628,38.17005],[-122.5155,38.12742],[-122.54904,38.07852],[-122.57818,38.03625],[-122.58895,38.02088],[-122.60614,37.99627],[-122.6283,37.96448],[-122.65661,37.91673],[-122.64223,37.87075],[-122.61877,37.84808],[-122.58537,37.81621],[-122.54903,37.78229],[-122.53737,37.77134],[-122.52306,37.75791],[-122.49418,37.73027],[-122.46635,37.70421],[-122.44155,37.68088],[-122.43155,37.67142],[-122.38898,37.63169],[-122.37326,37.61679],[-122.3567,37.59596],[-122.34501,37.57057],[-122.33568,37.55429],[-122.31444,37.51987],[-122.30479,37.50403],[-122.29446,37.48867],[-122.2788,37.47943],[-122.25585,37.47039],[-122.23778,37.46321],[-122.21711,37.45482],[-122.16623,37.43695],[-122.13236,37.44694],[-122.12713,37.48848],[-122.14952,37.51638],[-122.16556,37.53319],[-122.17975,37.53951],[-122.20832,37.55084],[-122.22315,37.55727],[-122.26465,37.57471],[-122.29957,37.5893],[-122.3215,37.59858],[-122.35277,37.61169],[-122.3552,37.61271]],"type":"LineString"}
}
