{
  "id": 2014875901,
  "type": "Feature",
  "properties": {
    "geom:area": 0,
    "geom:bbox": "-122.420278,33.283333,-112.086389,37.685833",
    "geom:latitude": 34.98735493845049,
    "geom:longitude": -117.50742451342556,
    "src:alt_label": "swim-path",
    "src:geom": "swim",
    "swim:altitudes": [
      "007",
      "007",
      "007",
      "023",
      "029",
      "051",
      "121",
      "121",
      "158",
      "193",
      "248",
      "272",
      "272",
      "272",
      "298",
      "316",
      "316",
      "332",
      "332",
      "332",
      "386",
      "386",
      "386",
      "410C",
      "410C",
      "410C",
      "410C",
      "410C",
      "410C",
      "410C",
      "410C",
      "410",
      "390C",
      "390C",
      "390C",
      "390C",
      "390C",
      "386",
      "386",
      "386",
      "386",
      "370C",
      "370C",
      "370C",
      "370C",
      "370C",
      "370C",
      "370C",
      "370C",
      "370C",
      "370C",
      "370C",
      "370C",
      "370C",
      "370C",
      "370C",
      "370C",
      "370C",
      "370C",
      "370C",
      "370C",
      "370C",
      "370C",
      "370C",
      "370C",
      "370C",
      "370C",
      "370C",
      "370C",
      "370C",
      "370C",
      "370C",
      "370C",
      "370C",
      "370C",
      "370C",
      "370C",
      "370C",
      "370C",
      "370C",
      "345",
      "345",
      "345",
      "313",
      "313",
      "283",
      "283",
      "283",
      "283",
      "256",
      "250",
      "250",
      "250",
      "250",
      "250",
      "250",
      "233",
      "209",
      "209",
      "157",
      "157",
      "121",
      "121",
      "121",
      "107",
      "107",
      "097",
      "097",
      "097",
      "084",
      "083",
      "083",
      "075",
      "075",
      "065",
      "065",
      "057",
      "057",
      "056",
      "056",
      "031",
      "031",
      "031",
      "031",
      "023",
      "023",
      "023",
      "021"
    ],
    "swim:geom": "path",
    "swim:speeds": [
      157,
      157,
      157,
      193,
      215,
      205,
      308,
      308,
      350,
      357,
      400,
      435,
      435,
      435,
      452,
      458,
      458,
      475,
      475,
      475,
      487,
      487,
      487,
      469,
      469,
      469,
      469,
      469,
      468,
      468,
      468,
      471,
      478,
      481,
      481,
      481,
      481,
      481,
      481,
      481,
      481,
      483,
      483,
      481,
      481,
      481,
      481,
      481,
      481,
      481,
      481,
      481,
      482,
      482,
      482,
      484,
      485,
      485,
      487,
      487,
      487,
      487,
      487,
      487,
      487,
      487,
      487,
      488,
      488,
      489,
      489,
      489,
      488,
      488,
      488,
      488,
      484,
      484,
      484,
      484,
      483,
      483,
      483,
      492,
      492,
      484,
      484,
      484,
      484,
      471,
      455,
      451,
      451,
      451,
      449,
      449,
      436,
      426,
      426,
      368,
      368,
      318,
      318,
      318,
      302,
      302,
      287,
      287,
      287,
      284,
      286,
      286,
      264,
      264,
      258,
      258,
      237,
      237,
      240,
      240,
      217,
      217,
      217,
      217,
      168,
      168,
      168,
      165
    ],
    "swim:timestamps": [
      1771938247,
      1771938247,
      1771938247,
      1771938298,
      1771938307,
      1771938358,
      1771938478,
      1771938478,
      1771938538,
      1771938597,
      1771938717,
      1771938778,
      1771938778,
      1771938778,
      1771938838,
      1771938897,
      1771938897,
      1771938958,
      1771938958,
      1771938958,
      1771939138,
      1771939138,
      1771939138,
      1771939557,
      1771939557,
      1771939557,
      1771939557,
      1771939557,
      1771939617,
      1771939617,
      1771939617,
      1771939797,
      1771939919,
      1771939977,
      1771939977,
      1771939977,
      1771939977,
      1771940158,
      1771940158,
      1771940158,
      1771940158,
      1771940279,
      1771940279,
      1771940458,
      1771940458,
      1771940518,
      1771940518,
      1771940578,
      1771940578,
      1771940578,
      1771940578,
      1771940578,
      1771940638,
      1771940638,
      1771940638,
      1771940758,
      1771940878,
      1771940878,
      1771940998,
      1771940998,
      1771941058,
      1771941058,
      1771941118,
      1771941118,
      1771941118,
      1771941118,
      1771941118,
      1771941298,
      1771941298,
      1771941358,
      1771941358,
      1771941358,
      1771941478,
      1771941478,
      1771941478,
      1771941478,
      1771941654,
      1771941654,
      1771941654,
      1771941654,
      1771941956,
      1771941956,
      1771941956,
      1771942016,
      1771942016,
      1771942076,
      1771942076,
      1771942076,
      1771942076,
      1771942136,
      1771942196,
      1771942256,
      1771942256,
      1771942256,
      1771942316,
      1771942316,
      1771942376,
      1771942436,
      1771942436,
      1771942593,
      1771942593,
      1771942725,
      1771942725,
      1771942725,
      1771942785,
      1771942785,
      1771942845,
      1771942845,
      1771942845,
      1771942905,
      1771942917,
      1771942917,
      1771942977,
      1771942977,
      1771943019,
      1771943019,
      1771943079,
      1771943079,
      1771943097,
      1771943097,
      1771943218,
      1771943218,
      1771943218,
      1771943218,
      1771943259,
      1771943259,
      1771943259,
      1771943278
    ],
    "wof:geomhash": "552fe5cc8e0e5d027b1829c5a4ab4c93",
    "wof:id": 2014875901,
    "wof:repo": "sfomuseum-data-flights-2026-02"
  },
  "bbox": [
    -122.42027777777778,
    33.28333333333333,
    -112.08638888888889,
    37.68583333333333
  ],
  "geometry": {"coordinates":[[-122.36666666666666,37.63333333333333],[-122.36666666666666,37.63333333333333],[-122.36666666666666,37.63333333333333],[-122.36416666666666,37.663333333333334],[-122.36666666666666,37.68333333333333],[-122.42027777777778,37.68583333333333],[-122.39916666666667,37.58694444444445],[-122.39916666666667,37.58694444444445],[-122.31222222222222,37.521388888888886],[-122.22166666666666,37.44833333333333],[-122.02166666666666,37.297777777777775],[-121.90722222222223,37.21944444444445],[-121.90722222222223,37.21944444444445],[-121.90722222222223,37.21944444444445],[-121.7775,37.121944444444445],[-121.68055555555556,37.04083333333333],[-121.68055555555556,37.04083333333333],[-121.55944444444444,36.95666666666667],[-121.55944444444444,36.95666666666667],[-121.55944444444444,36.95666666666667],[-121.18111111111112,36.674166666666665],[-121.18111111111112,36.674166666666665],[-121.18111111111112,36.674166666666665],[-120.32249999999999,36.08222222222223],[-120.32249999999999,36.08222222222223],[-120.32249999999999,36.08222222222223],[-120.32249999999999,36.08222222222223],[-120.32249999999999,36.08222222222223],[-120.20083333333334,35.996944444444445],[-120.20083333333334,35.996944444444445],[-120.20083333333334,35.996944444444445],[-119.80111111111111,35.780277777777776],[-119.50833333333334,35.66166666666666],[-119.3611111111111,35.602222222222224],[-119.3611111111111,35.602222222222224],[-119.3611111111111,35.602222222222224],[-119.3611111111111,35.602222222222224],[-118.92111111111112,35.42166666666667],[-118.92111111111112,35.42166666666667],[-118.92111111111112,35.42166666666667],[-118.92111111111112,35.42166666666667],[-118.62388888888889,35.29861111111111],[-118.62388888888889,35.29861111111111],[-118.20138888888889,35.12166666666667],[-118.20138888888889,35.12166666666667],[-118.05888888888889,35.06166666666666],[-118.05888888888889,35.06166666666666],[-117.91388888888889,35],[-117.91388888888889,35],[-117.91388888888889,35],[-117.91388888888889,35],[-117.91388888888889,35],[-117.77277777777778,34.939722222222215],[-117.77277777777778,34.939722222222215],[-117.77277777777778,34.939722222222215],[-117.48694444444445,34.81722222222223],[-117.19833333333334,34.692499999999995],[-117.19833333333334,34.692499999999995],[-116.87944444444443,34.55361111111111],[-116.87944444444443,34.55361111111111],[-116.73472222222222,34.49],[-116.73472222222222,34.49],[-116.59166666666667,34.42666666666666],[-116.59166666666667,34.42666666666666],[-116.59166666666667,34.42666666666666],[-116.59166666666667,34.42666666666666],[-116.59166666666667,34.42666666666666],[-116.15916666666668,34.23444444444444],[-116.15916666666668,34.23444444444444],[-116.01361111111112,34.16916666666666],[-116.01361111111112,34.16916666666666],[-116.01361111111112,34.16916666666666],[-115.73861111111111,34.044999999999995],[-115.73861111111111,34.044999999999995],[-115.73861111111111,34.044999999999995],[-115.73861111111111,34.044999999999995],[-115.31861111111111,33.852222222222224],[-115.31861111111111,33.852222222222224],[-115.31861111111111,33.852222222222224],[-115.31861111111111,33.852222222222224],[-114.59972222222221,33.56472222222222],[-114.59972222222221,33.56472222222222],[-114.59972222222221,33.56472222222222],[-114.43805555555556,33.533055555555556],[-114.43805555555556,33.533055555555556],[-114.28138888888888,33.50138888888889],[-114.28138888888888,33.50138888888889],[-114.28138888888888,33.50138888888889],[-114.28138888888888,33.50138888888889],[-114.12833333333333,33.471944444444446],[-113.98138888888889,33.44277777777778],[-113.83527777777778,33.413333333333334],[-113.83527777777778,33.413333333333334],[-113.83527777777778,33.413333333333334],[-113.69250000000001,33.38444444444444],[-113.69250000000001,33.38444444444444],[-113.55138888888888,33.355555555555554],[-113.41361111111112,33.32888888888889],[-113.41361111111112,33.32888888888889],[-113.06666666666666,33.28333333333333],[-113.06666666666666,33.28333333333333],[-112.81666666666666,33.28333333333333],[-112.81666666666666,33.28333333333333],[-112.81666666666666,33.28333333333333],[-112.71666666666667,33.31666666666667],[-112.71666666666667,33.31666666666667],[-112.63333333333334,33.35],[-112.63333333333334,33.35],[-112.63333333333334,33.35],[-112.55,33.38333333333333],[-112.54055555555556,33.38666666666666],[-112.54055555555556,33.38666666666666],[-112.46027777777778,33.41611111111111],[-112.46027777777778,33.41611111111111],[-112.38333333333334,33.43333333333333],[-112.38333333333334,33.43333333333333],[-112.31666666666666,33.43333333333333],[-112.31666666666666,33.43333333333333],[-112.29777777777778,33.42861111111111],[-112.29777777777778,33.42861111111111],[-112.1463888888889,33.42861111111111],[-112.1463888888889,33.42861111111111],[-112.1463888888889,33.42861111111111],[-112.1463888888889,33.42861111111111],[-112.1,33.43333333333333],[-112.1,33.43333333333333],[-112.1,33.43333333333333],[-112.08638888888889,33.428888888888885]],"type":"LineString"}
}
