{
  "id": 2014872665,
  "type": "Feature",
  "properties": {
    "geom:area": 0,
    "geom:bbox": "-122.359320,37.491610,-121.256530,37.614670",
    "geom:latitude": 37.54655499400824,
    "geom:longitude": -121.812903901606,
    "src:alt_label": "swim-approach",
    "src:geom": "swim",
    "swim:elevations": [
      4849,
      4820,
      4676,
      4397,
      4061,
      3726,
      3492,
      3283,
      3229,
      3084,
      2826,
      2801,
      2498,
      2348,
      2173,
      2040,
      1962,
      1854,
      1733,
      1608,
      1481,
      1225,
      1004,
      875,
      804,
      728,
      687,
      568,
      400,
      276,
      271,
      59,
      0
    ],
    "swim:geom": "approach",
    "swim:timestamps": [
      1771929977,
      1771929981,
      1771929997,
      1771930028,
      1771930066,
      1771930102,
      1771930128,
      1771930166,
      1771930185,
      1771930206,
      1771930258,
      1771930262,
      1771930316,
      1771930341,
      1771930370,
      1771930398,
      1771930422,
      1771930454,
      1771930475,
      1771930489,
      1771930507,
      1771930539,
      1771930582,
      1771930607,
      1771930622,
      1771930642,
      1771930652,
      1771930683,
      1771930731,
      1771930768,
      1771930773,
      1771930820,
      1771930835
    ],
    "wof:geomhash": "bc46500caa2fafe874b751d5632ad676",
    "wof:id": 2014872665,
    "wof:repo": "sfomuseum-data-flights-2026-02"
  },
  "bbox": [
    -122.35932,
    37.49161,
    -121.25653,
    37.61467
  ],
  "geometry": {"coordinates":[[-121.25653,37.59363],[-121.26391,37.59267],[-121.29404,37.58944],[-121.34764,37.58305],[-121.41146,37.57555],[-121.47529,37.5682],[-121.52026,37.56301],[-121.58599,37.55539],[-121.61787,37.55147],[-121.64995,37.54495],[-121.72067,37.52805],[-121.7258,37.52688],[-121.7983,37.50921],[-121.82911,37.50186],[-121.86628,37.49306],[-121.90506,37.49161],[-121.93606,37.49244],[-121.97687,37.49375],[-122.00256,37.49922],[-122.01913,37.50482],[-122.04051,37.51162],[-122.0799,37.52456],[-122.12869,37.54048],[-122.15523,37.54897],[-122.1702,37.55379],[-122.18965,37.56011],[-122.20051,37.56367],[-122.23158,37.57362],[-122.27578,37.58731],[-122.30608,37.59626],[-122.30987,37.59737],[-122.3482,37.60969],[-122.35932,37.61467]],"type":"LineString"}
}
