{
  "id": 2014790271,
  "type": "Feature",
  "properties": {
    "geom:area": 0,
    "geom:bbox": "-122.354960,37.491630,-121.255220,37.612640",
    "geom:latitude": 37.54631655866483,
    "geom:longitude": -121.80993325403044,
    "src:alt_label": "swim-approach",
    "src:geom": "swim",
    "swim:elevations": [
      5193,
      4883,
      4665,
      4239,
      4013,
      3886,
      3614,
      3400,
      3223,
      3130,
      3024,
      2791,
      2620,
      2591,
      2340,
      2257,
      1982,
      1900,
      1744,
      1533,
      1248,
      1218,
      1169,
      975,
      887,
      822,
      567,
      487,
      488,
      420,
      303,
      89,
      27
    ],
    "swim:geom": "approach",
    "swim:timestamps": [
      1771099045,
      1771099074,
      1771099094,
      1771099138,
      1771099160,
      1771099174,
      1771099204,
      1771099231,
      1771099256,
      1771099283,
      1771099305,
      1771099343,
      1771099369,
      1771099381,
      1771099438,
      1771099456,
      1771099496,
      1771099504,
      1771099552,
      1771099570,
      1771099602,
      1771099620,
      1771099635,
      1771099670,
      1771099707,
      1771099722,
      1771099769,
      1771099799,
      1771099804,
      1771099820,
      1771099840,
      1771099888,
      1771099903
    ],
    "wof:geomhash": "c7cfdafce77892fd6580372780d98503",
    "wof:id": 2014790271,
    "wof:repo": "sfomuseum-data-flights-2026-02"
  },
  "bbox": [
    -122.35496,
    37.49163,
    -121.25522,
    37.61264
  ],
  "geometry": {"coordinates":[[-121.25522,37.59375],[-121.3022,37.58793],[-121.33432,37.58458],[-121.4068,37.57636],[-121.44363,37.5719],[-121.46569,37.56935],[-121.51548,37.56341],[-121.55888,37.55827],[-121.59953,37.55367],[-121.64041,37.54703],[-121.66958,37.54],[-121.71681,37.52871],[-121.74866,37.52124],[-121.76319,37.51784],[-121.83291,37.50112],[-121.85434,37.49586],[-121.90461,37.49163],[-121.9153,37.49187],[-121.97911,37.49403],[-122.00305,37.49937],[-122.04465,37.51302],[-122.06657,37.52012],[-122.08535,37.52634],[-122.12894,37.54027],[-122.16877,37.55315],[-122.18353,37.5582],[-122.23034,37.5733],[-122.26116,37.58305],[-122.26723,37.58493],[-122.28235,37.58917],[-122.3018,37.59474],[-122.34261,37.60766],[-122.35496,37.61264]],"type":"LineString"}
}
