{
  "id": 2014815955,
  "type": "Feature",
  "properties": {
    "geom:area": 0,
    "geom:bbox": "-122.380000,27.560000,-82.530000,38.330000",
    "geom:latitude": 33.72601561059785,
    "geom:longitude": -102.29013114743762,
    "src:alt_label": "swim-route",
    "src:geom": "swim",
    "swim:geom": "route",
    "wof:geomhash": "cd19c707b2ac3026fa7e4bef749e9323",
    "wof:id": 2014815955,
    "wof:repo": "sfomuseum-data-flights-2026-02"
  },
  "bbox": [
    -122.38,
    27.56,
    -82.53,
    38.33
  ],
  "geometry": {"coordinates":[[-82.53,27.98],[-82.62,27.99],[-82.64,28],[-82.72,28.02],[-82.78,28.03],[-82.8,28.04],[-82.82,28.04],[-82.84,28.05],[-82.98,27.99],[-83.16,27.93],[-83.16,27.93],[-83.19,27.92],[-83.19,27.92],[-83.38,27.85],[-83.5,27.8],[-83.7,27.73],[-83.91,27.65],[-84,27.62],[-84.12,27.57],[-84.16,27.56],[-84.17,27.56],[-84.25,27.57],[-84.44,27.6],[-84.51,27.61],[-85.13,27.71],[-85.15,27.71],[-85.34,27.78],[-88.01,28.77],[-89.6,29.32],[-90.04,29.47],[-90.48,29.62],[-92.35,30.23],[-93,30.43],[-94.47,30.87],[-94.65,30.93],[-96.13,31.35],[-96.28,31.39],[-97.27,31.66],[-97.52,31.8],[-98.79,32.48],[-100.11,33.16],[-101.02,33.62],[-102.64,34.4],[-102.84,34.5],[-103.03,34.58],[-104,35.02],[-104.84,35.4],[-105.44,35.65],[-105.63,35.74],[-106.42,36.07],[-106.8,36.22],[-107.09,36.34],[-107.45,36.49],[-108.1,36.75],[-108.36,36.86],[-108.68,37],[-108.8,37.05],[-108.91,37.08],[-109.16,37.15],[-109.51,37.24],[-110.22,37.41],[-110.46,37.47],[-110.88,37.57],[-111.28,37.66],[-112,37.83],[-112.62,37.94],[-113.25,38.05],[-114.06,38.18],[-114.96,38.33],[-116.33,38.33],[-117.27,38.12],[-117.27,38.12],[-117.77,38],[-118.76,37.9],[-119.1,37.86],[-119.49,37.81],[-119.94,37.76],[-120.04,37.75],[-120.22,37.72],[-120.4,37.7],[-120.41,37.7],[-120.48,37.69],[-120.69,37.67],[-120.75,37.66],[-120.77,37.66],[-120.83,37.65],[-120.96,37.63],[-121,37.63],[-121.08,37.62],[-121.17,37.6],[-121.26,37.59],[-121.39,37.58],[-121.41,37.58],[-121.6,37.55],[-121.61,37.55],[-121.62,37.55],[-121.7,37.53],[-121.8,37.51],[-121.83,37.5],[-121.88,37.49],[-122.08,37.54],[-122.14,37.56],[-122.18,37.57],[-122.28,37.59],[-122.33,37.61],[-122.36,37.61],[-122.38,37.62]],"type":"LineString"}
}
