{
  "id": 2014864385,
  "type": "Feature",
  "properties": {
    "geom:area": 0,
    "geom:bbox": "-122.763890,37.539950,-122.065110,38.517850",
    "geom:latitude": 37.895963808351034,
    "geom:longitude": -122.48672110836782,
    "src:alt_label": "swim-approach",
    "src:geom": "swim",
    "swim:elevations": [
      7500,
      7192,
      6947,
      6792,
      6516,
      6335,
      6016,
      5863,
      5653,
      5485,
      5408,
      5060,
      4907,
      4740,
      4302,
      4156,
      4015,
      3807,
      3631,
      3383,
      3353,
      3274,
      2864,
      2771,
      2706,
      2585,
      2529,
      2348,
      2191,
      2000,
      1885,
      1601,
      1432,
      1290,
      1100,
      1086,
      862,
      852,
      545
    ],
    "swim:geom": "approach",
    "swim:timestamps": [
      1771856452,
      1771856488,
      1771856516,
      1771856534,
      1771856565,
      1771856587,
      1771856624,
      1771856642,
      1771856661,
      1771856686,
      1771856702,
      1771856751,
      1771856768,
      1771856795,
      1771856844,
      1771856861,
      1771856886,
      1771856929,
      1771856954,
      1771856997,
      1771857024,
      1771857042,
      1771857078,
      1771857092,
      1771857106,
      1771857136,
      1771857159,
      1771857204,
      1771857231,
      1771857267,
      1771857287,
      1771857321,
      1771857343,
      1771857376,
      1771857417,
      1771857423,
      1771857476,
      1771857481,
      1771857537
    ],
    "wof:geomhash": "cfb578e8907dcea722f9dc94d433e2e0",
    "wof:id": 2014864385,
    "wof:repo": "sfomuseum-data-flights-2026-02"
  },
  "bbox": [
    -122.76389,
    37.53995,
    -122.06511,
    38.51785
  ],
  "geometry": {"coordinates":[[-122.68523,38.51785],[-122.70239,38.45683],[-122.71489,38.41168],[-122.72352,38.38149],[-122.73777,38.33117],[-122.74744,38.29579],[-122.76389,38.23539],[-122.76306,38.20641],[-122.75282,38.17406],[-122.74035,38.13285],[-122.73288,38.10718],[-122.71048,38.02896],[-122.70299,38.00333],[-122.69065,37.96009],[-122.6626,37.88794],[-122.63977,37.86678],[-122.60651,37.83669],[-122.55382,37.78731],[-122.52434,37.75953],[-122.46049,37.72825],[-122.41243,37.7155],[-122.38183,37.70738],[-122.32,37.69083],[-122.29786,37.68502],[-122.2759,37.67917],[-122.23323,37.66757],[-122.20474,37.66014],[-122.15601,37.64376],[-122.13163,37.6289],[-122.09968,37.60972],[-122.08084,37.59851],[-122.06511,37.57428],[-122.06976,37.55591],[-122.09599,37.53995],[-122.13997,37.54377],[-122.14744,37.54451],[-122.20729,37.55278],[-122.21186,37.55443],[-122.26637,37.57599]],"type":"LineString"}
}
