{
  "id": 2014790009,
  "type": "Feature",
  "properties": {
    "geom:area": 0,
    "geom:bbox": "-149.620000,-17.550000,-122.280000,37.620000",
    "geom:latitude": 11.022032893654295,
    "geom:longitude": -137.2967553213423,
    "src:alt_label": "swim-route",
    "src:geom": "swim",
    "swim:geom": "route",
    "wof:geomhash": "189153b17ab56a5c17977f14fb602355",
    "wof:id": 2014790009,
    "wof:repo": "sfomuseum-data-flights-2026-02"
  },
  "bbox": [
    -149.62,
    -17.55,
    -122.28,
    37.62
  ],
  "geometry": {"coordinates":[[-149.62,-17.55],[-149.58,-17.44],[-149.55,-17.36],[-149.51,-17.26],[-149.48,-17.16],[-149.42,-17],[-149.3,-16.67],[-149.23,-16.47],[-149.15,-16.23],[-149.09,-16.08],[-149.07,-16.02],[-149.03,-15.89],[-148.97,-15.75],[-148.93,-15.62],[-148.79,-15.22],[-148.68,-14.91],[-148.57,-14.59],[-147,-10],[-145,-5],[-143,0],[-142.04,1.75],[-141.08,3.5],[-141.07,3.54],[-139.23,8.89],[-138.43,10.42],[-136,15],[-133,20],[-132.44,21.43],[-132.16,22.15],[-131,25],[-128,30],[-126.26,33.49],[-125.06,35.74],[-125.05,35.75],[-124.85,36.05],[-124.82,36.1],[-124.76,36.18],[-124.46,36.37],[-124.21,36.53],[-124.12,36.58],[-124.07,36.62],[-123.86,36.75],[-123.8,36.78],[-123.57,36.93],[-123.56,36.93],[-123.52,36.96],[-123.3,37.09],[-123.13,37.19],[-122.96,37.24],[-122.86,37.26],[-122.84,37.26],[-122.84,37.26],[-122.76,37.28],[-122.71,37.29],[-122.66,37.3],[-122.63,37.31],[-122.5,37.34],[-122.44,37.36],[-122.29,37.39],[-122.28,37.39],[-122.31,37.46],[-122.34,37.54],[-122.37,37.6],[-122.37,37.61],[-122.38,37.62]],"type":"LineString"}
}
