{
  "id": 2014781799,
  "type": "Feature",
  "properties": {
    "geom:area": 0,
    "geom:bbox": "-122.315278,32.733333,-117.200000,37.593611",
    "geom:latitude": 35.09911319994678,
    "geom:longitude": -120.20577638301951,
    "src:alt_label": "swim-path",
    "src:geom": "swim",
    "swim:altitudes": [
      "008",
      "013",
      "013",
      "035",
      "061",
      "061",
      "061",
      "236",
      "255",
      "255",
      "255",
      "301",
      "301",
      "324",
      "339",
      "339",
      "339",
      "352",
      "351",
      "360",
      "360",
      "360",
      "380C",
      "380C",
      "380C",
      "380C",
      "380C",
      "380C",
      "380C",
      "380C",
      "380C",
      "380C",
      "380C",
      "380C",
      "380C",
      "380C",
      "380C",
      "380C",
      "380C",
      "380C",
      "380C",
      "353",
      "353",
      "344",
      "344",
      "325",
      "325",
      "325",
      "315",
      "305",
      "305",
      "284",
      "284",
      "272",
      "209",
      "203",
      "203",
      "164",
      "164",
      "150",
      "150",
      "150",
      "107",
      "107",
      "107",
      "100",
      "100",
      "060",
      "060",
      "060",
      "060",
      "060",
      "060",
      "060",
      "041",
      "041",
      "041",
      "013",
      "008",
      "008"
    ],
    "swim:geom": "path",
    "swim:speeds": [
      156,
      157,
      157,
      209,
      253,
      253,
      253,
      386,
      408,
      408,
      408,
      416,
      416,
      399,
      398,
      398,
      398,
      385,
      389,
      408,
      408,
      408,
      406,
      406,
      406,
      405,
      405,
      393,
      392,
      392,
      392,
      398,
      377,
      377,
      367,
      363,
      363,
      362,
      361,
      361,
      361,
      363,
      363,
      373,
      373,
      395,
      395,
      395,
      401,
      392,
      392,
      379,
      379,
      374,
      351,
      342,
      342,
      327,
      327,
      315,
      315,
      317,
      299,
      299,
      299,
      284,
      284,
      259,
      259,
      241,
      241,
      217,
      212,
      212,
      191,
      191,
      191,
      157,
      138,
      138
    ],
    "swim:timestamps": [
      1771011139,
      1771011156,
      1771011156,
      1771011216,
      1771011276,
      1771011276,
      1771011276,
      1771011636,
      1771011696,
      1771011696,
      1771011696,
      1771011817,
      1771011817,
      1771011877,
      1771011937,
      1771011937,
      1771011937,
      1771011997,
      1771012057,
      1771012117,
      1771012117,
      1771012117,
      1771012598,
      1771012598,
      1771012598,
      1771012718,
      1771012718,
      1771012958,
      1771013018,
      1771013018,
      1771013018,
      1771013078,
      1771013139,
      1771013139,
      1771013259,
      1771013379,
      1771013379,
      1771013439,
      1771013559,
      1771013559,
      1771013559,
      1771013800,
      1771013800,
      1771013862,
      1771013862,
      1771013982,
      1771013982,
      1771013982,
      1771014042,
      1771014102,
      1771014102,
      1771014222,
      1771014222,
      1771014282,
      1771014462,
      1771014470,
      1771014470,
      1771014591,
      1771014591,
      1771014650,
      1771014650,
      1771014703,
      1771014883,
      1771014883,
      1771014883,
      1771014943,
      1771014943,
      1771015184,
      1771015184,
      1771015244,
      1771015244,
      1771015250,
      1771015364,
      1771015364,
      1771015484,
      1771015484,
      1771015484,
      1771015664,
      1771015724,
      1771015724
    ],
    "wof:geomhash": "c88ebce5288ce62d43bc13382fcc8701",
    "wof:id": 2014781799,
    "wof:repo": "sfomuseum-data-flights-2026-02"
  },
  "bbox": [
    -122.31527777777778,
    32.733333333333334,
    -117.2,
    37.593611111111116
  ],
  "geometry": {"coordinates":[[-117.2,32.733333333333334],[-117.21666666666667,32.74333333333333],[-117.21666666666667,32.74333333333333],[-117.27083333333333,32.77333333333333],[-117.33527777777778,32.809999999999995],[-117.33527777777778,32.809999999999995],[-117.33527777777778,32.809999999999995],[-117.84972222222221,33.18194444444444],[-117.94472222222223,33.263333333333335],[-117.94472222222223,33.263333333333335],[-117.94472222222223,33.263333333333335],[-118.14055555555557,33.426944444444445],[-118.14055555555557,33.426944444444445],[-118.235,33.50555555555555],[-118.32972222222222,33.58416666666667],[-118.32972222222222,33.58416666666667],[-118.32972222222222,33.58416666666667],[-118.42500000000001,33.663333333333334],[-118.51722222222222,33.739444444444445],[-118.61722222222221,33.8175],[-118.61722222222221,33.8175],[-118.61722222222221,33.8175],[-119.47166666666666,34.371944444444445],[-119.47166666666666,34.371944444444445],[-119.47166666666666,34.371944444444445],[-119.67222222222223,34.52444444444444],[-119.67222222222223,34.52444444444444],[-120.06333333333333,34.84027777777778],[-120.1538888888889,34.9],[-120.1538888888889,34.9],[-120.1538888888889,34.9],[-120.28666666666666,34.91916666666666],[-120.4088888888889,34.94638888888888],[-120.4088888888889,34.94638888888888],[-120.55166666666666,35.112500000000004],[-120.68972222222223,35.276666666666664],[-120.68972222222223,35.276666666666664],[-120.75972222222222,35.359722222222224],[-120.89944444444446,35.52472222222222],[-120.89944444444446,35.52472222222222],[-120.89944444444446,35.52472222222222],[-121.21583333333334,35.825833333333335],[-121.21583333333334,35.825833333333335],[-121.33805555555556,35.86388888888889],[-121.33805555555556,35.86388888888889],[-121.59888888888888,35.886944444444445],[-121.59888888888888,35.886944444444445],[-121.59888888888888,35.886944444444445],[-121.73666666666666,35.88472222222222],[-121.87055555555555,35.89722222222222],[-121.87055555555555,35.89722222222222],[-121.9175,36.09722222222222],[-121.9175,36.09722222222222],[-121.91472222222222,36.20722222222223],[-121.90333333333334,36.50194444444445],[-121.9,36.53333333333333],[-121.9,36.53333333333333],[-121.9,36.71666666666667],[-121.9,36.71666666666667],[-121.91666666666667,36.8],[-121.91666666666667,36.8],[-121.92750000000001,36.86055555555556],[-122.01861111111111,37.10166666666667],[-122.01861111111111,37.10166666666667],[-122.01861111111111,37.10166666666667],[-122.10555555555555,37.13722222222222],[-122.10555555555555,37.13722222222222],[-122.30805555555555,37.35638888888889],[-122.30805555555555,37.35638888888889],[-122.22416666666666,37.37833333333333],[-122.22416666666666,37.37833333333333],[-122.2,37.38333333333333],[-122.0825,37.40555555555555],[-122.0825,37.40555555555555],[-122.10222222222221,37.503055555555555],[-122.10222222222221,37.503055555555555],[-122.10222222222221,37.503055555555555],[-122.28333333333333,37.583333333333336],[-122.31527777777778,37.593611111111116],[-122.31527777777778,37.593611111111116]],"type":"LineString"}
}
