{
  "id": 2014895251,
  "type": "Feature",
  "properties": {
    "geom:area": 0,
    "geom:bbox": "-122.394722,32.880000,-116.086111,37.701667",
    "geom:latitude": 35.24336892110533,
    "geom:longitude": -119.39028604395972,
    "src:alt_label": "swim-path",
    "src:geom": "swim",
    "swim:altitudes": [
      "008",
      "008",
      "008",
      "008",
      "025",
      "025",
      "028",
      "035",
      "035",
      "035",
      "115",
      "115",
      "115",
      "115",
      "115",
      "160",
      "160",
      "160",
      "175",
      "175",
      "175",
      "175",
      "189",
      "189",
      "189",
      "189",
      "217",
      "217",
      "217",
      "229",
      "231",
      "231",
      "240",
      "240",
      "240",
      "240",
      "240",
      "261",
      "261",
      "261",
      "261",
      "274",
      "273",
      "273",
      "273",
      "283",
      "283",
      "283",
      "293",
      "293",
      "293",
      "303",
      "303",
      "303",
      "303",
      "304",
      "314",
      "314",
      "314",
      "314",
      "323",
      "330C",
      "330C",
      "330C",
      "330C",
      "330C",
      "330C",
      "330C",
      "330C",
      "330C",
      "330C",
      "330C",
      "330C",
      "330C",
      "330C",
      "330C",
      "330C",
      "330C",
      "330C",
      "330C",
      "330C",
      "330C",
      "330C",
      "330C",
      "330C",
      "330C",
      "330C",
      "330C",
      "330C",
      "330C",
      "330C",
      "330C",
      "330C",
      "330C",
      "330C",
      "330C",
      "330C",
      "330C",
      "330C",
      "330C",
      "330C",
      "330C",
      "330C",
      "330C",
      "330C",
      "330C",
      "330C",
      "330C",
      "330C",
      "330C",
      "330C",
      "330C",
      "330C",
      "330C",
      "330C",
      "330C",
      "330C",
      "330C",
      "330C",
      "330C",
      "330C",
      "330C",
      "330C",
      "330C",
      "330C",
      "330C",
      "330C",
      "330C",
      "330C",
      "330C",
      "330C",
      "330C",
      "330C",
      "330C",
      "330C",
      "330C",
      "330C",
      "330C",
      "330C",
      "330C",
      "330C",
      "330C",
      "330C",
      "330C"
    ],
    "swim:geom": "path",
    "swim:speeds": [
      159,
      159,
      159,
      159,
      159,
      159,
      157,
      196,
      196,
      196,
      380,
      380,
      380,
      380,
      380,
      401,
      401,
      401,
      417,
      417,
      417,
      417,
      430,
      430,
      430,
      430,
      454,
      454,
      454,
      451,
      459,
      459,
      462,
      462,
      462,
      462,
      462,
      479,
      479,
      479,
      479,
      512,
      489,
      489,
      489,
      493,
      493,
      493,
      495,
      495,
      495,
      498,
      498,
      498,
      498,
      498,
      493,
      493,
      493,
      493,
      493,
      494,
      494,
      494,
      494,
      494,
      494,
      494,
      494,
      496,
      496,
      496,
      496,
      496,
      498,
      498,
      498,
      498,
      498,
      498,
      498,
      498,
      498,
      499,
      499,
      499,
      499,
      500,
      500,
      500,
      500,
      500,
      500,
      499,
      499,
      499,
      497,
      497,
      497,
      497,
      497,
      496,
      496,
      496,
      496,
      496,
      496,
      496,
      496,
      496,
      496,
      498,
      498,
      498,
      498,
      497,
      497,
      495,
      495,
      495,
      495,
      495,
      495,
      495,
      495,
      495,
      494,
      494,
      494,
      494,
      494,
      494,
      491,
      491,
      491,
      491,
      492,
      492,
      492,
      493,
      493,
      493,
      493,
      493
    ],
    "swim:timestamps": [
      1772144966,
      1772144966,
      1772144966,
      1772144966,
      1772145006,
      1772145006,
      1772145021,
      1772145066,
      1772145066,
      1772145066,
      1772145306,
      1772145306,
      1772145306,
      1772145306,
      1772145306,
      1772145426,
      1772145426,
      1772145426,
      1772145487,
      1772145487,
      1772145487,
      1772145487,
      1772145547,
      1772145547,
      1772145547,
      1772145547,
      1772145667,
      1772145667,
      1772145667,
      1772145718,
      1772145727,
      1772145727,
      1772145779,
      1772145779,
      1772145779,
      1772145779,
      1772145779,
      1772145899,
      1772145899,
      1772145899,
      1772145899,
      1772145959,
      1772145967,
      1772145967,
      1772145967,
      1772146027,
      1772146027,
      1772146027,
      1772146079,
      1772146079,
      1772146079,
      1772146139,
      1772146139,
      1772146139,
      1772146139,
      1772146147,
      1772146208,
      1772146208,
      1772146208,
      1772146208,
      1772146259,
      1772146319,
      1772146328,
      1772146328,
      1772146328,
      1772146380,
      1772146380,
      1772146380,
      1772146380,
      1772146560,
      1772146560,
      1772146560,
      1772146560,
      1772146560,
      1772146680,
      1772146680,
      1772146680,
      1772146680,
      1772146680,
      1772146680,
      1772146800,
      1772146800,
      1772146800,
      1772146860,
      1772146860,
      1772146860,
      1772146860,
      1772146929,
      1772146929,
      1772146989,
      1772146989,
      1772146989,
      1772146989,
      1772147049,
      1772147101,
      1772147101,
      1772147161,
      1772147161,
      1772147161,
      1772147161,
      1772147161,
      1772147221,
      1772147281,
      1772147281,
      1772147281,
      1772147341,
      1772147341,
      1772147341,
      1772147341,
      1772147341,
      1772147341,
      1772147521,
      1772147521,
      1772147521,
      1772147521,
      1772147581,
      1772147581,
      1772147701,
      1772147701,
      1772147701,
      1772147762,
      1772147762,
      1772147762,
      1772147822,
      1772147822,
      1772147822,
      1772147882,
      1772147882,
      1772147882,
      1772147882,
      1772147882,
      1772147882,
      1772148182,
      1772148182,
      1772148182,
      1772148182,
      1772148242,
      1772148242,
      1772148242,
      1772148362,
      1772148362,
      1772148362,
      1772148362,
      1772148362
    ],
    "wof:geomhash": "3354e2f6633eaccdc60fc51ed3d50cf2",
    "wof:id": 2014895251,
    "wof:repo": "sfomuseum-data-flights-2026-02"
  },
  "bbox": [
    -122.39472222222223,
    32.88,
    -116.08611111111111,
    37.70166666666667
  ],
  "geometry": {"coordinates":[[-122.36666666666666,37.63333333333333],[-122.36666666666666,37.63333333333333],[-122.36666666666666,37.63333333333333],[-122.36666666666666,37.63333333333333],[-122.36194444444443,37.66138888888889],[-122.36194444444443,37.66138888888889],[-122.36666666666666,37.666666666666664],[-122.38222222222221,37.70166666666667],[-122.38222222222221,37.70166666666667],[-122.38222222222221,37.70166666666667],[-122.39472222222223,37.39277777777778],[-122.39472222222223,37.39277777777778],[-122.39472222222223,37.39277777777778],[-122.39472222222223,37.39277777777778],[-122.39472222222223,37.39277777777778],[-122.1888888888889,37.244166666666665],[-122.1888888888889,37.244166666666665],[-122.1888888888889,37.244166666666665],[-122.08111111111111,37.1675],[-122.08111111111111,37.1675],[-122.08111111111111,37.1675],[-122.08111111111111,37.1675],[-121.97055555555556,37.08888888888889],[-121.97055555555556,37.08888888888889],[-121.97055555555556,37.08888888888889],[-121.97055555555556,37.08888888888889],[-121.73722222222223,36.92166666666667],[-121.73722222222223,36.92166666666667],[-121.73722222222223,36.92166666666667],[-121.64250000000001,36.850833333333334],[-121.61916666666666,36.83638888888889],[-121.61916666666666,36.83638888888889],[-121.52111111111111,36.763888888888886],[-121.52111111111111,36.763888888888886],[-121.52111111111111,36.763888888888886],[-121.52111111111111,36.763888888888886],[-121.52111111111111,36.763888888888886],[-121.27277777777778,36.58361111111111],[-121.27277777777778,36.58361111111111],[-121.27277777777778,36.58361111111111],[-121.27277777777778,36.58361111111111],[-121.14194444444445,36.489444444444445],[-121.14,36.488055555555555],[-121.14,36.488055555555555],[-121.14,36.488055555555555],[-121.01222222222222,36.39555555555555],[-121.01222222222222,36.39555555555555],[-121.01222222222222,36.39555555555555],[-120.88694444444445,36.30888888888889],[-120.88694444444445,36.30888888888889],[-120.88694444444445,36.30888888888889],[-120.75611111111111,36.2175],[-120.75611111111111,36.2175],[-120.75611111111111,36.2175],[-120.75611111111111,36.2175],[-120.75222222222222,36.215],[-120.62444444444444,36.125277777777775],[-120.62444444444444,36.125277777777775],[-120.62444444444444,36.125277777777775],[-120.62444444444444,36.125277777777775],[-120.49916666666667,36.036944444444444],[-120.37222222222222,35.947222222222216],[-120.36805555555554,35.94416666666666],[-120.36805555555554,35.94416666666666],[-120.36805555555554,35.94416666666666],[-120.24305555555556,35.85472222222222],[-120.24305555555556,35.85472222222222],[-120.24305555555556,35.85472222222222],[-120.24305555555556,35.85472222222222],[-119.86888888888888,35.57166666666667],[-119.86888888888888,35.57166666666667],[-119.86888888888888,35.57166666666667],[-119.86888888888888,35.57166666666667],[-119.86888888888888,35.57166666666667],[-119.60805555555555,35.3925],[-119.60805555555555,35.3925],[-119.60805555555555,35.3925],[-119.60805555555555,35.3925],[-119.60805555555555,35.3925],[-119.60805555555555,35.3925],[-119.34694444444445,35.21194444444445],[-119.34694444444445,35.21194444444445],[-119.34694444444445,35.21194444444445],[-119.21944444444445,35.123333333333335],[-119.21944444444445,35.123333333333335],[-119.21944444444445,35.123333333333335],[-119.21944444444445,35.123333333333335],[-119.08527777777778,35.02972222222222],[-119.08527777777778,35.02972222222222],[-118.95666666666666,34.939722222222215],[-118.95666666666666,34.939722222222215],[-118.95666666666666,34.939722222222215],[-118.95666666666666,34.939722222222215],[-118.82944444444443,34.85027777777778],[-118.72555555555556,34.776944444444446],[-118.72555555555556,34.776944444444446],[-118.59861111111111,34.68722222222222],[-118.59861111111111,34.68722222222222],[-118.59861111111111,34.68722222222222],[-118.59861111111111,34.68722222222222],[-118.59861111111111,34.68722222222222],[-118.47333333333333,34.59805555555556],[-118.34694444444445,34.50805555555556],[-118.34694444444445,34.50805555555556],[-118.34694444444445,34.50805555555556],[-118.21861111111112,34.41638888888889],[-118.21861111111112,34.41638888888889],[-118.21861111111112,34.41638888888889],[-118.21861111111112,34.41638888888889],[-118.21861111111112,34.41638888888889],[-118.21861111111112,34.41638888888889],[-117.83638888888889,34.14083333333333],[-117.83638888888889,34.14083333333333],[-117.83638888888889,34.14083333333333],[-117.83638888888889,34.14083333333333],[-117.71166666666667,34.05027777777777],[-117.71166666666667,34.05027777777777],[-117.46388888888889,33.86416666666667],[-117.46388888888889,33.86416666666667],[-117.46388888888889,33.86416666666667],[-117.34638888888888,33.768055555555556],[-117.34638888888888,33.768055555555556],[-117.34638888888888,33.768055555555556],[-117.22916666666667,33.67222222222222],[-117.22916666666667,33.67222222222222],[-117.22916666666667,33.67222222222222],[-117.11138888888888,33.57555555555556],[-117.11138888888888,33.57555555555556],[-117.11138888888888,33.57555555555556],[-117.11138888888888,33.57555555555556],[-117.11138888888888,33.57555555555556],[-117.11138888888888,33.57555555555556],[-116.51194444444444,33.10194444444445],[-116.51194444444444,33.10194444444445],[-116.51194444444444,33.10194444444445],[-116.51194444444444,33.10194444444445],[-116.37888888888888,33.032777777777774],[-116.37888888888888,33.032777777777774],[-116.37888888888888,33.032777777777774],[-116.08611111111111,32.88],[-116.08611111111111,32.88],[-116.08611111111111,32.88],[-116.08611111111111,32.88],[-116.08611111111111,32.88]],"type":"LineString"}
}
