{
  "id": 2014844641,
  "type": "Feature",
  "properties": {
    "geom:area": 0,
    "geom:bbox": "-122.887500,37.666667,-122.213333,45.683889",
    "geom:latitude": 41.821520121789334,
    "geom:longitude": -122.5400599828128,
    "src:alt_label": "swim-path",
    "src:geom": "swim",
    "swim:altitudes": [
      "042",
      "065",
      "065",
      "105",
      "140",
      "201",
      "235",
      "235",
      "285",
      "375",
      "381",
      "400C",
      "400C",
      "400C",
      "400C",
      "400C",
      "400C",
      "400C",
      "400C",
      "400C",
      "400C",
      "400C",
      "400C",
      "400C",
      "400C",
      "400C",
      "400C",
      "400C",
      "400C",
      "400",
      "400",
      "400",
      "400",
      "339",
      "308",
      "242",
      "242",
      "206",
      "206",
      "147",
      "105",
      "105",
      "090",
      "086",
      "080",
      "060",
      "051",
      "037",
      "034",
      "035",
      "018",
      "014",
      "011",
      "004",
      "002"
    ],
    "swim:geom": "path",
    "swim:speeds": [
      206,
      261,
      261,
      285,
      324,
      363,
      367,
      367,
      376,
      399,
      414,
      420,
      422,
      422,
      422,
      421,
      420,
      420,
      420,
      437,
      438,
      438,
      438,
      440,
      443,
      443,
      446,
      448,
      449,
      448,
      447,
      445,
      445,
      441,
      434,
      423,
      423,
      415,
      415,
      369,
      311,
      311,
      309,
      306,
      302,
      264,
      255,
      247,
      230,
      199,
      146,
      129,
      121,
      122,
      123
    ],
    "swim:timestamps": [
      1771653047,
      1771653100,
      1771653100,
      1771653160,
      1771653220,
      1771653340,
      1771653400,
      1771653400,
      1771653520,
      1771653881,
      1771653941,
      1771654061,
      1771654121,
      1771654241,
      1771654241,
      1771654301,
      1771654361,
      1771654421,
      1771654421,
      1771654721,
      1771655082,
      1771655082,
      1771655142,
      1771655442,
      1771655565,
      1771655565,
      1771655745,
      1771655805,
      1771655865,
      1771655985,
      1771656045,
      1771656105,
      1771656105,
      1771656345,
      1771656405,
      1771656525,
      1771656525,
      1771656585,
      1771656585,
      1771656826,
      1771657006,
      1771657006,
      1771657066,
      1771657157,
      1771657186,
      1771657306,
      1771657337,
      1771657403,
      1771657426,
      1771657463,
      1771657583,
      1771657606,
      1771657643,
      1771657703,
      1771657726
    ],
    "wof:geomhash": "3f9d3a4d4fbcab352161c5e8d307522f",
    "wof:id": 2014844641,
    "wof:repo": "sfomuseum-data-flights-2026-02"
  },
  "bbox": [
    -122.8875,
    37.666666666666664,
    -122.21333333333334,
    45.68388888888889
  ],
  "geometry": {"coordinates":[[-122.3,37.666666666666664],[-122.25722222222223,37.69611111111111],[-122.25722222222223,37.69611111111111],[-122.21333333333334,37.75972222222222],[-122.21777777777778,37.84777777777778],[-122.22277777777778,38.04277777777778],[-122.22583333333334,38.14527777777778],[-122.22583333333334,38.14527777777778],[-122.23222222222222,38.349722222222226],[-122.3,39.00694444444444],[-122.31194444444444,39.12138888888889],[-122.33694444444444,39.355555555555554],[-122.34944444444444,39.47416666666667],[-122.37416666666665,39.70388888888889],[-122.37416666666665,39.70388888888889],[-122.38694444444445,39.82055555555556],[-122.39916666666667,39.93666666666666],[-122.41222222222223,40.05611111111111],[-122.41222222222223,40.05611111111111],[-122.47833333333334,40.66027777777778],[-122.55805555555555,41.37138888888889],[-122.55805555555555,41.37138888888889],[-122.57194444444444,41.49444444444445],[-122.61333333333333,42.108333333333334],[-122.63027777777778,42.35666666666667],[-122.63027777777778,42.35666666666667],[-122.65527777777778,42.72944444444445],[-122.66472222222222,42.8675],[-122.67305555555556,42.992222222222225],[-122.68944444444445,43.23972222222222],[-122.69805555555556,43.364444444444445],[-122.70722222222223,43.48722222222222],[-122.70722222222223,43.48722222222222],[-122.74138888888889,43.97777777777778],[-122.74916666666667,44.098333333333336],[-122.73472222222222,44.33361111111111],[-122.73472222222222,44.33361111111111],[-122.72416666666666,44.4475],[-122.72416666666666,44.4475],[-122.67861111111111,44.89805555555556],[-122.65166666666667,45.16416666666667],[-122.65166666666667,45.16416666666667],[-122.6463888888889,45.24805555555556],[-122.71055555555556,45.36972222222222],[-122.72833333333334,45.40555555555555],[-122.815,45.55166666666666],[-122.84222222222222,45.584722222222226],[-122.8875,45.656388888888884],[-122.87694444444443,45.67833333333333],[-122.83,45.68388888888889],[-122.7038888888889,45.636944444444445],[-122.68583333333333,45.62972222222222],[-122.6613888888889,45.62],[-122.61888888888888,45.60277777777778],[-122.60416666666666,45.59805555555556]],"type":"LineString"}
}
