{
  "id": 2014734665,
  "type": "Feature",
  "properties": {
    "geom:area": 0,
    "geom:bbox": "-122.357680,37.491500,-121.264360,37.613810",
    "geom:latitude": 37.54588420150918,
    "geom:longitude": -121.81588818470154,
    "src:alt_label": "swim-approach",
    "src:geom": "swim",
    "swim:elevations": [
      4706,
      4568,
      4399,
      4160,
      3919,
      3481,
      3261,
      3232,
      3003,
      2870,
      2579,
      2473,
      2369,
      2120,
      2072,
      1900,
      1808,
      1600,
      1342,
      1140,
      997,
      913,
      847,
      709,
      579,
      462,
      309,
      240,
      85,
      0
    ],
    "swim:geom": "approach",
    "swim:timestamps": [
      1770495534,
      1770495548,
      1770495564,
      1770495587,
      1770495611,
      1770495654,
      1770495679,
      1770495694,
      1770495748,
      1770495766,
      1770495808,
      1770495833,
      1770495850,
      1770495887,
      1770495902,
      1770495943,
      1770495966,
      1770496002,
      1770496044,
      1770496077,
      1770496108,
      1770496123,
      1770496133,
      1770496161,
      1770496192,
      1770496216,
      1770496253,
      1770496267,
      1770496308,
      1770496323
    ],
    "wof:geomhash": "e178863f170800fdae72c6b3e16a9dfb",
    "wof:id": 2014734665,
    "wof:repo": "sfomuseum-data-flights-2026-02"
  },
  "bbox": [
    -122.35768,
    37.4915,
    -121.26436,
    37.61381
  ],
  "geometry": {"coordinates":[[-121.26436,37.59251],[-121.29168,37.58894],[-121.32529,37.58554],[-121.37065,37.58042],[-121.42017,37.57479],[-121.50488,37.56479],[-121.55068,37.55945],[-121.57803,37.55627],[-121.66911,37.53915],[-121.69725,37.53254],[-121.76229,37.5175],[-121.79964,37.50881],[-121.82465,37.50283],[-121.8786,37.49185],[-121.89944,37.4915],[-121.95843,37.49308],[-121.98895,37.49558],[-122.03443,37.50966],[-122.08632,37.52659],[-122.12611,37.53945],[-122.16143,37.55092],[-122.17846,37.55644],[-122.18893,37.5598],[-122.21742,37.56904],[-122.2475,37.57875],[-122.27057,37.58573],[-122.30207,37.59505],[-122.31356,37.59835],[-122.34633,37.60888],[-122.35768,37.61381]],"type":"LineString"}
}
