{
  "id": 2014783205,
  "type": "Feature",
  "properties": {
    "geom:area": 0,
    "geom:bbox": "-122.466667,32.901944,-97.050000,38.818333",
    "geom:latitude": 37.497311957866046,
    "geom:longitude": -109.13336740717538,
    "src:alt_label": "swim-path",
    "src:geom": "swim",
    "swim:altitudes": [
      "026",
      "141",
      "159",
      "223",
      "263",
      "317",
      "322",
      "350C",
      "350C",
      "350C",
      "350C",
      "330C",
      "330C",
      "330C",
      "330C",
      "331C",
      "330C",
      "330C",
      "330C",
      "330C",
      "330C",
      "330C",
      "330C",
      "330C",
      "330C",
      "330C",
      "330C",
      "330C",
      "330C",
      "330C",
      "330C",
      "330C",
      "330C",
      "330C",
      "330C",
      "330C",
      "330C",
      "330C",
      "330C",
      "330C",
      "330C",
      "330C",
      "330C",
      "330C",
      "330C",
      "330C",
      "330C",
      "330C",
      "330",
      "335",
      "341",
      "350C",
      "350C",
      "350C",
      "351C",
      "350C",
      "351C",
      "350C",
      "350C",
      "350C",
      "350C",
      "350C",
      "350C",
      "350C",
      "350C",
      "350C",
      "350C",
      "350C",
      "350C",
      "351C",
      "350C",
      "350C",
      "350C",
      "350C",
      "350C",
      "350C",
      "351C",
      "351C",
      "350C",
      "350C",
      "351",
      "359C",
      "360C",
      "360C",
      "360C",
      "360C",
      "360C",
      "360C",
      "360C",
      "360C",
      "360C",
      "360C",
      "360C",
      "360C",
      "360C",
      "360C",
      "360",
      "341",
      "331",
      "330",
      "330",
      "330",
      "200",
      "174",
      "139",
      "108",
      "105",
      "082",
      "031",
      "016",
      "011",
      "006"
    ],
    "swim:geom": "path",
    "swim:speeds": [
      236,
      399,
      410,
      478,
      493,
      489,
      489,
      502,
      502,
      502,
      502,
      489,
      490,
      490,
      490,
      487,
      483,
      483,
      472,
      469,
      464,
      462,
      461,
      460,
      458,
      459,
      458,
      458,
      458,
      456,
      454,
      447,
      446,
      450,
      452,
      456,
      457,
      455,
      459,
      461,
      465,
      465,
      470,
      473,
      476,
      480,
      481,
      480,
      478,
      472,
      473,
      479,
      479,
      481,
      483,
      484,
      485,
      484,
      482,
      481,
      479,
      437,
      431,
      431,
      433,
      433,
      435,
      435,
      436,
      440,
      432,
      431,
      429,
      428,
      427,
      428,
      433,
      436,
      437,
      429,
      436,
      444,
      448,
      451,
      453,
      457,
      457,
      457,
      458,
      459,
      459,
      461,
      461,
      461,
      461,
      455,
      452,
      449,
      446,
      449,
      468,
      476,
      454,
      436,
      411,
      319,
      313,
      275,
      229,
      142,
      139,
      134
    ],
    "swim:timestamps": [
      1771036456,
      1771036826,
      1771036886,
      1771037186,
      1771037426,
      1771037787,
      1771037847,
      1771038267,
      1771038387,
      1771038448,
      1771038568,
      1771038808,
      1771038944,
      1771039004,
      1771039125,
      1771039305,
      1771039485,
      1771039545,
      1771039846,
      1771040038,
      1771040278,
      1771040338,
      1771040398,
      1771040458,
      1771040486,
      1771040518,
      1771040547,
      1771040578,
      1771040607,
      1771040727,
      1771040787,
      1771040819,
      1771040907,
      1771041039,
      1771041099,
      1771041239,
      1771041299,
      1771041340,
      1771041400,
      1771041420,
      1771041460,
      1771041480,
      1771041600,
      1771041820,
      1771041880,
      1771041940,
      1771042001,
      1771042061,
      1771042121,
      1771042181,
      1771042241,
      1771042421,
      1771042481,
      1771042541,
      1771042601,
      1771042661,
      1771042722,
      1771042782,
      1771042902,
      1771042962,
      1771043022,
      1771043202,
      1771043503,
      1771043522,
      1771043563,
      1771043582,
      1771043623,
      1771043642,
      1771043702,
      1771043823,
      1771043923,
      1771043943,
      1771043983,
      1771044043,
      1771044103,
      1771044163,
      1771044304,
      1771044424,
      1771044484,
      1771044652,
      1771044712,
      1771044832,
      1771044842,
      1771044892,
      1771044902,
      1771045022,
      1771045083,
      1771045132,
      1771045205,
      1771045252,
      1771045312,
      1771045432,
      1771045443,
      1771045492,
      1771045503,
      1771045612,
      1771045683,
      1771045804,
      1771045864,
      1771045924,
      1771045973,
      1771046093,
      1771046513,
      1771046573,
      1771046633,
      1771046782,
      1771046824,
      1771047004,
      1771047354,
      1771047544,
      1771047594,
      1771047654
    ],
    "wof:geomhash": "ce52ad9cd69da5dfc81fab5f51f27eaf",
    "wof:id": 2014783205,
    "wof:repo": "sfomuseum-data-flights-2026-02"
  },
  "bbox": [
    -122.46666666666667,
    32.901944444444446,
    -97.05,
    38.818333333333335
  ],
  "geometry": {"coordinates":[[-122.46666666666667,37.666666666666664],[-122.04777777777778,37.86666666666667],[-121.90611111111112,37.88583333333333],[-121.11722222222221,37.989444444444445],[-120.44388888888889,38.09166666666667],[-119.41416666666667,38.24111111111111],[-119.24472222222222,38.264722222222225],[-118.02194444444444,38.42833333333333],[-117.66722222222222,38.47361111111111],[-117.48944444444444,38.495555555555555],[-117.16805555555555,38.52111111111111],[-116.4588888888889,38.524166666666666],[-116.04222222222222,38.52361111111111],[-115.86944444444444,38.52305555555555],[-115.52027777777778,38.520833333333336],[-115.00277777777778,38.51583333333333],[-114.48861111111111,38.50888888888889],[-114.31861111111111,38.505833333333335],[-113.47777777777777,38.522777777777776],[-112.94388888888889,38.54361111111111],[-112.31694444444445,38.565],[-112.18527777777778,38.56888888888889],[-111.99083333333333,38.57472222222223],[-111.82944444444443,38.57916666666667],[-111.73083333333334,38.58166666666667],[-111.66611111111112,38.583333333333336],[-111.56944444444444,38.58583333333333],[-111.50416666666666,38.587500000000006],[-111.41027777777778,38.58972222222222],[-111.08444444444444,38.59722222222222],[-110.92444444444445,38.60027777777778],[-110.83916666666666,38.60583333333334],[-110.62083333333332,38.625],[-110.2725,38.655277777777776],[-110.11166666666666,38.66861111111111],[-109.72361111111111,38.70055555555556],[-109.56444444444445,38.713055555555556],[-109.47,38.720555555555556],[-109.30805555555555,38.73305555555556],[-109.24194444444444,38.73833333333334],[-109.14222222222223,38.745555555555555],[-109.07694444444444,38.75055555555556],[-108.7461111111111,38.77472222222222],[-108.11527777777778,38.818333333333335],[-107.9475,38.81777777777778],[-107.7761111111111,38.81527777777777],[-107.60472222222222,38.8125],[-107.43611111111112,38.809444444444445],[-107.26583333333333,38.80611111111111],[-107.1086111111111,38.80277777777778],[-106.9375,38.799166666666665],[-106.43083333333334,38.78611111111111],[-106.2611111111111,38.78138888888889],[-106.10416666666666,38.776666666666664],[-105.92944444444444,38.771388888888886],[-105.75888888888889,38.76555555555556],[-105.58694444444444,38.75972222222222],[-105.41527777777779,38.75388888888889],[-105.07722222222222,38.74111111111111],[-104.87305555555555,38.73305555555556],[-104.705,38.72138888888889],[-104.3625,38.47638888888889],[-103.86055555555555,38.04527777777778],[-103.81833333333333,38.00861111111111],[-103.75583333333333,37.95444444444445],[-103.73444444444445,37.93583333333333],[-103.65277777777779,37.864444444444445],[-103.63,37.84444444444445],[-103.52555555555556,37.75333333333333],[-103.3175,37.57027777777778],[-103.13583333333334,37.409444444444446],[-103.11583333333333,37.39194444444444],[-103.03555555555555,37.32],[-102.93333333333334,37.235],[-102.82888888888888,37.149166666666666],[-102.72527777777778,37.06361111111111],[-102.48138888888889,36.861111111111114],[-102.27111111111111,36.68555555555555],[-102.16888888888889,36.599722222222226],[-101.87527777777777,36.35277777777778],[-101.7713888888889,36.26277777777778],[-101.55833333333334,36.0825],[-101.53777777777778,36.06305555555555],[-101.45138888888889,35.989444444444445],[-101.42888888888889,35.96944444444445],[-101.21333333333334,35.78333333333333],[-101.10472222222222,35.68888888888888],[-101.02083333333333,35.615833333333335],[-100.88916666666667,35.50083333333333],[-100.80638888888889,35.42805555555555],[-100.71638888888889,35.348888888888894],[-100.50333333333333,35.160555555555554],[-100.485,35.144444444444446],[-100.39611111111111,35.065555555555555],[-100.37694444444443,35.04861111111111],[-100.185,34.87722222222222],[-100.06027777777777,34.765277777777776],[-99.85722222222222,34.58222222222223],[-99.75638888888889,34.490833333333335],[-99.65472222222223,34.39833333333333],[-99.54888888888888,34.31944444444445],[-99.27333333333333,34.183055555555555],[-98.30472222222222,33.71277777777778],[-98.16888888888889,33.645833333333336],[-98.05472222222222,33.58972222222222],[-97.78333333333333,33.45],[-97.73333333333333,33.43333333333333],[-97.48333333333333,33.31666666666667],[-97.05583333333333,33.10916666666667],[-97.05,32.96666666666667],[-97.05444444444444,32.94],[-97.05472222222222,32.901944444444446]],"type":"LineString"}
}
