{
  "id": 2014758095,
  "type": "Feature",
  "properties": {
    "geom:area": 0,
    "geom:bbox": "-122.364540,36.763820,-121.900490,37.616250",
    "geom:latitude": 37.233200962215726,
    "geom:longitude": -122.08052857160826,
    "src:alt_label": "swim-approach",
    "src:geom": "swim",
    "swim:elevations": [
      4387,
      4105,
      3872,
      3838,
      3429,
      3275,
      3160,
      3028,
      2880,
      2696,
      2604,
      2480,
      2471,
      2438,
      2406,
      2320,
      1842,
      1613,
      1571,
      1383,
      1117,
      1015,
      835,
      543,
      390,
      288,
      173,
      102,
      0
    ],
    "swim:geom": "approach",
    "swim:timestamps": [
      1770711387,
      1770711418,
      1770711447,
      1770711451,
      1770711491,
      1770711510,
      1770711531,
      1770711562,
      1770711596,
      1770711627,
      1770711641,
      1770711657,
      1770711660,
      1770711705,
      1770711743,
      1770711751,
      1770711808,
      1770711834,
      1770711843,
      1770711889,
      1770711918,
      1770711933,
      1770711964,
      1770712015,
      1770712042,
      1770712070,
      1770712095,
      1770712115,
      1770712145
    ],
    "wof:geomhash": "ca672a96bd432f5f1f50ae6c2f7c3e15",
    "wof:id": 2014758095,
    "wof:repo": "sfomuseum-data-flights-2026-02"
  },
  "bbox": [
    -122.36454,
    36.76382,
    -121.90049,
    37.61625
  ],
  "geometry": {"coordinates":[[-121.90049,36.76382],[-121.91577,36.81799],[-121.92927,36.86576],[-121.93135,36.87312],[-121.94934,36.93743],[-121.9598,36.96818],[-121.97263,37.00089],[-121.99071,37.04761],[-122.0093,37.09526],[-122.0258,37.13725],[-122.03303,37.15583],[-122.04127,37.17664],[-122.04281,37.18056],[-122.06609,37.24032],[-122.08541,37.2895],[-122.08974,37.30043],[-122.1189,37.37507],[-122.13048,37.40832],[-122.13407,37.41861],[-122.1549,37.4718],[-122.1744,37.50297],[-122.1849,37.51812],[-122.207,37.5465],[-122.25891,37.56977],[-122.28471,37.58278],[-122.30932,37.59347],[-122.32771,37.60112],[-122.34257,37.60744],[-122.36454,37.61625]],"type":"LineString"}
}
