{
  "id": 2014903119,
  "type": "Feature",
  "properties": {
    "geom:area": 0,
    "geom:bbox": "-122.552778,32.683333,-116.900000,37.690556",
    "geom:latitude": 35.01409545708836,
    "geom:longitude": -119.90613023680221,
    "src:alt_label": "swim-path",
    "src:geom": "swim",
    "swim:altitudes": [
      "014",
      "014",
      "031",
      "114",
      "114",
      "139",
      "139",
      "182",
      "242",
      "265",
      "265",
      "307",
      "322",
      "322",
      "337",
      "337",
      "359",
      "359",
      "357",
      "385",
      "385",
      "385",
      "390C",
      "390C",
      "390C",
      "390C",
      "390C",
      "390C",
      "390C",
      "390C",
      "390C",
      "390C",
      "390C",
      "390C",
      "390C",
      "390C",
      "390C",
      "390C",
      "390C",
      "390C",
      "390C",
      "390C",
      "390C",
      "390C",
      "390C",
      "390C",
      "390C",
      "384",
      "384",
      "374",
      "365",
      "353",
      "327",
      "327",
      "199",
      "189",
      "123",
      "123",
      "073",
      "073",
      "049",
      "040",
      "037",
      "006"
    ],
    "swim:geom": "path",
    "swim:speeds": [
      184,
      184,
      200,
      325,
      325,
      321,
      321,
      345,
      362,
      380,
      380,
      414,
      431,
      431,
      442,
      442,
      438,
      438,
      438,
      432,
      432,
      432,
      446,
      444,
      459,
      463,
      466,
      468,
      468,
      467,
      466,
      466,
      467,
      468,
      468,
      468,
      463,
      464,
      460,
      460,
      462,
      462,
      462,
      463,
      465,
      465,
      465,
      462,
      462,
      458,
      458,
      458,
      459,
      459,
      392,
      382,
      356,
      356,
      283,
      283,
      247,
      239,
      182,
      144
    ],
    "swim:timestamps": [
      1772248302,
      1772248302,
      1772248347,
      1772248527,
      1772248527,
      1772248580,
      1772248580,
      1772248641,
      1772248767,
      1772248827,
      1772248827,
      1772248948,
      1772249001,
      1772249001,
      1772249061,
      1772249061,
      1772249121,
      1772249121,
      1772249128,
      1772249241,
      1772249241,
      1772249241,
      1772249302,
      1772249308,
      1772249368,
      1772249428,
      1772249482,
      1772249542,
      1772249542,
      1772249602,
      1772249662,
      1772249662,
      1772249902,
      1772250023,
      1772250023,
      1772250023,
      1772250083,
      1772250089,
      1772250263,
      1772250263,
      1772250443,
      1772250449,
      1772250449,
      1772250509,
      1772250623,
      1772250623,
      1772250623,
      1772250804,
      1772250804,
      1772250864,
      1772250924,
      1772250984,
      1772251044,
      1772251044,
      1772251405,
      1772251431,
      1772251645,
      1772251645,
      1772251885,
      1772251885,
      1772252032,
      1772252092,
      1772252212,
      1772252392
    ],
    "wof:geomhash": "a8445c49d44e0a0e8b26dabaef0432cb",
    "wof:id": 2014903119,
    "wof:repo": "sfomuseum-data-flights-2026-02"
  },
  "bbox": [
    -122.55277777777778,
    32.68333333333333,
    -116.9,
    37.690555555555555
  ],
  "geometry": {"coordinates":[[-122.36666666666666,37.65],[-122.36666666666666,37.65],[-122.36388888888888,37.690555555555555],[-122.48833333333333,37.57194444444445],[-122.48833333333333,37.57194444444445],[-122.49722222222222,37.49194444444444],[-122.49722222222222,37.49194444444444],[-122.51388888888889,37.38861111111111],[-122.54222222222222,37.17583333333333],[-122.55277777777778,37.07222222222222],[-122.55277777777778,37.07222222222222],[-122.39111111111112,36.885555555555555],[-122.29583333333333,36.78861111111111],[-122.29583333333333,36.78861111111111],[-122.20166666666667,36.69305555555555],[-122.20166666666667,36.69305555555555],[-122.10722222222222,36.59722222222222],[-122.10722222222222,36.59722222222222],[-122.11166666666666,36.60166666666667],[-121.92416666666666,36.40861111111111],[-121.92416666666666,36.40861111111111],[-121.92416666666666,36.40861111111111],[-121.82833333333333,36.314166666666665],[-121.8325,36.3175],[-121.70444444444445,36.22972222222222],[-121.58055555555555,36.1475],[-121.4588888888889,36.06583333333333],[-121.33666666666666,35.983333333333334],[-121.33666666666666,35.983333333333334],[-121.21277777777777,35.89972222222222],[-121.09222222222222,35.8175],[-121.09222222222222,35.8175],[-120.6036111111111,35.48222222222223],[-120.35944444444443,35.312777777777775],[-120.35944444444443,35.312777777777775],[-120.35944444444443,35.312777777777775],[-120.24055555555556,35.23027777777778],[-120.2388888888889,35.22888888888889],[-119.89833333333334,34.989444444444445],[-119.89833333333334,34.989444444444445],[-119.5436111111111,34.738055555555555],[-119.51722222222222,34.719166666666666],[-119.51722222222222,34.719166666666666],[-119.40027777777779,34.63527777777778],[-119.1725,34.472500000000004],[-119.1725,34.472500000000004],[-119.1725,34.472500000000004],[-118.82194444444444,34.218333333333334],[-118.82194444444444,34.218333333333334],[-118.7063888888889,34.134166666666665],[-118.59222222222222,34.050555555555555],[-118.49916666666667,33.98222222222223],[-118.38416666666667,33.89694444444444],[-118.38416666666667,33.89694444444444],[-117.76083333333334,33.39861111111111],[-117.71666666666667,33.35],[-117.44361111111111,33.08888888888889],[-117.44361111111111,33.08888888888889],[-117.18861111111111,32.80694444444444],[-117.18861111111111,32.80694444444444],[-116.98333333333333,32.766666666666666],[-116.9,32.733333333333334],[-117,32.68333333333333],[-117.15,32.733333333333334]],"type":"LineString"}
}
