{
  "id": 2014872569,
  "type": "Feature",
  "properties": {
    "geom:area": 0,
    "geom:bbox": "-122.380000,30.190000,-97.670000,37.700000",
    "geom:latitude": 34.03579676253335,
    "geom:longitude": -110.09195288316914,
    "src:alt_label": "swim-route",
    "src:geom": "swim",
    "swim:geom": "route",
    "wof:geomhash": "03db7a822e8bd76b448c951f61777cd2",
    "wof:id": 2014872569,
    "wof:repo": "sfomuseum-data-flights-2026-02"
  },
  "bbox": [
    -122.38,
    30.19,
    -97.67,
    37.7
  ],
  "geometry": {"coordinates":[[-97.67,30.19],[-97.78,30.23],[-97.81,30.23],[-97.86,30.25],[-97.89,30.26],[-97.94,30.28],[-98.11,30.32],[-98.2,30.35],[-98.29,30.38],[-98.35,30.4],[-98.41,30.41],[-98.43,30.42],[-98.52,30.46],[-98.69,30.51],[-98.72,30.51],[-98.95,30.56],[-99.16,30.6],[-99.27,30.62],[-99.28,30.63],[-99.42,30.65],[-99.61,30.69],[-99.74,30.72],[-100.01,30.77],[-100.28,30.82],[-100.42,30.85],[-100.42,30.85],[-101.7,31.08],[-101.87,31.11],[-102.17,31.2],[-103.22,31.45],[-104.19,31.69],[-104.49,31.75],[-104.95,31.86],[-106.23,32.14],[-106.53,32.21],[-106.68,32.24],[-107.81,32.84],[-108.02,32.95],[-108.24,33.07],[-108.45,33.18],[-108.67,33.29],[-109.01,33.47],[-109.33,33.59],[-109.34,33.6],[-109.65,33.7],[-110.64,34.06],[-111.26,34.28],[-112.48,34.7],[-113.19,35.09],[-113.22,35.11],[-114.39,35.74],[-114.86,36],[-115.19,36.14],[-115.52,36.28],[-115.74,36.38],[-116.75,36.8],[-116.95,36.99],[-117.24,37.25],[-117.33,37.32],[-117.44,37.39],[-117.47,37.4],[-117.75,37.43],[-119.04,37.57],[-119.4,37.6],[-119.79,37.64],[-119.93,37.66],[-120.14,37.67],[-120.22,37.68],[-120.4,37.7],[-120.52,37.69],[-120.58,37.68],[-120.69,37.67],[-120.75,37.66],[-120.83,37.65],[-120.88,37.64],[-120.96,37.63],[-121,37.63],[-121.11,37.61],[-121.19,37.6],[-121.26,37.59],[-121.39,37.58],[-121.41,37.58],[-121.6,37.55],[-121.61,37.55],[-121.62,37.55],[-121.69,37.54],[-121.8,37.51],[-121.8,37.51],[-121.88,37.49],[-122.07,37.54],[-122.08,37.54],[-122.18,37.57],[-122.28,37.59],[-122.33,37.61],[-122.36,37.61],[-122.38,37.62]],"type":"LineString"}
}
