{
  "id": 2014815595,
  "type": "Feature",
  "properties": {
    "geom:area": 0,
    "geom:bbox": "-122.350000,32.733333,-117.200000,37.600000",
    "geom:latitude": 34.99287689392838,
    "geom:longitude": -120.01205363475,
    "src:alt_label": "swim-path",
    "src:geom": "swim",
    "swim:altitudes": [
      "007",
      "026",
      "026",
      "053",
      "053",
      "053",
      "099",
      "099",
      "239",
      "301",
      "315",
      "315",
      "360C",
      "360C",
      "360C",
      "360C",
      "360C",
      "360C",
      "360C",
      "360C",
      "360C",
      "360C",
      "360C",
      "360C",
      "320",
      "289",
      "249",
      "190",
      "156",
      "128",
      "119",
      "103",
      "098",
      "094",
      "081",
      "068",
      "050",
      "046",
      "022",
      "022",
      "020",
      "015",
      "003",
      "003"
    ],
    "swim:geom": "path",
    "swim:speeds": [
      154,
      210,
      210,
      255,
      255,
      255,
      258,
      258,
      303,
      363,
      382,
      382,
      347,
      349,
      347,
      339,
      328,
      337,
      337,
      336,
      338,
      346,
      350,
      350,
      341,
      343,
      334,
      282,
      306,
      285,
      256,
      254,
      225,
      223,
      220,
      214,
      205,
      214,
      161,
      161,
      164,
      129,
      125,
      125
    ],
    "swim:timestamps": [
      1771394795,
      1771394846,
      1771394846,
      1771394907,
      1771394907,
      1771394907,
      1771394967,
      1771394967,
      1771395207,
      1771395387,
      1771395447,
      1771395447,
      1771395687,
      1771395808,
      1771396048,
      1771396168,
      1771396288,
      1771396888,
      1771396888,
      1771397009,
      1771397068,
      1771397128,
      1771397369,
      1771397369,
      1771397729,
      1771397908,
      1771398148,
      1771398439,
      1771398569,
      1771398689,
      1771398739,
      1771398809,
      1771398847,
      1771398869,
      1771398929,
      1771398989,
      1771399087,
      1771399109,
      1771399268,
      1771399268,
      1771399289,
      1771399327,
      1771399441,
      1771399441
    ],
    "wof:geomhash": "816637b46f3302d4042ee930db978cb0",
    "wof:id": 2014815595,
    "wof:repo": "sfomuseum-data-flights-2026-02"
  },
  "bbox": [
    -122.35,
    32.733333333333334,
    -117.2,
    37.6
  ],
  "geometry": {"coordinates":[[-117.2,32.733333333333334],[-117.25277777777778,32.76305555555555],[-117.25277777777778,32.76305555555555],[-117.32055555555556,32.80027777777777],[-117.32055555555556,32.80027777777777],[-117.32055555555556,32.80027777777777],[-117.38805555555557,32.84444444444445],[-117.38805555555557,32.84444444444445],[-117.69861111111112,33.04361111111111],[-117.93388888888889,33.25388888888889],[-118.02333333333333,33.32888888888889],[-118.02333333333333,33.32888888888889],[-118.36694444444444,33.615],[-118.52,33.74138888888889],[-118.85249999999999,34.01416666666667],[-119.01805555555555,34.146388888888886],[-119.20305555555557,34.2425],[-120.10805555555555,34.87638888888889],[-120.10805555555555,34.87638888888889],[-120.27583333333334,35.01027777777778],[-120.3536111111111,35.07222222222222],[-120.43583333333333,35.14388888888889],[-120.75972222222222,35.43194444444444],[-120.75972222222222,35.43194444444444],[-121.23861111111111,35.87777777777778],[-121.515,35.973333333333336],[-121.63833333333334,36.327222222222225],[-121.86666666666666,36.7],[-121.93083333333334,36.87166666666667],[-121.98388888888888,37.03138888888889],[-122,37.1],[-122.03722222222223,37.168055555555554],[-122.05,37.2],[-122.06083333333333,37.227222222222224],[-122.08305555555555,37.285],[-122.10527777777777,37.340833333333336],[-122.15,37.43333333333333],[-122.15027777777779,37.44972222222222],[-122.23333333333333,37.55],[-122.23333333333333,37.55],[-122.2461111111111,37.56444444444444],[-122.28333333333333,37.583333333333336],[-122.35,37.6],[-122.35,37.6]],"type":"LineString"}
}
