{
  "id": 2014901635,
  "type": "Feature",
  "properties": {
    "geom:area": 0,
    "geom:bbox": "-122.734167,37.633333,-122.017778,47.622500",
    "geom:latitude": 42.70823722324448,
    "geom:longitude": -122.27102681171073,
    "src:alt_label": "swim-path",
    "src:geom": "swim",
    "swim:altitudes": [
      "006",
      "006",
      "031",
      "054",
      "054",
      "080",
      "118",
      "118",
      "144",
      "147",
      "176",
      "200",
      "237",
      "255",
      "255",
      "272",
      "286",
      "286",
      "299",
      "380C",
      "380C",
      "380C",
      "380C",
      "380C",
      "380C",
      "380C",
      "380C",
      "380C",
      "380C",
      "380C",
      "380C",
      "380C",
      "380C",
      "380C",
      "380C",
      "380C",
      "380C",
      "380C",
      "380C",
      "380C",
      "380C",
      "380C",
      "380C",
      "380C",
      "380C",
      "380C",
      "380C",
      "380C",
      "380C",
      "380C",
      "380C",
      "380C",
      "380C",
      "380C",
      "380C",
      "380C",
      "380C",
      "380C",
      "380C",
      "380C",
      "380C",
      "380C",
      "380C",
      "380",
      "380",
      "380",
      "380",
      "380",
      "380",
      "380",
      "380",
      "380",
      "344",
      "318",
      "318",
      "299",
      "299",
      "280",
      "280",
      "202",
      "202",
      "150",
      "133",
      "122",
      "122",
      "086",
      "059",
      "032",
      "032",
      "008"
    ],
    "swim:geom": "path",
    "swim:speeds": [
      170,
      170,
      256,
      257,
      257,
      265,
      320,
      320,
      353,
      366,
      379,
      389,
      410,
      418,
      418,
      425,
      435,
      435,
      449,
      468,
      468,
      470,
      470,
      470,
      470,
      470,
      470,
      470,
      469,
      469,
      469,
      469,
      469,
      469,
      468,
      467,
      467,
      467,
      466,
      466,
      466,
      466,
      465,
      465,
      463,
      463,
      463,
      441,
      441,
      439,
      439,
      439,
      437,
      418,
      418,
      418,
      418,
      418,
      421,
      429,
      432,
      432,
      432,
      444,
      444,
      441,
      441,
      439,
      439,
      439,
      438,
      438,
      430,
      425,
      425,
      409,
      409,
      391,
      391,
      347,
      347,
      295,
      278,
      269,
      269,
      239,
      221,
      207,
      207,
      142
    ],
    "swim:timestamps": [
      1772246567,
      1772246567,
      1772246652,
      1772246701,
      1772246701,
      1772246761,
      1772246872,
      1772246872,
      1772246932,
      1772246941,
      1772247001,
      1772247061,
      1772247232,
      1772247352,
      1772247352,
      1772247412,
      1772247473,
      1772247473,
      1772247533,
      1772247974,
      1772247974,
      1772248035,
      1772248035,
      1772248133,
      1772248253,
      1772248275,
      1772248275,
      1772248275,
      1772248433,
      1772248433,
      1772248553,
      1772248553,
      1772248575,
      1772248614,
      1772248695,
      1772248755,
      1772248755,
      1772248794,
      1772248815,
      1772248815,
      1772248876,
      1772248914,
      1772248936,
      1772248936,
      1772249034,
      1772249034,
      1772249034,
      1772249274,
      1772249274,
      1772249334,
      1772249334,
      1772249334,
      1772249394,
      1772249574,
      1772249634,
      1772249634,
      1772249634,
      1772249755,
      1772249875,
      1772249995,
      1772250055,
      1772250055,
      1772250055,
      1772250355,
      1772250355,
      1772250535,
      1772250535,
      1772250595,
      1772250595,
      1772250595,
      1772250655,
      1772250655,
      1772250775,
      1772250835,
      1772250835,
      1772250896,
      1772250896,
      1772250956,
      1772250956,
      1772251196,
      1772251196,
      1772251436,
      1772251506,
      1772251556,
      1772251556,
      1772251735,
      1772251855,
      1772252036,
      1772252036,
      1772252276
    ],
    "wof:geomhash": "735a09cc464f62122d65d008174a3278",
    "wof:id": 2014901635,
    "wof:repo": "sfomuseum-data-flights-2026-02"
  },
  "bbox": [
    -122.73416666666667,
    37.63333333333333,
    -122.01777777777778,
    47.6225
  ],
  "geometry": {"coordinates":[[-122.36666666666666,37.63333333333333],[-122.36666666666666,37.63333333333333],[-122.28333333333333,37.68333333333333],[-122.2325,37.70861111111111],[-122.2325,37.70861111111111],[-122.20527777777778,37.77583333333333],[-122.17416666666666,37.92305555555555],[-122.17416666666666,37.92305555555555],[-122.16333333333334,38.035],[-122.16083333333334,38.04361111111111],[-122.14361111111111,38.14861111111111],[-122.12638888888888,38.255],[-122.12444444444444,38.57361111111111],[-122.1413888888889,38.8075],[-122.1413888888889,38.8075],[-122.14944444444446,38.92805555555555],[-122.1588888888889,39.051111111111105],[-122.1588888888889,39.051111111111105],[-122.16861111111112,39.17861111111111],[-122.23222222222222,40.16111111111111],[-122.23222222222222,40.16111111111111],[-122.22361111111111,40.290277777777774],[-122.22361111111111,40.290277777777774],[-122.20944444444444,40.49666666666667],[-122.1913888888889,40.75833333333333],[-122.1875,40.809999999999995],[-122.1875,40.809999999999995],[-122.1875,40.809999999999995],[-122.16416666666667,41.149166666666666],[-122.16416666666667,41.149166666666666],[-122.14555555555556,41.41111111111111],[-122.14555555555556,41.41111111111111],[-122.14333333333335,41.44222222222222],[-122.13611111111112,41.54527777777778],[-122.125,41.702222222222225],[-122.11555555555555,41.8325],[-122.11555555555555,41.8325],[-122.10805555555555,41.93611111111111],[-122.1061111111111,41.96222222222222],[-122.1061111111111,41.96222222222222],[-122.09694444444445,42.095555555555556],[-122.0911111111111,42.17527777777777],[-122.08722222222222,42.22944444444445],[-122.08722222222222,42.22944444444445],[-122.07222222222222,42.434999999999995],[-122.07222222222222,42.434999999999995],[-122.07222222222222,42.434999999999995],[-122.03555555555555,42.9325],[-122.03555555555555,42.9325],[-122.02666666666667,43.05444444444444],[-122.02666666666667,43.05444444444444],[-122.02666666666667,43.05444444444444],[-122.01777777777778,43.17444444444444],[-122.04833333333333,43.53972222222222],[-122.07583333333334,43.655833333333334],[-122.07583333333334,43.655833333333334],[-122.07583333333334,43.655833333333334],[-122.13055555555555,43.88444444444444],[-122.18611111111112,44.11527777777778],[-122.2425,44.349444444444444],[-122.27111111111111,44.468611111111116],[-122.27111111111111,44.468611111111116],[-122.27111111111111,44.468611111111116],[-122.42305555555556,45.080555555555556],[-122.42305555555556,45.080555555555556],[-122.51388888888889,45.442499999999995],[-122.51388888888889,45.442499999999995],[-122.54388888888889,45.56027777777778],[-122.54388888888889,45.56027777777778],[-122.54388888888889,45.56027777777778],[-122.57444444444444,45.680277777777775],[-122.57444444444444,45.680277777777775],[-122.63277777777778,45.914722222222224],[-122.6613888888889,46.03138888888889],[-122.6613888888889,46.03138888888889],[-122.68722222222223,46.14277777777778],[-122.68722222222223,46.14277777777778],[-122.7075,46.246944444444445],[-122.7075,46.246944444444445],[-122.73416666666667,46.647777777777776],[-122.73416666666667,46.647777777777776],[-122.54444444444444,46.97888888888889],[-122.50416666666666,47.06888888888889],[-122.49166666666667,47.12777777777778],[-122.49166666666667,47.12777777777778],[-122.45805555555556,47.33916666666667],[-122.45555555555556,47.463055555555556],[-122.40083333333334,47.6225],[-122.40083333333334,47.6225],[-122.3175,47.481388888888894]],"type":"LineString"}
}
