{
  "id": 2014841675,
  "type": "Feature",
  "properties": {
    "geom:area": 0,
    "geom:bbox": "-122.386160,37.641360,-121.269250,37.991730",
    "geom:latitude": 37.93851253790997,
    "geom:longitude": -121.94388832894765,
    "src:alt_label": "swim-takeoff",
    "src:geom": "swim",
    "swim:elevations": [
      529,
      588,
      771,
      924,
      1231,
      1560,
      2153,
      2479,
      2701,
      3212,
      3236,
      3370,
      3467,
      3674,
      3889,
      3995,
      4032,
      4348,
      4559,
      4808,
      4943,
      5176,
      5420,
      5573,
      5738,
      5834,
      6029
    ],
    "swim:geom": "takeoff",
    "swim:timestamps": [
      1771634273,
      1771634281,
      1771634316,
      1771634352,
      1771634388,
      1771634414,
      1771634455,
      1771634485,
      1771634509,
      1771634548,
      1771634554,
      1771634578,
      1771634596,
      1771634638,
      1771634665,
      1771634689,
      1771634701,
      1771634755,
      1771634777,
      1771634813,
      1771634840,
      1771634873,
      1771634906,
      1771634929,
      1771634960,
      1771634978,
      1771635005
    ],
    "wof:geomhash": "1b949581a1a80093290990cd230d4bed",
    "wof:id": 2014841675,
    "wof:repo": "sfomuseum-data-flights-2026-02"
  },
  "bbox": [
    -122.38616,
    37.64136,
    -121.26925,
    37.99173
  ],
  "geometry": {"coordinates":[[-122.35382,37.64136],[-122.3483,37.64632],[-122.3229,37.66771],[-122.31208,37.70155],[-122.33396,37.74142],[-122.35049,37.77206],[-122.37477,37.82079],[-122.38616,37.85821],[-122.38529,37.89036],[-122.36383,37.93888],[-122.35564,37.94397],[-122.31444,37.95466],[-122.28085,37.9611],[-122.19846,37.97791],[-122.14138,37.98772],[-122.08717,37.9887],[-122.05922,37.98881],[-121.92739,37.98977],[-121.87119,37.9901],[-121.78037,37.9906],[-121.71012,37.99094],[-121.62255,37.99113],[-121.53521,37.99138],[-121.47671,37.99144],[-121.3924,37.99153],[-121.34338,37.99165],[-121.26925,37.99173]],"type":"LineString"}
}
