{
  "id": 2014801387,
  "type": "Feature",
  "properties": {
    "geom:area": 0,
    "geom:bbox": "-122.366667,37.572222,-73.583333,43.503889",
    "geom:latitude": 42.093183788713525,
    "geom:longitude": -97.88018978444089,
    "src:alt_label": "swim-path",
    "src:geom": "swim",
    "swim:altitudes": [
      "006",
      "006",
      "021",
      "037",
      "037",
      "037",
      "087",
      "087",
      "110",
      "110",
      "110",
      "110",
      "110",
      "110",
      "256",
      "256",
      "256",
      "256",
      "256",
      "266",
      "266",
      "266",
      "285",
      "285",
      "285",
      "285",
      "310C",
      "310C",
      "310C",
      "310C",
      "310C",
      "310C",
      "310C",
      "310C",
      "310C",
      "310C",
      "310C",
      "310C",
      "310C",
      "310C",
      "312",
      "312",
      "315",
      "315",
      "315",
      "321",
      "321",
      "331",
      "331",
      "333",
      "333",
      "333",
      "343",
      "350C",
      "350C",
      "350C",
      "350C",
      "350C",
      "350C",
      "350C",
      "349C",
      "349C",
      "350C",
      "350C",
      "349C",
      "349C",
      "349C",
      "350C",
      "350C",
      "350C",
      "350C",
      "350C",
      "350C",
      "350C",
      "350C",
      "350C",
      "350C",
      "350C",
      "350C",
      "350C",
      "350C",
      "350C",
      "350C",
      "350C",
      "350C",
      "350C",
      "350C",
      "350C",
      "350C",
      "350C",
      "350C",
      "350C",
      "350C",
      "350C",
      "350C",
      "350C",
      "350C",
      "350C",
      "350C",
      "350C",
      "350C",
      "350C",
      "350C",
      "350C",
      "350C",
      "350C",
      "350C",
      "350C",
      "350C",
      "350C",
      "350C",
      "350C",
      "350C",
      "350C",
      "350C",
      "350C",
      "350C",
      "350C",
      "350C",
      "350C",
      "350C",
      "350C",
      "350C",
      "350C",
      "350C",
      "350C",
      "350C",
      "350C",
      "350C",
      "350C",
      "350C",
      "350C",
      "350C",
      "350C",
      "350C",
      "350C",
      "350C",
      "350C",
      "350C",
      "350C",
      "350C",
      "350C",
      "350C",
      "350C",
      "350C",
      "350C",
      "350C",
      "350C",
      "350C",
      "350C",
      "350C",
      "350C",
      "350C",
      "350C",
      "350C",
      "350C",
      "350C",
      "350C",
      "350C",
      "350C",
      "350C",
      "350C",
      "350C",
      "350C",
      "350C",
      "350C",
      "350C",
      "350C",
      "350C",
      "350C",
      "350C",
      "350C",
      "350C",
      "350C",
      "350C",
      "350C",
      "350C",
      "350C",
      "350C",
      "350C",
      "350C",
      "350C",
      "350C",
      "350C",
      "350C",
      "350C",
      "350C",
      "350C",
      "350C",
      "350C",
      "350C",
      "350C",
      "350C",
      "350C",
      "350C",
      "350C",
      "350C",
      "350C",
      "350C",
      "350C",
      "350C",
      "350C",
      "350C",
      "350C",
      "350C",
      "350C",
      "350C",
      "350C",
      "350C",
      "350C",
      "350C",
      "350C",
      "350C",
      "350C",
      "350C",
      "350C",
      "350C",
      "350C",
      "350C",
      "350C",
      "350C",
      "350C",
      "350C",
      "350C",
      "350C",
      "350C",
      "350C",
      "350C",
      "350C",
      "350C",
      "350C",
      "350C",
      "350C",
      "350C",
      "350C",
      "350C",
      "350C",
      "350C",
      "350C",
      "350C",
      "350C",
      "350C",
      "350C",
      "350C",
      "350C",
      "350C",
      "350C",
      "350C",
      "350C",
      "350C",
      "350C",
      "350C",
      "350C",
      "350C",
      "350C",
      "350C",
      "350C",
      "350C",
      "350C",
      "350C",
      "350C",
      "350C",
      "350C",
      "350C",
      "350C",
      "350C",
      "350C",
      "350C",
      "350C",
      "350C",
      "350C",
      "350C",
      "350C",
      "350C",
      "350C",
      "350C",
      "350C",
      "350C",
      "350C",
      "350C",
      "350C",
      "350C",
      "350C",
      "350C",
      "350C",
      "350C",
      "350C",
      "350C",
      "350C",
      "350C",
      "350C",
      "350C",
      "350C",
      "350C",
      "350C",
      "350C",
      "350C",
      "350C",
      "350C",
      "350C",
      "350C",
      "350C",
      "350C",
      "350C",
      "350C",
      "350C",
      "350C",
      "350C",
      "350C",
      "350C",
      "350C",
      "350C",
      "350C",
      "350C",
      "350C",
      "350C",
      "350C",
      "350C",
      "350C",
      "350C",
      "350C",
      "350C",
      "350C",
      "350C",
      "350C",
      "350C",
      "350C",
      "350C",
      "350C",
      "350C",
      "350C",
      "350C",
      "350C",
      "350C",
      "350C",
      "350C",
      "350C",
      "351C",
      "351C",
      "350C",
      "350C",
      "350C",
      "350C",
      "350C",
      "350C",
      "350C",
      "350C",
      "350C",
      "350C",
      "350C",
      "350C",
      "350C",
      "350C",
      "350C",
      "350C",
      "350C",
      "350C",
      "350C",
      "350C",
      "350C",
      "336",
      "336",
      "336",
      "326",
      "326",
      "310C",
      "310C",
      "310C",
      "310C",
      "310C",
      "310C",
      "310C",
      "303",
      "303",
      "303",
      "303",
      "290",
      "290",
      "290",
      "290",
      "290",
      "290",
      "290",
      "281",
      "281",
      "199",
      "199",
      "190C",
      "178",
      "127",
      "127",
      "127",
      "044",
      "030",
      "030",
      "030",
      "021",
      "020",
      "020",
      "020",
      "020",
      "016",
      "016",
      "011"
    ],
    "swim:geom": "path",
    "swim:speeds": [
      155,
      155,
      169,
      237,
      237,
      237,
      309,
      309,
      322,
      322,
      322,
      322,
      322,
      322,
      461,
      461,
      461,
      461,
      461,
      473,
      473,
      473,
      490,
      490,
      490,
      490,
      541,
      541,
      557,
      557,
      557,
      567,
      567,
      567,
      567,
      567,
      566,
      566,
      565,
      565,
      565,
      565,
      566,
      566,
      566,
      572,
      572,
      570,
      570,
      567,
      567,
      567,
      566,
      556,
      556,
      556,
      556,
      556,
      553,
      553,
      553,
      553,
      553,
      553,
      553,
      553,
      553,
      554,
      554,
      555,
      555,
      555,
      555,
      555,
      555,
      555,
      557,
      557,
      559,
      559,
      559,
      558,
      558,
      558,
      558,
      558,
      558,
      558,
      558,
      558,
      557,
      557,
      557,
      555,
      555,
      555,
      556,
      556,
      556,
      556,
      556,
      556,
      557,
      557,
      557,
      559,
      559,
      559,
      559,
      559,
      559,
      560,
      560,
      560,
      561,
      561,
      561,
      560,
      560,
      560,
      560,
      560,
      561,
      561,
      561,
      561,
      561,
      562,
      562,
      562,
      566,
      566,
      566,
      566,
      566,
      568,
      568,
      568,
      572,
      572,
      572,
      577,
      577,
      577,
      577,
      577,
      584,
      584,
      584,
      587,
      587,
      587,
      587,
      587,
      583,
      583,
      583,
      583,
      580,
      580,
      580,
      580,
      578,
      578,
      578,
      578,
      572,
      572,
      572,
      572,
      572,
      573,
      573,
      573,
      575,
      575,
      578,
      578,
      578,
      578,
      578,
      575,
      575,
      582,
      582,
      582,
      582,
      582,
      586,
      586,
      585,
      585,
      585,
      585,
      583,
      583,
      583,
      581,
      582,
      582,
      582,
      580,
      580,
      578,
      578,
      578,
      577,
      577,
      577,
      577,
      577,
      577,
      577,
      577,
      577,
      577,
      577,
      577,
      577,
      579,
      579,
      580,
      580,
      580,
      577,
      577,
      574,
      575,
      575,
      575,
      575,
      575,
      575,
      575,
      575,
      574,
      574,
      574,
      575,
      575,
      575,
      573,
      573,
      575,
      575,
      573,
      573,
      573,
      573,
      573,
      572,
      571,
      571,
      571,
      571,
      571,
      570,
      570,
      570,
      570,
      570,
      569,
      570,
      570,
      570,
      569,
      569,
      566,
      566,
      565,
      563,
      563,
      563,
      563,
      563,
      561,
      561,
      561,
      561,
      561,
      561,
      561,
      558,
      558,
      558,
      558,
      557,
      557,
      557,
      557,
      556,
      556,
      556,
      556,
      556,
      556,
      556,
      553,
      548,
      548,
      548,
      545,
      545,
      545,
      544,
      544,
      544,
      544,
      544,
      544,
      544,
      544,
      544,
      544,
      545,
      545,
      546,
      546,
      537,
      537,
      537,
      537,
      536,
      538,
      538,
      538,
      538,
      538,
      538,
      539,
      538,
      538,
      538,
      514,
      512,
      512,
      512,
      507,
      507,
      503,
      503,
      501,
      501,
      500,
      500,
      510,
      514,
      514,
      514,
      495,
      495,
      491,
      490,
      489,
      489,
      492,
      492,
      493,
      493,
      494,
      494,
      494,
      494,
      494,
      494,
      480,
      488,
      488,
      492,
      519,
      519,
      519,
      418,
      418,
      418,
      418,
      513,
      513,
      511,
      511,
      511,
      513,
      513,
      510,
      510,
      377,
      377,
      370,
      367,
      303,
      303,
      303,
      258,
      248,
      248,
      248,
      241,
      172,
      169,
      169,
      169,
      128,
      128,
      124
    ],
    "swim:timestamps": [
      1771194278,
      1771194278,
      1771194325,
      1771194385,
      1771194385,
      1771194385,
      1771194505,
      1771194505,
      1771194565,
      1771194565,
      1771194565,
      1771194565,
      1771194565,
      1771194565,
      1771195166,
      1771195166,
      1771195166,
      1771195166,
      1771195166,
      1771195226,
      1771195226,
      1771195226,
      1771195346,
      1771195346,
      1771195346,
      1771195346,
      1771195586,
      1771195586,
      1771195646,
      1771195646,
      1771195646,
      1771195706,
      1771195706,
      1771195706,
      1771195751,
      1771195751,
      1771195811,
      1771195811,
      1771195871,
      1771195871,
      1771195931,
      1771195931,
      1771195947,
      1771195947,
      1771195947,
      1771195991,
      1771195991,
      1771196051,
      1771196051,
      1771196067,
      1771196067,
      1771196067,
      1771196127,
      1771196172,
      1771196172,
      1771196172,
      1771196172,
      1771196187,
      1771196232,
      1771196232,
      1771196352,
      1771196352,
      1771196367,
      1771196367,
      1771196412,
      1771196412,
      1771196427,
      1771196487,
      1771196487,
      1771196532,
      1771196532,
      1771196532,
      1771196547,
      1771196547,
      1771196547,
      1771196547,
      1771196592,
      1771196592,
      1771196652,
      1771196728,
      1771196728,
      1771196788,
      1771196832,
      1771196832,
      1771196848,
      1771196848,
      1771196892,
      1771196892,
      1771196892,
      1771196892,
      1771196953,
      1771196953,
      1771196953,
      1771197253,
      1771197253,
      1771197253,
      1771197313,
      1771197313,
      1771197313,
      1771197373,
      1771197373,
      1771197373,
      1771197433,
      1771197433,
      1771197433,
      1771197553,
      1771197553,
      1771197613,
      1771197613,
      1771197613,
      1771197613,
      1771197673,
      1771197673,
      1771197673,
      1771197854,
      1771197854,
      1771197854,
      1771197914,
      1771197914,
      1771197914,
      1771197914,
      1771197914,
      1771198214,
      1771198214,
      1771198214,
      1771198214,
      1771198214,
      1771198274,
      1771198274,
      1771198274,
      1771198515,
      1771198515,
      1771198515,
      1771198515,
      1771198515,
      1771198575,
      1771198575,
      1771198575,
      1771198635,
      1771198635,
      1771198635,
      1771198815,
      1771198815,
      1771198815,
      1771198815,
      1771198815,
      1771198935,
      1771198935,
      1771198935,
      1771198995,
      1771198995,
      1771198995,
      1771198995,
      1771198995,
      1771199188,
      1771199188,
      1771199188,
      1771199188,
      1771199368,
      1771199368,
      1771199368,
      1771199368,
      1771199488,
      1771199488,
      1771199488,
      1771199488,
      1771199728,
      1771199728,
      1771199728,
      1771199728,
      1771199728,
      1771199848,
      1771199848,
      1771199848,
      1771199909,
      1771199909,
      1771199969,
      1771199969,
      1771199969,
      1771199969,
      1771199969,
      1771200147,
      1771200147,
      1771200267,
      1771200267,
      1771200267,
      1771200267,
      1771200267,
      1771200567,
      1771200567,
      1771200627,
      1771200627,
      1771200627,
      1771200627,
      1771200807,
      1771200807,
      1771200807,
      1771200892,
      1771200952,
      1771201048,
      1771201048,
      1771201108,
      1771201133,
      1771201253,
      1771201253,
      1771201253,
      1771201288,
      1771201313,
      1771201348,
      1771201348,
      1771201553,
      1771201553,
      1771201613,
      1771201613,
      1771201613,
      1771201709,
      1771201709,
      1771201709,
      1771201709,
      1771201854,
      1771201854,
      1771201974,
      1771201974,
      1771201974,
      1771202094,
      1771202094,
      1771202514,
      1771202574,
      1771202574,
      1771202634,
      1771202695,
      1771202695,
      1771202695,
      1771202755,
      1771202755,
      1771202995,
      1771202995,
      1771202995,
      1771203115,
      1771203115,
      1771203115,
      1771203201,
      1771203201,
      1771203235,
      1771203235,
      1771203321,
      1771203321,
      1771203321,
      1771203355,
      1771203355,
      1771203381,
      1771203501,
      1771203501,
      1771203501,
      1771203536,
      1771203536,
      1771203656,
      1771203656,
      1771203656,
      1771203681,
      1771203681,
      1771203716,
      1771203741,
      1771203741,
      1771203741,
      1771203776,
      1771203776,
      1771203956,
      1771203956,
      1771203982,
      1771204042,
      1771204042,
      1771204042,
      1771204042,
      1771204042,
      1771204136,
      1771204136,
      1771204136,
      1771204136,
      1771204136,
      1771204162,
      1771204162,
      1771204282,
      1771204317,
      1771204317,
      1771204317,
      1771204402,
      1771204437,
      1771204437,
      1771204462,
      1771204497,
      1771204497,
      1771204523,
      1771204523,
      1771204523,
      1771204523,
      1771204557,
      1771204643,
      1771204763,
      1771204763,
      1771204763,
      1771204883,
      1771204883,
      1771204883,
      1771204943,
      1771204943,
      1771204943,
      1771204943,
      1771205063,
      1771205063,
      1771205063,
      1771205183,
      1771205243,
      1771205243,
      1771205354,
      1771205354,
      1771205484,
      1771205484,
      1771205604,
      1771205604,
      1771205604,
      1771205604,
      1771205715,
      1771205775,
      1771205784,
      1771205784,
      1771205844,
      1771205844,
      1771205844,
      1771205895,
      1771206025,
      1771206025,
      1771206025,
      1771206195,
      1771206256,
      1771206256,
      1771206256,
      1771206436,
      1771206436,
      1771206496,
      1771206496,
      1771206556,
      1771206556,
      1771206676,
      1771206676,
      1771206796,
      1771206856,
      1771206856,
      1771206856,
      1771207096,
      1771207096,
      1771207216,
      1771207276,
      1771207457,
      1771207457,
      1771207517,
      1771207517,
      1771207637,
      1771207637,
      1771207697,
      1771207937,
      1771207937,
      1771207937,
      1771207997,
      1771207997,
      1771208118,
      1771208178,
      1771208178,
      1771208298,
      1771208418,
      1771208418,
      1771208418,
      1771208598,
      1771208598,
      1771208598,
      1771208598,
      1771208718,
      1771208718,
      1771208839,
      1771208839,
      1771208839,
      1771208899,
      1771208899,
      1771208959,
      1771208959,
      1771209513,
      1771209513,
      1771209620,
      1771209680,
      1771209813,
      1771209813,
      1771209813,
      1771210053,
      1771210220,
      1771210220,
      1771210220,
      1771210340,
      1771210533,
      1771210713,
      1771210713,
      1771210713,
      1771210893,
      1771210893,
      1771210941
    ],
    "wof:geomhash": "3e1f8aaa774bf86efdf33ae49c76e6d0",
    "wof:id": 2014801387,
    "wof:repo": "sfomuseum-data-flights-2026-02"
  },
  "bbox": [
    -122.36666666666666,
    37.57222222222222,
    -73.58333333333333,
    43.50388888888889
  ],
  "geometry": {"coordinates":[[-122.36666666666666,37.61666666666667],[-122.36666666666666,37.61666666666667],[-122.3261111111111,37.60027777777778],[-122.25805555555556,37.57222222222222],[-122.25805555555556,37.57222222222222],[-122.25805555555556,37.57222222222222],[-122.09555555555555,37.57472222222223],[-122.09555555555555,37.57472222222223],[-122.04777777777778,37.655277777777776],[-122.04777777777778,37.655277777777776],[-122.04777777777778,37.655277777777776],[-122.04777777777778,37.655277777777776],[-122.04777777777778,37.655277777777776],[-122.04777777777778,37.655277777777776],[-121.335,38.57555555555556],[-121.335,38.57555555555556],[-121.335,38.57555555555556],[-121.335,38.57555555555556],[-121.335,38.57555555555556],[-121.19416666666667,38.66138888888889],[-121.19416666666667,38.66138888888889],[-121.19416666666667,38.66138888888889],[-120.91972222222223,38.8275],[-120.91972222222223,38.8275],[-120.91972222222223,38.8275],[-120.91972222222223,38.8275],[-120.31388888888888,39.16444444444444],[-120.31388888888888,39.16444444444444],[-120.15194444444445,39.25277777777778],[-120.15194444444445,39.25277777777778],[-120.15194444444445,39.25277777777778],[-119.9888888888889,39.34111111111111],[-119.9888888888889,39.34111111111111],[-119.9888888888889,39.34111111111111],[-119.85499999999999,39.41111111111111],[-119.85499999999999,39.41111111111111],[-119.68861111111111,39.50055555555556],[-119.68861111111111,39.50055555555556],[-119.52166666666666,39.59027777777778],[-119.52166666666666,39.59027777777778],[-119.38666666666667,39.6625],[-119.38666666666667,39.6625],[-119.31666666666666,39.69972222222222],[-119.31666666666666,39.69972222222222],[-119.31666666666666,39.69972222222222],[-119.18083333333334,39.771388888888886],[-119.18083333333334,39.771388888888886],[-119.01,39.86083333333333],[-119.01,39.86083333333333],[-118.97444444444444,39.879444444444445],[-118.97444444444444,39.879444444444445],[-118.97444444444444,39.879444444444445],[-118.80444444444444,39.968333333333334],[-118.67444444444445,40.03583333333333],[-118.67444444444445,40.03583333333333],[-118.67444444444445,40.03583333333333],[-118.67444444444445,40.03583333333333],[-118.63555555555556,40.053888888888885],[-118.4925,40.096944444444446],[-118.4925,40.096944444444446],[-118.11999999999999,40.20722222222223],[-118.11999999999999,40.20722222222223],[-118.075,40.22027777777778],[-118.075,40.22027777777778],[-117.93055555555556,40.2625],[-117.93055555555556,40.2625],[-117.89194444444445,40.27361111111111],[-117.70111111111112,40.32888888888889],[-117.70111111111112,40.32888888888889],[-117.55111111111111,40.371944444444445],[-117.55111111111111,40.371944444444445],[-117.55111111111111,40.371944444444445],[-117.5125,40.38305555555556],[-117.5125,40.38305555555556],[-117.5125,40.38305555555556],[-117.5125,40.38305555555556],[-117.36083333333333,40.42666666666666],[-117.36083333333333,40.42666666666666],[-117.16972222222223,40.48083333333334],[-116.92944444444444,40.54833333333333],[-116.92944444444444,40.54833333333333],[-116.73583333333333,40.6025],[-116.62055555555555,40.63444444444444],[-116.62055555555555,40.63444444444444],[-116.57944444444443,40.645833333333336],[-116.57944444444443,40.645833333333336],[-116.43,40.68694444444444],[-116.43,40.68694444444444],[-116.43,40.68694444444444],[-116.43,40.68694444444444],[-116.2363888888889,40.74],[-116.2363888888889,40.74],[-116.2363888888889,40.74],[-115.2761111111111,40.99722222222222],[-115.2761111111111,40.99722222222222],[-115.2761111111111,40.99722222222222],[-115.08361111111111,41.0475],[-115.08361111111111,41.0475],[-115.08361111111111,41.0475],[-114.89055555555557,41.097500000000004],[-114.89055555555557,41.097500000000004],[-114.89055555555557,41.097500000000004],[-114.6888888888889,41.149166666666666],[-114.6888888888889,41.149166666666666],[-114.6888888888889,41.149166666666666],[-114.295,41.24944444444444],[-114.295,41.24944444444444],[-114.10111111111111,41.297777777777775],[-114.10111111111111,41.297777777777775],[-114.10111111111111,41.297777777777775],[-114.10111111111111,41.297777777777775],[-113.91111111111111,41.361111111111114],[-113.91111111111111,41.361111111111114],[-113.91111111111111,41.361111111111114],[-113.35194444444444,41.56638888888889],[-113.35194444444444,41.56638888888889],[-113.35194444444444,41.56638888888889],[-113.15222222222222,41.61527777777778],[-113.15222222222222,41.61527777777778],[-113.15222222222222,41.61527777777778],[-113.15222222222222,41.61527777777778],[-113.15222222222222,41.61527777777778],[-112.15861111111111,41.85888888888889],[-112.15861111111111,41.85888888888889],[-112.15861111111111,41.85888888888889],[-112.15861111111111,41.85888888888889],[-112.15861111111111,41.85888888888889],[-111.95666666666666,41.90694444444444],[-111.95666666666666,41.90694444444444],[-111.95666666666666,41.90694444444444],[-111.14861111111112,42.095555555555556],[-111.14861111111112,42.095555555555556],[-111.14861111111112,42.095555555555556],[-111.14861111111112,42.095555555555556],[-111.14861111111112,42.095555555555556],[-110.94472222222223,42.14194444444444],[-110.94472222222223,42.14194444444444],[-110.94472222222223,42.14194444444444],[-110.76138888888889,42.18333333333333],[-110.76138888888889,42.18333333333333],[-110.76138888888889,42.18333333333333],[-110.1363888888889,42.32222222222222],[-110.1363888888889,42.32222222222222],[-110.1363888888889,42.32222222222222],[-110.1363888888889,42.32222222222222],[-110.1363888888889,42.32222222222222],[-109.71555555555555,42.41305555555555],[-109.71555555555555,42.41305555555555],[-109.71555555555555,42.41305555555555],[-109.50055555555555,42.45916666666667],[-109.50055555555555,42.45916666666667],[-109.50055555555555,42.45916666666667],[-109.50055555555555,42.45916666666667],[-109.50055555555555,42.45916666666667],[-108.81611111111111,42.60194444444445],[-108.81611111111111,42.60194444444445],[-108.81611111111111,42.60194444444445],[-108.81611111111111,42.60194444444445],[-108.18611111111112,42.72888888888889],[-108.18611111111112,42.72888888888889],[-108.18611111111112,42.72888888888889],[-108.18611111111112,42.72888888888889],[-107.76138888888889,42.8125],[-107.76138888888889,42.8125],[-107.76138888888889,42.8125],[-107.76138888888889,42.8125],[-106.90222222222222,42.975833333333334],[-106.90222222222222,42.975833333333334],[-106.90222222222222,42.975833333333334],[-106.90222222222222,42.975833333333334],[-106.90222222222222,42.975833333333334],[-106.48083333333334,43.053888888888885],[-106.48083333333334,43.053888888888885],[-106.48083333333334,43.053888888888885],[-106.26888888888888,43.09138888888889],[-106.26888888888888,43.09138888888889],[-106.04833333333333,43.11666666666667],[-106.04833333333333,43.11666666666667],[-106.04833333333333,43.11666666666667],[-106.04833333333333,43.11666666666667],[-106.04833333333333,43.11666666666667],[-105.44194444444445,43.183611111111105],[-105.44194444444445,43.183611111111105],[-105.00194444444445,43.22972222222222],[-105.00194444444445,43.22972222222222],[-105.00194444444445,43.22972222222222],[-105.00194444444445,43.22972222222222],[-105.00194444444445,43.22972222222222],[-103.89,43.33916666666667],[-103.89,43.33916666666667],[-103.66694444444445,43.359722222222224],[-103.66694444444445,43.359722222222224],[-103.66694444444445,43.359722222222224],[-103.66694444444445,43.359722222222224],[-103.00222222222222,43.41861111111111],[-103.00222222222222,43.41861111111111],[-103.00222222222222,43.41861111111111],[-102.66611111111112,43.446666666666665],[-102.48194444444445,43.461666666666666],[-102.11916666666666,43.49055555555556],[-102.11916666666666,43.49055555555556],[-101.89972222222222,43.50083333333333],[-101.77916666666667,43.50111111111111],[-101.34027777777777,43.50333333333333],[-101.34027777777777,43.50333333333333],[-101.34027777777777,43.50333333333333],[-101.23972222222223,43.50388888888889],[-101.11749999999999,43.50388888888889],[-101.01666666666667,43.50388888888889],[-101.01666666666667,43.50388888888889],[-100.24027777777778,43.50138888888889],[-100.24027777777778,43.50138888888889],[-100.02083333333333,43.499722222222225],[-100.02083333333333,43.499722222222225],[-100.02083333333333,43.499722222222225],[-99.69250000000001,43.50194444444445],[-99.69250000000001,43.50194444444445],[-99.69250000000001,43.50194444444445],[-99.69250000000001,43.50194444444445],[-99.14111111111112,43.50388888888889],[-99.14111111111112,43.50388888888889],[-98.7,43.50361111111111],[-98.7,43.50361111111111],[-98.7,43.50361111111111],[-98.27444444444444,43.50194444444445],[-98.27444444444444,43.50194444444445],[-96.74722222222222,43.50361111111111],[-96.52722222222222,43.503055555555555],[-96.52722222222222,43.503055555555555],[-96.31194444444444,43.50194444444445],[-96.09194444444444,43.500277777777775],[-96.09194444444444,43.500277777777775],[-96.09194444444444,43.500277777777775],[-95.87527777777777,43.49277777777778],[-95.87527777777777,43.49277777777778],[-94.9588888888889,43.43944444444444],[-94.9588888888889,43.43944444444444],[-94.9588888888889,43.43944444444444],[-94.52111111111111,43.41138888888889],[-94.52111111111111,43.41138888888889],[-94.52111111111111,43.41138888888889],[-94.22555555555556,43.388333333333335],[-94.22555555555556,43.388333333333335],[-94.09416666666667,43.3825],[-94.09416666666667,43.3825],[-93.79138888888889,43.36055555555556],[-93.79138888888889,43.36055555555556],[-93.79138888888889,43.36055555555556],[-93.6588888888889,43.35111111111111],[-93.6588888888889,43.35111111111111],[-93.57249999999999,43.344722222222224],[-93.13972222222223,43.311388888888885],[-93.13972222222223,43.311388888888885],[-93.13972222222223,43.311388888888885],[-93.0111111111111,43.301111111111105],[-93.0111111111111,43.301111111111105],[-92.57777777777777,43.26583333333333],[-92.57777777777777,43.26583333333333],[-92.57777777777777,43.26583333333333],[-92.49305555555556,43.25888888888889],[-92.49305555555556,43.25888888888889],[-92.36527777777778,43.24805555555556],[-92.27888888888889,43.24055555555556],[-92.27888888888889,43.24055555555556],[-92.27888888888889,43.24055555555556],[-92.14750000000001,43.22916666666667],[-92.14750000000001,43.22916666666667],[-91.50361111111111,43.171388888888885],[-91.50361111111111,43.171388888888885],[-91.41527777777779,43.163333333333334],[-91.20416666666667,43.14388888888889],[-91.20416666666667,43.14388888888889],[-91.20416666666667,43.14388888888889],[-91.20416666666667,43.14388888888889],[-91.20416666666667,43.14388888888889],[-90.90555555555557,43.115833333333335],[-90.90555555555557,43.115833333333335],[-90.90555555555557,43.115833333333335],[-90.90555555555557,43.115833333333335],[-90.90555555555557,43.115833333333335],[-90.77916666666667,43.103611111111114],[-90.77916666666667,43.103611111111114],[-90.35833333333333,43.06166666666666],[-90.27666666666667,43.05361111111111],[-90.27666666666667,43.05361111111111],[-90.27666666666667,43.05361111111111],[-89.94027777777778,43.01888888888889],[-89.85638888888889,43.01027777777778],[-89.85638888888889,43.01027777777778],[-89.73666666666666,42.9975],[-89.65666666666667,42.989444444444445],[-89.65666666666667,42.989444444444445],[-89.53,42.975],[-89.53,42.975],[-89.53,42.975],[-89.53,42.975],[-89.45027777777779,42.96888888888889],[-89.11916666666666,42.93],[-88.71333333333334,42.88333333333333],[-88.71333333333334,42.88333333333333],[-88.71333333333334,42.88333333333333],[-88.31222222222222,42.83638888888889],[-88.31222222222222,42.83638888888889],[-88.31222222222222,42.83638888888889],[-88.1111111111111,42.80888888888889],[-88.1111111111111,42.80888888888889],[-88.1111111111111,42.80888888888889],[-88.1111111111111,42.80888888888889],[-87.70972222222223,42.74194444444444],[-87.70972222222223,42.74194444444444],[-87.70972222222223,42.74194444444444],[-87.325,42.67805555555555],[-87.12249999999999,42.64361111111111],[-87.12249999999999,42.64361111111111],[-86.76583333333333,42.5825],[-86.76583333333333,42.5825],[-86.28861111111111,42.49861111111111],[-86.28861111111111,42.49861111111111],[-85.89333333333335,42.46333333333334],[-85.89333333333335,42.46333333333334],[-85.89333333333335,42.46333333333334],[-85.89333333333335,42.46333333333334],[-85.53388888888888,42.4575],[-85.33388888888888,42.45388888888889],[-85.29194444444444,42.45305555555556],[-85.29194444444444,42.45305555555556],[-85.09083333333332,42.44888888888889],[-85.09083333333332,42.44888888888889],[-85.09083333333332,42.44888888888889],[-84.93305555555555,42.44583333333333],[-84.4875,42.434999999999995],[-84.4875,42.434999999999995],[-84.4875,42.434999999999995],[-83.93444444444445,42.419444444444444],[-83.74416666666667,42.41361111111111],[-83.74416666666667,42.41361111111111],[-83.74416666666667,42.41361111111111],[-83.20027777777779,42.396388888888886],[-83.20027777777779,42.396388888888886],[-83.01138888888889,42.390277777777776],[-83.01138888888889,42.390277777777776],[-82.825,42.38388888888889],[-82.825,42.38388888888889],[-82.45083333333334,42.369166666666665],[-82.45083333333334,42.369166666666665],[-82.04972222222221,42.35277777777778],[-81.87916666666666,42.34527777777778],[-81.87916666666666,42.34527777777778],[-81.87916666666666,42.34527777777778],[-81.10805555555555,42.30694444444444],[-81.10805555555555,42.30694444444444],[-80.70583333333333,42.28777777777778],[-80.52416666666666,42.27583333333333],[-79.97611111111111,42.24388888888889],[-79.97611111111111,42.24388888888889],[-79.79166666666667,42.23277777777778],[-79.79166666666667,42.23277777777778],[-79.44305555555556,42.20944444444445],[-79.44305555555556,42.20944444444445],[-79.25888888888889,42.197222222222216],[-78.56,42.04722222222222],[-78.56,42.04722222222222],[-78.56,42.04722222222222],[-78.38472222222222,42.0025],[-78.38472222222222,42.0025],[-78.04416666666667,41.91444444444444],[-77.87277777777777,41.86972222222222],[-77.87277777777777,41.86972222222222],[-77.52777777777777,41.778888888888886],[-77.14250000000001,41.692499999999995],[-77.14250000000001,41.692499999999995],[-77.14250000000001,41.692499999999995],[-76.68666666666667,41.58972222222222],[-76.68666666666667,41.58972222222222],[-76.68666666666667,41.58972222222222],[-76.68666666666667,41.58972222222222],[-76.38361111111112,41.46805555555556],[-76.38361111111112,41.46805555555556],[-76.01777777777778,41.36555555555556],[-76.01777777777778,41.36555555555556],[-76.01777777777778,41.36555555555556],[-75.82555555555555,41.31111111111111],[-75.82555555555555,41.31111111111111],[-75.64944444444446,41.25888888888889],[-75.64944444444446,41.25888888888889],[-74.28333333333333,40.93333333333333],[-74.28333333333333,40.93333333333333],[-74.05583333333333,40.87777777777778],[-73.93222222222222,40.83777777777778],[-73.71666666666667,40.71666666666667],[-73.71666666666667,40.71666666666667],[-73.71666666666667,40.71666666666667],[-73.58333333333333,40.43333333333333],[-73.64194444444445,40.257222222222225],[-73.64194444444445,40.257222222222225],[-73.64194444444445,40.257222222222225],[-73.82833333333333,40.264722222222225],[-74.01666666666667,40.35],[-73.9,40.45],[-73.9,40.45],[-73.9,40.45],[-73.81666666666666,40.56666666666667],[-73.81666666666666,40.56666666666667],[-73.8025,40.58444444444444]],"type":"LineString"}
}
