{
  "id": 2014753389,
  "type": "Feature",
  "properties": {
    "date:cessation_lower": "1970-01-01",
    "date:cessation_upper": "1970-01-01",
    "date:inception_lower": "2026-02-09",
    "date:inception_upper": "2026-02-09",
    "edtf:cessation": "1970-01-01T00:00:00Z",
    "edtf:inception": "2026-02-09T00:41:57-08:00",
    "flysfo:actual_timestamp": -1,
    "flysfo:airline": "B6",
    "flysfo:base_airline": "",
    "flysfo:base_flight_number": "2034",
    "flysfo:date": "2026-02-09",
    "flysfo:estimated_timestamp": 1770652800,
    "flysfo:event": "D",
    "flysfo:flight_number": "B62678",
    "flysfo:gate": "",
    "flysfo:journey": "SFO-BOS",
    "flysfo:scheduled_timestamp": 1770649200,
    "flysfo:timestamp": 1770652800,
    "geom:area": 0,
    "geom:bbox": "-122.370943,37.617990,-71.014750,42.362322",
    "geom:latitude": 39.990156,
    "geom:longitude": -96.6928465,
    "iata:airline": "B6",
    "iata:base_airline": "",
    "icao:aircraft": "A21N",
    "icao:airline": "JBU",
    "icao:base_airline": "HAL",
    "lbl:latitude": 37.61799,
    "lbl:longitude": -122.370943,
    "sfomuseum:aircraft_id": 1377564297,
    "sfomuseum:airline_id": 1159284583,
    "sfomuseum:arrival_id": 102530741,
    "sfomuseum:base_flight_id": "20260209-D-HAL-2034",
    "sfomuseum:departure_id": 102527513,
    "sfomuseum:flight_id": "20260209-D-JBU-2678",
    "sfomuseum:flight_number": [
      "JBU2678",
      "B62678"
    ],
    "sfomuseum:placetype": "flight",
    "src:geom": "flysfo",
    "src:geom_alt": [
      "swim-takeoff"
    ],
    "swim:tail_number": "N2044J",
    "wof:belongsto": [],
    "wof:country": "US",
    "wof:created": 1770740008,
    "wof:geomhash": "92fb504f17f3373e6b03bb6769f65d8a",
    "wof:hierarchy": [
      {
        "custom_id": 2014753389,
        "flight_id": 2014753389
      }
    ],
    "wof:id": 2014753389,
    "wof:involves": [
      1159284583,
      1159284489,
      1377564297,
      102530741,
      102527513
    ],
    "wof:lastmodified": 1770740228,
    "wof:name": "B62678 (SFO-BOS)",
    "wof:parent_id": -1,
    "wof:placetype": "custom",
    "wof:placetype_alt": [
      "flight"
    ],
    "wof:repo": "sfomuseum-data-flights-2026-02",
    "wof:superseded_by": [],
    "wof:supersedes": []
  },
  "bbox": [
    -122.370943,
    37.61799,
    -71.01475,
    42.362322
  ],
  "geometry": {"coordinates":[[-122.370943,37.61799],[-71.01475,42.362322]],"type":"MultiPoint"}
}
