{
  "id": 2014911233,
  "type": "Feature",
  "properties": {
    "geom:area": 0,
    "geom:bbox": "-122.368860,37.624190,-121.508200,38.470450",
    "geom:latitude": 38.03652369311286,
    "geom:longitude": -121.93011874040428,
    "src:alt_label": "swim-takeoff",
    "src:geom": "swim",
    "swim:elevations": [
      152,
      603,
      1035,
      1142,
      1369,
      1753,
      2182,
      2547,
      3013,
      3422,
      3506,
      4004,
      4224,
      4695,
      4927,
      5250,
      5605,
      5692,
      6166,
      6604,
      6720,
      6982,
      7098
    ],
    "swim:geom": "takeoff",
    "swim:timestamps": [
      1772279072,
      1772279104,
      1772279151,
      1772279173,
      1772279207,
      1772279234,
      1772279262,
      1772279284,
      1772279310,
      1772279365,
      1772279377,
      1772279417,
      1772279434,
      1772279477,
      1772279499,
      1772279523,
      1772279571,
      1772279583,
      1772279618,
      1772279661,
      1772279674,
      1772279716,
      1772279734
    ],
    "wof:geomhash": "fc79e74b4f9df0e895e0b5f9b95eed0b",
    "wof:id": 2014911233,
    "wof:repo": "sfomuseum-data-flights-2026-02"
  },
  "bbox": [
    -122.36886,
    37.62419,
    -121.5082,
    38.47045
  ],
  "geometry": {"coordinates":[[-122.36886,37.62419],[-122.34743,37.6407],[-122.31315,37.66275],[-122.29352,37.67485],[-122.25605,37.69658],[-122.21987,37.71604],[-122.19076,37.74454],[-122.16839,37.76932],[-122.14086,37.80008],[-122.07886,37.86874],[-122.06347,37.88586],[-122.00845,37.94656],[-121.98584,37.9712],[-121.92514,38.03757],[-121.89309,38.07272],[-121.85639,38.1128],[-121.78383,38.19205],[-121.76442,38.21306],[-121.70922,38.2731],[-121.64077,38.34745],[-121.61917,38.37088],[-121.5487,38.44221],[-121.5082,38.47045]],"type":"LineString"}
}
