{
  "id": 2014863023,
  "type": "Feature",
  "properties": {
    "geom:area": 0,
    "geom:bbox": "-122.844540,37.435030,-122.111100,38.484540",
    "geom:latitude": 37.82361614424208,
    "geom:longitude": -122.49852790706299,
    "src:alt_label": "swim-approach",
    "src:geom": "swim",
    "swim:elevations": [
      7749,
      7633,
      7132,
      7061,
      6990,
      6702,
      6560,
      6227,
      6009,
      5857,
      5653,
      5443,
      5140,
      4699,
      4395,
      4044,
      3932,
      3664,
      3413,
      3353,
      3353,
      3353,
      3353,
      3353,
      3240,
      3015,
      2823,
      2799,
      2364,
      2085,
      1955,
      1662,
      1530,
      1305,
      1259,
      1164,
      1004,
      840,
      752,
      587,
      372,
      192,
      123,
      45
    ],
    "swim:geom": "approach",
    "swim:timestamps": [
      1771840674,
      1771840683,
      1771840735,
      1771840743,
      1771840750,
      1771840780,
      1771840793,
      1771840828,
      1771840850,
      1771840869,
      1771840894,
      1771840920,
      1771840954,
      1771840998,
      1771841029,
      1771841066,
      1771841076,
      1771841104,
      1771841147,
      1771841179,
      1771841201,
      1771841237,
      1771841260,
      1771841291,
      1771841330,
      1771841366,
      1771841398,
      1771841401,
      1771841449,
      1771841488,
      1771841506,
      1771841545,
      1771841562,
      1771841603,
      1771841610,
      1771841658,
      1771841685,
      1771841718,
      1771841735,
      1771841762,
      1771841809,
      1771841848,
      1771841865,
      1771841885
    ],
    "wof:geomhash": "9477cdf703167566cc9bad129ab4348e",
    "wof:id": 2014863023,
    "wof:repo": "sfomuseum-data-flights-2026-02"
  },
  "bbox": [
    -122.84454,
    37.43503,
    -122.1111,
    38.48454
  ],
  "geometry": {"coordinates":[[-122.84454,38.48454],[-122.84039,38.46991],[-122.81264,38.37836],[-122.80867,38.36546],[-122.80529,38.35444],[-122.79014,38.30214],[-122.78405,38.28024],[-122.76697,38.22228],[-122.75627,38.18606],[-122.74741,38.15589],[-122.73567,38.11545],[-122.72407,38.07546],[-122.70845,38.02198],[-122.68904,37.95288],[-122.67255,37.90584],[-122.6304,37.85935],[-122.61691,37.84657],[-122.58107,37.81266],[-122.52899,37.76341],[-122.4919,37.72829],[-122.4684,37.70614],[-122.42968,37.66976],[-122.40504,37.64659],[-122.37257,37.616],[-122.3454,37.57613],[-122.32705,37.54045],[-122.30956,37.51163],[-122.30759,37.50848],[-122.27287,37.46839],[-122.22242,37.45434],[-122.19994,37.44802],[-122.15111,37.43503],[-122.12967,37.43837],[-122.1111,37.47531],[-122.1154,37.48182],[-122.14842,37.51962],[-122.17251,37.53609],[-122.20611,37.55001],[-122.22311,37.55715],[-122.2495,37.56821],[-122.2926,37.58641],[-122.32375,37.59953],[-122.33719,37.60511],[-122.35255,37.61164]],"type":"LineString"}
}
