{
  "id": 2014772869,
  "type": "Feature",
  "properties": {
    "geom:area": 0,
    "geom:bbox": "-122.361800,36.727950,-121.883150,37.613120",
    "geom:latitude": 37.21319326085688,
    "geom:longitude": -122.07219290698589,
    "src:alt_label": "swim-approach",
    "src:geom": "swim",
    "swim:elevations": [
      6123,
      5899,
      5444,
      5225,
      5193,
      4705,
      4377,
      4185,
      3932,
      3870,
      3692,
      3190,
      3169,
      3014,
      2924,
      2520,
      2433,
      2278,
      2100,
      1942,
      1821,
      1670,
      1552,
      1384,
      1279,
      1035,
      845,
      699,
      458,
      362,
      343,
      309,
      243,
      121,
      121
    ],
    "swim:geom": "approach",
    "swim:timestamps": [
      1770885322,
      1770885343,
      1770885387,
      1770885417,
      1770885421,
      1770885471,
      1770885508,
      1770885529,
      1770885563,
      1770885573,
      1770885600,
      1770885654,
      1770885657,
      1770885681,
      1770885700,
      1770885748,
      1770885766,
      1770885782,
      1770885825,
      1770885856,
      1770885877,
      1770885903,
      1770885940,
      1770885972,
      1770885997,
      1770886041,
      1770886073,
      1770886096,
      1770886137,
      1770886165,
      1770886168,
      1770886179,
      1770886198,
      1770886227,
      1770886259
    ],
    "wof:geomhash": "acf11dcca4bb954aa62576a51910e98b",
    "wof:id": 2014772869,
    "wof:repo": "sfomuseum-data-flights-2026-02"
  },
  "bbox": [
    -122.3618,
    36.72795,
    -121.88315,
    37.61312
  ],
  "geometry": {"coordinates":[[-121.88315,36.72795],[-121.89808,36.757],[-121.91605,36.81941],[-121.92758,36.8611],[-121.92891,36.86591],[-121.94861,36.93609],[-121.9662,36.98552],[-121.97699,37.0133],[-121.99372,37.05653],[-121.99881,37.06967],[-122.01144,37.10163],[-122.03565,37.16346],[-122.03725,37.16745],[-122.04792,37.19474],[-122.05598,37.21516],[-122.07532,37.26451],[-122.08262,37.28237],[-122.08897,37.29862],[-122.10621,37.34269],[-122.11745,37.37088],[-122.12441,37.38969],[-122.13174,37.4129],[-122.1436,37.44559],[-122.15476,37.47273],[-122.16667,37.49312],[-122.18989,37.52567],[-122.20926,37.54684],[-122.22949,37.55727],[-122.26728,37.57353],[-122.29004,37.58303],[-122.29244,37.58402],[-122.30115,37.5877],[-122.3154,37.59375],[-122.33768,37.60297],[-122.3618,37.61312]],"type":"LineString"}
}
