{
  "id": 2014708715,
  "type": "Feature",
  "properties": {
    "geom:area": 0,
    "geom:bbox": "-122.446100,36.741480,-121.536190,37.709970",
    "geom:latitude": 37.24714937486465,
    "geom:longitude": -122.05941667267946,
    "src:alt_label": "swim-takeoff",
    "src:geom": "swim",
    "swim:elevations": [
      213,
      825,
      1052,
      1521,
      1555,
      1682,
      2091,
      2877,
      3169,
      3233,
      3405,
      3529,
      3929,
      4312,
      4363,
      5017,
      5251,
      5548,
      6102,
      6268,
      6445,
      6789,
      6824,
      7318,
      7527,
      7768,
      7925,
      7967,
      8285,
      8365,
      8937,
      9059
    ],
    "swim:geom": "takeoff",
    "swim:timestamps": [
      1770151901,
      1770151943,
      1770151957,
      1770152007,
      1770152011,
      1770152020,
      1770152046,
      1770152087,
      1770152120,
      1770152132,
      1770152158,
      1770152170,
      1770152194,
      1770152217,
      1770152221,
      1770152266,
      1770152285,
      1770152321,
      1770152368,
      1770152383,
      1770152397,
      1770152427,
      1770152430,
      1770152475,
      1770152500,
      1770152540,
      1770152563,
      1770152570,
      1770152604,
      1770152610,
      1770152664,
      1770152683
    ],
    "wof:geomhash": "c1fcf48be2d4473d2716c109144cf991",
    "wof:id": 2014708715,
    "wof:repo": "sfomuseum-data-flights-2026-02"
  },
  "bbox": [
    -122.4461,
    36.74148,
    -121.53619,
    37.70997
  ],
  "geometry": {"coordinates":[[-122.36861,37.62994],[-122.364,37.66042],[-122.36295,37.67079],[-122.38919,37.70906],[-122.39488,37.70997],[-122.40904,37.70949],[-122.44198,37.69117],[-122.4461,37.6378],[-122.43734,37.59282],[-122.42782,37.57546],[-122.39549,37.53961],[-122.37753,37.5235],[-122.341,37.48978],[-122.30719,37.45789],[-122.30183,37.45289],[-122.23284,37.389],[-122.20362,37.36223],[-122.14672,37.30994],[-122.07009,37.239],[-122.04695,37.21755],[-122.02313,37.19543],[-121.97368,37.14932],[-121.96851,37.1445],[-121.89439,37.07552],[-121.85283,37.03665],[-121.78633,36.97378],[-121.7436,36.936],[-121.73236,36.92543],[-121.67279,36.86995],[-121.66238,36.86029],[-121.5681,36.77211],[-121.53619,36.74148]],"type":"LineString"}
}
