{
  "id": 2014860633,
  "type": "Feature",
  "properties": {
    "geom:area": 0,
    "geom:bbox": "-122.568889,34.214444,-119.726389,37.656389",
    "geom:latitude": 35.8201513243226,
    "geom:longitude": -121.29693806151661,
    "src:alt_label": "swim-path",
    "src:geom": "swim",
    "swim:altitudes": [
      "012",
      "012",
      "012",
      "060",
      "060",
      "094",
      "094",
      "125",
      "125",
      "125",
      "125",
      "168",
      "168",
      "229",
      "229",
      "229",
      "246",
      "246",
      "246",
      "274",
      "274",
      "274",
      "290C",
      "290C",
      "290C",
      "290C",
      "290C",
      "290C",
      "290C",
      "290C",
      "290C",
      "290C",
      "290C",
      "285",
      "285",
      "273",
      "273",
      "243",
      "243",
      "243",
      "184",
      "184",
      "168",
      "168",
      "168",
      "125",
      "125",
      "125",
      "090",
      "090",
      "090",
      "083",
      "083",
      "066",
      "066",
      "066",
      "064",
      "054",
      "054",
      "047",
      "038",
      "030",
      "030",
      "030",
      "030",
      "030",
      "015"
    ],
    "swim:geom": "path",
    "swim:speeds": [
      173,
      173,
      173,
      241,
      241,
      256,
      256,
      277,
      277,
      277,
      277,
      372,
      372,
      440,
      440,
      440,
      451,
      451,
      451,
      469,
      469,
      469,
      473,
      473,
      473,
      473,
      473,
      474,
      474,
      474,
      476,
      476,
      476,
      476,
      476,
      452,
      452,
      423,
      423,
      423,
      383,
      383,
      376,
      376,
      376,
      357,
      357,
      357,
      276,
      270,
      270,
      263,
      263,
      244,
      244,
      244,
      248,
      247,
      247,
      243,
      236,
      236,
      236,
      185,
      185,
      185,
      157
    ],
    "swim:timestamps": [
      1771786905,
      1771786905,
      1771786905,
      1771787025,
      1771787025,
      1771787085,
      1771787085,
      1771787145,
      1771787145,
      1771787145,
      1771787145,
      1771787260,
      1771787260,
      1771787441,
      1771787441,
      1771787441,
      1771787501,
      1771787501,
      1771787501,
      1771787621,
      1771787621,
      1771787621,
      1771787741,
      1771787741,
      1771787741,
      1771787801,
      1771787801,
      1771787981,
      1771787981,
      1771787981,
      1771788162,
      1771788162,
      1771788162,
      1771788222,
      1771788222,
      1771788282,
      1771788282,
      1771788462,
      1771788462,
      1771788462,
      1771788642,
      1771788642,
      1771788703,
      1771788703,
      1771788703,
      1771788823,
      1771788823,
      1771788823,
      1771789003,
      1771789063,
      1771789063,
      1771789128,
      1771789128,
      1771789221,
      1771789221,
      1771789221,
      1771789243,
      1771789303,
      1771789303,
      1771789337,
      1771789403,
      1771789458,
      1771789458,
      1771789641,
      1771789641,
      1771789641,
      1771789757
    ],
    "wof:geomhash": "53e0fd71bc0f7b2d8b59db0e6222164c",
    "wof:id": 2014860633,
    "wof:repo": "sfomuseum-data-flights-2026-02"
  },
  "bbox": [
    -122.56888888888888,
    34.214444444444446,
    -119.72638888888889,
    37.656388888888884
  ],
  "geometry": {"coordinates":[[-122.405,37.63138888888889],[-122.405,37.63138888888889],[-122.405,37.63138888888889],[-122.53583333333333,37.656388888888884],[-122.53583333333333,37.656388888888884],[-122.55972222222222,37.58861111111111],[-122.55972222222222,37.58861111111111],[-122.56888888888888,37.514722222222225],[-122.56888888888888,37.514722222222225],[-122.56888888888888,37.514722222222225],[-122.56888888888888,37.514722222222225],[-122.56666666666666,37.321111111111115],[-122.56666666666666,37.321111111111115],[-122.51444444444445,36.99611111111111],[-122.51444444444445,36.99611111111111],[-122.51444444444445,36.99611111111111],[-122.41722222222222,36.901666666666664],[-122.41722222222222,36.901666666666664],[-122.41722222222222,36.901666666666664],[-122.21416666666667,36.702222222222225],[-122.21416666666667,36.702222222222225],[-122.21416666666667,36.702222222222225],[-122.00472222222223,36.495555555555555],[-122.00472222222223,36.495555555555555],[-122.00472222222223,36.495555555555555],[-121.90222222222222,36.39388888888889],[-121.90222222222222,36.39388888888889],[-121.59416666666667,36.08555555555556],[-121.59416666666667,36.08555555555556],[-121.59416666666667,36.08555555555556],[-121.28944444444444,35.776666666666664],[-121.28944444444444,35.776666666666664],[-121.28944444444444,35.776666666666664],[-121.18833333333333,35.67333333333333],[-121.18833333333333,35.67333333333333],[-121.08388888888888,35.566944444444445],[-121.08388888888888,35.566944444444445],[-120.81027777777777,35.28472222222222],[-120.81027777777777,35.28472222222222],[-120.81027777777777,35.28472222222222],[-120.55888888888889,35.02333333333333],[-120.55888888888889,35.02333333333333],[-120.48055555555555,34.94166666666666],[-120.48055555555555,34.94166666666666],[-120.48055555555555,34.94166666666666],[-120.32888888888888,34.7825],[-120.32888888888888,34.7825],[-120.32888888888888,34.7825],[-120.13555555555556,34.57833333333333],[-120.09083333333332,34.515],[-120.09083333333332,34.515],[-120.09083333333332,34.43944444444444],[-120.09083333333332,34.43944444444444],[-120.0936111111111,34.32833333333333],[-120.0936111111111,34.32833333333333],[-120.0936111111111,34.32833333333333],[-120.08277777777778,34.309444444444445],[-120.0075,34.28138888888889],[-120.0075,34.28138888888889],[-119.95972222222223,34.266666666666666],[-119.87805555555555,34.237500000000004],[-119.81277777777777,34.214444444444446],[-119.81277777777777,34.214444444444446],[-119.72638888888889,34.31194444444444],[-119.72638888888889,34.31194444444444],[-119.72638888888889,34.31194444444444],[-119.75777777777778,34.39222222222222]],"type":"LineString"}
}
