{
  "id": 2014787293,
  "type": "Feature",
  "properties": {
    "geom:area": 0,
    "geom:bbox": "-122.380000,37.620000,-87.910000,42.050000",
    "geom:latitude": 39.68777688847998,
    "geom:longitude": -105.19190873499355,
    "src:alt_label": "swim-route",
    "src:geom": "swim",
    "swim:geom": "route",
    "wof:geomhash": "1da79d5649b862f6b43ad247f921af75",
    "wof:id": 2014787293,
    "wof:repo": "sfomuseum-data-flights-2026-02"
  },
  "bbox": [
    -122.38,
    37.62,
    -87.91,
    42.05
  ],
  "geometry": {"coordinates":[[-87.91,41.98],[-87.99,41.98],[-88.02,41.99],[-88.11,41.99],[-88.12,41.99],[-88.22,42],[-88.24,42],[-88.44,42.02],[-88.67,42.04],[-88.71,42.04],[-88.75,42.04],[-88.81,42.05],[-88.82,42.05],[-88.84,42.04],[-89.11,42.03],[-89.24,42.02],[-89.36,42.01],[-89.64,42],[-89.74,41.99],[-89.9,41.98],[-89.95,41.98],[-90.12,41.96],[-90.4,41.94],[-90.6,41.93],[-91.05,41.9],[-91.23,41.88],[-91.77,41.84],[-92.3,41.81],[-92.55,41.79],[-92.85,41.77],[-93.41,41.73],[-93.44,41.73],[-94.48,41.48],[-95.46,41.24],[-95.74,41.17],[-95.89,41.13],[-96.1,41.08],[-96.74,40.92],[-97.61,40.79],[-98.48,40.65],[-99.05,40.55],[-99.34,40.5],[-99.63,40.45],[-101.37,40.13],[-103.2,39.9],[-103.91,39.79],[-104.62,39.69],[-105.16,39.59],[-106.87,39.24],[-107.15,39.18],[-108,39],[-108.73,38.88],[-109.46,38.76],[-109.94,38.68],[-109.98,38.67],[-110.25,38.65],[-110.51,38.62],[-111.05,38.57],[-111.44,38.53],[-111.84,38.49],[-113.01,38.36],[-113.49,38.32],[-113.97,38.29],[-114.39,38.25],[-116.1,38.13],[-116.66,38.09],[-117.23,38.04],[-118.76,37.9],[-119.1,37.86],[-119.2,37.85],[-119.55,37.8],[-120.11,37.74],[-120.2,37.72],[-120.39,37.7],[-120.4,37.7],[-120.58,37.68],[-120.65,37.67],[-120.69,37.67],[-120.75,37.66],[-120.94,37.64],[-120.96,37.63],[-120.99,37.64],[-121.22,37.68],[-121.24,37.69],[-121.33,37.7],[-121.5,37.73],[-121.55,37.74],[-121.56,37.74],[-121.7,37.77],[-121.71,37.77],[-121.77,37.78],[-121.98,37.82],[-121.99,37.82],[-122.01,37.83],[-122.04,37.83],[-122.08,37.84],[-122.21,37.86],[-122.23,37.84],[-122.26,37.79],[-122.28,37.77],[-122.28,37.76],[-122.33,37.69],[-122.38,37.62]],"type":"LineString"}
}
