{
  "id": 2014834997,
  "type": "Feature",
  "properties": {
    "geom:area": 0,
    "geom:bbox": "-122.470000,33.640000,-84.040000,37.680000",
    "geom:latitude": 35.23928631514052,
    "geom:longitude": -103.45343403723402,
    "src:alt_label": "swim-route",
    "src:geom": "swim",
    "swim:geom": "route",
    "wof:geomhash": "aa90e5e35fa1d68b625b89c38f7ed5ed",
    "wof:id": 2014834997,
    "wof:repo": "sfomuseum-data-flights-2026-02"
  },
  "bbox": [
    -122.47,
    33.64,
    -84.04,
    37.68
  ],
  "geometry": {"coordinates":[[-122.38,37.62],[-122.36,37.68],[-122.38,37.64],[-122.39,37.64],[-122.42,37.58],[-122.42,37.57],[-122.44,37.55],[-122.47,37.5],[-122.47,37.49],[-122.47,37.49],[-122.43,37.46],[-122.33,37.4],[-122.17,37.29],[-122.14,37.27],[-122.1,37.25],[-122.04,37.21],[-121.91,37.13],[-121.9,37.12],[-121.82,37.07],[-121.71,36.99],[-121.65,36.95],[-121.63,36.94],[-121.53,36.88],[-121.48,36.84],[-121.41,36.81],[-121.39,36.8],[-121.38,36.8],[-121.29,36.74],[-121.23,36.7],[-121.16,36.66],[-121.02,36.57],[-120.83,36.45],[-120.45,36.21],[-120.28,36.1],[-119.89,35.85],[-119.65,35.69],[-119.46,35.57],[-118.66,35.03],[-118.06,34.63],[-117.97,34.64],[-117.38,34.7],[-116.66,34.78],[-116.46,34.8],[-114.98,34.78],[-114.47,34.77],[-113.87,34.75],[-112.76,34.71],[-112.48,34.7],[-112.1,34.74],[-110.25,34.89],[-109.15,34.97],[-108.03,35.01],[-106.82,35.04],[-106.39,35.06],[-105.83,35.08],[-105.27,35.1],[-105.04,35.11],[-104.78,35.16],[-103.5,35.41],[-102.98,35.5],[-100.31,35.95],[-100,36],[-99.37,36],[-98,36],[-97.76,35.97],[-96.24,35.75],[-95.87,35.69],[-95,35.61],[-93.56,35.46],[-93.08,35.41],[-91.14,35.17],[-89.98,35.02],[-89.54,34.95],[-88.03,34.73],[-87.43,34.63],[-87.1,34.57],[-87,34.55],[-86.94,34.54],[-86.71,34.48],[-86.15,34.34],[-85.75,34.23],[-85.4,34.14],[-85.05,34.05],[-84.92,33.92],[-84.9,33.9],[-84.88,33.88],[-84.8,33.81],[-84.72,33.73],[-84.58,33.73],[-84.43,33.73],[-84.39,33.73],[-84.31,33.73],[-84.14,33.73],[-84.05,33.73],[-84.04,33.73],[-84.22,33.69],[-84.32,33.66],[-84.41,33.64],[-84.43,33.64]],"type":"LineString"}
}
