{
  "id": 2014864991,
  "type": "Feature",
  "properties": {
    "geom:area": 0,
    "geom:bbox": "-157.920000,21.140000,-122.280000,37.620000",
    "geom:latitude": 31.342786522751716,
    "geom:longitude": -141.22971727879224,
    "src:alt_label": "swim-route",
    "src:geom": "swim",
    "swim:geom": "route",
    "wof:geomhash": "584a37c43c7228c9e1ed82de12ebd36a",
    "wof:id": 2014864991,
    "wof:repo": "sfomuseum-data-flights-2026-02"
  },
  "bbox": [
    -157.92,
    21.14,
    -122.28,
    37.62
  ],
  "geometry": {"coordinates":[[-157.92,21.32],[-157.92,21.32],[-157.82,21.29],[-157.75,21.28],[-157.65,21.25],[-157.49,21.21],[-157.41,21.2],[-157.31,21.17],[-157.17,21.14],[-157.15,21.22],[-157.11,21.34],[-157.06,21.51],[-157.02,21.65],[-157,21.71],[-156.97,21.84],[-156.95,21.89],[-156.93,21.95],[-156.9,22.07],[-156.85,22.23],[-156.85,22.26],[-156.84,22.27],[-156.81,22.36],[-156.79,22.45],[-156.7,22.76],[-156.32,24.04],[-155.26,24.72],[-155.23,24.74],[-148.82,28.51],[-141.92,31.98],[-134.7,34.98],[-133.77,35.32],[-128.97,36.92],[-127,37.51],[-126.99,37.51],[-125.06,37.37],[-124.7,37.34],[-124.62,37.33],[-124.54,37.32],[-124.21,37.29],[-124.13,37.29],[-123.8,37.26],[-123.73,37.25],[-123.39,37.22],[-123.13,37.19],[-122.96,37.24],[-122.86,37.26],[-122.84,37.26],[-122.84,37.26],[-122.76,37.28],[-122.68,37.3],[-122.66,37.3],[-122.55,37.33],[-122.5,37.34],[-122.3,37.39],[-122.28,37.39],[-122.29,37.41],[-122.31,37.46],[-122.34,37.54],[-122.37,37.6],[-122.37,37.61],[-122.38,37.62]],"type":"LineString"}
}
