{
  "id": 2014811609,
  "type": "Feature",
  "properties": {
    "geom:area": 0,
    "geom:bbox": "-122.514722,32.589722,-117.017222,37.633333",
    "geom:latitude": 34.947402351494205,
    "geom:longitude": -120.05296464042878,
    "src:alt_label": "swim-path",
    "src:geom": "swim",
    "swim:altitudes": [
      "005",
      "005",
      "005",
      "005",
      "005",
      "005",
      "005",
      "005",
      "086",
      "086",
      "086",
      "086",
      "086",
      "133",
      "133",
      "133",
      "133",
      "176",
      "176",
      "176",
      "176",
      "176",
      "176",
      "227",
      "227",
      "227",
      "246",
      "246",
      "246",
      "246",
      "246",
      "294",
      "294",
      "294",
      "294",
      "294",
      "294",
      "294",
      "305",
      "305",
      "305",
      "305",
      "305",
      "305",
      "305",
      "325",
      "325",
      "325",
      "332",
      "332",
      "332",
      "332",
      "332",
      "338",
      "338",
      "347",
      "347",
      "347",
      "347",
      "347",
      "347",
      "350C",
      "350C",
      "350C",
      "350C",
      "350C",
      "350C",
      "350C",
      "350C",
      "350C",
      "350C",
      "350C",
      "350C",
      "349C",
      "349C",
      "349C",
      "350C",
      "350C",
      "350C",
      "350C",
      "350C",
      "350C",
      "350C",
      "350C",
      "350C",
      "350C",
      "350C",
      "350C",
      "350C",
      "350C",
      "350C",
      "350C",
      "350C",
      "350C",
      "350C",
      "350C",
      "350C",
      "350C",
      "350C",
      "350C",
      "350C",
      "350C",
      "350C",
      "350C",
      "350C",
      "350C",
      "350C",
      "350C",
      "350C",
      "350C",
      "350C",
      "350C",
      "350C",
      "350C",
      "350C",
      "350C",
      "350C",
      "350C",
      "350C",
      "350C",
      "350C",
      "350C",
      "350C",
      "350C",
      "350C",
      "350C",
      "350C",
      "350C",
      "350C",
      "350C",
      "350C",
      "350C",
      "350C",
      "350C",
      "350C",
      "350C",
      "350C",
      "350C",
      "350C",
      "350C",
      "350C",
      "350C",
      "350C",
      "350C",
      "350C",
      "350C",
      "350C",
      "350C",
      "350C",
      "350C",
      "350C",
      "350C",
      "350C",
      "350C",
      "350C",
      "350C",
      "350C",
      "350C",
      "350C",
      "350C",
      "350C",
      "350C",
      "350C",
      "350C",
      "350C",
      "350C",
      "350C",
      "350C",
      "350C",
      "350C",
      "350C",
      "350C",
      "350C",
      "350C",
      "350C",
      "350C"
    ],
    "swim:geom": "path",
    "swim:speeds": [
      155,
      155,
      155,
      155,
      155,
      155,
      155,
      155,
      279,
      279,
      279,
      279,
      279,
      323,
      323,
      323,
      323,
      333,
      333,
      333,
      333,
      333,
      333,
      332,
      332,
      332,
      324,
      324,
      324,
      324,
      324,
      368,
      368,
      368,
      368,
      368,
      368,
      368,
      395,
      395,
      395,
      395,
      395,
      395,
      395,
      401,
      401,
      401,
      407,
      407,
      407,
      407,
      407,
      412,
      412,
      413,
      413,
      413,
      413,
      413,
      413,
      421,
      421,
      421,
      421,
      421,
      421,
      425,
      425,
      425,
      425,
      425,
      425,
      423,
      423,
      423,
      424,
      424,
      424,
      424,
      424,
      424,
      439,
      439,
      439,
      439,
      439,
      439,
      439,
      436,
      436,
      436,
      436,
      434,
      434,
      434,
      431,
      431,
      431,
      431,
      429,
      429,
      429,
      429,
      429,
      429,
      425,
      425,
      425,
      425,
      425,
      425,
      427,
      427,
      427,
      427,
      427,
      427,
      427,
      427,
      427,
      427,
      427,
      428,
      428,
      429,
      429,
      429,
      429,
      429,
      429,
      438,
      438,
      438,
      438,
      438,
      438,
      438,
      452,
      452,
      452,
      452,
      457,
      457,
      457,
      457,
      457,
      462,
      462,
      462,
      462,
      462,
      462,
      462,
      465,
      465,
      466,
      467,
      467,
      467,
      467,
      467,
      466,
      466,
      466,
      466,
      466,
      466,
      465,
      465,
      465,
      465,
      465,
      465,
      465,
      465
    ],
    "swim:timestamps": [
      1771269274,
      1771269274,
      1771269274,
      1771269274,
      1771269274,
      1771269274,
      1771269274,
      1771269274,
      1771269480,
      1771269480,
      1771269480,
      1771269480,
      1771269480,
      1771269600,
      1771269600,
      1771269600,
      1771269600,
      1771269716,
      1771269716,
      1771269716,
      1771269716,
      1771269716,
      1771269716,
      1771269836,
      1771269836,
      1771269836,
      1771269897,
      1771269897,
      1771269897,
      1771269897,
      1771269897,
      1771270137,
      1771270137,
      1771270137,
      1771270137,
      1771270137,
      1771270137,
      1771270137,
      1771270257,
      1771270257,
      1771270257,
      1771270257,
      1771270257,
      1771270257,
      1771270257,
      1771270377,
      1771270377,
      1771270377,
      1771270437,
      1771270437,
      1771270437,
      1771270437,
      1771270437,
      1771270501,
      1771270501,
      1771270558,
      1771270558,
      1771270558,
      1771270558,
      1771270558,
      1771270558,
      1771270678,
      1771270678,
      1771270678,
      1771270678,
      1771270678,
      1771270678,
      1771270798,
      1771270798,
      1771270798,
      1771270798,
      1771270798,
      1771270798,
      1771270862,
      1771270862,
      1771270862,
      1771270918,
      1771270918,
      1771270918,
      1771270918,
      1771270918,
      1771270918,
      1771270978,
      1771270978,
      1771270978,
      1771270978,
      1771270978,
      1771270978,
      1771270978,
      1771271158,
      1771271158,
      1771271158,
      1771271158,
      1771271219,
      1771271219,
      1771271219,
      1771271282,
      1771271282,
      1771271282,
      1771271282,
      1771271339,
      1771271339,
      1771271339,
      1771271339,
      1771271339,
      1771271339,
      1771271583,
      1771271583,
      1771271583,
      1771271583,
      1771271583,
      1771271583,
      1771271639,
      1771271639,
      1771271639,
      1771271639,
      1771271639,
      1771271880,
      1771271880,
      1771271880,
      1771271880,
      1771271880,
      1771271880,
      1771271940,
      1771271940,
      1771272000,
      1771272000,
      1771272000,
      1771272000,
      1771272000,
      1771272000,
      1771272180,
      1771272180,
      1771272180,
      1771272180,
      1771272180,
      1771272180,
      1771272180,
      1771272480,
      1771272480,
      1771272480,
      1771272480,
      1771272541,
      1771272541,
      1771272541,
      1771272541,
      1771272541,
      1771272661,
      1771272661,
      1771272661,
      1771272661,
      1771272661,
      1771272661,
      1771272661,
      1771272781,
      1771272781,
      1771272841,
      1771272901,
      1771272901,
      1771272901,
      1771272901,
      1771272901,
      1771272961,
      1771272961,
      1771272961,
      1771272961,
      1771272961,
      1771272961,
      1771273081,
      1771273081,
      1771273081,
      1771273081,
      1771273081,
      1771273081,
      1771273081,
      1771273081
    ],
    "wof:geomhash": "d4c2d47152013fd0323fdb8ec666b131",
    "wof:id": 2014811609,
    "wof:repo": "sfomuseum-data-flights-2026-02"
  },
  "bbox": [
    -122.51472222222222,
    32.58972222222222,
    -117.01722222222222,
    37.63333333333333
  ],
  "geometry": {"coordinates":[[-122.36666666666666,37.63333333333333],[-122.36666666666666,37.63333333333333],[-122.36666666666666,37.63333333333333],[-122.36666666666666,37.63333333333333],[-122.36666666666666,37.63333333333333],[-122.36666666666666,37.63333333333333],[-122.36666666666666,37.63333333333333],[-122.36666666666666,37.63333333333333],[-122.44555555555556,37.617222222222225],[-122.44555555555556,37.617222222222225],[-122.44555555555556,37.617222222222225],[-122.44555555555556,37.617222222222225],[-122.44555555555556,37.617222222222225],[-122.4825,37.44888888888889],[-122.4825,37.44888888888889],[-122.4825,37.44888888888889],[-122.4825,37.44888888888889],[-122.51472222222222,37.27194444444444],[-122.51472222222222,37.27194444444444],[-122.51472222222222,37.27194444444444],[-122.51472222222222,37.27194444444444],[-122.51472222222222,37.27194444444444],[-122.51472222222222,37.27194444444444],[-122.47944444444444,37.10194444444445],[-122.47944444444444,37.10194444444445],[-122.47944444444444,37.10194444444445],[-122.41388888888889,37.03],[-122.41388888888889,37.03],[-122.41388888888889,37.03],[-122.41388888888889,37.03],[-122.41388888888889,37.03],[-122.12833333333333,36.714444444444446],[-122.12833333333333,36.714444444444446],[-122.12833333333333,36.714444444444446],[-122.12833333333333,36.714444444444446],[-122.12833333333333,36.714444444444446],[-122.12833333333333,36.714444444444446],[-122.12833333333333,36.714444444444446],[-121.97333333333333,36.54222222222222],[-121.97333333333333,36.54222222222222],[-121.97333333333333,36.54222222222222],[-121.97333333333333,36.54222222222222],[-121.97333333333333,36.54222222222222],[-121.97333333333333,36.54222222222222],[-121.97333333333333,36.54222222222222],[-121.81166666666667,36.361111111111114],[-121.81166666666667,36.361111111111114],[-121.81166666666667,36.361111111111114],[-121.72916666666667,36.26861111111111],[-121.72916666666667,36.26861111111111],[-121.72916666666667,36.26861111111111],[-121.72916666666667,36.26861111111111],[-121.72916666666667,36.26861111111111],[-121.64611111111111,36.17472222222222],[-121.64611111111111,36.17472222222222],[-121.56416666666667,36.08222222222223],[-121.56416666666667,36.08222222222223],[-121.56416666666667,36.08222222222223],[-121.56416666666667,36.08222222222223],[-121.56416666666667,36.08222222222223],[-121.56416666666667,36.08222222222223],[-121.39805555555556,35.89361111111111],[-121.39805555555556,35.89361111111111],[-121.39805555555556,35.89361111111111],[-121.39805555555556,35.89361111111111],[-121.39805555555556,35.89361111111111],[-121.39805555555556,35.89361111111111],[-121.23,35.70166666666667],[-121.23,35.70166666666667],[-121.23,35.70166666666667],[-121.23,35.70166666666667],[-121.23,35.70166666666667],[-121.23,35.70166666666667],[-121.12916666666666,35.58555555555556],[-121.12916666666666,35.58555555555556],[-121.12916666666666,35.58555555555556],[-121.06083333333333,35.51583333333333],[-121.06083333333333,35.51583333333333],[-121.06083333333333,35.51583333333333],[-121.06083333333333,35.51583333333333],[-121.06083333333333,35.51583333333333],[-121.06083333333333,35.51583333333333],[-120.94861111111112,35.43416666666666],[-120.94861111111112,35.43416666666666],[-120.94861111111112,35.43416666666666],[-120.94861111111112,35.43416666666666],[-120.94861111111112,35.43416666666666],[-120.94861111111112,35.43416666666666],[-120.94861111111112,35.43416666666666],[-120.60694444444444,35.19916666666666],[-120.60694444444444,35.19916666666666],[-120.60694444444444,35.19916666666666],[-120.60694444444444,35.19916666666666],[-120.49527777777777,35.121944444444445],[-120.49527777777777,35.121944444444445],[-120.49527777777777,35.121944444444445],[-120.365,35.031666666666666],[-120.365,35.031666666666666],[-120.365,35.031666666666666],[-120.365,35.031666666666666],[-120.27194444444444,34.966944444444444],[-120.27194444444444,34.966944444444444],[-120.27194444444444,34.966944444444444],[-120.27194444444444,34.966944444444444],[-120.27194444444444,34.966944444444444],[-120.27194444444444,34.966944444444444],[-119.82222222222222,34.651111111111106],[-119.82222222222222,34.651111111111106],[-119.82222222222222,34.651111111111106],[-119.82222222222222,34.651111111111106],[-119.82222222222222,34.651111111111106],[-119.82222222222222,34.651111111111106],[-119.71333333333334,34.57416666666667],[-119.71333333333334,34.57416666666667],[-119.71333333333334,34.57416666666667],[-119.71333333333334,34.57416666666667],[-119.71333333333334,34.57416666666667],[-119.2775,34.26361111111111],[-119.2775,34.26361111111111],[-119.2775,34.26361111111111],[-119.2775,34.26361111111111],[-119.2775,34.26361111111111],[-119.2775,34.26361111111111],[-119.16888888888889,34.18555555555555],[-119.16888888888889,34.18555555555555],[-119.06083333333333,34.10777777777778],[-119.06083333333333,34.10777777777778],[-119.06083333333333,34.10777777777778],[-119.06083333333333,34.10777777777778],[-119.06083333333333,34.10777777777778],[-119.06083333333333,34.10777777777778],[-118.73194444444445,33.869166666666665],[-118.73194444444445,33.869166666666665],[-118.73194444444445,33.869166666666665],[-118.73194444444445,33.869166666666665],[-118.73194444444445,33.869166666666665],[-118.73194444444445,33.869166666666665],[-118.73194444444445,33.869166666666665],[-118.17805555555556,33.462500000000006],[-118.17805555555556,33.462500000000006],[-118.17805555555556,33.462500000000006],[-118.17805555555556,33.462500000000006],[-118.06388888888888,33.37777777777778],[-118.06388888888888,33.37777777777778],[-118.06388888888888,33.37777777777778],[-118.06388888888888,33.37777777777778],[-118.06388888888888,33.37777777777778],[-117.835,33.2075],[-117.835,33.2075],[-117.835,33.2075],[-117.835,33.2075],[-117.835,33.2075],[-117.835,33.2075],[-117.835,33.2075],[-117.60444444444444,33.03472222222222],[-117.60444444444444,33.03472222222222],[-117.48972222222223,32.94833333333333],[-117.37527777777777,32.86194444444445],[-117.37527777777777,32.86194444444445],[-117.37527777777777,32.86194444444445],[-117.37527777777777,32.86194444444445],[-117.37527777777777,32.86194444444445],[-117.24416666666667,32.76277777777778],[-117.24416666666667,32.76277777777778],[-117.24416666666667,32.76277777777778],[-117.24416666666667,32.76277777777778],[-117.24416666666667,32.76277777777778],[-117.24416666666667,32.76277777777778],[-117.01722222222222,32.58972222222222],[-117.01722222222222,32.58972222222222],[-117.01722222222222,32.58972222222222],[-117.01722222222222,32.58972222222222],[-117.01722222222222,32.58972222222222],[-117.01722222222222,32.58972222222222],[-117.01722222222222,32.58972222222222],[-117.01722222222222,32.58972222222222]],"type":"LineString"}
}
