{
  "id": 2014853563,
  "type": "Feature",
  "properties": {
    "geom:area": 0,
    "geom:bbox": "-180.000000,37.500000,170.150000,56.000000",
    "geom:latitude": 52.26358156869459,
    "geom:longitude": -8.504877814355652,
    "src:alt_label": "swim-route",
    "src:geom": "swim",
    "swim:geom": "route",
    "wof:geomhash": "95fd2a01f44d43f22e18118288381aa3",
    "wof:id": 2014853563,
    "wof:repo": "sfomuseum-data-flights-2026-02"
  },
  "bbox": [
    -180,
    37.5,
    170.15,
    56
  ],
  "geometry": {"coordinates":[[[126.45,37.5],[126.6,37.51],[126.71,37.52],[126.84,37.54],[126.97,37.55],[127.18,37.57],[127.59,37.61],[127.86,37.63],[128.17,37.65],[128.37,37.67],[128.38,37.67],[128.46,37.68],[128.63,37.69],[128.75,37.7],[129,37.7],[129.52,37.69],[129.91,37.68],[131.57,37.64],[133,37.74],[133.47,37.76],[134.47,37.82],[137.46,37.93],[139.11,37.95],[139.76,37.94],[141.75,37.89],[143.54,37.82],[144.65,38.81],[144.66,38.81],[148.22,41.74],[153.72,45.53],[155.43,46.56],[160.01,48.99],[160.02,49],[160.04,49.01],[161.13,49.51],[164.44,50.9],[165.63,51.36],[170.15,52.94]],[[-180,55],[-177.2,55.37],[-174.35,55.67],[-170,56],[-169.07,55.94],[-166.29,55.73],[-160,55],[-157.95,54.31],[-157.94,54.3],[-150,51],[-147.82,50.06],[-145.72,49.09],[-141.77,47.02],[-140,46],[-135.84,44.51],[-130,42],[-127,40.63],[-127,40.62],[-124.34,39.31],[-124.1,39.18],[-123.99,39.13],[-123.94,39.1],[-123.75,39],[-123.61,38.89],[-123.55,38.85],[-123.32,38.67],[-123.28,38.63],[-123.13,38.52],[-123.12,38.51],[-123.09,38.48],[-122.93,38.36],[-122.77,38.22],[-122.73,38.11],[-122.73,38.1],[-122.68,37.94],[-122.67,37.9],[-122.68,37.85],[-122.68,37.84],[-122.69,37.79],[-122.71,37.72],[-122.71,37.7],[-122.68,37.7],[-122.6,37.68],[-122.53,37.67],[-122.48,37.66],[-122.47,37.71],[-122.45,37.74],[-122.42,37.69],[-122.38,37.62]]],"type":"MultiLineString"}
}
