{
  "id": 2014901981,
  "type": "Feature",
  "properties": {
    "geom:area": 0,
    "geom:bbox": "-122.456944,33.964722,-118.250000,37.704167",
    "geom:latitude": 35.77557805814217,
    "geom:longitude": -120.4010686434002,
    "src:alt_label": "swim-path",
    "src:geom": "swim",
    "swim:altitudes": [
      "029",
      "052",
      "052",
      "078",
      "134",
      "134",
      "134",
      "134",
      "134",
      "190",
      "190",
      "310C",
      "310C",
      "310C",
      "310C",
      "310C",
      "310C",
      "310C",
      "310C",
      "310C",
      "310C",
      "310C",
      "310C",
      "310C",
      "310C",
      "310C",
      "310C",
      "310C",
      "310C",
      "310C",
      "310C",
      "310C",
      "310C",
      "310C",
      "310C",
      "310",
      "310",
      "310",
      "310",
      "310",
      "303",
      "276",
      "276",
      "276",
      "276",
      "260",
      "239",
      "239",
      "216",
      "216",
      "216",
      "216",
      "175",
      "175",
      "169",
      "169",
      "149",
      "149",
      "136",
      "129",
      "111",
      "099",
      "099",
      "086",
      "086",
      "086",
      "086",
      "081",
      "081",
      "081",
      "067",
      "067",
      "058",
      "058",
      "058",
      "026",
      "026",
      "026",
      "026",
      "019",
      "016",
      "016",
      "016",
      "016",
      "016"
    ],
    "swim:geom": "path",
    "swim:speeds": [
      220,
      265,
      265,
      288,
      359,
      359,
      359,
      359,
      359,
      381,
      381,
      467,
      467,
      467,
      467,
      467,
      467,
      467,
      464,
      463,
      463,
      463,
      463,
      466,
      465,
      465,
      466,
      466,
      466,
      466,
      458,
      458,
      458,
      458,
      458,
      457,
      457,
      457,
      457,
      457,
      460,
      446,
      446,
      446,
      446,
      433,
      416,
      416,
      405,
      405,
      405,
      405,
      385,
      385,
      377,
      377,
      369,
      369,
      368,
      362,
      327,
      313,
      313,
      292,
      292,
      292,
      292,
      285,
      285,
      285,
      245,
      245,
      240,
      240,
      240,
      207,
      207,
      207,
      207,
      199,
      179,
      179,
      179,
      179,
      179
    ],
    "swim:timestamps": [
      1772201091,
      1772201151,
      1772201151,
      1772201211,
      1772201331,
      1772201331,
      1772201331,
      1772201331,
      1772201331,
      1772201446,
      1772201446,
      1772201872,
      1772201872,
      1772201872,
      1772201872,
      1772201872,
      1772201927,
      1772201927,
      1772201987,
      1772202052,
      1772202052,
      1772202052,
      1772202052,
      1772202107,
      1772202232,
      1772202232,
      1772202287,
      1772202287,
      1772202287,
      1772202287,
      1772202588,
      1772202588,
      1772202588,
      1772202588,
      1772202588,
      1772202768,
      1772202768,
      1772202768,
      1772202768,
      1772202768,
      1772202948,
      1772203012,
      1772203012,
      1772203012,
      1772203012,
      1772203069,
      1772203129,
      1772203129,
      1772203189,
      1772203189,
      1772203189,
      1772203189,
      1772203309,
      1772203309,
      1772203333,
      1772203333,
      1772203392,
      1772203392,
      1772203429,
      1772203453,
      1772203549,
      1772203609,
      1772203609,
      1772203669,
      1772203669,
      1772203669,
      1772203669,
      1772203693,
      1772203693,
      1772203693,
      1772203790,
      1772203790,
      1772203819,
      1772203819,
      1772203819,
      1772203994,
      1772203994,
      1772203994,
      1772203994,
      1772204030,
      1772204052,
      1772204052,
      1772204052,
      1772204052,
      1772204052
    ],
    "wof:geomhash": "9bc156547b91b2dc4db6b5c3c5ebe2fb",
    "wof:id": 2014901981,
    "wof:repo": "sfomuseum-data-flights-2026-02"
  },
  "bbox": [
    -122.45694444444445,
    33.96472222222223,
    -118.25,
    37.70416666666667
  ],
  "geometry": {"coordinates":[[-122.37305555555555,37.70416666666667],[-122.44527777777778,37.69166666666666],[-122.44527777777778,37.69166666666666],[-122.45694444444445,37.61194444444445],[-122.42166666666667,37.44777777777777],[-122.42166666666667,37.44777777777777],[-122.42166666666667,37.44777777777777],[-122.42166666666667,37.44777777777777],[-122.42166666666667,37.44777777777777],[-122.22055555555556,37.302499999999995],[-122.22055555555556,37.302499999999995],[-121.41833333333334,36.70277777777778],[-121.41833333333334,36.70277777777778],[-121.41833333333334,36.70277777777778],[-121.41833333333334,36.70277777777778],[-121.41833333333334,36.70277777777778],[-121.30722222222222,36.61666666666667],[-121.30722222222222,36.61666666666667],[-121.19166666666668,36.52972222222222],[-121.07055555555556,36.43805555555555],[-121.07055555555556,36.43805555555555],[-121.07055555555556,36.43805555555555],[-121.07055555555556,36.43805555555555],[-120.95194444444445,36.355000000000004],[-120.70583333333333,36.183055555555555],[-120.70583333333333,36.183055555555555],[-120.58666666666666,36.09916666666667],[-120.58666666666666,36.09916666666667],[-120.58666666666666,36.09916666666667],[-120.58666666666666,36.09916666666667],[-120.07,35.615833333333335],[-120.07,35.615833333333335],[-120.07,35.615833333333335],[-120.07,35.615833333333335],[-120.07,35.615833333333335],[-119.83888888888889,35.308611111111105],[-119.83888888888889,35.308611111111105],[-119.83888888888889,35.308611111111105],[-119.83888888888889,35.308611111111105],[-119.83888888888889,35.308611111111105],[-119.55694444444444,35.001666666666665],[-119.44416666666667,34.87972222222222],[-119.44416666666667,34.87972222222222],[-119.44416666666667,34.87972222222222],[-119.44416666666667,34.87972222222222],[-119.37722222222222,34.80444444444444],[-119.2936111111111,34.709722222222226],[-119.2936111111111,34.709722222222226],[-119.20055555555555,34.6025],[-119.20055555555555,34.6025],[-119.20055555555555,34.6025],[-119.20055555555555,34.6025],[-119.04583333333333,34.42722222222222],[-119.04583333333333,34.42722222222222],[-119.01666666666667,34.4],[-119.01666666666667,34.4],[-118.95,34.31666666666667],[-118.95,34.31666666666667],[-118.89888888888889,34.26083333333333],[-118.86666666666666,34.233333333333334],[-118.75611111111111,34.115],[-118.68527777777778,34.049166666666665],[-118.68527777777778,34.049166666666665],[-118.59583333333333,34.02361111111111],[-118.59583333333333,34.02361111111111],[-118.59583333333333,34.02361111111111],[-118.59583333333333,34.02361111111111],[-118.56666666666666,34.016666666666666],[-118.56666666666666,34.016666666666666],[-118.56666666666666,34.016666666666666],[-118.42055555555557,34.01638888888889],[-118.42055555555557,34.01638888888889],[-118.38333333333334,34.016666666666666],[-118.38333333333334,34.016666666666666],[-118.38333333333334,34.016666666666666],[-118.25,33.983333333333334],[-118.25,33.983333333333334],[-118.25,33.983333333333334],[-118.25,33.983333333333334],[-118.28944444444444,33.96472222222223],[-118.31666666666666,33.96666666666667],[-118.31666666666666,33.96666666666667],[-118.31666666666666,33.96666666666667],[-118.31666666666666,33.96666666666667],[-118.31666666666666,33.96666666666667]],"type":"LineString"}
}
