{
  "id": 2014790227,
  "type": "Feature",
  "properties": {
    "geom:area": 0,
    "geom:bbox": "-122.345278,35.871667,-115.234722,37.689444",
    "geom:latitude": 37.1318883145592,
    "geom:longitude": -118.59723365763037,
    "src:alt_label": "swim-path",
    "src:geom": "swim",
    "swim:altitudes": [
      "071",
      "071",
      "071",
      "071",
      "071",
      "109",
      "109",
      "136",
      "164",
      "164",
      "164",
      "194",
      "194",
      "194",
      "268",
      "268",
      "268",
      "268",
      "284",
      "284",
      "359C",
      "359C",
      "359C",
      "360C",
      "360C",
      "360C",
      "360C",
      "360C",
      "360C",
      "360C",
      "360C",
      "360C",
      "360C",
      "360C",
      "360C",
      "360C",
      "360C",
      "360C",
      "360C",
      "360C",
      "360C",
      "360C",
      "360C",
      "360C",
      "360C",
      "360C",
      "340C",
      "340C",
      "340C",
      "340C",
      "340C",
      "340C",
      "340C",
      "340C",
      "340C",
      "340C",
      "340C",
      "340C",
      "340C",
      "340C",
      "340C",
      "340C",
      "340C",
      "340C",
      "340C",
      "340C",
      "340C",
      "340",
      "340",
      "340",
      "340",
      "340",
      "332",
      "332",
      "323",
      "323",
      "323",
      "298",
      "298",
      "298",
      "287",
      "287",
      "253",
      "243",
      "243",
      "243",
      "188",
      "188",
      "161",
      "148",
      "128",
      "120",
      "120",
      "104",
      "104",
      "100",
      "097",
      "088",
      "088",
      "088",
      "079",
      "079",
      "059",
      "058",
      "058",
      "058",
      "058",
      "058",
      "045",
      "039",
      "039",
      "039",
      "039",
      "024",
      "024",
      "006",
      "006",
      "006",
      "003",
      "003",
      "003"
    ],
    "swim:geom": "path",
    "swim:speeds": [
      244,
      244,
      244,
      244,
      244,
      287,
      287,
      336,
      367,
      367,
      367,
      363,
      363,
      363,
      378,
      378,
      378,
      378,
      404,
      404,
      402,
      402,
      402,
      393,
      393,
      399,
      399,
      389,
      387,
      397,
      397,
      397,
      397,
      397,
      397,
      397,
      397,
      394,
      394,
      394,
      366,
      366,
      366,
      366,
      366,
      366,
      374,
      374,
      374,
      375,
      375,
      375,
      375,
      375,
      375,
      375,
      375,
      375,
      376,
      373,
      373,
      373,
      373,
      373,
      373,
      369,
      369,
      367,
      367,
      367,
      367,
      367,
      368,
      368,
      364,
      364,
      364,
      360,
      360,
      360,
      355,
      355,
      341,
      329,
      329,
      329,
      333,
      333,
      317,
      322,
      331,
      323,
      323,
      313,
      313,
      286,
      269,
      265,
      265,
      265,
      246,
      246,
      236,
      222,
      222,
      222,
      222,
      222,
      219,
      225,
      225,
      225,
      225,
      199,
      199,
      145,
      145,
      145,
      147,
      147,
      147
    ],
    "swim:timestamps": [
      1771084807,
      1771084807,
      1771084807,
      1771084807,
      1771084807,
      1771084867,
      1771084867,
      1771084927,
      1771084987,
      1771084987,
      1771084987,
      1771085047,
      1771085047,
      1771085047,
      1771085227,
      1771085227,
      1771085227,
      1771085227,
      1771085287,
      1771085287,
      1771085528,
      1771085528,
      1771085528,
      1771085588,
      1771085588,
      1771085637,
      1771085637,
      1771085768,
      1771085888,
      1771085937,
      1771085937,
      1771085937,
      1771085948,
      1771085948,
      1771086117,
      1771086117,
      1771086117,
      1771086249,
      1771086249,
      1771086249,
      1771086309,
      1771086309,
      1771086358,
      1771086369,
      1771086369,
      1771086369,
      1771086598,
      1771086598,
      1771086609,
      1771086669,
      1771086778,
      1771086778,
      1771086850,
      1771086850,
      1771086898,
      1771086898,
      1771086898,
      1771086898,
      1771087030,
      1771087139,
      1771087139,
      1771087139,
      1771087139,
      1771087139,
      1771087139,
      1771087259,
      1771087259,
      1771087439,
      1771087439,
      1771087499,
      1771087499,
      1771087499,
      1771087559,
      1771087559,
      1771087619,
      1771087619,
      1771087619,
      1771087739,
      1771087739,
      1771087739,
      1771087762,
      1771087762,
      1771087859,
      1771087882,
      1771087882,
      1771087882,
      1771088040,
      1771088040,
      1771088117,
      1771088160,
      1771088220,
      1771088242,
      1771088242,
      1771088297,
      1771088297,
      1771088340,
      1771088357,
      1771088400,
      1771088400,
      1771088400,
      1771088460,
      1771088460,
      1771088580,
      1771088603,
      1771088603,
      1771088603,
      1771088603,
      1771088603,
      1771088668,
      1771088700,
      1771088700,
      1771088700,
      1771088700,
      1771088789,
      1771088789,
      1771088914,
      1771088914,
      1771088914,
      1771088941,
      1771088941,
      1771088941
    ],
    "wof:geomhash": "2e5232d968e0fdf9ffe4579b599791d9",
    "wof:id": 2014790227,
    "wof:repo": "sfomuseum-data-flights-2026-02"
  },
  "bbox": [
    -122.34527777777777,
    35.87166666666667,
    -115.23472222222222,
    37.68944444444444
  ],
  "geometry": {"coordinates":[[-115.23472222222222,36.11472222222223],[-115.23472222222222,36.11472222222223],[-115.23472222222222,36.11472222222223],[-115.23472222222222,36.11472222222223],[-115.23472222222222,36.11472222222223],[-115.31027777777777,36.07027777777778],[-115.31027777777777,36.07027777777778],[-115.34805555555555,35.98888888888889],[-115.3963888888889,35.8975],[-115.3963888888889,35.8975],[-115.3963888888889,35.8975],[-115.50944444444444,35.87166666666667],[-115.50944444444444,35.87166666666667],[-115.50944444444444,35.87166666666667],[-115.88055555555555,35.89222222222222],[-115.88055555555555,35.89222222222222],[-115.88055555555555,35.89222222222222],[-115.88055555555555,35.89222222222222],[-115.99333333333334,35.94027777777777],[-115.99333333333334,35.94027777777777],[-116.38722222222223,36.2575],[-116.38722222222223,36.2575],[-116.38722222222223,36.2575],[-116.48111111111112,36.334722222222226],[-116.48111111111112,36.334722222222226],[-116.55805555555555,36.4],[-116.55805555555555,36.4],[-116.75333333333333,36.569722222222225],[-116.93388888888889,36.72916666666667],[-116.98944444444444,36.80611111111111],[-116.98944444444444,36.80611111111111],[-116.98944444444444,36.80611111111111],[-117.00222222222222,36.825833333333335],[-117.00222222222222,36.825833333333335],[-117.18055555555556,37.10027777777778],[-117.18055555555556,37.10027777777778],[-117.18055555555556,37.10027777777778],[-117.32666666666667,37.31305555555555],[-117.32666666666667,37.31305555555555],[-117.32666666666667,37.31305555555555],[-117.43583333333333,37.36055555555556],[-117.43583333333333,37.36055555555556],[-117.53833333333333,37.37388888888889],[-117.56388888888888,37.37694444444445],[-117.56388888888888,37.37694444444445],[-117.56388888888888,37.37694444444445],[-118.05222222222221,37.4375],[-118.05222222222221,37.4375],[-118.07694444444444,37.440555555555555],[-118.20861111111111,37.45638888888889],[-118.44305555555556,37.48444444444444],[-118.44305555555556,37.48444444444444],[-118.59972222222221,37.50277777777778],[-118.59972222222221,37.50277777777778],[-118.70277777777778,37.514722222222225],[-118.70277777777778,37.514722222222225],[-118.70277777777778,37.514722222222225],[-118.70277777777778,37.514722222222225],[-118.98944444444444,37.5475],[-119.20833333333334,37.57222222222222],[-119.20833333333334,37.57222222222222],[-119.20833333333334,37.57222222222222],[-119.20833333333334,37.57222222222222],[-119.20833333333334,37.57222222222222],[-119.20833333333334,37.57222222222222],[-119.46111111111111,37.6],[-119.46111111111111,37.6],[-119.85249999999999,37.64194444444444],[-119.85249999999999,37.64194444444444],[-119.98027777777779,37.65555555555555],[-119.98027777777779,37.65555555555555],[-119.98027777777779,37.65555555555555],[-120.10888888888888,37.66888888888889],[-120.10888888888888,37.66888888888889],[-120.23472222222222,37.68194444444444],[-120.23472222222222,37.68194444444444],[-120.23472222222222,37.68194444444444],[-120.48833333333333,37.68944444444444],[-120.48833333333333,37.68944444444444],[-120.48833333333333,37.68944444444444],[-120.55,37.68333333333333],[-120.55,37.68333333333333],[-120.72944444444444,37.66111111111111],[-120.78333333333333,37.65],[-120.78333333333333,37.65],[-120.78333333333333,37.65],[-121.07722222222222,37.617777777777775],[-121.07722222222222,37.617777777777775],[-121.23333333333333,37.6],[-121.30111111111111,37.588055555555556],[-121.41444444444446,37.57527777777778],[-121.46666666666667,37.56666666666667],[-121.46666666666667,37.56666666666667],[-121.56666666666666,37.55],[-121.56666666666666,37.55],[-121.63166666666666,37.549166666666665],[-121.66666666666667,37.55],[-121.72111111111111,37.52777777777778],[-121.72111111111111,37.52777777777778],[-121.72111111111111,37.52777777777778],[-121.80472222222222,37.507777777777775],[-121.80472222222222,37.507777777777775],[-121.97,37.49611111111111],[-122,37.5],[-122,37.5],[-122,37.5],[-122,37.5],[-122,37.5],[-122.08333333333333,37.5],[-122.12249999999999,37.51416666666667],[-122.12249999999999,37.51416666666667],[-122.12249999999999,37.51416666666667],[-122.12249999999999,37.51416666666667],[-122.23333333333333,37.56666666666667],[-122.23333333333333,37.56666666666667],[-122.33333333333333,37.6],[-122.33333333333333,37.6],[-122.33333333333333,37.6],[-122.34527777777777,37.608333333333334],[-122.34527777777777,37.608333333333334],[-122.34527777777777,37.608333333333334]],"type":"LineString"}
}
