{
  "id": 2014880611,
  "type": "Feature",
  "properties": {
    "geom:area": 0,
    "geom:bbox": "-122.322778,37.483333,-87.933333,41.983333",
    "geom:latitude": 39.75983395118529,
    "geom:longitude": -105.14310084004968,
    "src:alt_label": "swim-path",
    "src:geom": "swim",
    "swim:altitudes": [
      "015",
      "015",
      "015",
      "050",
      "050",
      "050",
      "070",
      "096",
      "096",
      "112",
      "112",
      "112",
      "126",
      "184",
      "184",
      "184",
      "220",
      "220",
      "237",
      "237",
      "248",
      "248",
      "280C",
      "280C",
      "280C",
      "280C",
      "280C",
      "280C",
      "280C",
      "280C",
      "280C",
      "280C",
      "280C",
      "280C",
      "280C",
      "280C",
      "280C",
      "280C",
      "280C",
      "280C",
      "280C",
      "280C",
      "280C",
      "280C",
      "280C",
      "280C",
      "280C",
      "280C",
      "280C",
      "280C",
      "280C",
      "280C",
      "280C",
      "280C",
      "280C",
      "280C",
      "280C",
      "280C",
      "280C",
      "280C",
      "280C",
      "280C",
      "280C",
      "280C",
      "280C",
      "280C",
      "280C",
      "280C",
      "280C",
      "280C",
      "280C",
      "280C",
      "280C",
      "280C",
      "280C",
      "280C",
      "280C",
      "280C",
      "280C",
      "280C",
      "280C",
      "280C",
      "280C",
      "280C",
      "280C",
      "280C",
      "280C",
      "280C",
      "280C",
      "280C",
      "280C",
      "280C",
      "280C",
      "280C",
      "280C",
      "280C",
      "280C",
      "280C",
      "280C",
      "280C",
      "280C",
      "280C",
      "280C",
      "280C",
      "280C",
      "280C",
      "280C",
      "280C",
      "280C",
      "280C",
      "280C",
      "280C",
      "280C",
      "280C",
      "280C",
      "280C",
      "280C",
      "280C",
      "280C",
      "280C",
      "280C",
      "280C",
      "280C",
      "280C",
      "280C",
      "280C",
      "280C",
      "280C",
      "280C",
      "280C",
      "280C",
      "280C",
      "280C",
      "280C",
      "280C",
      "280C",
      "280C",
      "280C",
      "280C",
      "280C",
      "280C",
      "280C",
      "280C",
      "280C",
      "280C",
      "280C",
      "280C",
      "280C",
      "280C",
      "280C",
      "280C",
      "280C",
      "280C",
      "280C",
      "280C",
      "280C",
      "280C",
      "280C",
      "280C",
      "280C",
      "280C",
      "280C",
      "280C",
      "280C",
      "280C",
      "280C",
      "280C",
      "280C",
      "280C",
      "280C",
      "280C",
      "280C",
      "280C",
      "280C",
      "280C",
      "280C",
      "280C",
      "280C",
      "280C",
      "283",
      "283",
      "299",
      "299",
      "312",
      "313",
      "313",
      "313",
      "320C",
      "320C",
      "320C",
      "320C",
      "320C",
      "320C",
      "320C",
      "320C",
      "320C",
      "320C",
      "320C",
      "320C",
      "320C",
      "320C",
      "320C",
      "320C",
      "320C",
      "320C",
      "320C",
      "320C",
      "320C",
      "320C",
      "320C",
      "320C",
      "320C",
      "320C",
      "320C",
      "320C",
      "320C",
      "320C",
      "320C",
      "320C",
      "320C",
      "320C",
      "320C",
      "320C",
      "320C",
      "320C",
      "320C",
      "320C",
      "320C",
      "320C",
      "320C",
      "320C",
      "320C",
      "320C",
      "320C",
      "320C",
      "320C",
      "320C",
      "320C",
      "320C",
      "320C",
      "320C",
      "320C",
      "320C",
      "320C",
      "320C",
      "320C",
      "320C",
      "320C",
      "320C",
      "320C",
      "320C",
      "320C",
      "320C",
      "320C",
      "320C",
      "320C",
      "320C",
      "320C",
      "320C",
      "320C",
      "320C",
      "320C",
      "320C",
      "320C",
      "320C",
      "320C",
      "320C",
      "320C",
      "320C",
      "320C",
      "320C",
      "320C",
      "320C",
      "320C",
      "320C",
      "320C",
      "320C",
      "320C",
      "320C",
      "320C",
      "320C",
      "320C",
      "320C",
      "320C",
      "320C",
      "320C",
      "320C",
      "320C",
      "320C",
      "320C",
      "320C",
      "320C",
      "320C",
      "320C",
      "320C",
      "320C",
      "320C",
      "320C",
      "320C",
      "320C",
      "320C",
      "320C",
      "320C",
      "320C",
      "320C",
      "320C",
      "320C",
      "320C",
      "320C",
      "320C",
      "320",
      "320",
      "320",
      "320",
      "320",
      "320",
      "320",
      "296",
      "296",
      "296",
      "268",
      "250",
      "250",
      "244",
      "228",
      "228",
      "207",
      "207",
      "118",
      "118",
      "109",
      "084",
      "084",
      "081",
      "072",
      "069",
      "062",
      "060",
      "060",
      "053",
      "051",
      "051",
      "043",
      "035",
      "035",
      "025",
      "015",
      "015",
      "007"
    ],
    "swim:geom": "path",
    "swim:speeds": [
      176,
      176,
      176,
      226,
      226,
      226,
      228,
      232,
      232,
      274,
      274,
      274,
      317,
      361,
      361,
      361,
      370,
      370,
      370,
      370,
      375,
      375,
      370,
      370,
      370,
      370,
      366,
      366,
      366,
      360,
      368,
      368,
      367,
      367,
      368,
      368,
      367,
      367,
      369,
      368,
      368,
      368,
      368,
      368,
      369,
      368,
      368,
      368,
      368,
      369,
      368,
      368,
      368,
      368,
      371,
      371,
      371,
      369,
      369,
      372,
      373,
      374,
      372,
      372,
      370,
      370,
      369,
      369,
      369,
      369,
      369,
      369,
      369,
      373,
      373,
      374,
      372,
      372,
      370,
      370,
      370,
      370,
      369,
      369,
      369,
      368,
      368,
      368,
      368,
      369,
      369,
      370,
      370,
      371,
      371,
      371,
      370,
      369,
      368,
      368,
      368,
      368,
      367,
      363,
      363,
      362,
      362,
      361,
      362,
      363,
      363,
      363,
      364,
      364,
      364,
      365,
      365,
      365,
      364,
      364,
      364,
      364,
      364,
      364,
      364,
      360,
      360,
      360,
      364,
      364,
      368,
      369,
      371,
      371,
      370,
      370,
      368,
      367,
      368,
      368,
      368,
      370,
      370,
      372,
      373,
      374,
      374,
      374,
      374,
      374,
      372,
      372,
      372,
      372,
      372,
      372,
      375,
      375,
      375,
      375,
      375,
      377,
      377,
      383,
      385,
      386,
      386,
      386,
      386,
      383,
      373,
      381,
      381,
      381,
      351,
      351,
      357,
      357,
      355,
      356,
      356,
      354,
      354,
      356,
      352,
      352,
      352,
      354,
      351,
      351,
      353,
      353,
      353,
      352,
      349,
      349,
      352,
      350,
      350,
      350,
      351,
      358,
      358,
      358,
      359,
      359,
      360,
      361,
      361,
      361,
      360,
      359,
      359,
      358,
      358,
      359,
      363,
      364,
      364,
      364,
      366,
      370,
      371,
      371,
      373,
      371,
      364,
      364,
      365,
      365,
      369,
      369,
      371,
      371,
      373,
      373,
      367,
      367,
      353,
      354,
      354,
      356,
      356,
      357,
      357,
      358,
      358,
      361,
      367,
      368,
      368,
      367,
      367,
      370,
      370,
      371,
      371,
      370,
      370,
      370,
      371,
      371,
      375,
      374,
      374,
      375,
      375,
      377,
      378,
      378,
      379,
      379,
      379,
      379,
      379,
      379,
      379,
      379,
      372,
      371,
      371,
      371,
      368,
      368,
      368,
      367,
      367,
      366,
      366,
      366,
      367,
      368,
      370,
      370,
      370,
      370,
      370,
      371,
      371,
      369,
      369,
      369,
      368,
      367,
      367,
      367,
      369,
      370,
      370,
      370,
      365,
      365,
      364,
      364,
      364,
      366,
      366,
      363,
      363,
      363,
      351,
      349,
      349,
      342,
      339,
      339,
      329,
      329,
      256,
      256,
      250,
      244,
      244,
      238,
      235,
      231,
      230,
      225,
      225,
      221,
      217,
      217,
      220,
      197,
      197,
      193,
      166,
      166,
      156
    ],
    "swim:timestamps": [
      1772040304,
      1772040304,
      1772040304,
      1772040401,
      1772040401,
      1772040401,
      1772040448,
      1772040508,
      1772040508,
      1772040568,
      1772040568,
      1772040568,
      1772040628,
      1772040808,
      1772040808,
      1772040808,
      1772040928,
      1772040928,
      1772040988,
      1772040988,
      1772041048,
      1772041048,
      1772041169,
      1772041169,
      1772041169,
      1772041169,
      1772041349,
      1772041469,
      1772041469,
      1772041492,
      1772041529,
      1772041529,
      1772041552,
      1772041552,
      1772041589,
      1772041589,
      1772041612,
      1772041612,
      1772041649,
      1772041769,
      1772041792,
      1772041792,
      1772041830,
      1772041830,
      1772041890,
      1772041913,
      1772041973,
      1772041973,
      1772041973,
      1772042010,
      1772042093,
      1772042093,
      1772042093,
      1772042153,
      1772042250,
      1772042250,
      1772042250,
      1772042273,
      1772042273,
      1772042310,
      1772042370,
      1772042430,
      1772042513,
      1772042513,
      1772042574,
      1772042574,
      1772042611,
      1772042611,
      1772042634,
      1772042731,
      1772042731,
      1772042731,
      1772042731,
      1772042874,
      1772042874,
      1772042934,
      1772042994,
      1772042994,
      1772043054,
      1772043054,
      1772043091,
      1772043091,
      1772043151,
      1772043151,
      1772043151,
      1772043272,
      1772043294,
      1772043332,
      1772043332,
      1772043355,
      1772043392,
      1772043415,
      1772043415,
      1772043475,
      1772043475,
      1772043475,
      1772043595,
      1772043655,
      1772043715,
      1772043715,
      1772043715,
      1772043715,
      1772043775,
      1772043955,
      1772043955,
      1772044015,
      1772044015,
      1772044076,
      1772044136,
      1772044196,
      1772044196,
      1772044196,
      1772044256,
      1772044256,
      1772044256,
      1772044376,
      1772044376,
      1772044376,
      1772044496,
      1772044496,
      1772044616,
      1772044676,
      1772044676,
      1772044676,
      1772044736,
      1772044780,
      1772044780,
      1772044780,
      1772044797,
      1772044797,
      1772044977,
      1772045037,
      1772045140,
      1772045140,
      1772045217,
      1772045217,
      1772045397,
      1772045441,
      1772045561,
      1772045638,
      1772045638,
      1772045741,
      1772045741,
      1772045938,
      1772045998,
      1772046041,
      1772046041,
      1772046161,
      1772046161,
      1772046342,
      1772046522,
      1772046522,
      1772046702,
      1772046702,
      1772046702,
      1772046943,
      1772047123,
      1772047123,
      1772047303,
      1772047363,
      1772047363,
      1772047483,
      1772047483,
      1772047543,
      1772047664,
      1772047724,
      1772047724,
      1772047844,
      1772047904,
      1772048024,
      1772048144,
      1772048255,
      1772048255,
      1772048255,
      1772048445,
      1772048445,
      1772048555,
      1772048555,
      1772048625,
      1772048736,
      1772048736,
      1772048805,
      1772048805,
      1772048856,
      1772048865,
      1772048865,
      1772048865,
      1772048916,
      1772048925,
      1772048925,
      1772049036,
      1772049036,
      1772049096,
      1772049276,
      1772049286,
      1772049286,
      1772049337,
      1772049406,
      1772049406,
      1772049406,
      1772049457,
      1772049586,
      1772049637,
      1772049637,
      1772049706,
      1772049706,
      1772049766,
      1772049817,
      1772049826,
      1772049826,
      1772049947,
      1772049997,
      1772049997,
      1772050057,
      1772050057,
      1772050127,
      1772050247,
      1772050298,
      1772050298,
      1772050298,
      1772050367,
      1772050538,
      1772050547,
      1772050547,
      1772050598,
      1772050668,
      1772050728,
      1772050728,
      1772050778,
      1772050778,
      1772050839,
      1772050839,
      1772050959,
      1772050959,
      1772051019,
      1772051019,
      1772051079,
      1772051079,
      1772051199,
      1772051259,
      1772051259,
      1772051439,
      1772051439,
      1772051499,
      1772051499,
      1772051559,
      1772051559,
      1772051680,
      1772051740,
      1772051800,
      1772051800,
      1772051860,
      1772051860,
      1772051980,
      1772051980,
      1772052100,
      1772052100,
      1772052160,
      1772052160,
      1772052160,
      1772052401,
      1772052401,
      1772052521,
      1772052641,
      1772052641,
      1772052701,
      1772052701,
      1772052941,
      1772053001,
      1772053001,
      1772053045,
      1772053122,
      1772053122,
      1772053225,
      1772053362,
      1772053362,
      1772053422,
      1772053422,
      1772053526,
      1772053542,
      1772053542,
      1772053542,
      1772053586,
      1772053602,
      1772053602,
      1772053766,
      1772053782,
      1772053826,
      1772053826,
      1772053826,
      1772053886,
      1772053963,
      1772054023,
      1772054066,
      1772054083,
      1772054083,
      1772054143,
      1772054246,
      1772054246,
      1772054306,
      1772054323,
      1772054323,
      1772054367,
      1772054487,
      1772054487,
      1772054487,
      1772054607,
      1772054727,
      1772054727,
      1772054727,
      1772055027,
      1772055027,
      1772055087,
      1772055148,
      1772055148,
      1772055268,
      1772055275,
      1772055388,
      1772055388,
      1772055388,
      1772055456,
      1772055508,
      1772055508,
      1772055516,
      1772055568,
      1772055568,
      1772055628,
      1772055628,
      1772055929,
      1772055929,
      1772055989,
      1772056109,
      1772056109,
      1772056116,
      1772056169,
      1772056176,
      1772056229,
      1772056236,
      1772056236,
      1772056289,
      1772056296,
      1772056296,
      1772056349,
      1772056409,
      1772056409,
      1772056469,
      1772056529,
      1772056529,
      1772056589
    ],
    "wof:geomhash": "4364bc793cb38d7a1dcf92dbaf2c8da7",
    "wof:id": 2014880611,
    "wof:repo": "sfomuseum-data-flights-2026-02"
  },
  "bbox": [
    -122.32277777777777,
    37.483333333333334,
    -87.93333333333334,
    41.983333333333334
  ],
  "geometry": {"coordinates":[[-87.93333333333334,41.983333333333334],[-87.93333333333334,41.983333333333334],[-87.93333333333334,41.983333333333334],[-88.06666666666666,41.983333333333334],[-88.06666666666666,41.983333333333334],[-88.06666666666666,41.983333333333334],[-88.12166666666666,41.962500000000006],[-88.205,41.94277777777778],[-88.205,41.94277777777778],[-88.29722222222222,41.92166666666667],[-88.29722222222222,41.92166666666667],[-88.29722222222222,41.92166666666667],[-88.405,41.894444444444446],[-88.7675,41.80638888888888],[-88.7675,41.80638888888888],[-88.7675,41.80638888888888],[-89.03527777777778,41.766666666666666],[-89.03527777777778,41.766666666666666],[-89.17055555555557,41.74888888888889],[-89.17055555555557,41.74888888888889],[-89.30805555555555,41.730555555555554],[-89.30805555555555,41.730555555555554],[-89.585,41.69277777777778],[-89.585,41.69277777777778],[-89.585,41.69277777777778],[-89.585,41.69277777777778],[-89.98083333333334,41.6325],[-90.24527777777777,41.58916666666667],[-90.24527777777777,41.58916666666667],[-90.30833333333334,41.57555555555556],[-90.37722222222222,41.56722222222223],[-90.37722222222222,41.56722222222223],[-90.44527777777778,41.55638888888888],[-90.44527777777778,41.55638888888888],[-90.51138888888889,41.544999999999995],[-90.51138888888889,41.544999999999995],[-90.57805555555555,41.53388888888889],[-90.57805555555555,41.53388888888889],[-90.64444444444445,41.5225],[-90.90777777777778,41.47777777777778],[-90.97611111111111,41.46555555555556],[-90.97611111111111,41.46555555555556],[-91.04166666666667,41.45472222222222],[-91.04166666666667,41.45472222222222],[-91.17277777777778,41.43194444444444],[-91.24138888888889,41.41861111111111],[-91.375,41.39611111111111],[-91.375,41.39611111111111],[-91.375,41.39611111111111],[-91.43805555555556,41.385555555555555],[-91.64111111111112,41.35],[-91.64111111111112,41.35],[-91.64111111111112,41.35],[-91.77277777777778,41.32638888888889],[-91.98555555555555,41.28722222222222],[-91.98555555555555,41.28722222222222],[-91.98555555555555,41.28722222222222],[-92.03833333333333,41.27777777777778],[-92.03833333333333,41.27777777777778],[-92.11999999999999,41.26277777777778],[-92.25444444444445,41.238055555555555],[-92.3875,41.21361111111111],[-92.57249999999999,41.178888888888885],[-92.57249999999999,41.178888888888885],[-92.70222222222222,41.154444444444444],[-92.70222222222222,41.154444444444444],[-92.77944444444444,41.14],[-92.77944444444444,41.14],[-92.83305555555555,41.13],[-93.04166666666667,41.09],[-93.04166666666667,41.09],[-93.04166666666667,41.09],[-93.04166666666667,41.09],[-93.35916666666667,41.02833333333333],[-93.35916666666667,41.02833333333333],[-93.49361111111111,41.00222222222222],[-93.62638888888888,40.988055555555555],[-93.62638888888888,40.988055555555555],[-93.76055555555556,40.97694444444445],[-93.76055555555556,40.97694444444445],[-93.84055555555555,40.970555555555556],[-93.84055555555555,40.970555555555556],[-93.97444444444444,40.96],[-93.97444444444444,40.96],[-93.97444444444444,40.96],[-94.24361111111111,40.93805555555555],[-94.29666666666667,40.933611111111105],[-94.3775,40.92666666666666],[-94.3775,40.92666666666666],[-94.43111111111112,40.9225],[-94.51305555555555,40.91555555555556],[-94.56638888888888,40.91111111111111],[-94.56638888888888,40.91111111111111],[-94.6975,40.9],[-94.6975,40.9],[-94.6975,40.9],[-94.96861111111112,40.87638888888889],[-95.10305555555556,40.86472222222223],[-95.23611111111111,40.85277777777778],[-95.23611111111111,40.85277777777778],[-95.23611111111111,40.85277777777778],[-95.23611111111111,40.85277777777778],[-95.36749999999999,40.840833333333336],[-95.76472222222222,40.803888888888885],[-95.76472222222222,40.803888888888885],[-95.89833333333334,40.79138888888889],[-95.89833333333334,40.79138888888889],[-96.03027777777778,40.77916666666667],[-96.16222222222223,40.7675],[-96.29472222222222,40.75527777777778],[-96.29472222222222,40.75527777777778],[-96.29472222222222,40.75527777777778],[-96.42861111111111,40.74305555555556],[-96.42861111111111,40.74305555555556],[-96.42861111111111,40.74305555555556],[-96.69472222222223,40.71805555555556],[-96.69472222222223,40.71805555555556],[-96.69472222222223,40.71805555555556],[-96.95833333333334,40.69305555555555],[-96.95833333333334,40.69305555555555],[-97.22166666666666,40.66277777777778],[-97.35305555555556,40.6475],[-97.35305555555556,40.6475],[-97.35305555555556,40.6475],[-97.48,40.6325],[-97.58277777777778,40.61972222222222],[-97.58277777777778,40.61972222222222],[-97.58277777777778,40.61972222222222],[-97.61222222222221,40.61666666666667],[-97.61222222222221,40.61666666666667],[-98.01222222222222,40.56861111111112],[-98.14750000000001,40.55333333333333],[-98.38611111111112,40.525277777777774],[-98.38611111111112,40.525277777777774],[-98.55,40.505833333333335],[-98.55,40.505833333333335],[-98.94944444444445,40.4575],[-99.05416666666666,40.44444444444444],[-99.31888888888888,40.41111111111111],[-99.4775,40.39111111111111],[-99.4775,40.39111111111111],[-99.71916666666667,40.36],[-99.71916666666667,40.36],[-100.14500000000001,40.303888888888885],[-100.27972222222222,40.285555555555554],[-100.38222222222221,40.27166666666667],[-100.38222222222221,40.27166666666667],[-100.65083333333334,40.234722222222224],[-100.65083333333334,40.234722222222224],[-101.05305555555556,40.17833333333333],[-101.455,40.12888888888889],[-101.455,40.12888888888889],[-101.85944444444443,40.11],[-101.85944444444443,40.11],[-101.85944444444443,40.11],[-102.39527777777778,40.08277777777778],[-102.80888888888889,40.059999999999995],[-102.80888888888889,40.059999999999995],[-103.21194444444444,40.03666666666666],[-103.34888888888888,40.028055555555554],[-103.34888888888888,40.028055555555554],[-103.62138888888889,40.01111111111111],[-103.62138888888889,40.01111111111111],[-103.75972222222222,40.00222222222222],[-104.03583333333333,39.98388888888889],[-104.17527777777778,39.974444444444444],[-104.17527777777778,39.974444444444444],[-104.45055555555555,39.95527777777778],[-104.58833333333332,39.94555555555555],[-104.86027777777777,39.925555555555555],[-105.12777777777777,39.905277777777776],[-105.38055555555555,39.88638888888889],[-105.38055555555555,39.88638888888889],[-105.38055555555555,39.88638888888889],[-105.77388888888889,39.853611111111114],[-105.77388888888889,39.853611111111114],[-106.01194444444444,39.83388888888889],[-106.01194444444444,39.83388888888889],[-106.15833333333335,39.821111111111115],[-106.39416666666668,39.8],[-106.39416666666668,39.8],[-106.5363888888889,39.78805555555555],[-106.5363888888889,39.78805555555555],[-106.6463888888889,39.77722222222222],[-106.6613888888889,39.77444444444444],[-106.6613888888889,39.77444444444444],[-106.6613888888889,39.77444444444444],[-106.77027777777778,39.76222222222222],[-106.78583333333333,39.76083333333333],[-106.78583333333333,39.76083333333333],[-107.02111111111111,39.73416666666667],[-107.02111111111111,39.73416666666667],[-107.1463888888889,39.720555555555556],[-107.52166666666666,39.676944444444445],[-107.55333333333333,39.67388888888889],[-107.55333333333333,39.67388888888889],[-107.64305555555556,39.66305555555555],[-107.7936111111111,39.64555555555555],[-107.7936111111111,39.64555555555555],[-107.7936111111111,39.64555555555555],[-107.89527777777778,39.63361111111111],[-108.17777777777778,39.599444444444444],[-108.27694444444444,39.58722222222222],[-108.27694444444444,39.58722222222222],[-108.43444444444445,39.5675],[-108.43444444444445,39.5675],[-108.56416666666667,39.55138888888889],[-108.66305555555556,39.538888888888884],[-108.68944444444445,39.53527777777778],[-108.68944444444445,39.53527777777778],[-108.94500000000001,39.50277777777778],[-109.04888888888888,39.489444444444445],[-109.04888888888888,39.489444444444445],[-109.17416666666666,39.473055555555554],[-109.17416666666666,39.473055555555554],[-109.32416666666666,39.45305555555556],[-109.5825,39.41861111111111],[-109.68805555555556,39.40416666666667],[-109.68805555555556,39.40416666666667],[-109.68805555555556,39.40416666666667],[-109.84194444444444,39.38305555555556],[-110.21083333333334,39.333333333333336],[-110.23472222222222,39.330000000000005],[-110.23472222222222,39.330000000000005],[-110.34388888888888,39.315],[-110.49833333333333,39.29388888888889],[-110.62555555555555,39.27638888888889],[-110.62555555555555,39.27638888888889],[-110.7325,39.26166666666666],[-110.7325,39.26166666666666],[-110.86388888888888,39.24305555555556],[-110.86388888888888,39.24305555555556],[-111.1125,39.20777777777778],[-111.1125,39.20777777777778],[-111.24416666666667,39.18888888888888],[-111.24416666666667,39.18888888888888],[-111.39611111111111,39.166666666666664],[-111.39611111111111,39.166666666666664],[-111.64527777777778,39.13],[-111.77083333333333,39.11138888888889],[-111.77083333333333,39.11138888888889],[-112.14222222222223,39.055277777777775],[-112.14222222222223,39.055277777777775],[-112.26944444444445,39.03583333333333],[-112.26944444444445,39.03583333333333],[-112.39416666666668,39.016666666666666],[-112.39416666666668,39.016666666666666],[-112.64583333333334,38.977222222222224],[-112.77555555555556,38.95666666666667],[-112.9025,38.936388888888885],[-112.9025,38.936388888888885],[-113.03083333333333,38.91611111111111],[-113.03083333333333,38.91611111111111],[-113.28805555555556,38.87416666666667],[-113.28805555555556,38.87416666666667],[-113.54666666666667,38.831944444444446],[-113.54666666666667,38.831944444444446],[-113.67472222222223,38.81055555555555],[-113.67472222222223,38.81055555555555],[-113.67472222222223,38.81055555555555],[-114.18861111111111,38.723333333333336],[-114.18861111111111,38.723333333333336],[-114.44916666666667,38.67833333333333],[-114.70722222222223,38.63305555555556],[-114.70722222222223,38.63305555555556],[-114.83694444444444,38.61],[-114.83694444444444,38.61],[-115.35666666666665,38.51638888888889],[-115.47833333333334,38.494166666666665],[-115.47833333333334,38.494166666666665],[-115.585,38.47527777777778],[-115.74138888888889,38.445277777777775],[-115.74138888888889,38.445277777777775],[-115.97694444444444,38.401111111111106],[-116.26222222222222,38.346944444444446],[-116.26222222222222,38.346944444444446],[-116.39305555555556,38.32],[-116.39305555555556,38.32],[-116.62416666666665,38.26916666666666],[-116.64805555555556,38.26611111111111],[-116.64805555555556,38.26611111111111],[-116.64805555555556,38.26611111111111],[-116.7525,38.2525],[-116.775,38.24944444444444],[-116.775,38.24944444444444],[-117.1325,38.20027777777778],[-117.15444444444445,38.197222222222216],[-117.25805555555556,38.18277777777777],[-117.25805555555556,38.18277777777777],[-117.25805555555556,38.18277777777777],[-117.38722222222223,38.164722222222224],[-117.55638888888889,38.14083333333333],[-117.68416666666667,38.12277777777778],[-117.76333333333334,38.11138888888889],[-117.81277777777777,38.10416666666667],[-117.81277777777777,38.10416666666667],[-117.94222222222223,38.08527777777778],[-118.14888888888889,38.055277777777775],[-118.14888888888889,38.055277777777775],[-118.2775,38.03611111111111],[-118.32638888888889,38.028888888888886],[-118.32638888888889,38.028888888888886],[-118.405,38.01722222222222],[-118.65777777777778,37.978611111111114],[-118.65777777777778,37.978611111111114],[-118.65777777777778,37.978611111111114],[-118.91388888888889,37.93944444444444],[-119.16861111111112,37.9],[-119.16861111111112,37.9],[-119.16861111111112,37.9],[-119.80027777777778,37.799166666666665],[-119.80027777777778,37.799166666666665],[-119.92611111111111,37.77861111111111],[-120.04972222222221,37.75805555555556],[-120.04972222222221,37.75805555555556],[-120.30277777777778,37.71611111111111],[-120.33333333333333,37.71666666666667],[-120.55527777777777,37.681666666666665],[-120.55527777777777,37.681666666666665],[-120.55527777777777,37.681666666666665],[-120.7,37.666666666666664],[-120.79944444444445,37.65277777777778],[-120.79944444444445,37.65277777777778],[-120.83333333333333,37.65],[-120.91527777777779,37.638888888888886],[-120.91527777777779,37.638888888888886],[-121.03027777777778,37.62416666666667],[-121.03027777777778,37.62416666666667],[-121.55277777777778,37.55916666666666],[-121.55277777777778,37.55916666666666],[-121.63805555555557,37.547777777777775],[-121.78472222222221,37.49277777777778],[-121.78472222222221,37.49277777777778],[-121.8,37.5],[-121.86638888888888,37.49111111111111],[-121.88333333333334,37.483333333333334],[-121.94555555555556,37.495],[-121.96666666666667,37.5],[-121.96666666666667,37.5],[-122.02222222222223,37.49916666666667],[-122.03333333333333,37.5],[-122.03333333333333,37.5],[-122.09833333333333,37.505],[-122.16166666666668,37.53138888888889],[-122.16166666666668,37.53138888888889],[-122.22027777777778,37.55583333333333],[-122.27833333333334,37.58027777777778],[-122.27833333333334,37.58027777777778],[-122.32277777777777,37.59916666666667]],"type":"LineString"}
}
