{
  "id": 2014840633,
  "type": "Feature",
  "properties": {
    "geom:area": 0,
    "geom:bbox": "-122.358380,37.492000,-121.287360,37.614010",
    "geom:latitude": 37.54520659052818,
    "geom:longitude": -121.82762026853439,
    "src:alt_label": "swim-approach",
    "src:geom": "swim",
    "swim:elevations": [
      4751,
      4636,
      4386,
      4328,
      4142,
      3849,
      3665,
      3390,
      3352,
      3079,
      2882,
      2604,
      2557,
      2529,
      2375,
      2172,
      2009,
      1912,
      1741,
      1660,
      1583,
      1473,
      1212,
      1082,
      950,
      748,
      728,
      640,
      532,
      370,
      181,
      127,
      0
    ],
    "swim:geom": "approach",
    "swim:timestamps": [
      1771620898,
      1771620915,
      1771620955,
      1771620963,
      1771620997,
      1771621023,
      1771621037,
      1771621063,
      1771621090,
      1771621130,
      1771621159,
      1771621198,
      1771621206,
      1771621219,
      1771621244,
      1771621273,
      1771621310,
      1771621338,
      1771621376,
      1771621387,
      1771621402,
      1771621423,
      1771621467,
      1771621490,
      1771621513,
      1771621558,
      1771621561,
      1771621574,
      1771621597,
      1771621633,
      1771621678,
      1771621690,
      1771621718
    ],
    "wof:geomhash": "eab78972abbb6c1e21ba35a07ece66de",
    "wof:id": 2014840633,
    "wof:repo": "sfomuseum-data-flights-2026-02"
  },
  "bbox": [
    -122.35838,
    37.492,
    -121.28736,
    37.61401
  ],
  "geometry": {"coordinates":[[-121.28736,37.58953],[-121.31897,37.58623],[-121.39073,37.57812],[-121.40496,37.57647],[-121.45944,37.57013],[-121.49947,37.56544],[-121.52014,37.56308],[-121.56085,37.55822],[-121.60259,37.55336],[-121.6626,37.54161],[-121.70466,37.53157],[-121.76149,37.51815],[-121.77256,37.51547],[-121.78995,37.51133],[-121.82575,37.50268],[-121.866,37.49333],[-121.9192,37.492],[-121.95781,37.49309],[-122.0059,37.50037],[-122.01954,37.50494],[-122.03727,37.51064],[-122.06297,37.51891],[-122.11672,37.53643],[-122.14325,37.54502],[-122.16916,37.55336],[-122.21495,37.56817],[-122.21801,37.56913],[-122.23114,37.57347],[-122.25454,37.58098],[-122.2877,37.59076],[-122.32624,37.60225],[-122.33633,37.60536],[-122.35838,37.61401]],"type":"LineString"}
}
