{
  "id": 2014845307,
  "type": "Feature",
  "properties": {
    "geom:area": 0,
    "geom:bbox": "-122.526667,37.633889,-109.777500,48.577500",
    "geom:latitude": 42.90165185911443,
    "geom:longitude": -116.07880499382468,
    "src:alt_label": "swim-path",
    "src:geom": "swim",
    "swim:altitudes": [
      "013",
      "013",
      "029",
      "073",
      "073",
      "073",
      "090",
      "090",
      "091",
      "091",
      "091",
      "107",
      "107",
      "107",
      "166",
      "166",
      "166",
      "185",
      "197",
      "197",
      "231",
      "231",
      "231",
      "231",
      "283",
      "283",
      "296",
      "296",
      "296",
      "296",
      "321",
      "321",
      "321",
      "340",
      "340",
      "348C",
      "348C",
      "348C",
      "350C",
      "350C",
      "350C",
      "350C",
      "350C",
      "350C",
      "350C",
      "350C",
      "350C",
      "350C",
      "350C",
      "350C",
      "350C",
      "350C",
      "350C",
      "350C",
      "350C",
      "350C",
      "350C",
      "350C",
      "350C",
      "350C",
      "350C",
      "350C",
      "350C",
      "350C",
      "350C",
      "350C",
      "350C",
      "350C",
      "350C",
      "350C",
      "350C",
      "350C",
      "350C",
      "350C",
      "350C",
      "350C",
      "350C",
      "350C",
      "350C",
      "350C",
      "350C",
      "350C",
      "350C",
      "350C",
      "350C",
      "350C",
      "350C",
      "350C",
      "350C",
      "350C",
      "350C",
      "350C",
      "350C",
      "350C",
      "350C",
      "350C",
      "350C",
      "350C",
      "350C",
      "350C",
      "350C",
      "350C",
      "350C",
      "350C",
      "350C",
      "350C",
      "350C",
      "350C",
      "350C",
      "350C",
      "350C",
      "350C",
      "350C"
    ],
    "swim:geom": "path",
    "swim:speeds": [
      182,
      182,
      207,
      267,
      267,
      267,
      285,
      285,
      285,
      285,
      285,
      312,
      312,
      312,
      401,
      401,
      401,
      415,
      434,
      434,
      452,
      452,
      452,
      452,
      498,
      498,
      502,
      502,
      502,
      502,
      503,
      503,
      503,
      504,
      504,
      503,
      503,
      503,
      504,
      505,
      505,
      505,
      507,
      506,
      506,
      494,
      494,
      490,
      486,
      485,
      485,
      485,
      483,
      475,
      473,
      473,
      474,
      473,
      471,
      469,
      466,
      466,
      466,
      464,
      464,
      459,
      459,
      461,
      462,
      462,
      464,
      464,
      466,
      466,
      467,
      467,
      467,
      462,
      462,
      462,
      461,
      461,
      461,
      464,
      464,
      466,
      466,
      466,
      468,
      471,
      471,
      471,
      474,
      474,
      476,
      476,
      474,
      474,
      470,
      470,
      470,
      470,
      471,
      472,
      472,
      479,
      479,
      482,
      482,
      485,
      486,
      487,
      487
    ],
    "swim:timestamps": [
      1771625504,
      1771625504,
      1771625564,
      1771625684,
      1771625684,
      1771625684,
      1771625744,
      1771625744,
      1771625804,
      1771625804,
      1771625804,
      1771625865,
      1771625865,
      1771625865,
      1771626045,
      1771626045,
      1771626045,
      1771626105,
      1771626165,
      1771626165,
      1771626285,
      1771626285,
      1771626285,
      1771626285,
      1771626525,
      1771626525,
      1771626586,
      1771626586,
      1771626586,
      1771626586,
      1771626706,
      1771626706,
      1771626706,
      1771626826,
      1771626826,
      1771626879,
      1771626879,
      1771626879,
      1771627059,
      1771627066,
      1771627126,
      1771627126,
      1771627299,
      1771627419,
      1771627419,
      1771627539,
      1771627539,
      1771627547,
      1771627727,
      1771627787,
      1771627847,
      1771627900,
      1771628028,
      1771628080,
      1771628140,
      1771628140,
      1771628260,
      1771628441,
      1771628561,
      1771628621,
      1771628801,
      1771628801,
      1771628801,
      1771628861,
      1771628861,
      1771629222,
      1771629222,
      1771629402,
      1771629462,
      1771629462,
      1771629642,
      1771629642,
      1771629762,
      1771629762,
      1771629943,
      1771629943,
      1771629943,
      1771630243,
      1771630243,
      1771630243,
      1771630543,
      1771630543,
      1771630543,
      1771630664,
      1771630664,
      1771630784,
      1771630844,
      1771630844,
      1771630904,
      1771631024,
      1771631024,
      1771631024,
      1771631144,
      1771631144,
      1771631264,
      1771631264,
      1771631324,
      1771631324,
      1771631445,
      1771631445,
      1771631565,
      1771631565,
      1771631625,
      1771631685,
      1771631685,
      1771631805,
      1771631805,
      1771631925,
      1771631925,
      1771632045,
      1771632105,
      1771632286,
      1771632346
    ],
    "wof:geomhash": "50eef2fddebf1a815e16c841979695df",
    "wof:id": 2014845307,
    "wof:repo": "sfomuseum-data-flights-2026-02"
  },
  "bbox": [
    -122.52666666666667,
    37.63388888888889,
    -109.7775,
    48.5775
  ],
  "geometry": {"coordinates":[[-122.41166666666668,37.63388888888889],[-122.41166666666668,37.63388888888889],[-122.4713888888889,37.66],[-122.52666666666667,37.78194444444444],[-122.52666666666667,37.78194444444444],[-122.52666666666667,37.78194444444444],[-122.45805555555556,37.831944444444446],[-122.45805555555556,37.831944444444446],[-122.3775,37.87777777777778],[-122.3775,37.87777777777778],[-122.3775,37.87777777777778],[-122.29861111111111,37.93277777777777],[-122.29861111111111,37.93277777777777],[-122.29861111111111,37.93277777777777],[-121.99444444444444,38.14111111111111],[-121.99444444444444,38.14111111111111],[-121.99444444444444,38.14111111111111],[-121.88416666666667,38.2175],[-121.78777777777778,38.283055555555556],[-121.78777777777778,38.283055555555556],[-121.54888888888888,38.44444444444444],[-121.54888888888888,38.44444444444444],[-121.54888888888888,38.44444444444444],[-121.54888888888888,38.44444444444444],[-120.98916666666666,38.77305555555555],[-120.98916666666666,38.77305555555555],[-120.84638888888888,38.85583333333334],[-120.84638888888888,38.85583333333334],[-120.84638888888888,38.85583333333334],[-120.84638888888888,38.85583333333334],[-120.55638888888889,39.022777777777776],[-120.55638888888889,39.022777777777776],[-120.55638888888889,39.022777777777776],[-120.26638888888888,39.18805555555555],[-120.26638888888888,39.18805555555555],[-120.14861111111112,39.25361111111111],[-120.14861111111112,39.25361111111111],[-120.14861111111112,39.25361111111111],[-119.70861111111111,39.500277777777775],[-119.6763888888889,39.519999999999996],[-119.52972222222222,39.60194444444445],[-119.52972222222222,39.60194444444445],[-119.11444444444444,39.83222222222223],[-118.81361111111111,39.996944444444445],[-118.81361111111111,39.996944444444445],[-118.53527777777778,40.1725],[-118.53527777777778,40.1725],[-118.5125,40.19833333333333],[-118.21222222222222,40.53055555555555],[-118.11166666666666,40.64111111111111],[-118.01027777777777,40.75194444444445],[-117.93111111111112,40.83861111111111],[-117.7075,41.08361111111111],[-117.65,41.18],[-117.57944444444443,41.29972222222222],[-117.57944444444443,41.29972222222222],[-117.39333333333335,41.52361111111111],[-117.08305555555555,41.84444444444445],[-116.87638888888888,42.05638888888888],[-116.77333333333333,42.16111111111111],[-116.46333333333334,42.47416666666667],[-116.46333333333334,42.47416666666667],[-116.46333333333334,42.47416666666667],[-116.36,42.57777777777778],[-116.36,42.57777777777778],[-115.73972222222223,43.19],[-115.73972222222223,43.19],[-115.42416666666666,43.495555555555555],[-115.31611111111111,43.59916666666667],[-115.31611111111111,43.59916666666667],[-114.995,43.90472222222222],[-114.995,43.90472222222222],[-114.77583333333334,44.11083333333333],[-114.77583333333334,44.11083333333333],[-114.44611111111111,44.41777777777777],[-114.44611111111111,44.41777777777777],[-114.44611111111111,44.41777777777777],[-113.87916666666666,44.93555555555555],[-113.87916666666666,44.93555555555555],[-113.87916666666666,44.93555555555555],[-113.3111111111111,45.442499999999995],[-113.3111111111111,45.442499999999995],[-113.3111111111111,45.442499999999995],[-113.07694444444444,45.64805555555556],[-113.07694444444444,45.64805555555556],[-112.84916666666666,45.84583333333334],[-112.72944444444444,45.94916666666666],[-112.72944444444444,45.94916666666666],[-112.61027777777777,46.05166666666666],[-112.37722222222222,46.25055555555556],[-112.37722222222222,46.25055555555556],[-112.37722222222222,46.25055555555556],[-112.1286111111111,46.46027777777778],[-112.1286111111111,46.46027777777778],[-111.88972222222223,46.66722222222222],[-111.88972222222223,46.66722222222222],[-111.77805555555555,46.7725],[-111.77805555555555,46.7725],[-111.55444444444444,46.98277777777778],[-111.55444444444444,46.98277777777778],[-111.32833333333333,47.192499999999995],[-111.32833333333333,47.192499999999995],[-111.21472222222222,47.29722222222222],[-111.10138888888888,47.401111111111106],[-111.10138888888888,47.401111111111106],[-110.86999999999999,47.61194444444445],[-110.86999999999999,47.61194444444445],[-110.63305555555554,47.82527777777778],[-110.63305555555554,47.82527777777778],[-110.39305555555556,48.03916666666667],[-110.27,48.147777777777776],[-109.90305555555557,48.46888888888889],[-109.7775,48.5775]],"type":"LineString"}
}
