{
  "id": 2014752805,
  "type": "Feature",
  "properties": {
    "geom:area": 0,
    "geom:bbox": "-122.363920,37.631830,-121.455890,38.503000",
    "geom:latitude": 38.07786847899098,
    "geom:longitude": -121.92672201752806,
    "src:alt_label": "swim-takeoff",
    "src:geom": "swim",
    "swim:elevations": [
      244,
      776,
      993,
      1653,
      1747,
      2335,
      3157,
      3252,
      3645,
      3746,
      3811,
      4280,
      4435,
      4738,
      5177,
      5359,
      5620,
      5714,
      5992,
      6314,
      6616,
      7031,
      7151,
      7391,
      7773
    ],
    "swim:geom": "takeoff",
    "swim:timestamps": [
      1770629080,
      1770629116,
      1770629140,
      1770629184,
      1770629190,
      1770629225,
      1770629278,
      1770629284,
      1770629333,
      1770629347,
      1770629360,
      1770629395,
      1770629406,
      1770629430,
      1770629465,
      1770629493,
      1770629515,
      1770629529,
      1770629556,
      1770629588,
      1770629624,
      1770629667,
      1770629679,
      1770629705,
      1770629748
    ],
    "wof:geomhash": "b1e3d63e8c3e6957802f0160613f9b44",
    "wof:id": 2014752805,
    "wof:repo": "sfomuseum-data-flights-2026-02"
  },
  "bbox": [
    -122.36392,
    37.63183,
    -121.45589,
    38.503
  ],
  "geometry": {"coordinates":[[-122.36392,37.63183],[-122.33851,37.65215],[-122.31502,37.66489],[-122.26519,37.69138],[-122.25871,37.69501],[-122.23521,37.72884],[-122.21819,37.79161],[-122.21583,37.79924],[-122.17517,37.85701],[-122.15678,37.87438],[-122.13914,37.89121],[-122.09012,37.93746],[-122.0745,37.95236],[-122.03902,37.98642],[-121.9857,38.03693],[-121.94147,38.0787],[-121.90464,38.11327],[-121.88119,38.13525],[-121.83399,38.1791],[-121.77908,38.23023],[-121.71295,38.29228],[-121.63159,38.36863],[-121.60912,38.38964],[-121.55682,38.43502],[-121.45589,38.503]],"type":"LineString"}
}
