{
  "id": 2014867007,
  "type": "Feature",
  "properties": {
    "geom:area": 0,
    "geom:bbox": "-122.464167,35.755000,-115.158889,37.633333",
    "geom:latitude": 36.92194700795254,
    "geom:longitude": -118.64427488588625,
    "src:alt_label": "swim-path",
    "src:geom": "swim",
    "swim:altitudes": [
      "006",
      "006",
      "097",
      "097",
      "144",
      "144",
      "144",
      "144",
      "144",
      "191",
      "191",
      "191",
      "215",
      "232",
      "232",
      "232",
      "251",
      "251",
      "251",
      "251",
      "251",
      "330C",
      "330C",
      "330C",
      "330C",
      "330C",
      "330C",
      "330C",
      "330C",
      "330C",
      "330C",
      "330C",
      "330C",
      "330C",
      "330C",
      "330C",
      "330C",
      "330C",
      "330C",
      "330C",
      "330C",
      "330C",
      "330C",
      "330C",
      "330C",
      "330C",
      "330C",
      "319",
      "319",
      "319",
      "319",
      "310C",
      "310C",
      "310C",
      "310C",
      "310C",
      "310C",
      "310C",
      "310C",
      "293",
      "293",
      "293",
      "284",
      "284",
      "284",
      "284",
      "264",
      "264",
      "264",
      "244",
      "244",
      "234",
      "234",
      "234",
      "234",
      "203",
      "203",
      "179",
      "171",
      "159",
      "159",
      "154",
      "154",
      "154",
      "127",
      "121",
      "117",
      "117",
      "109",
      "109",
      "109",
      "109",
      "104",
      "104",
      "097",
      "097",
      "090",
      "090",
      "080",
      "080",
      "080",
      "076",
      "076",
      "076",
      "071",
      "066",
      "061",
      "061",
      "061",
      "039",
      "039",
      "034",
      "034",
      "028",
      "024",
      "024",
      "021",
      "021",
      "021"
    ],
    "swim:geom": "path",
    "swim:speeds": [
      157,
      157,
      267,
      267,
      348,
      348,
      348,
      348,
      348,
      371,
      371,
      371,
      414,
      436,
      436,
      436,
      439,
      439,
      439,
      439,
      439,
      519,
      519,
      519,
      519,
      524,
      524,
      524,
      532,
      532,
      509,
      509,
      509,
      509,
      508,
      508,
      506,
      506,
      506,
      478,
      478,
      478,
      476,
      476,
      488,
      488,
      488,
      503,
      503,
      503,
      503,
      500,
      500,
      500,
      497,
      497,
      497,
      496,
      496,
      479,
      479,
      479,
      468,
      468,
      468,
      468,
      452,
      452,
      452,
      444,
      444,
      443,
      443,
      443,
      443,
      417,
      417,
      363,
      365,
      342,
      342,
      334,
      334,
      334,
      311,
      313,
      276,
      276,
      257,
      257,
      257,
      257,
      259,
      259,
      252,
      252,
      256,
      256,
      253,
      253,
      255,
      254,
      254,
      254,
      236,
      222,
      206,
      206,
      206,
      156,
      156,
      157,
      157,
      157,
      156,
      156,
      127,
      127,
      127
    ],
    "swim:timestamps": [
      1771894752,
      1771894752,
      1771895011,
      1771895011,
      1771895131,
      1771895131,
      1771895131,
      1771895131,
      1771895131,
      1771895249,
      1771895249,
      1771895249,
      1771895311,
      1771895371,
      1771895371,
      1771895371,
      1771895429,
      1771895429,
      1771895429,
      1771895429,
      1771895429,
      1771895789,
      1771895789,
      1771895789,
      1771895789,
      1771895852,
      1771895852,
      1771895852,
      1771895910,
      1771895910,
      1771896150,
      1771896150,
      1771896150,
      1771896150,
      1771896210,
      1771896210,
      1771896272,
      1771896272,
      1771896272,
      1771896330,
      1771896330,
      1771896330,
      1771896452,
      1771896452,
      1771896570,
      1771896570,
      1771896570,
      1771896751,
      1771896751,
      1771896751,
      1771896751,
      1771896811,
      1771896811,
      1771896811,
      1771896931,
      1771896931,
      1771896931,
      1771896993,
      1771896993,
      1771897233,
      1771897233,
      1771897233,
      1771897292,
      1771897292,
      1771897292,
      1771897292,
      1771897414,
      1771897414,
      1771897414,
      1771897532,
      1771897532,
      1771897594,
      1771897594,
      1771897594,
      1771897594,
      1771897744,
      1771897744,
      1771897866,
      1771897892,
      1771897933,
      1771897933,
      1771897953,
      1771897953,
      1771897953,
      1771898048,
      1771898073,
      1771898133,
      1771898133,
      1771898170,
      1771898170,
      1771898170,
      1771898170,
      1771898193,
      1771898193,
      1771898224,
      1771898224,
      1771898285,
      1771898285,
      1771898346,
      1771898346,
      1771898407,
      1771898433,
      1771898433,
      1771898433,
      1771898455,
      1771898493,
      1771898516,
      1771898516,
      1771898516,
      1771898638,
      1771898638,
      1771898674,
      1771898674,
      1771898704,
      1771898734,
      1771898734,
      1771898794,
      1771898794,
      1771898794
    ],
    "wof:geomhash": "731a37d02d6ef1310ef0a8c19983463e",
    "wof:id": 2014867007,
    "wof:repo": "sfomuseum-data-flights-2026-02"
  },
  "bbox": [
    -122.46416666666667,
    35.755,
    -115.1588888888889,
    37.63333333333333
  ],
  "geometry": {"coordinates":[[-122.36666666666666,37.63333333333333],[-122.36666666666666,37.63333333333333],[-122.46416666666667,37.558611111111105],[-122.46416666666667,37.558611111111105],[-122.35749999999999,37.42361111111111],[-122.35749999999999,37.42361111111111],[-122.35749999999999,37.42361111111111],[-122.35749999999999,37.42361111111111],[-122.35749999999999,37.42361111111111],[-122.10499999999999,37.35944444444445],[-122.10499999999999,37.35944444444445],[-122.10499999999999,37.35944444444445],[-121.95777777777778,37.33583333333333],[-121.81361111111111,37.306666666666665],[-121.81361111111111,37.306666666666665],[-121.81361111111111,37.306666666666665],[-121.66222222222223,37.2725],[-121.66222222222223,37.2725],[-121.66222222222223,37.2725],[-121.66222222222223,37.2725],[-121.66222222222223,37.2725],[-120.6588888888889,37.06583333333333],[-120.6588888888889,37.06583333333333],[-120.6588888888889,37.06583333333333],[-120.6588888888889,37.06583333333333],[-120.47944444444444,37.02916666666667],[-120.47944444444444,37.02916666666667],[-120.47944444444444,37.02916666666667],[-120.29694444444445,36.99194444444444],[-120.29694444444445,36.99194444444444],[-119.60499999999999,36.84277777777778],[-119.60499999999999,36.84277777777778],[-119.60499999999999,36.84277777777778],[-119.60499999999999,36.84277777777778],[-119.43777777777778,36.80583333333333],[-119.43777777777778,36.80583333333333],[-119.26222222222222,36.78861111111111],[-119.26222222222222,36.78861111111111],[-119.26222222222222,36.78861111111111],[-119.14027777777778,36.8725],[-119.14027777777778,36.8725],[-119.14027777777778,36.8725],[-118.92666666666668,37.07777777777778],[-118.92666666666668,37.07777777777778],[-118.70444444444445,37.26888888888889],[-118.70444444444445,37.26888888888889],[-118.70444444444445,37.26888888888889],[-118.18166666666667,37.31777777777778],[-118.18166666666667,37.31777777777778],[-118.18166666666667,37.31777777777778],[-118.18166666666667,37.31777777777778],[-118.01083333333334,37.330000000000005],[-118.01083333333334,37.330000000000005],[-118.01083333333334,37.330000000000005],[-117.66722222222222,37.35416666666667],[-117.66722222222222,37.35416666666667],[-117.66722222222222,37.35416666666667],[-117.49388888888889,37.36611111111111],[-117.49388888888889,37.36611111111111],[-116.92722222222223,37.138333333333335],[-116.92722222222223,37.138333333333335],[-116.92722222222223,37.138333333333335],[-116.82277777777777,37.03916666666667],[-116.82277777777777,37.03916666666667],[-116.82277777777777,37.03916666666667],[-116.82277777777777,37.03916666666667],[-116.64305555555556,36.82972222222222],[-116.64305555555556,36.82972222222222],[-116.64305555555556,36.82972222222222],[-116.46222222222222,36.63111111111111],[-116.46222222222222,36.63111111111111],[-116.34805555555555,36.55],[-116.34805555555555,36.55],[-116.34805555555555,36.55],[-116.34805555555555,36.55],[-116.06166666666667,36.344722222222224],[-116.06166666666667,36.344722222222224],[-115.85777777777777,36.20583333333334],[-115.81638888888888,36.18],[-115.75361111111111,36.135],[-115.75361111111111,36.135],[-115.73861111111111,36.108333333333334],[-115.73861111111111,36.108333333333334],[-115.73861111111111,36.108333333333334],[-115.68388888888889,35.97361111111111],[-115.67194444444445,35.94361111111111],[-115.64083333333333,35.867777777777775],[-115.64083333333333,35.867777777777775],[-115.61638888888888,35.82527777777778],[-115.61638888888888,35.82527777777778],[-115.61638888888888,35.82527777777778],[-115.61638888888888,35.82527777777778],[-115.59527777777777,35.81055555555555],[-115.59527777777777,35.81055555555555],[-115.55583333333333,35.78388888888889],[-115.55583333333333,35.78388888888889],[-115.47916666666667,35.755],[-115.47916666666667,35.755],[-115.3963888888889,35.763333333333335],[-115.3963888888889,35.763333333333335],[-115.33666666666666,35.81777777777778],[-115.31555555555555,35.83833333333334],[-115.31555555555555,35.83833333333334],[-115.31555555555555,35.83833333333334],[-115.29527777777777,35.86027777777778],[-115.27472222222222,35.89277777777778],[-115.26416666666667,35.914722222222224],[-115.26416666666667,35.914722222222224],[-115.26416666666667,35.914722222222224],[-115.21083333333334,36.006388888888885],[-115.21083333333334,36.006388888888885],[-115.19722222222222,36.02833333333333],[-115.19722222222222,36.02833333333333],[-115.185,36.049166666666665],[-115.17472222222223,36.0675],[-115.17472222222223,36.0675],[-115.1588888888889,36.09305555555556],[-115.1588888888889,36.09305555555556],[-115.1588888888889,36.09305555555556]],"type":"LineString"}
}
