{
  "id": 2014901931,
  "type": "Feature",
  "properties": {
    "geom:area": 0,
    "geom:bbox": "-122.540150,36.720210,-121.380150,37.668770",
    "geom:latitude": 37.19551512467413,
    "geom:longitude": -122.03756523023115,
    "src:alt_label": "swim-takeoff",
    "src:geom": "swim",
    "swim:elevations": [
      346,
      614,
      979,
      1091,
      1300,
      1487,
      1585,
      1715,
      2197,
      2424,
      2567,
      2978,
      3029,
      3358,
      3380,
      3581,
      3851,
      3891,
      4353,
      4719,
      4865,
      5077,
      5283,
      5541,
      5764,
      5980,
      6038,
      6358,
      6550,
      6624,
      6897,
      7069,
      7223,
      7347
    ],
    "swim:geom": "takeoff",
    "swim:timestamps": [
      1772240518,
      1772240543,
      1772240576,
      1772240591,
      1772240629,
      1772240666,
      1772240684,
      1772240702,
      1772240758,
      1772240785,
      1772240801,
      1772240847,
      1772240853,
      1772240907,
      1772240914,
      1772240944,
      1772240977,
      1772240980,
      1772241013,
      1772241034,
      1772241061,
      1772241112,
      1772241148,
      1772241175,
      1772241202,
      1772241237,
      1772241246,
      1772241298,
      1772241328,
      1772241343,
      1772241386,
      1772241416,
      1772241447,
      1772241474
    ],
    "wof:geomhash": "f777f2209c1f77206e167e71d64c8bae",
    "wof:id": 2014901931,
    "wof:repo": "sfomuseum-data-flights-2026-02"
  },
  "bbox": [
    -122.54015,
    36.72021,
    -121.38015,
    37.66877
  ],
  "geometry": {"coordinates":[[-122.41803,37.63647],[-122.44437,37.64843],[-122.47876,37.66377],[-122.49516,37.66877],[-122.53924,37.65373],[-122.54015,37.61263],[-122.52799,37.59249],[-122.51599,37.57133],[-122.48167,37.50291],[-122.45494,37.47468],[-122.43571,37.46118],[-122.37764,37.41863],[-122.37013,37.41305],[-122.29912,37.36056],[-122.28955,37.35354],[-122.24658,37.3221],[-122.19834,37.28646],[-122.19396,37.28318],[-122.1467,37.24833],[-122.11828,37.2274],[-122.08165,37.20012],[-122.00659,37.14523],[-121.94663,37.10598],[-121.90182,37.07602],[-121.85754,37.0459],[-121.80017,37.00688],[-121.785,36.99659],[-121.69617,36.93607],[-121.64372,36.90032],[-121.61714,36.88229],[-121.53993,36.82955],[-121.48586,36.79259],[-121.43,36.75429],[-121.38015,36.72021]],"type":"LineString"}
}
