{
  "id": 2014735751,
  "type": "Feature",
  "properties": {
    "geom:area": 0,
    "geom:bbox": "-123.332380,37.632010,-122.406900,38.511720",
    "geom:latitude": 38.03160424632566,
    "geom:longitude": -122.9022715622617,
    "src:alt_label": "swim-takeoff",
    "src:geom": "swim",
    "swim:elevations": [
      377,
      522,
      874,
      1065,
      1169,
      1393,
      1713,
      2044,
      2393,
      2678,
      3056,
      3265,
      3382,
      3692,
      3776,
      4007,
      4489,
      4717,
      5013,
      5137,
      5472,
      5564,
      5912,
      6127,
      6401,
      6518,
      6916
    ],
    "swim:geom": "takeoff",
    "swim:timestamps": [
      1770509663,
      1770509675,
      1770509715,
      1770509756,
      1770509780,
      1770509810,
      1770509836,
      1770509863,
      1770509890,
      1770509914,
      1770509947,
      1770509994,
      1770510026,
      1770510058,
      1770510068,
      1770510098,
      1770510140,
      1770510163,
      1770510202,
      1770510222,
      1770510263,
      1770510293,
      1770510326,
      1770510353,
      1770510386,
      1770510395,
      1770510437
    ],
    "wof:geomhash": "3bb70c0231083be6abc7430643a4a752",
    "wof:id": 2014735751,
    "wof:repo": "sfomuseum-data-flights-2026-02"
  },
  "bbox": [
    -123.33238,
    37.63201,
    -122.4069,
    38.51172
  ],
  "geometry": {"coordinates":[[-122.4069,37.63201],[-122.41774,37.63685],[-122.45239,37.65236],[-122.49291,37.6702],[-122.51999,37.6844],[-122.55616,37.70613],[-122.59009,37.72604],[-122.62494,37.74644],[-122.65985,37.76692],[-122.69065,37.78494],[-122.73369,37.81028],[-122.78565,37.85811],[-122.82063,37.90089],[-122.85738,37.94511],[-122.86857,37.95857],[-122.90423,38.00129],[-122.95515,38.06251],[-122.98246,38.09542],[-123.03023,38.15234],[-123.05512,38.18205],[-123.10666,38.24353],[-123.14564,38.28981],[-123.18854,38.34103],[-123.22367,38.38232],[-123.267,38.43341],[-123.27839,38.44713],[-123.33238,38.51172]],"type":"LineString"}
}
