{
  "id": 2014723927,
  "type": "Feature",
  "properties": {
    "geom:area": 0,
    "geom:bbox": "-122.354840,36.725560,-121.881380,37.610230",
    "geom:latitude": 37.20918950897056,
    "geom:longitude": -122.0695649664595,
    "src:alt_label": "swim-approach",
    "src:geom": "swim",
    "swim:elevations": [
      5206,
      4911,
      4861,
      4370,
      4218,
      4010,
      3635,
      3386,
      3102,
      3048,
      2986,
      2754,
      2522,
      2404,
      2158,
      1988,
      1736,
      1671,
      1559,
      1322,
      1132,
      844,
      683,
      444,
      339,
      243,
      62,
      30
    ],
    "swim:geom": "approach",
    "swim:timestamps": [
      1770379671,
      1770379705,
      1770379711,
      1770379767,
      1770379783,
      1770379801,
      1770379846,
      1770379879,
      1770379912,
      1770379937,
      1770379963,
      1770380002,
      1770380035,
      1770380049,
      1770380086,
      1770380116,
      1770380157,
      1770380171,
      1770380192,
      1770380230,
      1770380253,
      1770380287,
      1770380312,
      1770380367,
      1770380387,
      1770380408,
      1770380453,
      1770380461
    ],
    "wof:geomhash": "2809759f413238c923c6e07025261e0b",
    "wof:id": 2014723927,
    "wof:repo": "sfomuseum-data-flights-2026-02"
  },
  "bbox": [
    -122.35484,
    36.72556,
    -121.88138,
    37.61023
  ],
  "geometry": {"coordinates":[[-121.88138,36.72556],[-121.90398,36.77647],[-121.90703,36.78752],[-121.93116,36.87437],[-121.93789,36.8989],[-121.94611,36.92721],[-121.96982,36.99427],[-121.98861,37.0428],[-122.00711,37.09071],[-122.02076,37.12612],[-122.03433,37.15996],[-122.05362,37.20868],[-122.06969,37.24973],[-122.07601,37.26607],[-122.09432,37.31308],[-122.10817,37.34898],[-122.12685,37.39845],[-122.1326,37.41561],[-122.14095,37.43977],[-122.1594,37.48252],[-122.17542,37.50541],[-122.19868,37.53857],[-122.22391,37.55442],[-122.28004,37.57899],[-122.29748,37.58615],[-122.31483,37.59331],[-122.34902,37.6078],[-122.35484,37.61023]],"type":"LineString"}
}
