{
  "id": 2014879763,
  "type": "Feature",
  "properties": {
    "geom:area": 0,
    "geom:bbox": "-122.666667,37.550000,-70.871389,46.065000",
    "geom:latitude": 43.93303267784199,
    "geom:longitude": -97.6058446538883,
    "src:alt_label": "swim-path",
    "src:geom": "swim",
    "swim:altitudes": [
      "023",
      "023",
      "034",
      "034",
      "041",
      "094",
      "109",
      "117",
      "117",
      "117",
      "133",
      "154",
      "171",
      "171",
      "171",
      "214",
      "214",
      "214",
      "226",
      "246",
      "246",
      "256",
      "256",
      "261",
      "261",
      "271",
      "271",
      "291",
      "298",
      "298",
      "318C",
      "318C",
      "320C",
      "320C",
      "320C",
      "320C",
      "320C",
      "320C",
      "320C",
      "320C",
      "320C",
      "320C",
      "320C",
      "320C",
      "320C",
      "320C",
      "320C",
      "320C",
      "320C",
      "320C",
      "320C",
      "320C",
      "320C",
      "320C",
      "320C",
      "320C",
      "320C",
      "320C",
      "320C",
      "321C",
      "321C",
      "321C",
      "320C",
      "320C",
      "320C",
      "320C",
      "320C",
      "320C",
      "320C",
      "320C",
      "320C",
      "320C",
      "320C",
      "320C",
      "320C",
      "320C",
      "320C",
      "320C",
      "320C",
      "320C",
      "320C",
      "320C",
      "320C",
      "320C",
      "320C",
      "320C",
      "320C",
      "320C",
      "320C",
      "320C",
      "320C",
      "320C",
      "320C",
      "320C",
      "320C",
      "320C",
      "320C",
      "320C",
      "320C",
      "320C",
      "320C",
      "320C",
      "320C",
      "320C",
      "320C",
      "321C",
      "321C",
      "320C",
      "320C",
      "321",
      "321",
      "337",
      "337",
      "340C",
      "340C",
      "340C",
      "340C",
      "340C",
      "340C",
      "340C",
      "340C",
      "340C",
      "340C",
      "340C",
      "340C",
      "340C",
      "340C",
      "340C",
      "340C",
      "340C",
      "340C",
      "340C",
      "341C",
      "341C",
      "340C",
      "340C",
      "340C",
      "340C",
      "340C",
      "340C",
      "340C",
      "340C",
      "340C",
      "339C",
      "340C",
      "339C",
      "340C",
      "340C",
      "340C",
      "340C",
      "340C",
      "340C",
      "339C",
      "339C",
      "339C",
      "340C",
      "341C",
      "340C",
      "340C",
      "340C",
      "340C",
      "340C",
      "341C",
      "340C",
      "340C",
      "340C",
      "340C",
      "340C",
      "341C",
      "340C",
      "340C",
      "340C",
      "340C",
      "340C",
      "340C",
      "340C",
      "340C",
      "340C",
      "340C",
      "340C",
      "340C",
      "340C",
      "340C",
      "340C",
      "340C",
      "340C",
      "340C",
      "340C",
      "340C",
      "340C",
      "340C",
      "341C",
      "341C",
      "340C",
      "340C",
      "340C",
      "340C",
      "340C",
      "341C",
      "341C",
      "340C",
      "340C",
      "340C",
      "340C",
      "340C",
      "340C",
      "340C",
      "340C",
      "340C",
      "340C",
      "340C",
      "340C",
      "341C",
      "341C",
      "340C",
      "340C",
      "340C",
      "340C",
      "340C",
      "340C",
      "340C",
      "340C",
      "340C",
      "340C",
      "341C",
      "341C",
      "340C",
      "340C",
      "340C",
      "340C",
      "340C",
      "340C",
      "340C",
      "340C",
      "340C",
      "340C",
      "340C",
      "340C",
      "340C",
      "340C",
      "341C",
      "340C",
      "340C",
      "340C",
      "340C",
      "340C",
      "340C",
      "340C",
      "340C",
      "340C",
      "340C",
      "340C",
      "340C",
      "340C",
      "340C",
      "340C",
      "340C",
      "340C",
      "340C",
      "340C",
      "340C",
      "340C",
      "340C",
      "340C",
      "340C",
      "340C",
      "340C",
      "340C",
      "340C",
      "340C",
      "340C",
      "341C",
      "340C",
      "340C",
      "340C",
      "340C",
      "340C",
      "340C",
      "340C",
      "341C",
      "341C",
      "340C",
      "340C",
      "340C",
      "340C",
      "340C",
      "340C",
      "340C",
      "340C",
      "340C",
      "340C",
      "340C",
      "340C",
      "340C",
      "340C",
      "340C",
      "340C",
      "340C",
      "340C",
      "340C",
      "340C",
      "340C",
      "340C",
      "340C",
      "340C",
      "340C",
      "340C",
      "340C",
      "340C",
      "340C",
      "340C",
      "340C",
      "340C",
      "340C",
      "340C",
      "340C",
      "340C",
      "340C",
      "340C",
      "340C",
      "283",
      "283",
      "248",
      "248",
      "212",
      "186",
      "164",
      "156",
      "142",
      "142",
      "132",
      "090",
      "070",
      "060",
      "060",
      "053",
      "031",
      "024",
      "013",
      "011",
      "006",
      "006"
    ],
    "swim:geom": "path",
    "swim:speeds": [
      205,
      205,
      238,
      238,
      257,
      269,
      288,
      337,
      337,
      337,
      360,
      364,
      367,
      367,
      367,
      369,
      369,
      369,
      373,
      387,
      387,
      388,
      388,
      396,
      396,
      398,
      398,
      397,
      393,
      393,
      390,
      390,
      387,
      387,
      387,
      392,
      391,
      391,
      391,
      396,
      396,
      396,
      396,
      396,
      396,
      396,
      397,
      397,
      397,
      397,
      396,
      393,
      393,
      392,
      392,
      392,
      392,
      392,
      392,
      395,
      395,
      395,
      392,
      392,
      392,
      391,
      391,
      392,
      392,
      392,
      393,
      393,
      393,
      396,
      396,
      396,
      397,
      398,
      398,
      398,
      398,
      400,
      399,
      399,
      399,
      397,
      395,
      395,
      395,
      397,
      397,
      397,
      395,
      395,
      394,
      394,
      393,
      393,
      393,
      393,
      391,
      391,
      390,
      390,
      390,
      390,
      390,
      388,
      388,
      388,
      388,
      389,
      389,
      398,
      398,
      399,
      399,
      398,
      399,
      399,
      399,
      392,
      392,
      392,
      397,
      399,
      399,
      397,
      399,
      399,
      395,
      395,
      402,
      402,
      398,
      399,
      399,
      398,
      397,
      393,
      393,
      388,
      388,
      389,
      386,
      388,
      388,
      388,
      388,
      388,
      388,
      387,
      388,
      388,
      388,
      389,
      391,
      392,
      389,
      388,
      390,
      390,
      393,
      393,
      391,
      391,
      391,
      391,
      390,
      388,
      387,
      384,
      384,
      385,
      385,
      385,
      386,
      386,
      386,
      386,
      386,
      386,
      392,
      397,
      397,
      400,
      400,
      402,
      403,
      403,
      403,
      404,
      404,
      405,
      405,
      404,
      404,
      407,
      409,
      409,
      410,
      409,
      409,
      409,
      408,
      408,
      407,
      407,
      405,
      404,
      404,
      404,
      406,
      406,
      407,
      399,
      387,
      387,
      375,
      365,
      365,
      362,
      364,
      362,
      364,
      364,
      366,
      366,
      363,
      363,
      362,
      362,
      361,
      360,
      360,
      359,
      360,
      369,
      372,
      372,
      374,
      373,
      372,
      373,
      373,
      373,
      377,
      376,
      376,
      375,
      380,
      380,
      379,
      379,
      379,
      377,
      379,
      378,
      373,
      373,
      373,
      372,
      367,
      367,
      367,
      366,
      367,
      368,
      368,
      373,
      373,
      374,
      379,
      374,
      373,
      372,
      373,
      374,
      378,
      380,
      380,
      366,
      356,
      356,
      356,
      357,
      357,
      360,
      360,
      359,
      359,
      358,
      359,
      359,
      359,
      362,
      362,
      364,
      366,
      366,
      365,
      365,
      365,
      365,
      365,
      368,
      371,
      371,
      371,
      370,
      370,
      370,
      371,
      373,
      373,
      374,
      373,
      373,
      376,
      376,
      388,
      388,
      417,
      417,
      419,
      413,
      403,
      393,
      350,
      350,
      351,
      262,
      244,
      211,
      211,
      205,
      191,
      190,
      179,
      163,
      149,
      149
    ],
    "swim:timestamps": [
      1772055928,
      1772055928,
      1772055978,
      1772055978,
      1772055994,
      1772056159,
      1772056219,
      1772056279,
      1772056279,
      1772056279,
      1772056339,
      1772056399,
      1772056459,
      1772056459,
      1772056459,
      1772056639,
      1772056639,
      1772056639,
      1772056699,
      1772056819,
      1772056819,
      1772056879,
      1772056879,
      1772056939,
      1772056939,
      1772056999,
      1772056999,
      1772057120,
      1772057180,
      1772057180,
      1772057360,
      1772057360,
      1772057480,
      1772057480,
      1772057480,
      1772057600,
      1772057780,
      1772057780,
      1772057780,
      1772058081,
      1772058081,
      1772058141,
      1772058201,
      1772058201,
      1772058201,
      1772058261,
      1772058381,
      1772058381,
      1772058501,
      1772058501,
      1772058561,
      1772060694,
      1772060694,
      1772060754,
      1772060754,
      1772060754,
      1772060874,
      1772060874,
      1772060934,
      1772061115,
      1772061115,
      1772061115,
      1772061295,
      1772061295,
      1772061295,
      1772061355,
      1772061475,
      1772061595,
      1772061655,
      1772061655,
      1772061715,
      1772061715,
      1772061715,
      1772061896,
      1772061896,
      1772061896,
      1772061956,
      1772062016,
      1772062076,
      1772062076,
      1772062076,
      1772062256,
      1772062376,
      1772062376,
      1772062376,
      1772062436,
      1772062617,
      1772062617,
      1772062617,
      1772062857,
      1772062857,
      1772062857,
      1772063037,
      1772063037,
      1772063097,
      1772063097,
      1772063157,
      1772063217,
      1772063217,
      1772063217,
      1772063398,
      1772063398,
      1772063458,
      1772063458,
      1772063518,
      1772063578,
      1772063578,
      1772063758,
      1772063758,
      1772063818,
      1772063818,
      1772063938,
      1772063938,
      1772064179,
      1772064179,
      1772064299,
      1772064299,
      1772064359,
      1772064479,
      1772064479,
      1772064659,
      1772064840,
      1772064960,
      1772064960,
      1772065140,
      1772065501,
      1772065501,
      1772065681,
      1772065801,
      1772065801,
      1772066101,
      1772066282,
      1772066522,
      1772066522,
      1772066834,
      1772066894,
      1772066894,
      1772067195,
      1772067265,
      1772067495,
      1772067495,
      1772067736,
      1772067736,
      1772067805,
      1772067856,
      1772067865,
      1772068036,
      1772068036,
      1772068096,
      1772068156,
      1772068166,
      1772068216,
      1772068286,
      1772068286,
      1772068346,
      1772068396,
      1772068457,
      1772068466,
      1772068517,
      1772068536,
      1772068646,
      1772068646,
      1772068656,
      1772068716,
      1772068827,
      1772068827,
      1772068877,
      1772068896,
      1772068937,
      1772068997,
      1772069017,
      1772069127,
      1772069127,
      1772069238,
      1772069257,
      1772069257,
      1772069298,
      1772069307,
      1772069377,
      1772069377,
      1772069427,
      1772069427,
      1772069497,
      1772069598,
      1772069617,
      1772069668,
      1772069668,
      1772069858,
      1772069908,
      1772069918,
      1772069918,
      1772070028,
      1772070038,
      1772070088,
      1772070088,
      1772070098,
      1772070148,
      1772070278,
      1772070338,
      1772070353,
      1772070413,
      1772070459,
      1772070473,
      1772070473,
      1772070519,
      1772070533,
      1772070593,
      1772070593,
      1772070653,
      1772070713,
      1772070713,
      1772070833,
      1772070893,
      1772070893,
      1772070953,
      1772071074,
      1772071254,
      1772071254,
      1772071374,
      1772071494,
      1772071494,
      1772071554,
      1772071614,
      1772071674,
      1772071734,
      1772071734,
      1772072035,
      1772072035,
      1772072215,
      1772072275,
      1772072335,
      1772072335,
      1772072395,
      1772072696,
      1772072696,
      1772072816,
      1772072876,
      1772072996,
      1772073056,
      1772073056,
      1772073116,
      1772073176,
      1772073297,
      1772073357,
      1772073357,
      1772073417,
      1772073657,
      1772073717,
      1772073717,
      1772073777,
      1772073957,
      1772074017,
      1772074198,
      1772074198,
      1772074258,
      1772074311,
      1772074318,
      1772074371,
      1772074498,
      1772074551,
      1772074551,
      1772074671,
      1772074731,
      1772074791,
      1772074791,
      1772074798,
      1772074852,
      1772074859,
      1772074912,
      1772074919,
      1772074919,
      1772074972,
      1772075092,
      1772075099,
      1772075212,
      1772075272,
      1772075339,
      1772075392,
      1772075459,
      1772075512,
      1772075512,
      1772075572,
      1772075632,
      1772075752,
      1772075752,
      1772075820,
      1772075820,
      1772076053,
      1772076072,
      1772076113,
      1772076113,
      1772076173,
      1772076192,
      1772076233,
      1772076233,
      1772076372,
      1772076372,
      1772076473,
      1772076533,
      1772076553,
      1772076593,
      1772076593,
      1772076613,
      1772076653,
      1772076673,
      1772076805,
      1772076954,
      1772077014,
      1772077014,
      1772077074,
      1772077134,
      1772077134,
      1772077254,
      1772077374,
      1772077374,
      1772077494,
      1772077554,
      1772077554,
      1772077614,
      1772077614,
      1772078335,
      1772078335,
      1772078395,
      1772078395,
      1772078455,
      1772078515,
      1772078575,
      1772078586,
      1772078646,
      1772078646,
      1772078695,
      1772078935,
      1772079006,
      1772079066,
      1772079066,
      1772079116,
      1772079246,
      1772079296,
      1772079356,
      1772079366,
      1772079416,
      1772079416
    ],
    "wof:geomhash": "5bc9265146c8d2e18b784feac43f9275",
    "wof:id": 2014879763,
    "wof:repo": "sfomuseum-data-flights-2026-02"
  },
  "bbox": [
    -122.66666666666667,
    37.55,
    -70.87138888888889,
    46.065
  ],
  "geometry": {"coordinates":[[-71.03333333333333,42.31666666666667],[-71.03333333333333,42.31666666666667],[-71.00805555555556,42.27055555555555],[-71.00805555555556,42.27055555555555],[-70.96666666666667,42.266666666666666],[-70.87138888888889,42.426944444444445],[-70.93388888888889,42.487500000000004],[-71.01333333333334,42.55694444444444],[-71.01333333333334,42.55694444444444],[-71.01333333333334,42.55694444444444],[-71.10111111111111,42.6325],[-71.19222222222223,42.71055555555556],[-71.28888888888889,42.782777777777774],[-71.28888888888889,42.782777777777774],[-71.28888888888889,42.782777777777774],[-71.68083333333334,42.874722222222225],[-71.68083333333334,42.874722222222225],[-71.68083333333334,42.874722222222225],[-71.81805555555555,42.905833333333334],[-72.08666666666666,42.96666666666667],[-72.08666666666666,42.96666666666667],[-72.2275,42.99805555555556],[-72.2275,42.99805555555556],[-72.36194444444443,43.028055555555554],[-72.36194444444443,43.028055555555554],[-72.50527777777778,43.05972222222222],[-72.50527777777778,43.05972222222222],[-72.79555555555555,43.12305555555555],[-72.94416666666667,43.15555555555555],[-72.94416666666667,43.15555555555555],[-73.37083333333332,43.24666666666667],[-73.37083333333332,43.24666666666667],[-73.64750000000001,43.30416666666667],[-73.64750000000001,43.30416666666667],[-73.64750000000001,43.30416666666667],[-73.9588888888889,43.36833333333333],[-74.38833333333334,43.45583333333334],[-74.38833333333334,43.45583333333334],[-74.38833333333334,43.45583333333334],[-75.11,43.598333333333336],[-75.11,43.598333333333336],[-75.255,43.62638888888889],[-75.40083333333334,43.654444444444444],[-75.40083333333334,43.654444444444444],[-75.40083333333334,43.654444444444444],[-75.5461111111111,43.68194444444444],[-75.83944444444444,43.73694444444445],[-75.83944444444444,43.73694444444445],[-76.13361111111112,43.79083333333333],[-76.13361111111112,43.79083333333333],[-76.28194444444445,43.818333333333335],[-81.40083333333334,45.01083333333333],[-81.40083333333334,45.01083333333333],[-81.57194444444444,45.043055555555554],[-81.57194444444444,45.043055555555554],[-81.57194444444444,45.043055555555554],[-81.86222222222221,45.09722222222222],[-81.86222222222221,45.09722222222222],[-82.01277777777777,45.125],[-82.46722222222222,45.206944444444446],[-82.46722222222222,45.206944444444446],[-82.46722222222222,45.206944444444446],[-82.91972222222223,45.26916666666666],[-82.91972222222223,45.26916666666666],[-82.91972222222223,45.26916666666666],[-83.07194444444444,45.28944444444444],[-83.37277777777777,45.32888888888889],[-83.67722222222223,45.36833333333333],[-83.8286111111111,45.3875],[-83.8286111111111,45.3875],[-83.98277777777778,45.406666666666666],[-83.98277777777778,45.406666666666666],[-83.98277777777778,45.406666666666666],[-84.44500000000001,45.463055555555556],[-84.44500000000001,45.463055555555556],[-84.44500000000001,45.463055555555556],[-84.59916666666666,45.48111111111111],[-84.75361111111111,45.49944444444444],[-84.91111111111111,45.5175],[-84.91111111111111,45.5175],[-84.91111111111111,45.5175],[-85.37777777777777,45.57083333333334],[-85.68972222222223,45.60527777777778],[-85.68972222222223,45.60527777777778],[-85.68972222222223,45.60527777777778],[-85.8436111111111,45.62222222222222],[-86.29861111111111,45.669444444444444],[-86.29861111111111,45.669444444444444],[-86.29861111111111,45.669444444444444],[-86.92027777777778,45.72527777777778],[-86.92027777777778,45.72527777777778],[-86.92027777777778,45.72527777777778],[-87.3875,45.76138888888889],[-87.3875,45.76138888888889],[-87.54194444444444,45.77333333333333],[-87.54194444444444,45.77333333333333],[-87.66666666666667,45.7825],[-87.85249999999999,45.79611111111111],[-87.85249999999999,45.79611111111111],[-87.85249999999999,45.79611111111111],[-88.31916666666666,45.82916666666667],[-88.31916666666666,45.82916666666667],[-88.47222222222223,45.839444444444446],[-88.47222222222223,45.839444444444446],[-88.62805555555555,45.849722222222226],[-88.78222222222222,45.859722222222224],[-88.78222222222222,45.859722222222224],[-89.23805555555556,45.88805555555555],[-89.23805555555556,45.88805555555555],[-89.3938888888889,45.89694444444444],[-89.3938888888889,45.89694444444444],[-89.71944444444445,45.915277777777774],[-89.71944444444445,45.915277777777774],[-90.35111111111111,45.94888888888889],[-90.35111111111111,45.94888888888889],[-90.66916666666667,45.96472222222223],[-90.66916666666667,45.96472222222223],[-90.82888888888888,45.97222222222222],[-91.14777777777779,45.986111111111114],[-91.14777777777779,45.986111111111114],[-91.625,46.004444444444445],[-92.07472222222222,46.01972222222222],[-92.38527777777779,46.02972222222222],[-92.38527777777779,46.02972222222222],[-92.86083333333333,46.043055555555554],[-93.84666666666666,46.065],[-93.84666666666666,46.065],[-94.31888888888888,46.053888888888885],[-94.6363888888889,46.044999999999995],[-94.6363888888889,46.044999999999995],[-95.42500000000001,46.020833333333336],[-95.89694444444446,46.00972222222222],[-96.52777777777777,45.990833333333335],[-96.52777777777777,45.990833333333335],[-97.34777777777778,45.961111111111116],[-97.50944444444444,45.95444444444445],[-97.50944444444444,45.95444444444445],[-98.29833333333333,45.91916666666666],[-98.48583333333333,45.91222222222222],[-99.10638888888889,45.87777777777778],[-99.10638888888889,45.87777777777778],[-99.72166666666666,45.84138888888889],[-99.72166666666666,45.84138888888889],[-99.87777777777777,45.83166666666667],[-100.02583333333334,45.82277777777778],[-100.02972222222222,45.82222222222222],[-100.48416666666667,45.793055555555554],[-100.48416666666667,45.793055555555554],[-100.6375,45.782222222222224],[-100.78888888888889,45.77194444444444],[-100.79694444444445,45.771388888888886],[-100.94,45.76111111111111],[-101.10305555555556,45.74861111111111],[-101.10305555555556,45.74861111111111],[-101.25722222222223,45.738055555555555],[-101.4,45.7275],[-101.55472222222222,45.71555555555556],[-101.56944444444444,45.712500000000006],[-101.70694444444445,45.70388888888889],[-101.76666666666667,45.69916666666666],[-102.02527777777777,45.67833333333333],[-102.02527777777777,45.67833333333333],[-102.07416666666666,45.67444444444444],[-102.22833333333334,45.66166666666666],[-102.48694444444445,45.63972222222222],[-102.48694444444445,45.63972222222222],[-102.62888888888888,45.62777777777778],[-102.68861111111111,45.6225],[-102.79194444444444,45.61333333333334],[-102.94305555555556,45.599722222222226],[-102.98972222222223,45.59583333333334],[-103.2461111111111,45.57222222222222],[-103.2461111111111,45.57222222222222],[-103.5461111111111,45.54416666666666],[-103.57222222222222,45.541666666666664],[-103.57222222222222,45.541666666666664],[-103.6975,45.52972222222222],[-103.70138888888889,45.529444444444444],[-103.89805555555556,45.51],[-103.89805555555556,45.51],[-104.00527777777778,45.49861111111111],[-104.00527777777778,45.49861111111111],[-104.17611111111111,45.46416666666667],[-104.45111111111112,45.4075],[-104.47611111111111,45.402499999999996],[-104.63,45.37027777777778],[-104.63,45.37027777777778],[-105.08305555555555,45.27444444444444],[-105.23777777777778,45.24111111111111],[-105.235,45.24166666666667],[-105.235,45.24166666666667],[-105.54222222222222,45.175],[-105.53944444444444,45.175555555555555],[-105.69361111111111,45.14194444444444],[-105.69361111111111,45.14194444444444],[-105.69361111111111,45.14194444444444],[-105.84472222222222,45.108333333333334],[-106.14944444444446,45.040277777777774],[-106.30222222222221,45.005833333333335],[-106.36388888888888,44.99194444444444],[-106.51722222222222,44.95666666666667],[-106.60833333333333,44.93555555555555],[-106.66888888888889,44.92166666666667],[-106.66888888888889,44.92166666666667],[-106.75916666666667,44.901111111111106],[-106.82027777777778,44.886944444444445],[-106.97166666666666,44.85166666666667],[-106.97166666666666,44.85166666666667],[-107.12027777777777,44.81666666666667],[-107.26805555555555,44.78194444444444],[-107.26805555555555,44.78194444444444],[-107.57027777777778,44.709722222222226],[-107.72277777777778,44.672777777777775],[-107.72277777777778,44.672777777777775],[-107.84444444444443,44.64333333333333],[-108.14166666666668,44.57055555555556],[-108.57083333333333,44.46388888888889],[-108.57083333333333,44.46388888888889],[-108.84555555555555,44.394444444444446],[-109.11277777777777,44.32611111111112],[-109.11277777777777,44.32611111111112],[-109.24388888888889,44.2925],[-109.37833333333333,44.2575],[-109.52888888888889,44.218611111111116],[-109.66222222222223,44.18333333333333],[-109.66222222222223,44.18333333333333],[-110.32527777777777,44.006388888888885],[-110.32527777777777,44.006388888888885],[-110.71888888888888,43.89888888888889],[-110.84888888888888,43.86333333333334],[-110.9786111111111,43.8275],[-110.9786111111111,43.8275],[-111.10777777777777,43.79138888888889],[-111.72555555555556,43.61666666666667],[-111.72555555555556,43.61666666666667],[-111.98166666666667,43.54277777777778],[-112.10333333333332,43.49888888888889],[-112.33527777777778,43.37833333333333],[-112.45138888888889,43.31805555555556],[-112.45138888888889,43.31805555555556],[-112.5675,43.25694444444444],[-112.68277777777779,43.196666666666665],[-112.93527777777778,43.06305555555555],[-113.04972222222221,43.00194444444445],[-113.04972222222221,43.00194444444445],[-113.16333333333334,42.94138888888889],[-113.62416666666665,42.69277777777778],[-113.72361111111111,42.63861111111111],[-113.72361111111111,42.63861111111111],[-113.83666666666666,42.57694444444445],[-114.18027777777779,42.3875],[-114.29277777777777,42.323055555555555],[-114.61361111111111,42.11694444444444],[-114.61361111111111,42.11694444444444],[-114.73444444444445,42.038888888888884],[-114.82305555555556,41.98527777777778],[-114.84027777777777,41.97027777777778],[-114.92972222222222,41.91638888888889],[-115.15305555555557,41.76611111111111],[-115.23944444444444,41.712500000000006],[-115.23944444444444,41.712500000000006],[-115.44305555555556,41.577222222222225],[-115.54416666666667,41.51027777777778],[-115.6438888888889,41.442499999999995],[-115.6438888888889,41.442499999999995],[-115.66333333333334,41.42805555555555],[-115.74666666666667,41.37444444444444],[-115.76472222222222,41.36],[-115.84833333333333,41.30611111111111],[-115.86722222222221,41.29138888888889],[-115.86722222222221,41.29138888888889],[-115.9538888888889,41.234722222222224],[-116.16111111111111,41.094166666666666],[-116.17916666666667,41.080555555555556],[-116.36388888888888,40.95666666666667],[-116.46444444444445,40.88777777777778],[-116.58388888888888,40.80333333333333],[-116.66666666666667,40.74611111111111],[-116.78916666666666,40.66138888888889],[-116.87277777777777,40.60472222222222],[-116.87277777777777,40.60472222222222],[-116.98555555555555,40.553888888888885],[-117.10638888888889,40.52111111111111],[-117.34888888888888,40.4575],[-117.34888888888888,40.4575],[-117.49583333333334,40.41861111111111],[-117.49583333333334,40.41861111111111],[-117.99027777777778,40.28611111111111],[-118.01388888888889,40.279444444444444],[-118.09055555555555,40.25888888888889],[-118.09055555555555,40.25888888888889],[-118.21222222222222,40.225833333333334],[-118.25833333333334,40.213055555555556],[-118.335,40.19194444444444],[-118.335,40.19194444444444],[-118.63027777777778,40.11027777777778],[-118.63027777777778,40.11027777777778],[-118.85194444444444,40.04277777777778],[-118.97500000000001,40.00555555555555],[-118.99777777777778,39.99861111111111],[-119.09694444444445,39.968333333333334],[-119.09694444444445,39.968333333333334],[-119.11916666666666,39.961666666666666],[-119.21944444444445,39.93111111111111],[-119.24194444444444,39.924166666666665],[-119.48805555555556,39.848333333333336],[-119.83638888888889,39.74027777777778],[-119.95916666666668,39.70138888888889],[-119.95916666666668,39.70138888888889],[-120.08111111111111,39.66305555555555],[-120.20777777777778,39.62305555555555],[-120.20777777777778,39.62305555555555],[-120.45472222222223,39.54416666666666],[-120.70166666666667,39.46472222222223],[-120.70166666666667,39.46472222222223],[-120.95111111111112,39.38388888888889],[-121.07333333333332,39.34388888888889],[-121.07333333333332,39.34388888888889],[-121.18361111111112,39.285],[-121.18361111111112,39.285],[-122.42833333333334,38.46555555555556],[-122.42833333333334,38.46555555555556],[-122.51611111111112,38.37972222222222],[-122.51611111111112,38.37972222222222],[-122.55194444444444,38.26722222222222],[-122.58944444444444,38.154444444444444],[-122.62249999999999,38.05361111111111],[-122.63333333333334,38.016666666666666],[-122.66666666666667,37.916666666666664],[-122.66666666666667,37.916666666666664],[-122.62277777777777,37.85166666666667],[-122.29027777777777,37.67055555555555],[-122.2,37.63333333333333],[-122.11666666666666,37.61666666666667],[-122.11666666666666,37.61666666666667],[-122.07638888888889,37.58388888888889],[-122.18333333333334,37.55],[-122.22027777777778,37.573888888888895],[-122.28083333333333,37.5925],[-122.3,37.6],[-122.33,37.602222222222224],[-122.33,37.602222222222224]],"type":"LineString"}
}
