{
  "id": 2014868851,
  "type": "Feature",
  "properties": {
    "date:inception_lower": "2026-02-23",
    "date:inception_upper": "2026-02-23",
    "edtf:cessation": "",
    "edtf:inception": "2026-02-23",
    "flysfo:actual_timestamp": -1,
    "flysfo:airline": "UA",
    "flysfo:base_airline": "",
    "flysfo:base_flight_number": "9012",
    "flysfo:date": "2026-02-23",
    "flysfo:estimated_timestamp": 1771891800,
    "flysfo:event": "D",
    "flysfo:flight_number": "UA2111",
    "flysfo:gate": "",
    "flysfo:journey": "SFO-BOS",
    "flysfo:scheduled_timestamp": 1771891800,
    "flysfo:timestamp": 1771891800,
    "geom:area": 0,
    "geom:bbox": "-122.370943,37.617990,-71.014750,42.362322",
    "geom:latitude": 39.990156,
    "geom:longitude": -96.6928465,
    "iata:airline": "UA",
    "iata:base_airline": "",
    "icao:airline": "UAL",
    "icao:base_airline": "ANZ",
    "lbl:latitude": 37.61799,
    "lbl:longitude": -122.370943,
    "sfomuseum:airline_id": 1159285413,
    "sfomuseum:arrival_id": 102530741,
    "sfomuseum:base_flight_id": "20260223-D-ANZ-9012",
    "sfomuseum:departure_id": 102527513,
    "sfomuseum:flight_id": "20260223-D-UAL-2111",
    "sfomuseum:flight_number": [
      "UAL2111",
      "UA2111"
    ],
    "sfomuseum:placetype": "flight",
    "src:geom": "flysfo",
    "wof:belongsto": [],
    "wof:country": "US",
    "wof:created": 1771949775,
    "wof:geomhash": "92fb504f17f3373e6b03bb6769f65d8a",
    "wof:hierarchy": [
      {
        "custom_id": 2014868851,
        "flight_id": 2014868851
      }
    ],
    "wof:id": 2014868851,
    "wof:involves": [
      102530741,
      102527513,
      1159285413,
      -1,
      1159283697
    ],
    "wof:lastmodified": 1771949775,
    "wof:name": "UA2111 (SFO-BOS)",
    "wof:parent_id": -1,
    "wof:placetype": "custom",
    "wof:placetype_alt": [
      "flight"
    ],
    "wof:repo": "sfomuseum-data-flights-2026-02",
    "wof:superseded_by": [],
    "wof:supersedes": []
  },
  "bbox": [
    -122.370943,
    37.61799,
    -71.01475,
    42.362322
  ],
  "geometry": {"coordinates":[[-122.370943,37.61799],[-71.01475,42.362322]],"type":"MultiPoint"}
}
