{
  "id": 2014792555,
  "type": "Feature",
  "properties": {
    "geom:area": 0,
    "geom:bbox": "-126.990000,37.658056,-122.466111,40.293611",
    "geom:latitude": 39.02131207529359,
    "geom:longitude": -124.69969343711439,
    "src:alt_label": "swim-path",
    "src:geom": "swim",
    "swim:altitudes": [
      "027",
      "027",
      "027",
      "027",
      "027",
      "066",
      "066",
      "066",
      "112",
      "112",
      "112",
      "112",
      "183",
      "183",
      "183",
      "183",
      "183",
      "225",
      "225",
      "225",
      "245",
      "254",
      "254",
      "254",
      "262",
      "262",
      "262",
      "262",
      "285",
      "293",
      "293",
      "293",
      "293",
      "298",
      "298",
      "321",
      "321",
      "321",
      "321",
      "321",
      "337",
      "337",
      "337",
      "344",
      "344",
      "344",
      "348",
      "348",
      "348",
      "360",
      "360",
      "360C",
      "360C",
      "360C",
      "360C",
      "360",
      "360",
      "360C",
      "360C",
      "360",
      "360",
      "360",
      "360",
      "360",
      "360",
      "360C",
      "360C",
      "360C",
      "360C"
    ],
    "swim:geom": "path",
    "swim:speeds": [
      214,
      214,
      214,
      214,
      214,
      280,
      280,
      280,
      363,
      363,
      363,
      363,
      403,
      403,
      403,
      403,
      403,
      425,
      425,
      425,
      423,
      425,
      425,
      425,
      443,
      443,
      443,
      443,
      446,
      449,
      449,
      449,
      449,
      453,
      453,
      471,
      471,
      471,
      471,
      471,
      472,
      472,
      472,
      470,
      470,
      470,
      469,
      469,
      469,
      460,
      460,
      467,
      467,
      467,
      467,
      460,
      460,
      465,
      465,
      470,
      470,
      470,
      470,
      470,
      470,
      468,
      468,
      468,
      468
    ],
    "swim:timestamps": [
      1771098613,
      1771098613,
      1771098613,
      1771098613,
      1771098613,
      1771098734,
      1771098734,
      1771098734,
      1771098914,
      1771098914,
      1771098914,
      1771098914,
      1771099154,
      1771099154,
      1771099154,
      1771099154,
      1771099154,
      1771099334,
      1771099334,
      1771099334,
      1771099394,
      1771099455,
      1771099455,
      1771099455,
      1771099515,
      1771099515,
      1771099515,
      1771099515,
      1771099635,
      1771099695,
      1771099695,
      1771099695,
      1771099695,
      1771099755,
      1771099755,
      1771099995,
      1771099995,
      1771099995,
      1771099995,
      1771099995,
      1771100115,
      1771100115,
      1771100115,
      1771100175,
      1771100175,
      1771100175,
      1771100236,
      1771100236,
      1771100236,
      1771100392,
      1771100392,
      1771100416,
      1771100416,
      1771100416,
      1771100416,
      1771100572,
      1771100572,
      1771100596,
      1771100596,
      1771100632,
      1771100632,
      1771100693,
      1771100693,
      1771100693,
      1771100693,
      1771100836,
      1771100836,
      1771100836,
      1771100836
    ],
    "wof:geomhash": "86bb7285edb7371eca6ec2466c053926",
    "wof:id": 2014792555,
    "wof:repo": "sfomuseum-data-flights-2026-02"
  },
  "bbox": [
    -126.99,
    37.658055555555556,
    -122.46611111111112,
    40.29361111111111
  ],
  "geometry": {"coordinates":[[-122.46611111111112,37.658055555555556],[-122.46611111111112,37.658055555555556],[-122.46611111111112,37.658055555555556],[-122.46611111111112,37.658055555555556],[-122.46611111111112,37.658055555555556],[-122.6211111111111,37.743611111111115],[-122.6211111111111,37.743611111111115],[-122.6211111111111,37.743611111111115],[-122.83527777777778,37.918055555555554],[-122.83527777777778,37.918055555555554],[-122.83527777777778,37.918055555555554],[-122.83527777777778,37.918055555555554],[-123.25166666666667,38.20805555555556],[-123.25166666666667,38.20805555555556],[-123.25166666666667,38.20805555555556],[-123.25166666666667,38.20805555555556],[-123.25166666666667,38.20805555555556],[-123.60833333333333,38.4175],[-123.60833333333333,38.4175],[-123.60833333333333,38.4175],[-123.73027777777779,38.48861111111111],[-123.85111111111111,38.558611111111105],[-123.85111111111111,38.558611111111105],[-123.85111111111111,38.558611111111105],[-123.97722222222222,38.63138888888889],[-123.97722222222222,38.63138888888889],[-123.97722222222222,38.63138888888889],[-123.97722222222222,38.63138888888889],[-124.24805555555555,38.7875],[-124.3786111111111,38.86222222222222],[-124.3786111111111,38.86222222222222],[-124.3786111111111,38.86222222222222],[-124.3786111111111,38.86222222222222],[-124.49055555555556,38.92611111111111],[-124.49055555555556,38.92611111111111],[-125.03277777777778,39.231944444444444],[-125.03277777777778,39.231944444444444],[-125.03277777777778,39.231944444444444],[-125.03277777777778,39.231944444444444],[-125.03277777777778,39.231944444444444],[-125.335,39.400277777777774],[-125.335,39.400277777777774],[-125.335,39.400277777777774],[-125.46388888888889,39.47138888888889],[-125.46388888888889,39.47138888888889],[-125.46388888888889,39.47138888888889],[-125.60055555555554,39.54666666666667],[-125.60055555555554,39.54666666666667],[-125.60055555555554,39.54666666666667],[-125.95,39.733333333333334],[-125.95,39.733333333333334],[-126.01472222222222,39.772777777777776],[-126.01472222222222,39.772777777777776],[-126.01472222222222,39.772777777777776],[-126.01472222222222,39.772777777777776],[-126.36666666666666,39.96666666666667],[-126.36666666666666,39.96666666666667],[-126.42777777777778,39.99527777777778],[-126.42777777777778,39.99527777777778],[-126.5,40.03333333333333],[-126.5,40.03333333333333],[-126.61666666666666,40.1],[-126.61666666666666,40.1],[-126.61666666666666,40.1],[-126.61666666666666,40.1],[-126.99,40.29361111111111],[-126.99,40.29361111111111],[-126.99,40.29361111111111],[-126.99,40.29361111111111]],"type":"LineString"}
}
