{
  "id": 2014798655,
  "type": "Feature",
  "properties": {
    "geom:area": 0,
    "geom:bbox": "-123.136940,37.535680,-122.096130,38.518470",
    "geom:latitude": 37.92660919290801,
    "geom:longitude": -122.58094848057166,
    "src:alt_label": "swim-approach",
    "src:geom": "swim",
    "swim:elevations": [
      8512,
      8268,
      8208,
      8019,
      7713,
      7666,
      7407,
      6985,
      6860,
      6420,
      6363,
      6063,
      5979,
      5630,
      5294,
      5224,
      4984,
      4605,
      4353,
      4016,
      3612,
      3497,
      3397,
      3351,
      3353,
      3353,
      3327,
      3258,
      3152,
      2986,
      2848,
      2623,
      2507,
      2317,
      1974,
      1752,
      1660,
      1461,
      1183,
      938,
      898,
      844,
      522,
      472,
      396,
      308,
      183,
      90
    ],
    "swim:geom": "approach",
    "swim:timestamps": [
      1771221950,
      1771221981,
      1771221990,
      1771222011,
      1771222048,
      1771222053,
      1771222082,
      1771222129,
      1771222143,
      1771222190,
      1771222196,
      1771222228,
      1771222238,
      1771222276,
      1771222315,
      1771222324,
      1771222351,
      1771222396,
      1771222428,
      1771222464,
      1771222497,
      1771222522,
      1771222556,
      1771222574,
      1771222583,
      1771222616,
      1771222622,
      1771222665,
      1771222692,
      1771222719,
      1771222740,
      1771222771,
      1771222789,
      1771222815,
      1771222855,
      1771222882,
      1771222895,
      1771222917,
      1771222945,
      1771222972,
      1771222997,
      1771223013,
      1771223067,
      1771223079,
      1771223095,
      1771223114,
      1771223144,
      1771223170
    ],
    "wof:geomhash": "437972a4e721afd31c82b786585cad25",
    "wof:id": 2014798655,
    "wof:repo": "sfomuseum-data-flights-2026-02"
  },
  "bbox": [
    -123.13694,
    37.53568,
    -122.09613,
    38.51847
  ],
  "geometry": {"coordinates":[[-123.13694,38.51847],[-123.09067,38.48209],[-123.07661,38.47154],[-123.04481,38.44627],[-122.99135,38.40329],[-122.98403,38.39742],[-122.9408,38.36279],[-122.87415,38.30687],[-122.85838,38.28878],[-122.82188,38.22278],[-122.818,38.21427],[-122.79735,38.169],[-122.79059,38.15392],[-122.7666,38.10168],[-122.74212,38.04912],[-122.73659,38.03712],[-122.72012,38.00137],[-122.69259,37.94184],[-122.67162,37.90104],[-122.63132,37.85936],[-122.59077,37.82164],[-122.55915,37.79199],[-122.51996,37.75507],[-122.50005,37.73614],[-122.49039,37.727],[-122.44238,37.70458],[-122.43293,37.7016],[-122.36805,37.68014],[-122.33162,37.66801],[-122.29591,37.65684],[-122.26758,37.64985],[-122.22501,37.63925],[-122.20098,37.6331],[-122.16717,37.62439],[-122.11526,37.61059],[-122.09613,37.58937],[-122.09823,37.57665],[-122.11494,37.55959],[-122.13965,37.54056],[-122.17008,37.53568],[-122.1954,37.54571],[-122.21085,37.55196],[-122.26272,37.57396],[-122.27369,37.57841],[-122.28731,37.58418],[-122.30167,37.59024],[-122.32538,37.60018],[-122.34669,37.60915]],"type":"LineString"}
}
