{
  "id": 2014860599,
  "type": "Feature",
  "properties": {
    "geom:area": 0,
    "geom:bbox": "-122.382630,37.639180,-121.247730,37.991180",
    "geom:latitude": 37.93808885029942,
    "geom:longitude": -121.93258817225222,
    "src:alt_label": "swim-takeoff",
    "src:geom": "swim",
    "swim:elevations": [
      353,
      716,
      1161,
      1884,
      1990,
      2522,
      2783,
      3278,
      3820,
      4267,
      4707,
      4974,
      5106,
      5765,
      6032,
      6340,
      6962,
      7171,
      7298,
      7506,
      7717,
      7920,
      8248,
      8367,
      8473,
      8706
    ],
    "swim:geom": "takeoff",
    "swim:timestamps": [
      1771801489,
      1771801515,
      1771801551,
      1771801616,
      1771801621,
      1771801648,
      1771801663,
      1771801690,
      1771801733,
      1771801766,
      1771801793,
      1771801814,
      1771801826,
      1771801886,
      1771801909,
      1771801934,
      1771801990,
      1771802010,
      1771802024,
      1771802048,
      1771802078,
      1771802100,
      1771802141,
      1771802157,
      1771802168,
      1771802194
    ],
    "wof:geomhash": "1bfcbc0549472454509e5d8dc723b989",
    "wof:id": 2014860599,
    "wof:repo": "sfomuseum-data-flights-2026-02"
  },
  "bbox": [
    -122.38263,
    37.63918,
    -121.24773,
    37.99118
  ],
  "geometry": {"coordinates":[[-122.35808,37.63918],[-122.34055,37.65409],[-122.31542,37.67738],[-122.33864,37.74783],[-122.34212,37.7544],[-122.35842,37.78836],[-122.36744,37.80719],[-122.38263,37.84221],[-122.38096,37.90631],[-122.33459,37.94872],[-122.27781,37.96283],[-122.23175,37.97152],[-122.20489,37.97659],[-122.06581,37.98898],[-122.01018,37.98941],[-121.94857,37.98969],[-121.80915,37.9902],[-121.75649,37.99033],[-121.72118,37.99049],[-121.65692,37.99069],[-121.57618,37.99069],[-121.51491,37.9908],[-121.39827,37.99111],[-121.3539,37.99105],[-121.32325,37.99099],[-121.24773,37.99118]],"type":"LineString"}
}
