{
  "id": 2014836519,
  "type": "Feature",
  "properties": {
    "geom:area": 0,
    "geom:bbox": "-122.428333,37.760278,-122.044722,48.437222",
    "geom:latitude": 43.07366806455032,
    "geom:longitude": -122.16714304408964,
    "src:alt_label": "swim-path",
    "src:geom": "swim",
    "swim:altitudes": [
      "085",
      "085",
      "085",
      "107",
      "107",
      "122",
      "122",
      "192",
      "192",
      "213",
      "213",
      "213",
      "231",
      "231",
      "231",
      "288",
      "288",
      "288",
      "288",
      "309",
      "317",
      "317",
      "320C",
      "320C",
      "320C",
      "321",
      "321",
      "338",
      "338",
      "338",
      "338",
      "360C",
      "360C",
      "360C",
      "360C",
      "360C",
      "360C",
      "360C",
      "360C",
      "360C",
      "360C",
      "360C",
      "360C",
      "360C",
      "360C",
      "360C",
      "360C",
      "360C",
      "360C",
      "360C",
      "360C",
      "360C",
      "360C",
      "360C",
      "360C",
      "360C",
      "360C",
      "360C",
      "360C",
      "360C",
      "360C",
      "360C",
      "360C",
      "360C",
      "360C",
      "360C",
      "360C",
      "360C",
      "360C",
      "360C",
      "360C",
      "360",
      "360",
      "360",
      "360",
      "306",
      "306",
      "306",
      "224",
      "224",
      "183",
      "183",
      "183"
    ],
    "swim:geom": "path",
    "swim:speeds": [
      237,
      237,
      237,
      277,
      277,
      309,
      309,
      351,
      351,
      353,
      353,
      353,
      355,
      355,
      355,
      374,
      374,
      374,
      374,
      388,
      389,
      389,
      398,
      398,
      398,
      398,
      398,
      398,
      398,
      398,
      398,
      410,
      410,
      410,
      412,
      412,
      412,
      409,
      407,
      407,
      407,
      405,
      405,
      405,
      409,
      409,
      410,
      410,
      410,
      410,
      412,
      412,
      414,
      415,
      415,
      417,
      417,
      418,
      417,
      417,
      417,
      415,
      415,
      415,
      415,
      415,
      415,
      413,
      413,
      416,
      416,
      416,
      416,
      416,
      416,
      392,
      392,
      392,
      336,
      336,
      319,
      319,
      319
    ],
    "swim:timestamps": [
      1771557994,
      1771557994,
      1771557994,
      1771558054,
      1771558054,
      1771558114,
      1771558114,
      1771558294,
      1771558294,
      1771558354,
      1771558354,
      1771558354,
      1771558414,
      1771558414,
      1771558414,
      1771558714,
      1771558714,
      1771558714,
      1771558714,
      1771558834,
      1771558894,
      1771558894,
      1771559075,
      1771559075,
      1771559075,
      1771559135,
      1771559135,
      1771559255,
      1771559255,
      1771559255,
      1771559255,
      1771559495,
      1771559495,
      1771559495,
      1771559975,
      1771559975,
      1771559975,
      1771560095,
      1771560216,
      1771560216,
      1771560396,
      1771560516,
      1771560516,
      1771560516,
      1771560756,
      1771560756,
      1771560816,
      1771560876,
      1771560876,
      1771560876,
      1771561116,
      1771561116,
      1771561296,
      1771561356,
      1771561356,
      1771561477,
      1771561477,
      1771561597,
      1771561777,
      1771561777,
      1771561777,
      1771561957,
      1771562077,
      1771562077,
      1771562257,
      1771562257,
      1771562257,
      1771562618,
      1771562618,
      1771562798,
      1771562798,
      1771563038,
      1771563038,
      1771563098,
      1771563098,
      1771563458,
      1771563458,
      1771563458,
      1771563698,
      1771563698,
      1771563819,
      1771563819,
      1771563819
    ],
    "wof:geomhash": "8d3539b540ee740d3b2418ec1b274890",
    "wof:id": 2014836519,
    "wof:repo": "sfomuseum-data-flights-2026-02"
  },
  "bbox": [
    -122.42833333333334,
    37.76027777777778,
    -122.04472222222222,
    48.43722222222222
  ],
  "geometry": {"coordinates":[[-122.36305555555555,37.76027777777778],[-122.36305555555555,37.76027777777778],[-122.36305555555555,37.76027777777778],[-122.38055555555555,37.82638888888889],[-122.38055555555555,37.82638888888889],[-122.33611111111111,37.896388888888886],[-122.33611111111111,37.896388888888886],[-122.19833333333334,38.17222222222222],[-122.19833333333334,38.17222222222222],[-122.15611111111112,38.251666666666665],[-122.15611111111112,38.251666666666665],[-122.15611111111112,38.251666666666665],[-122.1036111111111,38.343611111111116],[-122.1036111111111,38.343611111111116],[-122.1036111111111,38.343611111111116],[-122.06333333333333,38.84861111111111],[-122.06333333333333,38.84861111111111],[-122.06333333333333,38.84861111111111],[-122.06333333333333,38.84861111111111],[-122.04472222222222,39.06388888888888],[-122.04777777777778,39.17222222222222],[-122.04777777777778,39.17222222222222],[-122.05638888888889,39.504444444444445],[-122.05638888888889,39.504444444444445],[-122.05638888888889,39.504444444444445],[-122.05916666666667,39.614444444444445],[-122.05916666666667,39.614444444444445],[-122.06472222222222,39.83527777777778],[-122.06472222222222,39.83527777777778],[-122.06472222222222,39.83527777777778],[-122.06472222222222,39.83527777777778],[-122.075,40.30333333333333],[-122.075,40.30333333333333],[-122.075,40.30333333333333],[-122.0975,41.223055555555554],[-122.0975,41.223055555555554],[-122.0975,41.223055555555554],[-122.10277777777777,41.45027777777778],[-122.10833333333333,41.67583333333333],[-122.10833333333333,41.67583333333333],[-122.11638888888888,42.0175],[-122.12166666666666,42.225833333333334],[-122.12166666666666,42.225833333333334],[-122.12166666666666,42.225833333333334],[-122.13333333333334,42.68194444444444],[-122.13333333333334,42.68194444444444],[-122.13611111111112,42.79527777777778],[-122.1388888888889,42.91],[-122.1388888888889,42.91],[-122.1388888888889,42.91],[-122.15027777777779,43.365],[-122.15027777777779,43.365],[-122.16027777777778,43.73166666666667],[-122.16305555555556,43.84777777777778],[-122.16305555555556,43.84777777777778],[-122.16916666666667,44.07944444444445],[-122.16916666666667,44.07944444444445],[-122.17555555555556,44.31055555555555],[-122.18444444444445,44.65833333333333],[-122.18444444444445,44.65833333333333],[-122.18444444444445,44.65833333333333],[-122.19388888888889,44.99722222222222],[-122.2,45.22555555555556],[-122.2,45.22555555555556],[-122.20944444444444,45.57027777777778],[-122.20944444444444,45.57027777777778],[-122.20944444444444,45.57027777777778],[-122.22944444444444,46.26555555555556],[-122.22944444444444,46.26555555555556],[-122.23916666666666,46.61194444444445],[-122.23916666666666,46.61194444444445],[-122.2525,47.07416666666667],[-122.2525,47.07416666666667],[-122.25583333333333,47.18833333333333],[-122.25583333333333,47.18833333333333],[-122.2761111111111,47.861111111111114],[-122.2761111111111,47.861111111111114],[-122.2761111111111,47.861111111111114],[-122.3761111111111,48.259166666666665],[-122.3761111111111,48.259166666666665],[-122.42833333333334,48.43722222222222],[-122.42833333333334,48.43722222222222],[-122.42833333333334,48.43722222222222]],"type":"LineString"}
}
