{
  "id": 2014848617,
  "type": "Feature",
  "properties": {
    "geom:area": 0,
    "geom:bbox": "-122.366667,37.633333,-88.083611,42.234444",
    "geom:latitude": 40.64869251367514,
    "geom:longitude": -105.43045771554216,
    "src:alt_label": "swim-path",
    "src:geom": "swim",
    "swim:altitudes": [
      "050",
      "050",
      "051",
      "051",
      "081",
      "116",
      "116",
      "116",
      "134",
      "134",
      "134",
      "156",
      "156",
      "201",
      "201",
      "227",
      "227",
      "250",
      "250",
      "259",
      "262",
      "262",
      "262",
      "278",
      "278",
      "288",
      "309",
      "315",
      "318C",
      "320C",
      "320C",
      "320C",
      "320C",
      "320C",
      "320C",
      "320C",
      "320C",
      "320C",
      "320C",
      "320C",
      "320C",
      "320C",
      "320C",
      "320C",
      "320C",
      "320C",
      "320C",
      "320C",
      "320C",
      "320C",
      "320C",
      "320C",
      "320C",
      "320C",
      "320C",
      "320C",
      "320C",
      "320C",
      "320C",
      "320C",
      "320C",
      "320C",
      "320C",
      "320C",
      "320C",
      "320C",
      "320C",
      "320C",
      "320C",
      "320C",
      "320C",
      "320C",
      "320C",
      "320C",
      "320C",
      "320C",
      "320C",
      "320C",
      "320C",
      "320C",
      "320C",
      "320C",
      "320C",
      "320C",
      "320C",
      "320C",
      "320C",
      "320C",
      "320C",
      "320C",
      "320C",
      "320C",
      "320C",
      "320C",
      "320C",
      "320C",
      "320C",
      "320C",
      "320C",
      "320C",
      "320C",
      "320C",
      "320C",
      "320C",
      "320C",
      "320C",
      "320C",
      "320C",
      "321C",
      "321C",
      "320C",
      "320C",
      "320C",
      "320C",
      "320C",
      "320C",
      "320C",
      "320C",
      "320C",
      "320C",
      "320C",
      "320C",
      "320C",
      "320C",
      "320C",
      "320C",
      "320C",
      "320C",
      "320C",
      "320C",
      "320C",
      "320C",
      "320C",
      "320C",
      "320C",
      "320C",
      "320C",
      "320C",
      "320C",
      "320C",
      "320C",
      "320C",
      "320C",
      "321C",
      "320C",
      "320C",
      "320C",
      "320C",
      "320C",
      "320C",
      "320C",
      "320C",
      "320C",
      "320C",
      "320C",
      "320C",
      "320C",
      "320C",
      "320C",
      "320C",
      "320C",
      "321C",
      "321C",
      "321C",
      "321C",
      "321C",
      "320C",
      "320C",
      "320C",
      "320C",
      "320C",
      "320C",
      "320C",
      "320C",
      "320C",
      "320C",
      "320C",
      "320C",
      "320C",
      "320C",
      "320C",
      "320C",
      "320C",
      "320C",
      "320C",
      "321C",
      "321C",
      "321C",
      "320C",
      "320C",
      "320C",
      "320C",
      "320C",
      "320C",
      "320C",
      "320C",
      "320C",
      "320C",
      "320C",
      "320C",
      "320C",
      "320C",
      "320C",
      "320C",
      "321C",
      "321C",
      "321C",
      "320C",
      "320C",
      "320C",
      "320C",
      "320C",
      "320C",
      "320C",
      "320C",
      "320C",
      "320C",
      "320C",
      "320C",
      "320C",
      "320C",
      "320C",
      "320C",
      "320C",
      "321C",
      "320C",
      "320C",
      "320C",
      "320C",
      "320C",
      "320C",
      "320C",
      "320C",
      "320C",
      "320C",
      "320C",
      "320C",
      "320C",
      "320C",
      "320C",
      "320C",
      "320C",
      "320C",
      "320C",
      "320C",
      "320C",
      "320C",
      "320C",
      "320C",
      "320C",
      "320C",
      "320C",
      "320C",
      "320C",
      "320C",
      "320C",
      "320C",
      "320C",
      "320C",
      "320C",
      "320C",
      "320C",
      "320C",
      "320C",
      "320C",
      "320C",
      "320C",
      "320C",
      "320C",
      "320C",
      "320C",
      "320C",
      "320C",
      "320C",
      "320C",
      "320C",
      "320C",
      "320C",
      "321C",
      "321C",
      "320C",
      "320C",
      "320C",
      "320C",
      "321C",
      "321C",
      "321C",
      "320C",
      "320C",
      "320C",
      "320C",
      "320C",
      "320C",
      "320C",
      "320C",
      "320C",
      "320C",
      "320C",
      "320C",
      "320C",
      "320C",
      "320C",
      "320C",
      "320C",
      "320C",
      "320C",
      "320C",
      "320C",
      "320C",
      "320C",
      "320C",
      "320C",
      "320C",
      "320C",
      "320C",
      "320C",
      "320C",
      "320C",
      "320C",
      "320C",
      "320C",
      "320C",
      "320C",
      "320C",
      "320C",
      "320C",
      "320C",
      "320C",
      "320C",
      "320C",
      "320C",
      "320C",
      "320C",
      "321C",
      "321C",
      "320C",
      "320C",
      "313",
      "313",
      "305",
      "295",
      "295",
      "286",
      "270",
      "270",
      "254",
      "254",
      "249",
      "232",
      "211",
      "211",
      "194",
      "190",
      "176",
      "172",
      "158",
      "158",
      "158",
      "139",
      "139",
      "122",
      "095",
      "095",
      "088",
      "078",
      "078",
      "078",
      "071",
      "071",
      "064",
      "046",
      "036",
      "033",
      "033",
      "031",
      "027",
      "019",
      "015",
      "015",
      "008",
      "008",
      "003"
    ],
    "swim:geom": "path",
    "swim:speeds": [
      241,
      241,
      240,
      240,
      254,
      314,
      314,
      314,
      346,
      346,
      346,
      344,
      344,
      383,
      383,
      405,
      405,
      418,
      418,
      426,
      422,
      422,
      422,
      422,
      422,
      415,
      407,
      407,
      406,
      406,
      406,
      406,
      406,
      406,
      405,
      406,
      407,
      407,
      407,
      408,
      407,
      407,
      407,
      407,
      407,
      407,
      407,
      407,
      407,
      407,
      407,
      408,
      408,
      408,
      408,
      409,
      408,
      408,
      408,
      408,
      409,
      409,
      410,
      410,
      410,
      410,
      411,
      411,
      411,
      410,
      410,
      410,
      410,
      409,
      409,
      408,
      408,
      408,
      408,
      408,
      409,
      409,
      409,
      412,
      412,
      412,
      412,
      409,
      409,
      409,
      409,
      407,
      407,
      406,
      405,
      405,
      404,
      404,
      398,
      398,
      398,
      398,
      393,
      395,
      395,
      395,
      396,
      396,
      398,
      398,
      400,
      402,
      402,
      402,
      402,
      404,
      401,
      404,
      404,
      400,
      404,
      399,
      399,
      403,
      403,
      402,
      394,
      394,
      396,
      392,
      392,
      392,
      391,
      390,
      390,
      391,
      391,
      391,
      391,
      392,
      392,
      392,
      395,
      396,
      396,
      397,
      397,
      397,
      397,
      397,
      396,
      396,
      395,
      395,
      395,
      396,
      390,
      393,
      393,
      393,
      392,
      388,
      388,
      388,
      388,
      391,
      381,
      381,
      381,
      381,
      381,
      379,
      381,
      380,
      381,
      381,
      381,
      381,
      381,
      383,
      383,
      383,
      382,
      382,
      382,
      383,
      383,
      385,
      384,
      384,
      378,
      378,
      375,
      375,
      372,
      371,
      371,
      372,
      372,
      380,
      380,
      379,
      379,
      379,
      379,
      379,
      379,
      378,
      378,
      378,
      377,
      377,
      376,
      375,
      379,
      379,
      378,
      376,
      376,
      376,
      371,
      371,
      375,
      375,
      377,
      379,
      379,
      379,
      379,
      379,
      378,
      378,
      377,
      377,
      377,
      377,
      378,
      378,
      378,
      378,
      378,
      378,
      380,
      380,
      380,
      380,
      381,
      381,
      381,
      381,
      381,
      381,
      381,
      381,
      382,
      382,
      382,
      383,
      383,
      383,
      383,
      383,
      383,
      383,
      384,
      383,
      383,
      383,
      380,
      380,
      380,
      380,
      380,
      380,
      381,
      382,
      382,
      382,
      384,
      384,
      380,
      380,
      380,
      380,
      382,
      382,
      382,
      383,
      383,
      383,
      380,
      369,
      369,
      369,
      370,
      370,
      371,
      371,
      371,
      371,
      371,
      371,
      371,
      373,
      373,
      372,
      372,
      371,
      375,
      375,
      377,
      377,
      377,
      377,
      378,
      379,
      378,
      378,
      361,
      361,
      372,
      375,
      376,
      377,
      377,
      377,
      375,
      375,
      372,
      372,
      372,
      370,
      370,
      373,
      373,
      365,
      365,
      360,
      360,
      362,
      355,
      355,
      349,
      339,
      339,
      331,
      331,
      330,
      320,
      308,
      308,
      301,
      304,
      308,
      306,
      307,
      307,
      307,
      297,
      297,
      295,
      271,
      271,
      273,
      267,
      267,
      267,
      259,
      259,
      233,
      215,
      182,
      185,
      185,
      170,
      175,
      172,
      169,
      169,
      121,
      125,
      125
    ],
    "swim:timestamps": [
      1771708180,
      1771708180,
      1771708224,
      1771708224,
      1771708300,
      1771708420,
      1771708420,
      1771708420,
      1771708480,
      1771708480,
      1771708480,
      1771708540,
      1771708540,
      1771708721,
      1771708721,
      1771708841,
      1771708841,
      1771708961,
      1771708961,
      1771709021,
      1771709032,
      1771709032,
      1771709032,
      1771709093,
      1771709093,
      1771709153,
      1771709273,
      1771709322,
      1771709333,
      1771709393,
      1771709442,
      1771709442,
      1771709442,
      1771709442,
      1771709453,
      1771709513,
      1771709573,
      1771709573,
      1771709622,
      1771709633,
      1771709693,
      1771709742,
      1771709753,
      1771709802,
      1771709802,
      1771709814,
      1771709934,
      1771709934,
      1771709934,
      1771709982,
      1771709982,
      1771710054,
      1771710114,
      1771710114,
      1771710114,
      1771710163,
      1771710223,
      1771710223,
      1771710234,
      1771710294,
      1771710354,
      1771710354,
      1771710403,
      1771710403,
      1771710403,
      1771710414,
      1771710463,
      1771710474,
      1771710523,
      1771710534,
      1771710534,
      1771710583,
      1771710583,
      1771710655,
      1771710655,
      1771710715,
      1771710715,
      1771710715,
      1771710775,
      1771710775,
      1771710895,
      1771710895,
      1771710895,
      1771711135,
      1771711135,
      1771711135,
      1771711135,
      1771711496,
      1771711496,
      1771711496,
      1771711496,
      1771711616,
      1771711616,
      1771711676,
      1771711736,
      1771711736,
      1771711916,
      1771711916,
      1771712097,
      1771712097,
      1771712097,
      1771712097,
      1771712167,
      1771712217,
      1771712287,
      1771712287,
      1771712337,
      1771712337,
      1771712408,
      1771712408,
      1771712517,
      1771712577,
      1771712588,
      1771712588,
      1771712588,
      1771712740,
      1771712768,
      1771712800,
      1771712800,
      1771712817,
      1771712861,
      1771712878,
      1771712878,
      1771712921,
      1771712921,
      1771712981,
      1771712998,
      1771712998,
      1771713041,
      1771713068,
      1771713118,
      1771713118,
      1771713128,
      1771713189,
      1771713189,
      1771713298,
      1771713298,
      1771713309,
      1771713309,
      1771713369,
      1771713369,
      1771713369,
      1771713489,
      1771713521,
      1771713581,
      1771713609,
      1771713609,
      1771713642,
      1771713669,
      1771713669,
      1771713729,
      1771713729,
      1771713789,
      1771713789,
      1771713789,
      1771713882,
      1771713970,
      1771714002,
      1771714002,
      1771714002,
      1771714062,
      1771714090,
      1771714090,
      1771714090,
      1771714090,
      1771714122,
      1771714270,
      1771714270,
      1771714270,
      1771714423,
      1771714423,
      1771714450,
      1771714483,
      1771714510,
      1771714570,
      1771714570,
      1771714603,
      1771714603,
      1771714603,
      1771714691,
      1771714691,
      1771714691,
      1771714723,
      1771714723,
      1771714723,
      1771714843,
      1771714843,
      1771714871,
      1771714963,
      1771714963,
      1771714991,
      1771714991,
      1771715051,
      1771715051,
      1771715111,
      1771715144,
      1771715144,
      1771715171,
      1771715171,
      1771715264,
      1771715324,
      1771715351,
      1771715384,
      1771715384,
      1771715504,
      1771715532,
      1771715532,
      1771715592,
      1771715592,
      1771715592,
      1771715684,
      1771715684,
      1771715744,
      1771715804,
      1771715832,
      1771715832,
      1771715864,
      1771715892,
      1771715892,
      1771715892,
      1771716072,
      1771716072,
      1771716193,
      1771716193,
      1771716225,
      1771716313,
      1771716345,
      1771716345,
      1771716345,
      1771716373,
      1771716405,
      1771716405,
      1771716433,
      1771716433,
      1771716613,
      1771716613,
      1771716673,
      1771716673,
      1771716673,
      1771716733,
      1771716733,
      1771716793,
      1771716886,
      1771716886,
      1771716914,
      1771716914,
      1771716974,
      1771717034,
      1771717034,
      1771717066,
      1771717066,
      1771717094,
      1771717154,
      1771717154,
      1771717214,
      1771717246,
      1771717246,
      1771717334,
      1771717394,
      1771717394,
      1771717394,
      1771717454,
      1771717514,
      1771717514,
      1771717547,
      1771717607,
      1771717607,
      1771717607,
      1771717755,
      1771717755,
      1771717787,
      1771717815,
      1771717847,
      1771717847,
      1771717875,
      1771717907,
      1771717907,
      1771717907,
      1771718027,
      1771718027,
      1771718148,
      1771718148,
      1771718208,
      1771718208,
      1771718268,
      1771718268,
      1771718268,
      1771718388,
      1771718388,
      1771718388,
      1771718508,
      1771718989,
      1771718989,
      1771719169,
      1771719349,
      1771719349,
      1771719409,
      1771719409,
      1771719529,
      1771719529,
      1771719529,
      1771719710,
      1771719710,
      1771719861,
      1771719861,
      1771719921,
      1771719982,
      1771720070,
      1771720162,
      1771720250,
      1771720402,
      1771720402,
      1771720491,
      1771720491,
      1771720611,
      1771720762,
      1771720822,
      1771720851,
      1771721003,
      1771721003,
      1771721123,
      1771721243,
      1771721272,
      1771721332,
      1771721332,
      1771721332,
      1771721572,
      1771721603,
      1771721663,
      1771721663,
      1771721663,
      1771721783,
      1771721783,
      1771722024,
      1771722024,
      1771722204,
      1771722204,
      1771722481,
      1771722481,
      1771722504,
      1771722541,
      1771722541,
      1771722564,
      1771722624,
      1771722624,
      1771722662,
      1771722662,
      1771722684,
      1771722721,
      1771722805,
      1771722805,
      1771722841,
      1771722865,
      1771722902,
      1771722925,
      1771722961,
      1771722961,
      1771722961,
      1771723045,
      1771723045,
      1771723105,
      1771723261,
      1771723261,
      1771723345,
      1771723381,
      1771723381,
      1771723381,
      1771723525,
      1771723525,
      1771723562,
      1771723645,
      1771723687,
      1771723705,
      1771723705,
      1771723741,
      1771723802,
      1771723861,
      1771723886,
      1771723886,
      1771723927,
      1771723946,
      1771723982
    ],
    "wof:geomhash": "347e4648610a2a901569a54f71259bf6",
    "wof:id": 2014848617,
    "wof:repo": "sfomuseum-data-flights-2026-02"
  },
  "bbox": [
    -122.36666666666666,
    37.63333333333333,
    -88.08361111111111,
    42.23444444444444
  ],
  "geometry": {"coordinates":[[-88.08361111111111,41.971111111111114],[-88.08361111111111,41.971111111111114],[-88.15,41.983333333333334],[-88.15,41.983333333333334],[-88.25583333333333,42.0175],[-88.455,42.07055555555556],[-88.455,42.07055555555556],[-88.455,42.07055555555556],[-88.57722222222222,42.1025],[-88.57722222222222,42.1025],[-88.57722222222222,42.1025],[-88.69916666666667,42.135],[-88.69916666666667,42.135],[-89.10249999999999,42.156388888888884],[-89.10249999999999,42.156388888888884],[-89.40138888888889,42.14861111111111],[-89.40138888888889,42.14861111111111],[-89.71444444444445,42.13916666666667],[-89.71444444444445,42.13916666666667],[-89.87333333333332,42.13388888888889],[-89.89861111111112,42.13166666666667],[-89.89861111111112,42.13166666666667],[-89.89861111111112,42.13166666666667],[-90.05472222222222,42.126111111111115],[-90.05472222222222,42.126111111111115],[-90.20805555555556,42.12111111111111],[-90.51277777777777,42.11027777777778],[-90.63388888888889,42.10638888888889],[-90.66472222222222,42.10527777777778],[-90.81638888888888,42.098888888888894],[-90.9363888888889,42.09388888888889],[-90.9363888888889,42.09388888888889],[-90.9363888888889,42.09388888888889],[-90.9363888888889,42.09388888888889],[-90.96777777777778,42.09277777777778],[-91.11999999999999,42.086111111111116],[-91.27333333333333,42.07944444444445],[-91.27333333333333,42.07944444444445],[-91.39444444444445,42.080555555555556],[-91.42500000000001,42.08083333333334],[-91.57833333333333,42.08277777777778],[-91.69916666666667,42.08388888888889],[-91.72972222222222,42.08416666666667],[-91.85305555555556,42.08527777777778],[-91.85305555555556,42.08527777777778],[-91.88333333333334,42.08555555555556],[-92.1875,42.087500000000006],[-92.1875,42.087500000000006],[-92.1875,42.087500000000006],[-92.31055555555555,42.088055555555556],[-92.31055555555555,42.088055555555556],[-92.49277777777777,42.08861111111111],[-92.64750000000001,42.08888888888889],[-92.64750000000001,42.08888888888889],[-92.64750000000001,42.08888888888889],[-92.76805555555555,42.08916666666667],[-92.92111111111112,42.08888888888889],[-92.92111111111112,42.08888888888889],[-92.95166666666667,42.08888888888889],[-93.10472222222222,42.08861111111111],[-93.2575,42.088055555555556],[-93.2575,42.088055555555556],[-93.37972222222221,42.087500000000006],[-93.37972222222221,42.087500000000006],[-93.37972222222221,42.087500000000006],[-93.41083333333334,42.087500000000006],[-93.53444444444445,42.08722222222222],[-93.56583333333333,42.08861111111111],[-93.68694444444445,42.094722222222224],[-93.71722222222222,42.09638888888889],[-93.71722222222222,42.09638888888889],[-93.83805555555556,42.102222222222224],[-93.83805555555556,42.102222222222224],[-94.01722222222222,42.11055555555556],[-94.01722222222222,42.11055555555556],[-94.16861111111112,42.1175],[-94.16861111111112,42.1175],[-94.16861111111112,42.1175],[-94.32194444444444,42.12444444444444],[-94.32194444444444,42.12444444444444],[-94.62527777777777,42.1375],[-94.62527777777777,42.1375],[-94.62527777777777,42.1375],[-95.23722222222223,42.16111111111111],[-95.23722222222223,42.16111111111111],[-95.23722222222223,42.16111111111111],[-95.23722222222223,42.16111111111111],[-96.185,42.19138888888889],[-96.185,42.19138888888889],[-96.185,42.19138888888889],[-96.185,42.19138888888889],[-96.4863888888889,42.19944444444444],[-96.4863888888889,42.19944444444444],[-96.6363888888889,42.20305555555556],[-96.7863888888889,42.20666666666667],[-96.7863888888889,42.20666666666667],[-97.2388888888889,42.21555555555556],[-97.2388888888889,42.21555555555556],[-97.68527777777778,42.223055555555554],[-97.68527777777778,42.223055555555554],[-97.68527777777778,42.223055555555554],[-97.68527777777778,42.223055555555554],[-97.84583333333333,42.22555555555556],[-97.95861111111111,42.22694444444445],[-98.14250000000001,42.22888888888889],[-98.14250000000001,42.22888888888889],[-98.25527777777778,42.23027777777778],[-98.25527777777778,42.23027777777778],[-98.44166666666668,42.23166666666667],[-98.44166666666668,42.23166666666667],[-98.73527777777778,42.23388888888889],[-98.885,42.23444444444444],[-98.885,42.23444444444444],[-98.885,42.23444444444444],[-98.885,42.23444444444444],[-99.27694444444444,42.23166666666667],[-99.33083333333333,42.22666666666667],[-99.42527777777778,42.21944444444445],[-99.42527777777778,42.21944444444445],[-99.4786111111111,42.215833333333336],[-99.57416666666666,42.208333333333336],[-99.62833333333333,42.20444444444445],[-99.62833333333333,42.20444444444445],[-99.7225,42.19638888888888],[-99.7225,42.19638888888888],[-99.86944444444444,42.18527777777778],[-99.92027777777778,42.18222222222222],[-99.92027777777778,42.18222222222222],[-100.01194444444444,42.17388888888889],[-100.06944444444444,42.17055555555555],[-100.20666666666666,42.15972222222222],[-100.20666666666666,42.15972222222222],[-100.21388888888889,42.159166666666664],[-100.3586111111111,42.14722222222222],[-100.3586111111111,42.14722222222222],[-100.63972222222223,42.12361111111111],[-100.63972222222223,42.12361111111111],[-100.64944444444446,42.12277777777778],[-100.64944444444446,42.12277777777778],[-100.79555555555555,42.11055555555556],[-100.79555555555555,42.11055555555556],[-100.79555555555555,42.11055555555556],[-101.08694444444444,42.085],[-101.19166666666668,42.074444444444445],[-101.33999999999999,42.06027777777778],[-101.38027777777778,42.05833333333333],[-101.38027777777778,42.05833333333333],[-101.48611111111111,42.04722222222222],[-101.52833333333334,42.04472222222222],[-101.52833333333334,42.04472222222222],[-101.70333333333333,42.02833333333333],[-101.70333333333333,42.02833333333333],[-101.84777777777778,42.014722222222225],[-101.84777777777778,42.014722222222225],[-101.84777777777778,42.014722222222225],[-102.07027777777778,41.99583333333334],[-102.27111111111111,41.99472222222222],[-102.35888888888888,41.990833333333335],[-102.35888888888888,41.990833333333335],[-102.35888888888888,41.990833333333335],[-102.50361111111111,41.98916666666667],[-102.56027777777777,41.98833333333334],[-102.56027777777777,41.98833333333334],[-102.56027777777777,41.98833333333334],[-102.56027777777777,41.98833333333334],[-102.64750000000001,41.98583333333333],[-102.98694444444445,41.9775],[-102.98694444444445,41.9775],[-102.98694444444445,41.9775],[-103.35305555555556,41.96638888888889],[-103.35305555555556,41.96638888888889],[-103.41027777777778,41.96527777777778],[-103.495,41.961666666666666],[-103.55083333333333,41.96055555555556],[-103.69500000000001,41.95611111111111],[-103.69500000000001,41.95611111111111],[-103.78083333333333,41.95305555555556],[-103.78083333333333,41.95305555555556],[-103.78083333333333,41.95305555555556],[-103.98138888888889,41.94583333333333],[-103.98138888888889,41.94583333333333],[-103.98138888888889,41.94583333333333],[-104.06833333333333,41.94277777777778],[-104.06833333333333,41.94277777777778],[-104.06833333333333,41.94277777777778],[-104.32888888888888,41.93222222222222],[-104.32888888888888,41.93222222222222],[-104.41388888888889,41.92972222222222],[-104.61361111111111,41.92111111111111],[-104.61361111111111,41.92111111111111],[-104.69638888888889,41.918055555555554],[-104.69638888888889,41.918055555555554],[-104.83333333333333,41.91222222222222],[-104.83333333333333,41.91222222222222],[-104.97166666666666,41.90611111111111],[-105.02666666666667,41.901944444444446],[-105.02666666666667,41.901944444444446],[-105.11,41.88916666666667],[-105.11,41.88916666666667],[-105.29416666666667,41.83527777777778],[-105.42611111111111,41.79611111111111],[-105.50583333333333,41.77444444444444],[-105.55694444444444,41.7575],[-105.55694444444444,41.7575],[-105.81805555555555,41.68055555555555],[-105.89666666666668,41.657777777777774],[-105.89666666666668,41.657777777777774],[-106.02722222222222,41.61833333333333],[-106.02722222222222,41.61833333333333],[-106.02722222222222,41.61833333333333],[-106.20527777777778,41.5625],[-106.20527777777778,41.5625],[-106.35472222222222,41.51888888888889],[-106.48361111111112,41.47944444444445],[-106.53444444444445,41.46361111111111],[-106.53444444444445,41.46361111111111],[-106.60972222222222,41.440555555555555],[-106.66277777777778,41.42388888888889],[-106.66277777777778,41.42388888888889],[-106.66277777777778,41.42388888888889],[-107.04083333333332,41.30638888888888],[-107.04083333333332,41.30638888888888],[-107.2975,41.22527777777778],[-107.2975,41.22527777777778],[-107.37666666666667,41.20027777777778],[-107.55666666666666,41.14277777777778],[-107.63472222222222,41.117777777777775],[-107.63472222222222,41.117777777777775],[-107.63472222222222,41.117777777777775],[-107.68388888888889,41.102222222222224],[-107.76166666666667,41.077222222222225],[-107.76166666666667,41.077222222222225],[-107.81194444444444,41.06111111111111],[-107.81194444444444,41.06111111111111],[-108.18722222222223,40.927499999999995],[-108.18722222222223,40.927499999999995],[-108.31222222222222,40.87888888888889],[-108.31222222222222,40.87888888888889],[-108.31222222222222,40.87888888888889],[-108.4363888888889,40.83027777777778],[-108.4363888888889,40.83027777777778],[-108.5586111111111,40.7825],[-108.75916666666667,40.70333333333333],[-108.75916666666667,40.70333333333333],[-108.80333333333333,40.68583333333333],[-108.80333333333333,40.68583333333333],[-108.92694444444444,40.636944444444445],[-109.05,40.58777777777778],[-109.05,40.58777777777778],[-109.12333333333332,40.558055555555555],[-109.12333333333332,40.558055555555555],[-109.16666666666667,40.54111111111111],[-109.29444444444444,40.48972222222222],[-109.29444444444444,40.48972222222222],[-109.41472222222222,40.44083333333333],[-109.49111111111111,40.41],[-109.49111111111111,40.41],[-109.66250000000001,40.34027777777778],[-109.78444444444445,40.29055555555556],[-109.78444444444445,40.29055555555556],[-109.78444444444445,40.29055555555556],[-109.90666666666667,40.24027777777778],[-110.02833333333334,40.19027777777777],[-110.02833333333334,40.19027777777777],[-110.10249999999999,40.159444444444446],[-110.22805555555556,40.11472222222223],[-110.22805555555556,40.11472222222223],[-110.22805555555556,40.11472222222223],[-110.52805555555555,40.01111111111111],[-110.52805555555555,40.01111111111111],[-110.60277777777777,39.98527777777778],[-110.65222222222222,39.96805555555556],[-110.72777777777777,39.94194444444444],[-110.72777777777777,39.94194444444444],[-110.77777777777777,39.92444444444444],[-110.85527777777777,39.89722222222222],[-110.85527777777777,39.89722222222222],[-110.85527777777777,39.89722222222222],[-111.10638888888889,39.80888888888889],[-111.10638888888889,39.80888888888889],[-111.37166666666666,39.71472222222223],[-111.37166666666666,39.71472222222223],[-111.49555555555555,39.67027777777778],[-111.49555555555555,39.67027777777778],[-111.62249999999999,39.625],[-111.62249999999999,39.625],[-111.62249999999999,39.625],[-111.87222222222222,39.53444444444444],[-111.87222222222222,39.53444444444444],[-111.87222222222222,39.53444444444444],[-112.09416666666667,39.453611111111115],[-113.09388888888888,39.16861111111111],[-113.09388888888888,39.16861111111111],[-113.47222222222223,39.08111111111111],[-113.85083333333333,38.99194444444444],[-113.85083333333333,38.99194444444444],[-113.97583333333334,38.96194444444445],[-113.97583333333334,38.96194444444445],[-114.22888888888889,38.90138888888889],[-114.22888888888889,38.90138888888889],[-114.22888888888889,38.90138888888889],[-114.61166666666666,38.82416666666667],[-114.61166666666666,38.82416666666667],[-114.94361111111111,38.75694444444444],[-114.94361111111111,38.75694444444444],[-115.07138888888889,38.730000000000004],[-115.19777777777779,38.70333333333333],[-115.39888888888889,38.66138888888889],[-115.58638888888889,38.63527777777778],[-115.76,38.584722222222226],[-116.0961111111111,38.511944444444445],[-116.0961111111111,38.511944444444445],[-116.2761111111111,38.47277777777778],[-116.2761111111111,38.47277777777778],[-116.5363888888889,38.415277777777774],[-116.8711111111111,38.34055555555556],[-116.99916666666667,38.311388888888885],[-117.04944444444445,38.3],[-117.36749999999999,38.2275],[-117.36749999999999,38.2275],[-117.56694444444445,38.11694444444444],[-117.68111111111112,37.92972222222222],[-117.71611111111112,37.873333333333335],[-117.77666666666667,37.780277777777776],[-117.77666666666667,37.780277777777776],[-117.77666666666667,37.780277777777776],[-118.28388888888888,37.72777777777778],[-118.33749999999999,37.7275],[-118.46805555555555,37.72666666666667],[-118.46805555555555,37.72666666666667],[-118.46805555555555,37.72666666666667],[-118.7286111111111,37.724722222222226],[-118.7286111111111,37.724722222222226],[-119.26972222222223,37.719166666666666],[-119.26972222222223,37.719166666666666],[-119.65444444444445,37.71361111111111],[-119.65444444444445,37.71361111111111],[-120.23333333333333,37.7],[-120.23333333333333,37.7],[-120.2925,37.70166666666667],[-120.36666666666666,37.7],[-120.36666666666666,37.7],[-120.41416666666667,37.698055555555555],[-120.50916666666667,37.68694444444444],[-120.50916666666667,37.68694444444444],[-120.6,37.68333333333333],[-120.6,37.68333333333333],[-120.62249999999999,37.67388888888889],[-120.71666666666667,37.666666666666664],[-120.83972222222222,37.64805555555556],[-120.83972222222222,37.64805555555556],[-120.91666666666667,37.63333333333333],[-120.94500000000001,37.63527777777778],[-121.03333333333333,37.65],[-121.04944444444445,37.650555555555556],[-121.13333333333334,37.666666666666664],[-121.13333333333334,37.666666666666664],[-121.13333333333334,37.666666666666664],[-121.25861111111111,37.689166666666665],[-121.25861111111111,37.689166666666665],[-121.3586111111111,37.7075],[-121.63333333333334,37.75],[-121.63333333333334,37.75],[-121.74694444444445,37.78],[-121.81666666666666,37.8],[-121.81666666666666,37.8],[-121.81666666666666,37.8],[-122.01222222222222,37.836666666666666],[-122.01222222222222,37.836666666666666],[-122.06666666666666,37.85],[-122.16583333333334,37.82555555555556],[-122.21666666666667,37.81666666666667],[-122.2275,37.80638888888888],[-122.2275,37.80638888888888],[-122.26666666666667,37.78333333333333],[-122.28333333333333,37.75],[-122.31666666666666,37.7],[-122.32555555555555,37.69027777777777],[-122.32555555555555,37.69027777777777],[-122.35,37.666666666666664],[-122.34694444444445,37.658055555555556],[-122.36666666666666,37.63333333333333]],"type":"LineString"}
}
