{
  "id": 2014882949,
  "type": "Feature",
  "properties": {
    "geom:area": 0,
    "geom:bbox": "-122.363056,37.633056,-112.005000,40.905278",
    "geom:latitude": 39.89541742123048,
    "geom:longitude": -117.30088845700928,
    "src:alt_label": "swim-path",
    "src:geom": "swim",
    "swim:altitudes": [
      "008",
      "008",
      "008",
      "008",
      "107",
      "107",
      "107",
      "145",
      "145",
      "145",
      "168",
      "210",
      "210",
      "210",
      "210",
      "262",
      "276",
      "276",
      "276",
      "320",
      "320",
      "320",
      "330C",
      "330C",
      "330C",
      "330C",
      "330C",
      "330C",
      "330C",
      "330C",
      "330C",
      "330C",
      "330C",
      "330C",
      "330C",
      "330C",
      "330C",
      "330C",
      "330C",
      "330C",
      "330C",
      "330C",
      "330C",
      "312",
      "312",
      "312",
      "200",
      "200",
      "179",
      "166",
      "155",
      "155",
      "125",
      "125",
      "110",
      "110",
      "095",
      "062",
      "062",
      "052",
      "052"
    ],
    "swim:geom": "path",
    "swim:speeds": [
      174,
      174,
      174,
      174,
      298,
      298,
      298,
      390,
      390,
      390,
      431,
      466,
      466,
      466,
      466,
      515,
      528,
      528,
      528,
      543,
      543,
      543,
      543,
      538,
      536,
      536,
      534,
      536,
      544,
      544,
      543,
      555,
      555,
      560,
      560,
      560,
      560,
      563,
      564,
      564,
      572,
      567,
      567,
      568,
      568,
      568,
      476,
      476,
      453,
      381,
      374,
      374,
      337,
      337,
      244,
      244,
      219,
      212,
      212,
      171,
      171
    ],
    "swim:timestamps": [
      1772044045,
      1772044045,
      1772044045,
      1772044045,
      1772044285,
      1772044285,
      1772044285,
      1772044406,
      1772044406,
      1772044406,
      1772044466,
      1772044586,
      1772044586,
      1772044586,
      1772044586,
      1772044766,
      1772044826,
      1772044826,
      1772044826,
      1772045006,
      1772045006,
      1772045006,
      1772045126,
      1772045227,
      1772045407,
      1772045407,
      1772045427,
      1772045527,
      1772045588,
      1772045588,
      1772045648,
      1772045967,
      1772045967,
      1772046008,
      1772046008,
      1772046248,
      1772046268,
      1772046369,
      1772046448,
      1772046448,
      1772046609,
      1772046849,
      1772046849,
      1772047090,
      1772047090,
      1772047090,
      1772047390,
      1772047390,
      1772047450,
      1772047548,
      1772047630,
      1772047630,
      1772047798,
      1772047798,
      1772047919,
      1772047919,
      1772048047,
      1772048231,
      1772048231,
      1772048291,
      1772048291
    ],
    "wof:geomhash": "825a27e913451605bb3934ecb3070b14",
    "wof:id": 2014882949,
    "wof:repo": "sfomuseum-data-flights-2026-02"
  },
  "bbox": [
    -122.36305555555555,
    37.63305555555556,
    -112.005,
    40.905277777777776
  ],
  "geometry": {"coordinates":[[-122.36305555555555,37.63305555555556],[-122.36305555555555,37.63305555555556],[-122.36305555555555,37.63305555555556],[-122.36305555555555,37.63305555555556],[-122.10666666666665,37.836666666666666],[-122.10666666666665,37.836666666666666],[-122.10666666666665,37.836666666666666],[-121.92527777777778,37.97666666666667],[-121.92527777777778,37.97666666666667],[-121.92527777777778,37.97666666666667],[-121.80222222222221,38.059999999999995],[-121.55722222222222,38.224444444444444],[-121.55722222222222,38.224444444444444],[-121.55722222222222,38.224444444444444],[-121.55722222222222,38.224444444444444],[-121.15611111111112,38.48111111111111],[-121.01138888888889,38.569722222222225],[-121.01138888888889,38.569722222222225],[-121.01138888888889,38.569722222222225],[-120.55805555555555,38.846944444444446],[-120.55805555555555,38.846944444444446],[-120.55805555555555,38.846944444444446],[-120.25361111111111,39.03055555555555],[-119.98361111111112,39.18944444444444],[-119.52722222222222,39.46027777777778],[-119.52722222222222,39.46027777777778],[-119.46305555555556,39.49916666666667],[-119.21777777777778,39.641666666666666],[-119.06,39.73361111111111],[-119.06,39.73361111111111],[-118.90277777777779,39.82416666666667],[-117.9825,40.2075],[-117.9825,40.2075],[-117.8325,40.24277777777778],[-117.8325,40.24277777777778],[-117.05083333333333,40.4225],[-117.01027777777777,40.43138888888889],[-116.68083333333334,40.50472222222222],[-116.40166666666667,40.56472222222222],[-116.40166666666667,40.56472222222222],[-115.86388888888888,40.61638888888889],[-115.03972222222222,40.68944444444444],[-115.03972222222222,40.68944444444444],[-114.20527777777778,40.717777777777776],[-114.20527777777778,40.717777777777776],[-114.20527777777778,40.717777777777776],[-113.24166666666667,40.724722222222226],[-113.24166666666667,40.724722222222226],[-113.07555555555555,40.72416666666667],[-112.81166666666667,40.72833333333333],[-112.64750000000001,40.720555555555556],[-112.64750000000001,40.720555555555556],[-112.26611111111112,40.69472222222222],[-112.26611111111112,40.69472222222222],[-112.09666666666666,40.769444444444446],[-112.09666666666666,40.769444444444446],[-112.11027777777777,40.905277777777776],[-112.01055555555556,40.904444444444444],[-112.01055555555556,40.904444444444444],[-112.005,40.855555555555554],[-112.005,40.855555555555554]],"type":"LineString"}
}
