{
  "id": 2014882435,
  "type": "Feature",
  "properties": {
    "geom:area": 0,
    "geom:bbox": "-122.524160,37.630580,-121.244570,38.056280",
    "geom:latitude": 37.89017850828039,
    "geom:longitude": -121.95543944865395,
    "src:alt_label": "swim-takeoff",
    "src:geom": "swim",
    "swim:elevations": [
      305,
      444,
      645,
      1004,
      1541,
      1988,
      2227,
      2753,
      2904,
      3237,
      3364,
      3677,
      4136,
      4486,
      4793,
      4987,
      5023,
      5212,
      5411,
      5481,
      5710,
      5984,
      6171,
      6212,
      6401,
      6530,
      6791,
      6935
    ],
    "swim:geom": "takeoff",
    "swim:timestamps": [
      1772007201,
      1772007215,
      1772007245,
      1772007277,
      1772007315,
      1772007352,
      1772007370,
      1772007410,
      1772007422,
      1772007461,
      1772007485,
      1772007525,
      1772007568,
      1772007598,
      1772007626,
      1772007657,
      1772007662,
      1772007684,
      1772007717,
      1772007726,
      1772007755,
      1772007788,
      1772007815,
      1772007821,
      1772007842,
      1772007860,
      1772007890,
      1772007909
    ],
    "wof:geomhash": "8f5a8f96e636b98fc2823f4364a754e3",
    "wof:id": 2014882435,
    "wof:repo": "sfomuseum-data-flights-2026-02"
  },
  "bbox": [
    -122.52416,
    37.63058,
    -121.24457,
    38.05628
  ],
  "geometry": {"coordinates":[[-122.40256,37.63058],[-122.41672,37.63677],[-122.44969,37.65085],[-122.49184,37.66872],[-122.52416,37.7029],[-122.50196,37.74387],[-122.47367,37.75433],[-122.4094,37.77476],[-122.38968,37.78092],[-122.32348,37.80218],[-122.27896,37.81648],[-122.19936,37.84198],[-122.10909,37.87088],[-122.04507,37.89133],[-121.98292,37.91106],[-121.91321,37.93307],[-121.90182,37.93659],[-121.84758,37.94852],[-121.7656,37.96308],[-121.74196,37.9673],[-121.66855,37.98064],[-121.57927,37.99679],[-121.50663,38.00984],[-121.49021,38.01275],[-121.43162,38.02312],[-121.38323,38.03167],[-121.29994,38.04645],[-121.24457,38.05628]],"type":"LineString"}
}
