{
  "id": 2014782587,
  "type": "Feature",
  "properties": {
    "geom:area": 0,
    "geom:bbox": "-122.336944,35.874444,-115.434444,37.690278",
    "geom:latitude": 37.20501003974082,
    "geom:longitude": -118.74264570881839,
    "src:alt_label": "swim-path",
    "src:geom": "swim",
    "swim:altitudes": [
      "157",
      "157",
      "157",
      "157",
      "266",
      "266",
      "300",
      "329",
      "329",
      "329",
      "344",
      "344",
      "353",
      "361",
      "361",
      "361",
      "380C",
      "380C",
      "380C",
      "380C",
      "380C",
      "380C",
      "380C",
      "380C",
      "380C",
      "380C",
      "380C",
      "380C",
      "380C",
      "380C",
      "380C",
      "380C",
      "380C",
      "380C",
      "380C",
      "380C",
      "380C",
      "380C",
      "380C",
      "380C",
      "380C",
      "380",
      "380",
      "380",
      "380",
      "380",
      "377",
      "377",
      "377",
      "325",
      "325",
      "325",
      "302",
      "302",
      "258",
      "248",
      "235",
      "235",
      "235",
      "217",
      "217",
      "159",
      "123",
      "123",
      "123",
      "105",
      "100",
      "100",
      "100",
      "094",
      "094",
      "090",
      "090",
      "085",
      "085",
      "085",
      "078",
      "070",
      "054",
      "054",
      "054",
      "054",
      "032",
      "032",
      "012",
      "012",
      "012",
      "004"
    ],
    "swim:geom": "path",
    "swim:speeds": [
      358,
      358,
      358,
      358,
      346,
      346,
      372,
      374,
      374,
      374,
      397,
      397,
      405,
      405,
      405,
      405,
      426,
      426,
      426,
      423,
      422,
      422,
      422,
      421,
      419,
      419,
      419,
      423,
      423,
      423,
      422,
      422,
      422,
      422,
      422,
      422,
      422,
      421,
      421,
      420,
      419,
      416,
      416,
      416,
      419,
      419,
      421,
      421,
      421,
      411,
      411,
      411,
      425,
      425,
      415,
      411,
      388,
      388,
      388,
      382,
      382,
      358,
      340,
      340,
      340,
      328,
      283,
      283,
      283,
      241,
      241,
      244,
      244,
      243,
      243,
      243,
      231,
      222,
      221,
      221,
      221,
      221,
      194,
      194,
      168,
      168,
      168,
      157
    ],
    "swim:timestamps": [
      1770992527,
      1770992527,
      1770992527,
      1770992527,
      1770992767,
      1770992767,
      1770992887,
      1770993008,
      1770993008,
      1770993008,
      1770993128,
      1770993128,
      1770993183,
      1770993243,
      1770993243,
      1770993243,
      1770993543,
      1770993543,
      1770993543,
      1770993669,
      1770993723,
      1770993723,
      1770993729,
      1770993784,
      1770993844,
      1770993844,
      1770993844,
      1770994024,
      1770994024,
      1770994024,
      1770994144,
      1770994204,
      1770994204,
      1770994324,
      1770994330,
      1770994330,
      1770994330,
      1770994444,
      1770994444,
      1770994504,
      1770994564,
      1770994684,
      1770994684,
      1770994684,
      1770994744,
      1770994744,
      1770994804,
      1770994804,
      1770994804,
      1770994925,
      1770994925,
      1770994925,
      1770994985,
      1770994985,
      1770995105,
      1770995132,
      1770995168,
      1770995168,
      1770995168,
      1770995225,
      1770995225,
      1770995402,
      1770995525,
      1770995525,
      1770995525,
      1770995585,
      1770995645,
      1770995645,
      1770995645,
      1770995705,
      1770995705,
      1770995765,
      1770995765,
      1770995825,
      1770995825,
      1770995825,
      1770995882,
      1770995946,
      1770996006,
      1770996006,
      1770996006,
      1770996006,
      1770996126,
      1770996126,
      1770996246,
      1770996246,
      1770996246,
      1770996306
    ],
    "wof:geomhash": "d76d7af4247ac62082881c6781f12de4",
    "wof:id": 2014782587,
    "wof:repo": "sfomuseum-data-flights-2026-02"
  },
  "bbox": [
    -122.33694444444444,
    35.87444444444444,
    -115.43444444444445,
    37.69027777777777
  ],
  "geometry": {"coordinates":[[-115.43444444444445,35.87444444444444],[-115.43444444444445,35.87444444444444],[-115.43444444444445,35.87444444444444],[-115.43444444444445,35.87444444444444],[-115.9225,35.89611111111111],[-115.9225,35.89611111111111],[-116.115,36.03805555555555],[-116.29083333333332,36.180277777777775],[-116.29083333333332,36.180277777777775],[-116.29083333333332,36.180277777777775],[-116.47972222222222,36.33361111111111],[-116.47972222222222,36.33361111111111],[-116.56555555555555,36.406388888888884],[-116.66194444444444,36.48916666666667],[-116.66194444444444,36.48916666666667],[-116.66194444444444,36.48916666666667],[-117.09277777777777,36.96555555555556],[-117.09277777777777,36.96555555555556],[-117.09277777777777,36.96555555555556],[-117.2286111111111,37.174166666666665],[-117.29722222222222,37.27777777777778],[-117.29722222222222,37.27777777777778],[-117.29722222222222,37.278055555555554],[-117.38722222222223,37.37],[-117.48361111111112,37.46],[-117.48361111111112,37.46],[-117.48361111111112,37.46],[-117.91083333333334,37.52611111111111],[-117.91083333333334,37.52611111111111],[-117.91083333333334,37.52611111111111],[-118.20694444444445,37.54944444444444],[-118.35527777777777,37.56083333333333],[-118.35527777777777,37.56083333333333],[-118.64944444444446,37.58305555555556],[-118.64944444444446,37.58305555555556],[-118.64944444444446,37.58305555555556],[-118.64944444444446,37.58305555555556],[-118.93722222222223,37.60333333333333],[-118.93722222222223,37.60333333333333],[-119.08388888888888,37.61416666666667],[-119.22722222222222,37.62416666666667],[-119.51972222222223,37.64388888888889],[-119.51972222222223,37.64388888888889],[-119.51972222222223,37.64388888888889],[-119.66638888888889,37.65361111111111],[-119.66638888888889,37.65361111111111],[-119.81416666666667,37.66305555555555],[-119.81416666666667,37.66305555555555],[-119.81416666666667,37.66305555555555],[-120.1061111111111,37.6825],[-120.1061111111111,37.6825],[-120.1061111111111,37.6825],[-120.25472222222223,37.69027777777777],[-120.25472222222223,37.69027777777777],[-120.545,37.68277777777777],[-120.61666666666666,37.666666666666664],[-120.7,37.666666666666664],[-120.7,37.666666666666664],[-120.7,37.666666666666664],[-120.81916666666666,37.650555555555556],[-120.81916666666666,37.650555555555556],[-121.2,37.6],[-121.42666666666668,37.574444444444445],[-121.42666666666668,37.574444444444445],[-121.42666666666668,37.574444444444445],[-121.54027777777777,37.56083333333333],[-121.64527777777778,37.545833333333334],[-121.64527777777778,37.545833333333334],[-121.64527777777778,37.545833333333334],[-121.7275,37.52333333333333],[-121.7275,37.52333333333333],[-121.75555555555556,37.45944444444445],[-121.75555555555556,37.45944444444445],[-121.83,37.43583333333333],[-121.83,37.43583333333333],[-121.83,37.43583333333333],[-121.91666666666667,37.43333333333333],[-121.98111111111112,37.45472222222222],[-122.04861111111111,37.483333333333334],[-122.04861111111111,37.483333333333334],[-122.04861111111111,37.483333333333334],[-122.04861111111111,37.483333333333334],[-122.17888888888889,37.538333333333334],[-122.17888888888889,37.538333333333334],[-122.28916666666666,37.585],[-122.28916666666666,37.585],[-122.28916666666666,37.585],[-122.33694444444444,37.605000000000004]],"type":"LineString"}
}
