{
  "id": 2014793807,
  "type": "Feature",
  "properties": {
    "geom:area": 0,
    "geom:bbox": "-122.553611,32.702222,-117.061111,37.658611",
    "geom:latitude": 35.005295330072165,
    "geom:longitude": -120.02075953675978,
    "src:alt_label": "swim-path",
    "src:geom": "swim",
    "swim:altitudes": [
      "033",
      "033",
      "176",
      "176",
      "176",
      "198",
      "232",
      "262",
      "275",
      "275",
      "275",
      "275",
      "296",
      "306",
      "310C",
      "310C",
      "310C",
      "310C",
      "310C",
      "310C",
      "310C",
      "310C",
      "310C",
      "310C",
      "310C",
      "310C",
      "310C",
      "310C",
      "310C",
      "310C",
      "310C",
      "310C",
      "310C",
      "310C",
      "310",
      "308",
      "308",
      "292",
      "292",
      "292",
      "184",
      "177",
      "168",
      "118",
      "100",
      "076",
      "076",
      "064",
      "023",
      "014",
      "005",
      "005"
    ],
    "swim:geom": "path",
    "swim:speeds": [
      201,
      201,
      333,
      334,
      334,
      334,
      390,
      409,
      418,
      418,
      419,
      419,
      431,
      436,
      444,
      444,
      444,
      447,
      447,
      447,
      449,
      449,
      474,
      474,
      474,
      471,
      472,
      472,
      472,
      472,
      474,
      474,
      472,
      472,
      473,
      463,
      463,
      445,
      445,
      445,
      365,
      358,
      358,
      287,
      270,
      248,
      248,
      223,
      175,
      152,
      150,
      150
    ],
    "swim:timestamps": [
      1771118988,
      1771118988,
      1771119349,
      1771119356,
      1771119356,
      1771119416,
      1771119536,
      1771119649,
      1771119709,
      1771119709,
      1771119717,
      1771119717,
      1771119837,
      1771119897,
      1771120017,
      1771120017,
      1771120017,
      1771120257,
      1771120257,
      1771120257,
      1771120317,
      1771120317,
      1771120550,
      1771120558,
      1771120610,
      1771120858,
      1771120910,
      1771120918,
      1771121039,
      1771121039,
      1771121159,
      1771121159,
      1771121339,
      1771121339,
      1771121639,
      1771121699,
      1771121699,
      1771121760,
      1771121760,
      1771121760,
      1771122120,
      1771122137,
      1771122180,
      1771122421,
      1771122491,
      1771122601,
      1771122601,
      1771122670,
      1771122961,
      1771123021,
      1771123081,
      1771123081
    ],
    "wof:geomhash": "be29f129cd8dfdaab711c934955fe0a4",
    "wof:id": 2014793807,
    "wof:repo": "sfomuseum-data-flights-2026-02"
  },
  "bbox": [
    -122.55361111111111,
    32.702222222222225,
    -117.0611111111111,
    37.65861111111111
  ],
  "geometry": {"coordinates":[[-122.46833333333333,37.65861111111111],[-122.46833333333333,37.65861111111111],[-122.54638888888888,37.22277777777778],[-122.5461111111111,37.225833333333334],[-122.5461111111111,37.225833333333334],[-122.55361111111111,37.13388888888889],[-122.50722222222223,36.9475],[-122.32527777777777,36.77027777777778],[-122.2325,36.67944444444444],[-122.2325,36.67944444444444],[-122.23555555555555,36.68222222222222],[-122.23555555555555,36.68222222222222],[-122.04777777777778,36.498333333333335],[-121.95222222222222,36.40361111111111],[-121.74,36.192499999999995],[-121.74,36.192499999999995],[-121.74,36.192499999999995],[-121.35555555555555,35.806666666666665],[-121.35555555555555,35.806666666666665],[-121.35555555555555,35.806666666666665],[-121.25916666666667,35.70944444444445],[-121.25916666666667,35.70944444444445],[-120.82333333333332,35.37361111111111],[-120.8025,35.36138888888889],[-120.69305555555556,35.297777777777775],[-120.14833333333334,34.97694444444445],[-120.0525,34.919999999999995],[-120.03138888888888,34.907222222222224],[-119.77305555555556,34.75277777777778],[-119.77305555555556,34.75277777777778],[-119.50333333333333,34.59055555555556],[-119.50333333333333,34.59055555555556],[-119.12055555555555,34.35777777777778],[-119.12055555555555,34.35777777777778],[-118.4863888888889,33.966944444444444],[-118.365,33.88138888888889],[-118.365,33.88138888888889],[-118.27444444444444,33.811388888888885],[-118.27444444444444,33.811388888888885],[-118.27444444444444,33.811388888888885],[-117.70305555555557,33.34444444444445],[-117.66666666666667,33.31666666666667],[-117.62444444444444,33.270833333333336],[-117.34972222222221,32.97694444444445],[-117.28333333333333,32.9],[-117.19194444444445,32.80722222222222],[-117.19194444444445,32.80722222222222],[-117.1,32.78333333333333],[-117.0611111111111,32.702222222222225],[-117.11027777777777,32.71416666666667],[-117.15694444444445,32.72555555555556],[-117.15694444444445,32.72555555555556]],"type":"LineString"}
}
