{
  "id": 2014902075,
  "type": "Feature",
  "properties": {
    "geom:area": 0,
    "geom:bbox": "-122.522570,37.626500,-121.465900,38.494880",
    "geom:latitude": 38.06514904495234,
    "geom:longitude": -122.0595069862482,
    "src:alt_label": "swim-takeoff",
    "src:geom": "swim",
    "swim:elevations": [
      183,
      470,
      844,
      976,
      1196,
      1279,
      1598,
      2047,
      2110,
      2448,
      2582,
      3028,
      3112,
      3205,
      3411,
      3527,
      3607,
      4058,
      4331,
      4460,
      4786,
      4978,
      5069,
      5394,
      5496,
      5797,
      5862,
      5979,
      6336,
      6430
    ],
    "swim:geom": "takeoff",
    "swim:timestamps": [
      1772228539,
      1772228561,
      1772228595,
      1772228613,
      1772228664,
      1772228680,
      1772228721,
      1772228758,
      1772228765,
      1772228792,
      1772228807,
      1772228849,
      1772228860,
      1772228885,
      1772228932,
      1772228965,
      1772228976,
      1772229022,
      1772229057,
      1772229073,
      1772229116,
      1772229141,
      1772229156,
      1772229199,
      1772229211,
      1772229242,
      1772229255,
      1772229276,
      1772229318,
      1772229338
    ],
    "wof:geomhash": "35bcaf469fe1afa8c9eb92c09c54d1fa",
    "wof:id": 2014902075,
    "wof:repo": "sfomuseum-data-flights-2026-02"
  },
  "bbox": [
    -122.52257,
    37.6265,
    -121.4659,
    38.49488
  ],
  "geometry": {"coordinates":[[-122.39325,37.6265],[-122.41301,37.63488],[-122.44321,37.64806],[-122.45866,37.65507],[-122.51102,37.67968],[-122.52257,37.69443],[-122.51865,37.74193],[-122.47949,37.77642],[-122.47197,37.78223],[-122.43915,37.80687],[-122.42151,37.81968],[-122.36846,37.85806],[-122.354,37.8686],[-122.31901,37.89413],[-122.24687,37.94613],[-122.19038,37.98694],[-122.17128,38.00067],[-122.08875,38.05998],[-122.02469,38.10591],[-121.9952,38.12714],[-121.9142,38.18533],[-121.86659,38.21931],[-121.83726,38.24018],[-121.75195,38.30101],[-121.72787,38.31812],[-121.66692,38.36148],[-121.64095,38.37998],[-121.59846,38.41017],[-121.5093,38.46898],[-121.4659,38.49488]],"type":"LineString"}
}
