{
  "id": 2014785907,
  "type": "Feature",
  "properties": {
    "geom:area": 0,
    "geom:bbox": "-122.426944,33.440833,-112.072500,37.703611",
    "geom:latitude": 36.30219370741211,
    "geom:longitude": -116.81598487874615,
    "src:alt_label": "swim-path",
    "src:geom": "swim",
    "swim:altitudes": [
      "026",
      "026",
      "056",
      "068",
      "068",
      "115",
      "145",
      "145",
      "169",
      "236",
      "236",
      "268",
      "309",
      "364",
      "370C",
      "370C",
      "361",
      "350C",
      "350C",
      "350C",
      "350C",
      "350C",
      "350C",
      "350C",
      "350C",
      "320",
      "290C",
      "290",
      "263",
      "176",
      "154",
      "154",
      "140",
      "128",
      "123",
      "083",
      "073",
      "053",
      "047",
      "036",
      "026",
      "019"
    ],
    "swim:geom": "path",
    "swim:speeds": [
      219,
      219,
      249,
      290,
      290,
      348,
      372,
      372,
      396,
      435,
      435,
      448,
      494,
      496,
      504,
      502,
      499,
      486,
      500,
      505,
      510,
      495,
      488,
      478,
      474,
      474,
      446,
      440,
      416,
      356,
      341,
      346,
      338,
      316,
      277,
      246,
      240,
      230,
      188,
      182,
      178,
      145
    ],
    "swim:timestamps": [
      1771026636,
      1771026636,
      1771026696,
      1771026756,
      1771026756,
      1771026876,
      1771026935,
      1771026935,
      1771026996,
      1771027176,
      1771027176,
      1771027296,
      1771027476,
      1771027777,
      1771028137,
      1771028257,
      1771028377,
      1771028499,
      1771028799,
      1771028979,
      1771029279,
      1771029459,
      1771029639,
      1771029759,
      1771030120,
      1771030240,
      1771030420,
      1771030721,
      1771030901,
      1771031176,
      1771031254,
      1771031262,
      1771031322,
      1771031374,
      1771031442,
      1771031623,
      1771031683,
      1771031803,
      1771031861,
      1771031927,
      1771031983,
      1771032043
    ],
    "wof:geomhash": "dc91c1fbb173d2f8c79f476238270a6b",
    "wof:id": 2014785907,
    "wof:repo": "sfomuseum-data-flights-2026-02"
  },
  "bbox": [
    -122.42694444444444,
    33.44083333333333,
    -112.07249999999999,
    37.703611111111115
  ],
  "geometry": {"coordinates":[[-122.36222222222221,37.68444444444444],[-122.36222222222221,37.68444444444444],[-122.42444444444445,37.703611111111115],[-122.42694444444444,37.62777777777778],[-122.42694444444444,37.62777777777778],[-122.36555555555555,37.466944444444444],[-122.26916666666666,37.41916666666666],[-122.26916666666666,37.41916666666666],[-122.12888888888888,37.39611111111111],[-121.70111111111112,37.301944444444445],[-121.70111111111112,37.301944444444445],[-121.4,37.236666666666665],[-120.90361111111112,37.12916666666667],[-120.05277777777778,37.14388888888889],[-119.00638888888889,37.24916666666667],[-118.66083333333334,37.281666666666666],[-118.31416666666667,37.3075],[-117.97833333333334,37.33222222222223],[-117.17972222222222,37.281666666666666],[-116.88055555555555,36.93222222222222],[-116.22444444444444,36.47916666666667],[-115.7625,36.316944444444445],[-115.285,36.1475],[-114.98722222222223,36.04055555555556],[-114.16888888888889,35.62777777777778],[-113.89944444444446,35.48305555555556],[-113.51361111111112,35.274166666666666],[-112.89972222222222,34.93694444444444],[-112.5411111111111,34.73638888888889],[-112.25,34.3],[-112.2,34.18333333333333],[-112.19555555555556,34.19472222222222],[-112.15,34.11],[-112.15,34.016666666666666],[-112.155,33.92666666666666],[-112.19638888888889,33.722500000000004],[-112.21027777777778,33.65694444444444],[-112.23305555555555,33.530277777777776],[-112.23333333333333,33.483333333333334],[-112.16666666666667,33.45],[-112.12194444444444,33.44083333333333],[-112.07249999999999,33.44083333333333]],"type":"LineString"}
}
