{
  "id": 2014825025,
  "type": "Feature",
  "properties": {
    "geom:area": 0,
    "geom:bbox": "-167.810000,-33.930000,154.020000,37.620000",
    "geom:latitude": -10.038516692418863,
    "geom:longitude": -26.728304118602807,
    "src:alt_label": "swim-route",
    "src:geom": "swim",
    "swim:geom": "route",
    "wof:geomhash": "f08e02817894ef8359a100d1f49245a4",
    "wof:id": 2014825025,
    "wof:repo": "sfomuseum-data-flights-2026-02"
  },
  "bbox": [
    -167.81,
    -33.93,
    154.02,
    37.62
  ],
  "geometry": {"coordinates":[[[151.17,-33.93],[154.02,-32.27]],[[-167.81,1.41],[-144.15,24.01],[-131.98,32.49],[-131.16,32.97],[-131.09,33.01],[-126.54,35.6],[-126.09,35.73],[-126.07,35.74],[-125.75,35.87],[-124.76,36.18],[-124.7,36.39],[-124.25,36.61],[-123.96,36.75],[-123.74,36.86],[-123.48,36.98],[-123.3,37.09],[-123.13,37.19],[-122.96,37.24],[-122.86,37.26],[-122.84,37.26],[-122.84,37.26],[-122.76,37.28],[-122.71,37.29],[-122.66,37.3],[-122.63,37.31],[-122.5,37.34],[-122.44,37.36],[-122.29,37.39],[-122.28,37.39],[-122.31,37.46],[-122.34,37.54],[-122.37,37.6],[-122.37,37.61],[-122.38,37.62]]],"type":"MultiLineString"}
}
