{
  "id": 2014864665,
  "type": "Feature",
  "properties": {
    "geom:area": 0,
    "geom:bbox": "-122.380000,21.030000,-86.880000,37.700000",
    "geom:latitude": 31.94775513876996,
    "geom:longitude": -103.05046838783896,
    "src:alt_label": "swim-route",
    "src:geom": "swim",
    "swim:geom": "route",
    "wof:geomhash": "cd481c500b6784e59b7ba9848371af52",
    "wof:id": 2014864665,
    "wof:repo": "sfomuseum-data-flights-2026-02"
  },
  "bbox": [
    -122.38,
    21.03,
    -86.88,
    37.7
  ],
  "geometry": {"coordinates":[[-86.88,21.03],[-86.89,21.14],[-86.89,21.21],[-86.9,21.29],[-86.91,21.45],[-86.92,21.62],[-86.92,21.67],[-86.93,21.86],[-86.94,21.97],[-86.95,22.15],[-86.96,22.17],[-86.97,22.33],[-86.98,22.4],[-87.42,22.53],[-87.56,22.65],[-87.73,22.79],[-88.7,23.58],[-89.84,24.49],[-89.85,24.5],[-90.45,25.28],[-90.58,25.45],[-91.37,26.46],[-91.95,27.18],[-92.44,27.78],[-92.71,28.1],[-92.83,28.25],[-92.96,28.41],[-93.36,28.88],[-93.51,29.06],[-93.97,29.61],[-94.04,29.69],[-94.82,30.01],[-95.05,30.11],[-95.27,30.2],[-95.73,30.39],[-96,30.5],[-96.48,30.74],[-96.72,30.87],[-97.03,31.15],[-97.09,31.16],[-97.12,31.2],[-97.2,31.3],[-97.31,31.39],[-97.53,31.58],[-97.87,31.87],[-98.18,32.15],[-98.63,32.3],[-99.08,32.45],[-99.23,32.49],[-100.21,32.81],[-100.32,32.84],[-100.9,33.02],[-101.01,33.05],[-101.4,33.17],[-101.82,33.3],[-103.39,33.75],[-105.1,34.22],[-105.15,34.23],[-105.68,34.37],[-106.64,34.55],[-107.55,34.72],[-108.45,34.87],[-108.68,34.91],[-110.06,35.14],[-111.27,35.32],[-111.99,35.42],[-112.27,35.45],[-114.19,35.86],[-114.86,36],[-114.97,36.04],[-115.52,36.28],[-116.26,36.6],[-116.74,36.8],[-116.75,36.8],[-117.24,37.25],[-117.49,37.47],[-117.52,37.49],[-118.03,37.54],[-118.26,37.55],[-119.05,37.61],[-119.62,37.65],[-119.98,37.67],[-120.04,37.68],[-120.26,37.69],[-120.28,37.69],[-120.38,37.7],[-120.4,37.7],[-120.75,37.66],[-120.78,37.66],[-120.83,37.65],[-120.96,37.63],[-121,37.63],[-121.08,37.62],[-121.18,37.6],[-121.26,37.59],[-121.39,37.58],[-121.41,37.58],[-121.6,37.55],[-121.61,37.55],[-121.62,37.55],[-121.7,37.53],[-121.8,37.51],[-121.83,37.5],[-121.88,37.49],[-122.08,37.54],[-122.14,37.56],[-122.18,37.57],[-122.28,37.59],[-122.33,37.61],[-122.36,37.61],[-122.38,37.62]],"type":"LineString"}
}
