{
  "id": 2014890913,
  "type": "Feature",
  "properties": {
    "geom:area": 0,
    "geom:bbox": "-122.341590,36.756460,-121.898490,37.606990",
    "geom:latitude": 37.22732048951925,
    "geom:longitude": -122.07250667436742,
    "src:alt_label": "swim-approach",
    "src:geom": "swim",
    "swim:elevations": [
      5356,
      5199,
      4867,
      4636,
      4445,
      4233,
      4028,
      3732,
      3614,
      3473,
      3214,
      3020,
      2862,
      2804,
      2523,
      2416,
      2126,
      1837,
      1745,
      1620,
      1223,
      995,
      948,
      884,
      737,
      509,
      368,
      340,
      213,
      116
    ],
    "swim:geom": "approach",
    "swim:timestamps": [
      1772115745,
      1772115763,
      1772115806,
      1772115838,
      1772115861,
      1772115891,
      1772115915,
      1772115954,
      1772115970,
      1772115990,
      1772116023,
      1772116072,
      1772116107,
      1772116116,
      1772116156,
      1772116171,
      1772116215,
      1772116256,
      1772116273,
      1772116300,
      1772116372,
      1772116404,
      1772116411,
      1772116448,
      1772116476,
      1772116526,
      1772116556,
      1772116562,
      1772116601,
      1772116630
    ],
    "wof:geomhash": "eabc77400c9870380cecc35bae733efb",
    "wof:id": 2014890913,
    "wof:repo": "sfomuseum-data-flights-2026-02"
  },
  "bbox": [
    -122.34159,
    36.75646,
    -121.89849,
    37.60699
  ],
  "geometry": {"coordinates":[[-121.89849,36.75646],[-121.90574,36.78374],[-121.92334,36.84478],[-121.93586,36.89021],[-121.94478,36.92201],[-121.95709,36.96188],[-121.96991,36.99437],[-121.98975,37.04538],[-121.99778,37.06585],[-122.00786,37.09161],[-122.02373,37.13271],[-122.0472,37.19266],[-122.06213,37.23065],[-122.06582,37.24003],[-122.08145,37.28007],[-122.08723,37.29494],[-122.10466,37.33901],[-122.12008,37.37825],[-122.12537,37.39357],[-122.13445,37.41985],[-122.15771,37.48934],[-122.16759,37.51968],[-122.16964,37.52604],[-122.18489,37.5561],[-122.2122,37.56714],[-122.26129,37.58311],[-122.28735,37.59061],[-122.29166,37.59186],[-122.32068,37.60058],[-122.34159,37.60699]],"type":"LineString"}
}
