{
  "id": 2014793677,
  "type": "Feature",
  "properties": {
    "geom:area": 0,
    "geom:bbox": "-123.507030,37.628510,-122.397030,38.282330",
    "geom:latitude": 37.948934015972746,
    "geom:longitude": -122.95539660734337,
    "src:alt_label": "swim-takeoff",
    "src:geom": "swim",
    "swim:elevations": [
      247,
      575,
      932,
      1188,
      1448,
      1607,
      1914,
      2233,
      2827,
      2904,
      3323,
      4136,
      4472,
      4857,
      5311,
      5687,
      5827,
      6062,
      6562,
      6646,
      7078,
      7468,
      7559
    ],
    "swim:geom": "takeoff",
    "swim:timestamps": [
      1771086102,
      1771086128,
      1771086162,
      1771086201,
      1771086231,
      1771086253,
      1771086293,
      1771086320,
      1771086357,
      1771086362,
      1771086390,
      1771086446,
      1771086469,
      1771086496,
      1771086535,
      1771086568,
      1771086581,
      1771086603,
      1771086654,
      1771086661,
      1771086700,
      1771086739,
      1771086751
    ],
    "wof:geomhash": "8f9b42cbbcccfb7ea7800f4364ba4168",
    "wof:id": 2014793677,
    "wof:repo": "sfomuseum-data-flights-2026-02"
  },
  "bbox": [
    -123.50703,
    37.62851,
    -122.39703,
    38.28233
  ],
  "geometry": {"coordinates":[[-122.39703,37.62851],[-122.41998,37.63882],[-122.4526,37.65236],[-122.49635,37.67139],[-122.53476,37.69289],[-122.56461,37.71058],[-122.62826,37.74813],[-122.67498,37.77581],[-122.73823,37.8151],[-122.74723,37.82066],[-122.7982,37.85248],[-122.9007,37.9149],[-122.94298,37.94089],[-122.99437,37.97207],[-123.06725,38.01648],[-123.1326,38.05648],[-123.15798,38.07186],[-123.20272,38.0989],[-123.30594,38.16129],[-123.31978,38.16968],[-123.40108,38.21876],[-123.48197,38.26692],[-123.50703,38.28233]],"type":"LineString"}
}
