{
  "id": 2014840835,
  "type": "Feature",
  "properties": {
    "geom:area": 0,
    "geom:bbox": "-123.504970,37.260120,-122.150390,37.615130",
    "geom:latitude": 37.347243805601984,
    "geom:longitude": -122.71322795828976,
    "src:alt_label": "swim-approach",
    "src:geom": "swim",
    "swim:elevations": [
      5243,
      5121,
      4938,
      4708,
      4469,
      4154,
      3911,
      3503,
      3348,
      3208,
      3078,
      3049,
      3076,
      3048,
      3049,
      3047,
      3048,
      3048,
      2930,
      2783,
      2433,
      2245,
      2166,
      1979,
      1829,
      1829,
      1740,
      1626,
      1489,
      1420,
      1294,
      1196,
      920,
      795,
      609,
      537,
      366,
      239,
      96,
      0
    ],
    "swim:geom": "approach",
    "swim:timestamps": [
      1771630855,
      1771630867,
      1771630884,
      1771630909,
      1771630931,
      1771630963,
      1771630987,
      1771631024,
      1771631038,
      1771631050,
      1771631074,
      1771631086,
      1771631128,
      1771631158,
      1771631185,
      1771631212,
      1771631248,
      1771631260,
      1771631290,
      1771631317,
      1771631365,
      1771631389,
      1771631401,
      1771631456,
      1771631488,
      1771631506,
      1771631533,
      1771631555,
      1771631602,
      1771631608,
      1771631626,
      1771631659,
      1771631695,
      1771631716,
      1771631749,
      1771631761,
      1771631806,
      1771631836,
      1771631866,
      1771631884
    ],
    "wof:geomhash": "e6af88bf1854c0db13a524ecb290e8ca",
    "wof:id": 2014840835,
    "wof:repo": "sfomuseum-data-flights-2026-02"
  },
  "bbox": [
    -123.50497,
    37.26012,
    -122.15039,
    37.61513
  ],
  "geometry": {"coordinates":[[-123.50497,37.30439],[-123.47428,37.30175],[-123.43394,37.29981],[-123.37302,37.29541],[-123.32184,37.29172],[-123.24575,37.28617],[-123.1904,37.28218],[-123.10768,37.27599],[-123.07694,37.27372],[-123.05001,37.27172],[-122.99682,37.26774],[-122.97095,37.26576],[-122.88027,37.26012],[-122.81586,37.26832],[-122.75882,37.28117],[-122.70211,37.29501],[-122.63325,37.30955],[-122.61118,37.31182],[-122.55916,37.31636],[-122.51338,37.32037],[-122.43637,37.32941],[-122.39654,37.3343],[-122.377,37.33627],[-122.29336,37.34506],[-122.24828,37.35171],[-122.22622,37.36449],[-122.20087,37.39028],[-122.18165,37.41099],[-122.15039,37.45515],[-122.15055,37.46124],[-122.1573,37.47931],[-122.17786,37.50806],[-122.19855,37.53691],[-122.21476,37.55074],[-122.24468,37.56601],[-122.25536,37.57073],[-122.29615,37.58745],[-122.32115,37.59833],[-122.34601,37.60885],[-122.36094,37.61513]],"type":"LineString"}
}
