{
  "id": 2014796251,
  "type": "Feature",
  "properties": {
    "geom:area": 0,
    "geom:bbox": "-122.366667,35.885833,-115.173611,37.858056",
    "geom:latitude": 37.113378453239434,
    "geom:longitude": -118.69579627743705,
    "src:alt_label": "swim-path",
    "src:geom": "swim",
    "swim:altitudes": [
      "031",
      "031",
      "031",
      "073",
      "073",
      "073",
      "073",
      "073",
      "073",
      "116",
      "116",
      "116",
      "116",
      "198",
      "198",
      "198",
      "198",
      "198",
      "262",
      "262",
      "262",
      "262",
      "283",
      "283",
      "335",
      "335",
      "335",
      "372",
      "372",
      "380C",
      "380C",
      "380C",
      "380C",
      "380C",
      "380C",
      "380C",
      "380C",
      "380C",
      "380C",
      "380C",
      "380C",
      "380C",
      "380C",
      "380C",
      "380C",
      "380C",
      "380C",
      "380C",
      "380C",
      "380C",
      "380C",
      "380C",
      "380C",
      "380C",
      "380C",
      "380C",
      "380C",
      "380C",
      "380",
      "380",
      "380",
      "380",
      "380",
      "380",
      "380",
      "289",
      "289",
      "230",
      "230",
      "215",
      "203",
      "203",
      "196",
      "196",
      "178",
      "178",
      "139",
      "139",
      "139",
      "117",
      "117",
      "117",
      "109",
      "109",
      "097",
      "090",
      "090",
      "090",
      "090",
      "090",
      "084",
      "076",
      "076",
      "076",
      "070",
      "070",
      "070",
      "070",
      "070",
      "066",
      "066",
      "066",
      "066",
      "066",
      "066",
      "051",
      "051",
      "040",
      "040",
      "027",
      "027",
      "023",
      "023",
      "018",
      "018",
      "018",
      "018",
      "018",
      "014",
      "014",
      "014",
      "003",
      "003",
      "003",
      "003",
      "003"
    ],
    "swim:geom": "path",
    "swim:speeds": [
      182,
      182,
      182,
      266,
      266,
      266,
      266,
      266,
      266,
      348,
      348,
      348,
      348,
      357,
      357,
      357,
      357,
      357,
      425,
      425,
      425,
      425,
      426,
      426,
      441,
      441,
      441,
      424,
      424,
      423,
      423,
      423,
      433,
      433,
      433,
      384,
      384,
      385,
      385,
      385,
      385,
      385,
      385,
      381,
      385,
      385,
      385,
      385,
      386,
      386,
      386,
      385,
      385,
      385,
      385,
      378,
      378,
      378,
      377,
      380,
      380,
      380,
      380,
      380,
      380,
      385,
      385,
      319,
      319,
      298,
      289,
      289,
      291,
      291,
      288,
      288,
      298,
      298,
      298,
      295,
      295,
      295,
      290,
      290,
      237,
      236,
      236,
      236,
      236,
      236,
      239,
      205,
      205,
      205,
      201,
      201,
      201,
      212,
      198,
      200,
      200,
      200,
      200,
      200,
      200,
      186,
      186,
      176,
      176,
      168,
      168,
      170,
      170,
      164,
      164,
      164,
      164,
      164,
      150,
      150,
      150,
      146,
      146,
      146,
      146,
      146
    ],
    "swim:timestamps": [
      1771168256,
      1771168256,
      1771168256,
      1771168384,
      1771168384,
      1771168384,
      1771168384,
      1771168384,
      1771168384,
      1771168499,
      1771168499,
      1771168499,
      1771168499,
      1771168685,
      1771168685,
      1771168685,
      1771168685,
      1771168685,
      1771168865,
      1771168865,
      1771168865,
      1771168865,
      1771168925,
      1771168925,
      1771169105,
      1771169105,
      1771169105,
      1771169239,
      1771169239,
      1771169286,
      1771169286,
      1771169286,
      1771169359,
      1771169359,
      1771169359,
      1771169646,
      1771169646,
      1771169706,
      1771169706,
      1771169706,
      1771169766,
      1771169826,
      1771169826,
      1771169960,
      1771170067,
      1771170140,
      1771170140,
      1771170140,
      1771170247,
      1771170247,
      1771170247,
      1771170307,
      1771170320,
      1771170320,
      1771170320,
      1771170440,
      1771170440,
      1771170440,
      1771170620,
      1771170741,
      1771170741,
      1771170741,
      1771170741,
      1771170741,
      1771170741,
      1771170981,
      1771170981,
      1771171161,
      1771171161,
      1771171221,
      1771171249,
      1771171249,
      1771171281,
      1771171281,
      1771171341,
      1771171341,
      1771171489,
      1771171489,
      1771171489,
      1771171581,
      1771171581,
      1771171581,
      1771171603,
      1771171603,
      1771171762,
      1771171783,
      1771171783,
      1771171783,
      1771171822,
      1771171822,
      1771171843,
      1771171903,
      1771171903,
      1771171903,
      1771172002,
      1771172002,
      1771172002,
      1771172062,
      1771172083,
      1771172122,
      1771172122,
      1771172122,
      1771172122,
      1771172122,
      1771172122,
      1771172203,
      1771172203,
      1771172302,
      1771172302,
      1771172383,
      1771172383,
      1771172422,
      1771172422,
      1771172443,
      1771172443,
      1771172443,
      1771172443,
      1771172443,
      1771172482,
      1771172482,
      1771172482,
      1771172563,
      1771172563,
      1771172563,
      1771172563,
      1771172563
    ],
    "wof:geomhash": "d911c9d0ffc2a0c1bee4e5598b4a7485",
    "wof:id": 2014796251,
    "wof:repo": "sfomuseum-data-flights-2026-02"
  },
  "bbox": [
    -122.36666666666666,
    35.88583333333333,
    -115.17361111111111,
    37.85805555555556
  ],
  "geometry": {"coordinates":[[-115.17361111111111,36.075],[-115.17361111111111,36.075],[-115.17361111111111,36.075],[-115.29083333333332,35.999722222222225],[-115.29083333333332,35.999722222222225],[-115.29083333333332,35.999722222222225],[-115.29083333333332,35.999722222222225],[-115.29083333333332,35.999722222222225],[-115.29083333333332,35.999722222222225],[-115.40416666666667,35.88583333333333],[-115.40416666666667,35.88583333333333],[-115.40416666666667,35.88583333333333],[-115.40416666666667,35.88583333333333],[-115.77222222222223,35.89277777777778],[-115.77222222222223,35.89277777777778],[-115.77222222222223,35.89277777777778],[-115.77222222222223,35.89277777777778],[-115.77222222222223,35.89277777777778],[-116.08722222222222,36.06333333333333],[-116.08722222222222,36.06333333333333],[-116.08722222222222,36.06333333333333],[-116.08722222222222,36.06333333333333],[-116.19277777777778,36.14416666666666],[-116.19277777777778,36.14416666666666],[-116.53361111111111,36.40333333333333],[-116.53361111111111,36.40333333333333],[-116.53361111111111,36.40333333333333],[-116.76166666666667,36.57638888888889],[-116.76166666666667,36.57638888888889],[-116.84027777777777,36.64527777777778],[-116.84027777777777,36.64527777777778],[-116.84027777777777,36.64527777777778],[-116.955,36.755],[-116.955,36.755],[-116.955,36.755],[-117.4625,37.06333333333333],[-117.4625,37.06333333333333],[-117.59305555555555,37.093333333333334],[-117.59305555555555,37.093333333333334],[-117.59305555555555,37.093333333333334],[-117.72333333333333,37.12305555555555],[-117.85111111111111,37.151944444444446],[-117.85111111111111,37.151944444444446],[-118.13388888888889,37.21555555555556],[-118.36777777777777,37.26833333333333],[-118.5261111111111,37.30277777777778],[-118.5261111111111,37.30277777777778],[-118.5261111111111,37.30277777777778],[-118.75944444444444,37.35388888888889],[-118.75944444444444,37.35388888888889],[-118.75944444444444,37.35388888888889],[-118.88805555555557,37.38194444444444],[-118.91527777777779,37.38777777777778],[-118.91527777777779,37.38777777777778],[-118.91527777777779,37.38777777777778],[-119.16805555555555,37.44194444444444],[-119.16805555555555,37.44194444444444],[-119.16805555555555,37.44194444444444],[-119.5625,37.525555555555556],[-119.795,37.57416666666667],[-119.795,37.57416666666667],[-119.795,37.57416666666667],[-119.795,37.57416666666667],[-119.795,37.57416666666667],[-119.795,37.57416666666667],[-120.31972222222223,37.68222222222222],[-120.31972222222223,37.68222222222222],[-120.66972222222223,37.668055555555554],[-120.66972222222223,37.668055555555554],[-120.77444444444444,37.655833333333334],[-120.83333333333333,37.65],[-120.83333333333333,37.65],[-120.8761111111111,37.64333333333333],[-120.8761111111111,37.64333333333333],[-120.97527777777778,37.63666666666666],[-120.97527777777778,37.63666666666666],[-121.23333333333333,37.68333333333333],[-121.23333333333333,37.68333333333333],[-121.23333333333333,37.68333333333333],[-121.37694444444443,37.71055555555556],[-121.37694444444443,37.71055555555556],[-121.37694444444443,37.71055555555556],[-121.43333333333334,37.71666666666667],[-121.43333333333334,37.71666666666667],[-121.64416666666668,37.759166666666665],[-121.68333333333334,37.766666666666666],[-121.68333333333334,37.766666666666666],[-121.68333333333334,37.766666666666666],[-121.72583333333334,37.774166666666666],[-121.72583333333334,37.774166666666666],[-121.76666666666667,37.78333333333333],[-121.85,37.8],[-121.85,37.8],[-121.85,37.8],[-121.94194444444445,37.812777777777775],[-121.94194444444445,37.812777777777775],[-121.94194444444445,37.812777777777775],[-122.00555555555556,37.855555555555554],[-122.03333333333333,37.85],[-122.07416666666666,37.85805555555556],[-122.07416666666666,37.85805555555556],[-122.07416666666666,37.85805555555556],[-122.07416666666666,37.85805555555556],[-122.07416666666666,37.85805555555556],[-122.07416666666666,37.85805555555556],[-122.16666666666667,37.85],[-122.16666666666667,37.85],[-122.2475,37.802499999999995],[-122.2475,37.802499999999995],[-122.28333333333333,37.75],[-122.28333333333333,37.75],[-122.29972222222221,37.728611111111114],[-122.29972222222221,37.728611111111114],[-122.31666666666666,37.7],[-122.31666666666666,37.7],[-122.31666666666666,37.7],[-122.31666666666666,37.7],[-122.31666666666666,37.7],[-122.3261111111111,37.68944444444444],[-122.3261111111111,37.68944444444444],[-122.3261111111111,37.68944444444444],[-122.36666666666666,37.63333333333333],[-122.36666666666666,37.63333333333333],[-122.36666666666666,37.63333333333333],[-122.36666666666666,37.63333333333333],[-122.36666666666666,37.63333333333333]],"type":"LineString"}
}
