{
  "id": 2014907235,
  "type": "Feature",
  "properties": {
    "geom:area": 0,
    "geom:bbox": "-122.351030,37.492270,-121.243860,37.610950",
    "geom:latitude": 37.54692071274513,
    "geom:longitude": -121.80213138633668,
    "src:alt_label": "swim-approach",
    "src:geom": "swim",
    "swim:elevations": [
      4959,
      4634,
      4070,
      4032,
      3808,
      3753,
      3650,
      3526,
      3208,
      3044,
      2891,
      2762,
      2714,
      2660,
      2637,
      2378,
      2304,
      2139,
      1999,
      1860,
      1834,
      1491,
      1203,
      1097,
      888,
      830,
      769,
      533,
      495,
      425,
      395,
      272,
      94,
      54
    ],
    "swim:geom": "approach",
    "swim:timestamps": [
      1772312676,
      1772312707,
      1772312752,
      1772312758,
      1772312787,
      1772312794,
      1772312803,
      1772312821,
      1772312872,
      1772312908,
      1772312925,
      1772312943,
      1772312958,
      1772312970,
      1772312973,
      1772313008,
      1772313023,
      1772313053,
      1772313079,
      1772313104,
      1772313125,
      1772313172,
      1772313204,
      1772313223,
      1772313259,
      1772313289,
      1772313310,
      1772313358,
      1772313367,
      1772313385,
      1772313391,
      1772313424,
      1772313478,
      1772313487
    ],
    "wof:geomhash": "3c5d1d41f92f5d9fcb7018be81289932",
    "wof:id": 2014907235,
    "wof:repo": "sfomuseum-data-flights-2026-02"
  },
  "bbox": [
    -122.35103,
    37.49227,
    -121.24386,
    37.61095
  ],
  "geometry": {"coordinates":[[-121.24386,37.59573],[-121.2985,37.58869],[-121.37992,37.57982],[-121.38964,37.57877],[-121.44532,37.57224],[-121.45895,37.57061],[-121.47552,37.56868],[-121.50809,37.56487],[-121.5997,37.5542],[-121.65809,37.5432],[-121.68562,37.53648],[-121.71408,37.52973],[-121.73673,37.5243],[-121.75405,37.52027],[-121.75836,37.51928],[-121.80734,37.50747],[-121.82775,37.50257],[-121.86924,37.49272],[-121.90647,37.49227],[-121.94204,37.49316],[-121.97252,37.49383],[-122.03771,37.51141],[-122.08281,37.52588],[-122.10761,37.53386],[-122.15282,37.54852],[-122.187,37.55948],[-122.20902,37.56618],[-122.25515,37.58137],[-122.26384,37.58408],[-122.27903,37.58845],[-122.28377,37.58979],[-122.30772,37.59669],[-122.34491,37.60849],[-122.35103,37.61095]],"type":"LineString"}
}
