{
  "id": 2014825427,
  "type": "Feature",
  "properties": {
    "geom:area": 0,
    "geom:bbox": "-122.500000,36.329167,-75.268889,40.303611",
    "geom:latitude": 37.56158799831023,
    "geom:longitude": -98.79320650593652,
    "src:alt_label": "swim-path",
    "src:geom": "swim",
    "swim:altitudes": [
      "004",
      "004",
      "004",
      "004",
      "004",
      "038",
      "038",
      "056",
      "056",
      "056",
      "072",
      "072",
      "072",
      "072",
      "092",
      "120",
      "120",
      "126",
      "148",
      "148",
      "184",
      "184",
      "219",
      "219",
      "232",
      "232",
      "235",
      "235",
      "248",
      "261",
      "274",
      "274",
      "274",
      "310C",
      "310C",
      "310C",
      "310C",
      "310C",
      "310C",
      "310C",
      "310C",
      "310C",
      "310C",
      "310C",
      "310C",
      "310C",
      "310C",
      "310C",
      "310C",
      "310C",
      "310C",
      "310C",
      "310C",
      "310C",
      "310C",
      "310C",
      "310C",
      "310C",
      "310C",
      "310C",
      "310C",
      "310C",
      "310C",
      "310C",
      "310C",
      "310C",
      "310C",
      "310C",
      "310C",
      "310C",
      "310C",
      "310C",
      "310C",
      "310C",
      "310C",
      "310C",
      "310C",
      "310C",
      "310C",
      "310C",
      "310C",
      "310C",
      "310C",
      "310C",
      "310C",
      "310C",
      "310C",
      "310C",
      "310C",
      "310C",
      "310C",
      "310C",
      "310C",
      "310C",
      "310C",
      "310C",
      "310C",
      "310C",
      "310C",
      "310C",
      "310C",
      "310C",
      "310C",
      "310C",
      "310C",
      "310C",
      "310C",
      "310C",
      "311C",
      "311C",
      "311C",
      "311C",
      "310C",
      "310C",
      "310C",
      "310C",
      "310C",
      "310C",
      "310C",
      "310C",
      "310C",
      "310C",
      "310C",
      "310C",
      "310C",
      "310C",
      "310C",
      "310C",
      "310C",
      "310C",
      "310C",
      "310C",
      "310C",
      "310C",
      "310C",
      "310C",
      "310C",
      "310C",
      "310C",
      "310C",
      "310C",
      "310C",
      "310C",
      "310C",
      "310C",
      "310C",
      "310C",
      "310C",
      "310C",
      "310C",
      "310C",
      "310C",
      "310C",
      "310C",
      "310C",
      "310C",
      "310C",
      "310C",
      "310C",
      "310C",
      "310C",
      "310C",
      "310C",
      "310C",
      "310C",
      "310C",
      "310C",
      "310C",
      "310C",
      "310C",
      "310C",
      "310C",
      "310C",
      "310C",
      "310C",
      "310C",
      "310C",
      "310C",
      "310C",
      "310C",
      "310C",
      "310C",
      "310C",
      "310C",
      "310C",
      "310C",
      "310C",
      "310C",
      "310C",
      "310C",
      "310C",
      "310C",
      "310C",
      "310C",
      "310C",
      "310C",
      "310C",
      "310C",
      "310C",
      "310C",
      "310C",
      "310C",
      "310C",
      "310C",
      "310C",
      "310C",
      "310C",
      "310C",
      "310C",
      "310C",
      "310C",
      "310C",
      "310C",
      "310C",
      "310C",
      "310C",
      "310C",
      "310C",
      "310C",
      "310C",
      "310C",
      "310C",
      "310C",
      "310C",
      "310C",
      "310C",
      "310C",
      "310C",
      "310C",
      "310C",
      "310C",
      "310C",
      "310C",
      "310C",
      "310C",
      "310C",
      "310C",
      "310C",
      "310C",
      "310C",
      "310C",
      "310C",
      "310C",
      "310C",
      "310C",
      "310C",
      "310C",
      "310C",
      "310C",
      "310C",
      "310C",
      "310C",
      "310C",
      "310C",
      "310C",
      "310C",
      "310C",
      "310C",
      "310C",
      "310C",
      "310C",
      "310C",
      "310C",
      "310C",
      "310C",
      "310C",
      "310C",
      "310C",
      "310C",
      "310C",
      "310C",
      "310C",
      "310C",
      "310C",
      "310C",
      "310C",
      "310C",
      "310C",
      "310C",
      "310C",
      "310C",
      "310C",
      "310C",
      "310C",
      "310C",
      "310C",
      "310C",
      "310C",
      "310C",
      "310C",
      "310C",
      "310C",
      "310C",
      "310C",
      "310C",
      "310C",
      "310C",
      "310C",
      "310C",
      "310C",
      "310C",
      "310C",
      "310C",
      "310C",
      "310C",
      "310C",
      "310C",
      "310C",
      "310C",
      "310C",
      "310C",
      "310C",
      "310C",
      "310C",
      "310C",
      "310C",
      "310C",
      "310C",
      "310C",
      "310C",
      "310C",
      "310C",
      "310C",
      "310C",
      "310C",
      "310C",
      "310C",
      "310C",
      "310C",
      "310C",
      "310C",
      "310C",
      "310C",
      "310C",
      "310C",
      "310C",
      "310C",
      "310C",
      "310C",
      "310C",
      "310C",
      "310C",
      "310C",
      "310C",
      "310C",
      "310C",
      "310C",
      "310C",
      "310C",
      "310C",
      "310C",
      "310C",
      "310C",
      "310C",
      "310C",
      "310C",
      "310C",
      "310C",
      "310C",
      "310C",
      "310C",
      "310C",
      "310C",
      "310C",
      "310C",
      "310C",
      "310C",
      "310C",
      "310C",
      "310C",
      "310C",
      "310C",
      "310C",
      "310C",
      "310C",
      "310C",
      "310C",
      "310C",
      "310C",
      "310C",
      "310C",
      "310C",
      "310C",
      "310C",
      "310C",
      "310C",
      "310C",
      "310C",
      "310C",
      "310C",
      "310C",
      "310C",
      "310C",
      "310",
      "310",
      "310",
      "310",
      "310",
      "190",
      "190",
      "190",
      "185",
      "185",
      "185",
      "131",
      "131",
      "121",
      "121",
      "121",
      "110",
      "110",
      "103",
      "100",
      "090",
      "070",
      "070",
      "070",
      "070",
      "059",
      "055",
      "055",
      "055",
      "050",
      "050",
      "050",
      "050",
      "046",
      "046",
      "042",
      "035",
      "031",
      "030",
      "030",
      "030",
      "030",
      "030",
      "030",
      "029",
      "029",
      "026",
      "021",
      "80",
      "80",
      "80",
      "80"
    ],
    "swim:geom": "path",
    "swim:speeds": [
      173,
      173,
      173,
      173,
      173,
      244,
      244,
      246,
      246,
      246,
      247,
      247,
      247,
      247,
      264,
      385,
      385,
      360,
      435,
      435,
      440,
      440,
      498,
      498,
      497,
      497,
      509,
      509,
      525,
      538,
      546,
      546,
      546,
      564,
      564,
      564,
      564,
      537,
      546,
      542,
      542,
      542,
      525,
      525,
      525,
      525,
      534,
      537,
      537,
      537,
      537,
      537,
      537,
      537,
      537,
      537,
      537,
      534,
      534,
      534,
      534,
      516,
      513,
      513,
      508,
      509,
      509,
      509,
      546,
      546,
      546,
      548,
      548,
      550,
      550,
      550,
      555,
      555,
      557,
      557,
      566,
      566,
      567,
      567,
      567,
      567,
      567,
      567,
      567,
      568,
      568,
      568,
      569,
      569,
      569,
      569,
      569,
      569,
      566,
      566,
      569,
      569,
      571,
      571,
      571,
      571,
      555,
      555,
      555,
      555,
      555,
      555,
      556,
      556,
      556,
      556,
      556,
      556,
      556,
      564,
      564,
      564,
      564,
      571,
      571,
      571,
      571,
      571,
      571,
      570,
      570,
      571,
      571,
      571,
      571,
      571,
      571,
      571,
      571,
      571,
      571,
      571,
      571,
      571,
      571,
      571,
      572,
      572,
      572,
      572,
      572,
      572,
      571,
      571,
      571,
      571,
      571,
      571,
      571,
      571,
      572,
      572,
      572,
      578,
      578,
      578,
      578,
      578,
      578,
      578,
      578,
      579,
      579,
      582,
      582,
      582,
      584,
      584,
      584,
      584,
      584,
      584,
      584,
      598,
      590,
      590,
      590,
      590,
      589,
      589,
      589,
      588,
      589,
      589,
      589,
      587,
      585,
      585,
      585,
      585,
      586,
      586,
      584,
      584,
      579,
      579,
      578,
      578,
      578,
      578,
      575,
      575,
      575,
      574,
      574,
      574,
      573,
      573,
      573,
      574,
      574,
      573,
      573,
      573,
      573,
      575,
      575,
      575,
      575,
      574,
      574,
      581,
      581,
      581,
      582,
      582,
      581,
      581,
      583,
      583,
      583,
      582,
      582,
      582,
      583,
      582,
      584,
      584,
      584,
      584,
      584,
      584,
      585,
      585,
      587,
      587,
      588,
      588,
      588,
      588,
      588,
      589,
      589,
      592,
      592,
      592,
      591,
      591,
      591,
      591,
      591,
      591,
      588,
      588,
      588,
      588,
      583,
      583,
      583,
      583,
      583,
      584,
      584,
      582,
      582,
      582,
      582,
      582,
      585,
      585,
      585,
      585,
      584,
      584,
      584,
      584,
      584,
      586,
      586,
      586,
      586,
      585,
      585,
      585,
      585,
      583,
      583,
      579,
      579,
      579,
      576,
      576,
      573,
      573,
      573,
      572,
      572,
      572,
      573,
      573,
      577,
      577,
      580,
      580,
      584,
      584,
      581,
      581,
      580,
      580,
      580,
      580,
      580,
      581,
      581,
      581,
      581,
      580,
      580,
      580,
      580,
      580,
      580,
      580,
      580,
      580,
      580,
      577,
      577,
      577,
      575,
      575,
      574,
      574,
      574,
      574,
      574,
      570,
      570,
      566,
      566,
      566,
      566,
      566,
      563,
      563,
      563,
      563,
      563,
      562,
      561,
      563,
      560,
      560,
      560,
      562,
      562,
      561,
      561,
      560,
      560,
      561,
      561,
      560,
      560,
      562,
      562,
      564,
      571,
      571,
      571,
      571,
      572,
      570,
      570,
      570,
      570,
      570,
      463,
      463,
      463,
      458,
      458,
      458,
      399,
      399,
      390,
      390,
      390,
      371,
      371,
      343,
      337,
      317,
      303,
      301,
      301,
      300,
      180,
      165,
      165,
      165,
      157,
      157,
      160,
      160,
      158,
      158,
      160,
      187,
      184,
      206,
      206,
      199,
      199,
      199,
      199,
      202,
      202,
      201,
      200,
      133,
      133,
      133,
      133
    ],
    "swim:timestamps": [
      1771450803,
      1771450803,
      1771450803,
      1771450803,
      1771450803,
      1771450903,
      1771450903,
      1771450929,
      1771450929,
      1771450929,
      1771450963,
      1771450963,
      1771450963,
      1771450963,
      1771450995,
      1771451109,
      1771451109,
      1771451136,
      1771451203,
      1771451203,
      1771451316,
      1771451316,
      1771451443,
      1771451443,
      1771451497,
      1771451497,
      1771451503,
      1771451503,
      1771451563,
      1771451623,
      1771451683,
      1771451683,
      1771451683,
      1771451984,
      1771451984,
      1771451984,
      1771451984,
      1771452098,
      1771452218,
      1771452224,
      1771452224,
      1771452224,
      1771452404,
      1771452404,
      1771452404,
      1771452404,
      1771452464,
      1771452518,
      1771452518,
      1771452638,
      1771452638,
      1771452638,
      1771452645,
      1771452645,
      1771452699,
      1771452699,
      1771452699,
      1771452765,
      1771452819,
      1771452879,
      1771452879,
      1771452939,
      1771453005,
      1771453005,
      1771453059,
      1771453065,
      1771453065,
      1771453065,
      1771453245,
      1771453245,
      1771453245,
      1771453305,
      1771453305,
      1771453360,
      1771453360,
      1771453360,
      1771453480,
      1771453480,
      1771453540,
      1771453540,
      1771453600,
      1771453600,
      1771453840,
      1771453840,
      1771453840,
      1771453840,
      1771453900,
      1771453900,
      1771453900,
      1771453961,
      1771453961,
      1771453961,
      1771454381,
      1771454381,
      1771454381,
      1771454381,
      1771454381,
      1771454381,
      1771454539,
      1771454539,
      1771454561,
      1771454561,
      1771454599,
      1771454599,
      1771454599,
      1771454599,
      1771454802,
      1771454802,
      1771454839,
      1771454839,
      1771454839,
      1771454839,
      1771454862,
      1771454862,
      1771454862,
      1771455019,
      1771455019,
      1771455019,
      1771455019,
      1771455140,
      1771455140,
      1771455140,
      1771455140,
      1771455322,
      1771455322,
      1771455322,
      1771455380,
      1771455380,
      1771455380,
      1771455440,
      1771455440,
      1771455500,
      1771455500,
      1771455500,
      1771455620,
      1771455620,
      1771455620,
      1771455683,
      1771455683,
      1771455683,
      1771455683,
      1771455800,
      1771455800,
      1771455800,
      1771455800,
      1771455800,
      1771455861,
      1771455861,
      1771455921,
      1771455921,
      1771455921,
      1771455921,
      1771456041,
      1771456041,
      1771456041,
      1771456101,
      1771456101,
      1771456161,
      1771456161,
      1771456161,
      1771456223,
      1771456223,
      1771456223,
      1771456401,
      1771456401,
      1771456401,
      1771456401,
      1771456401,
      1771456461,
      1771456461,
      1771456461,
      1771456521,
      1771456521,
      1771456642,
      1771456642,
      1771456642,
      1771456702,
      1771456702,
      1771456702,
      1771456702,
      1771456822,
      1771456822,
      1771456822,
      1771456869,
      1771456882,
      1771456942,
      1771456942,
      1771456942,
      1771456989,
      1771456989,
      1771456989,
      1771457002,
      1771457050,
      1771457050,
      1771457050,
      1771457170,
      1771457185,
      1771457185,
      1771457185,
      1771457185,
      1771457230,
      1771457230,
      1771457290,
      1771457290,
      1771457305,
      1771457305,
      1771457350,
      1771457350,
      1771457350,
      1771457350,
      1771457425,
      1771457425,
      1771457425,
      1771457530,
      1771457530,
      1771457590,
      1771457606,
      1771457606,
      1771457606,
      1771457711,
      1771457711,
      1771457726,
      1771457726,
      1771457726,
      1771457726,
      1771457891,
      1771457891,
      1771457891,
      1771457891,
      1771457906,
      1771457906,
      1771457966,
      1771458011,
      1771458011,
      1771458071,
      1771458071,
      1771458086,
      1771458086,
      1771458131,
      1771458131,
      1771458131,
      1771458206,
      1771458206,
      1771458206,
      1771458251,
      1771458267,
      1771458312,
      1771458312,
      1771458312,
      1771458312,
      1771458372,
      1771458372,
      1771458432,
      1771458432,
      1771458492,
      1771458492,
      1771458552,
      1771458552,
      1771458552,
      1771458552,
      1771458552,
      1771458612,
      1771458612,
      1771458852,
      1771458852,
      1771458852,
      1771458972,
      1771458972,
      1771458972,
      1771458972,
      1771458972,
      1771458972,
      1771459153,
      1771459273,
      1771459273,
      1771459273,
      1771459573,
      1771459573,
      1771459573,
      1771459573,
      1771459573,
      1771459694,
      1771459694,
      1771459814,
      1771459814,
      1771459814,
      1771459814,
      1771459814,
      1771459994,
      1771459994,
      1771459994,
      1771459994,
      1771460114,
      1771460114,
      1771460114,
      1771460234,
      1771460234,
      1771460415,
      1771460415,
      1771460475,
      1771460475,
      1771460535,
      1771460535,
      1771460535,
      1771460535,
      1771460715,
      1771460715,
      1771460895,
      1771460895,
      1771460895,
      1771461015,
      1771461015,
      1771461136,
      1771461136,
      1771461136,
      1771461350,
      1771461376,
      1771461376,
      1771461436,
      1771461436,
      1771461470,
      1771461470,
      1771461496,
      1771461496,
      1771461676,
      1771461676,
      1771461857,
      1771461857,
      1771461977,
      1771461977,
      1771462071,
      1771462071,
      1771462071,
      1771462312,
      1771462312,
      1771462312,
      1771462312,
      1771462492,
      1771462492,
      1771462492,
      1771462492,
      1771462492,
      1771462912,
      1771462912,
      1771462912,
      1771462973,
      1771462973,
      1771463093,
      1771463093,
      1771463093,
      1771463213,
      1771463213,
      1771463273,
      1771463273,
      1771463333,
      1771463333,
      1771463333,
      1771463513,
      1771463513,
      1771463573,
      1771463573,
      1771463573,
      1771463573,
      1771463573,
      1771463808,
      1771463808,
      1771463868,
      1771463868,
      1771463868,
      1771463994,
      1771464054,
      1771464106,
      1771464114,
      1771464114,
      1771464114,
      1771464166,
      1771464166,
      1771464226,
      1771464226,
      1771464234,
      1771464234,
      1771464286,
      1771464286,
      1771464295,
      1771464295,
      1771464355,
      1771464355,
      1771464466,
      1771464647,
      1771464647,
      1771464647,
      1771464647,
      1771464707,
      1771464827,
      1771464827,
      1771464827,
      1771464827,
      1771464827,
      1771465308,
      1771465308,
      1771465308,
      1771465368,
      1771465368,
      1771465368,
      1771465608,
      1771465608,
      1771465668,
      1771465668,
      1771465668,
      1771465728,
      1771465728,
      1771465766,
      1771465788,
      1771465886,
      1771466006,
      1771466120,
      1771466120,
      1771466149,
      1771466269,
      1771466294,
      1771466294,
      1771466294,
      1771466354,
      1771466354,
      1771466389,
      1771466389,
      1771466420,
      1771466420,
      1771466449,
      1771466480,
      1771466509,
      1771466534,
      1771466534,
      1771466600,
      1771466600,
      1771466600,
      1771466600,
      1771466666,
      1771466666,
      1771466690,
      1771466714,
      1771466870,
      1771466870,
      1771466870,
      1771466870
    ],
    "wof:geomhash": "2c8b07e1acf4ac614063af74a4ea0ef2",
    "wof:id": 2014825427,
    "wof:repo": "sfomuseum-data-flights-2026-02"
  },
  "bbox": [
    -122.5,
    36.32916666666667,
    -75.26888888888888,
    40.30361111111111
  ],
  "geometry": {"coordinates":[[-122.36666666666666,37.63333333333333],[-122.36666666666666,37.63333333333333],[-122.36666666666666,37.63333333333333],[-122.36666666666666,37.63333333333333],[-122.36666666666666,37.63333333333333],[-122.39,37.713055555555556],[-122.39,37.713055555555556],[-122.43333333333334,37.733333333333334],[-122.43333333333334,37.733333333333334],[-122.43333333333334,37.733333333333334],[-122.47027777777778,37.72694444444445],[-122.47027777777778,37.72694444444445],[-122.47027777777778,37.72694444444445],[-122.47027777777778,37.72694444444445],[-122.5,37.7],[-122.41666666666667,37.55],[-122.41666666666667,37.55],[-122.39694444444446,37.52305555555555],[-122.26388888888889,37.42972222222222],[-122.26388888888889,37.42972222222222],[-122.00027777777778,37.37222222222222],[-122.00027777777778,37.37222222222222],[-121.64277777777778,37.29833333333333],[-121.64277777777778,37.29833333333333],[-121.5,37.26361111111111],[-121.5,37.26361111111111],[-121.47027777777778,37.260555555555555],[-121.47027777777778,37.260555555555555],[-121.29555555555555,37.221944444444446],[-121.11416666666666,37.18138888888889],[-120.93166666666667,37.14055555555556],[-120.93166666666667,37.14055555555556],[-120.93166666666667,37.14055555555556],[-119.97472222222223,36.91972222222222],[-119.97472222222223,36.91972222222222],[-119.97472222222223,36.91972222222222],[-119.97472222222223,36.91972222222222],[-119.65305555555557,36.97694444444445],[-119.28527777777778,37.044444444444444],[-119.24805555555555,37.05638888888888],[-119.24805555555555,37.05638888888888],[-119.24805555555555,37.05638888888888],[-118.75861111111111,37.25861111111111],[-118.75861111111111,37.25861111111111],[-118.75861111111111,37.25861111111111],[-118.75861111111111,37.25861111111111],[-118.61194444444443,37.28472222222222],[-118.43722222222223,37.29861111111111],[-118.43722222222223,37.29861111111111],[-118.06555555555555,37.325833333333335],[-118.06555555555555,37.325833333333335],[-118.06555555555555,37.325833333333335],[-118.0286111111111,37.328611111111115],[-118.0286111111111,37.328611111111115],[-117.88111111111111,37.33916666666667],[-117.88111111111111,37.33916666666667],[-117.88111111111111,37.33916666666667],[-117.65861111111111,37.35472222222222],[-117.51166666666667,37.36472222222223],[-117.32666666666667,37.37083333333334],[-117.32666666666667,37.37083333333334],[-117.18277777777779,37.28805555555555],[-117.05749999999999,37.15],[-117.05749999999999,37.15],[-116.97611111111111,37.05888888888889],[-116.95611111111111,37.03638888888889],[-116.95611111111111,37.03638888888889],[-116.95611111111111,37.03638888888889],[-116.57222222222222,36.72527777777778],[-116.57222222222222,36.72527777777778],[-116.57222222222222,36.72527777777778],[-116.4075,36.653055555555554],[-116.4075,36.653055555555554],[-116.2713888888889,36.594166666666666],[-116.2713888888889,36.594166666666666],[-116.2713888888889,36.594166666666666],[-115.93694444444445,36.4475],[-115.93694444444445,36.4475],[-115.76694444444445,36.3725],[-115.76694444444445,36.3725],[-115.57888888888888,36.32916666666667],[-115.57888888888888,36.32916666666667],[-114.78527777777778,36.375277777777775],[-114.78527777777778,36.375277777777775],[-114.78527777777778,36.375277777777775],[-114.78527777777778,36.375277777777775],[-114.59138888888889,36.38611111111111],[-114.59138888888889,36.38611111111111],[-114.59138888888889,36.38611111111111],[-114.39750000000001,36.39666666666667],[-114.39750000000001,36.39666666666667],[-114.39750000000001,36.39666666666667],[-113.01805555555555,36.46194444444445],[-113.01805555555555,36.46194444444445],[-113.01805555555555,36.46194444444445],[-113.01805555555555,36.46194444444445],[-113.01805555555555,36.46194444444445],[-113.01805555555555,36.46194444444445],[-112.51888888888888,36.48166666666667],[-112.51888888888888,36.48166666666667],[-112.43861111111111,36.484722222222224],[-112.43861111111111,36.484722222222224],[-112.32305555555556,36.48888888888889],[-112.32305555555556,36.48888888888889],[-112.32305555555556,36.48888888888889],[-112.32305555555556,36.48888888888889],[-111.66611111111112,36.515277777777776],[-111.66611111111112,36.515277777777776],[-111.55166666666666,36.52055555555555],[-111.55166666666666,36.52055555555555],[-111.55166666666666,36.52055555555555],[-111.55166666666666,36.52055555555555],[-111.47555555555556,36.52361111111111],[-111.47555555555556,36.52361111111111],[-111.47555555555556,36.52361111111111],[-110.97805555555556,36.54361111111111],[-110.97805555555556,36.54361111111111],[-110.97805555555556,36.54361111111111],[-110.97805555555556,36.54361111111111],[-110.5925,36.55777777777777],[-110.5925,36.55777777777777],[-110.5925,36.55777777777777],[-110.5925,36.55777777777777],[-110.00611111111111,36.55638888888888],[-110.00611111111111,36.55638888888888],[-110.00611111111111,36.55638888888888],[-109.80583333333333,36.551944444444445],[-109.80583333333333,36.551944444444445],[-109.80583333333333,36.551944444444445],[-109.60777777777777,36.54666666666667],[-109.60777777777777,36.54666666666667],[-109.40916666666668,36.54138888888889],[-109.40916666666668,36.54138888888889],[-109.40916666666668,36.54138888888889],[-109.01305555555555,36.52916666666667],[-109.01305555555555,36.52916666666667],[-109.01305555555555,36.52916666666667],[-108.81555555555555,36.52305555555555],[-108.81555555555555,36.52305555555555],[-108.81555555555555,36.52305555555555],[-108.81555555555555,36.52305555555555],[-108.41888888888889,36.509166666666665],[-108.41888888888889,36.509166666666665],[-108.41888888888889,36.509166666666665],[-108.41888888888889,36.509166666666665],[-108.41888888888889,36.509166666666665],[-108.21861111111112,36.50194444444445],[-108.21861111111112,36.50194444444445],[-108.0225,36.49388888888889],[-108.0225,36.49388888888889],[-108.0225,36.49388888888889],[-108.0225,36.49388888888889],[-107.62694444444443,36.47777777777778],[-107.62694444444443,36.47777777777778],[-107.62694444444443,36.47777777777778],[-107.43222222222222,36.469166666666666],[-107.43222222222222,36.469166666666666],[-107.23527777777778,36.464444444444446],[-107.23527777777778,36.464444444444446],[-107.23527777777778,36.464444444444446],[-107.03527777777778,36.468333333333334],[-107.03527777777778,36.468333333333334],[-107.03527777777778,36.468333333333334],[-106.43388888888889,36.478611111111114],[-106.43388888888889,36.478611111111114],[-106.43388888888889,36.478611111111114],[-106.43388888888889,36.478611111111114],[-106.43388888888889,36.478611111111114],[-106.23083333333334,36.48166666666667],[-106.23083333333334,36.48166666666667],[-106.23083333333334,36.48166666666667],[-106.02361111111111,36.48388888888889],[-106.02361111111111,36.48388888888889],[-105.63666666666667,36.487500000000004],[-105.63666666666667,36.487500000000004],[-105.63666666666667,36.487500000000004],[-105.43472222222222,36.489444444444445],[-105.43472222222222,36.489444444444445],[-105.43472222222222,36.489444444444445],[-105.43472222222222,36.489444444444445],[-105.02694444444444,36.490833333333335],[-105.02694444444444,36.490833333333335],[-105.02694444444444,36.490833333333335],[-104.86361111111111,36.49166666666667],[-104.81972222222223,36.49472222222222],[-104.62944444444443,36.50527777777778],[-104.62944444444443,36.50527777777778],[-104.62944444444443,36.50527777777778],[-104.45666666666666,36.51444444444444],[-104.45666666666666,36.51444444444444],[-104.45666666666666,36.51444444444444],[-104.42666666666668,36.51638888888889],[-104.25555555555556,36.524166666666666],[-104.25555555555556,36.524166666666666],[-104.25555555555556,36.524166666666666],[-103.85249999999999,36.54694444444444],[-103.82666666666667,36.547777777777775],[-103.82666666666667,36.547777777777775],[-103.82666666666667,36.547777777777775],[-103.82666666666667,36.547777777777775],[-103.65138888888889,36.55611111111111],[-103.65138888888889,36.55611111111111],[-103.45194444444445,36.565555555555555],[-103.45194444444445,36.565555555555555],[-103.42861111111111,36.56666666666667],[-103.42861111111111,36.56666666666667],[-103.25833333333334,36.57416666666667],[-103.25833333333334,36.57416666666667],[-103.25833333333334,36.57416666666667],[-103.25833333333334,36.57416666666667],[-103.035,36.58416666666667],[-103.035,36.58416666666667],[-103.035,36.58416666666667],[-102.66361111111112,36.59916666666667],[-102.66361111111112,36.59916666666667],[-102.4625,36.60722222222223],[-102.42027777777778,36.60888888888889],[-102.42027777777778,36.60888888888889],[-102.42027777777778,36.60888888888889],[-102.06805555555555,36.62111111111111],[-102.06805555555555,36.62111111111111],[-102.0286111111111,36.6225],[-102.0286111111111,36.6225],[-102.0286111111111,36.6225],[-102.0286111111111,36.6225],[-101.47472222222223,36.64055555555556],[-101.47472222222223,36.64055555555556],[-101.47472222222223,36.64055555555556],[-101.47472222222223,36.64055555555556],[-101.43527777777778,36.641666666666666],[-101.43527777777778,36.641666666666666],[-101.23444444444445,36.64722222222222],[-101.07583333333334,36.651666666666664],[-101.07583333333334,36.651666666666664],[-100.87527777777777,36.656388888888884],[-100.87527777777777,36.656388888888884],[-100.83749999999999,36.6575],[-100.83749999999999,36.6575],[-100.67694444444444,36.66166666666666],[-100.67694444444444,36.66166666666666],[-100.67694444444444,36.66166666666666],[-100.4363888888889,36.666666666666664],[-100.4363888888889,36.666666666666664],[-100.4363888888889,36.666666666666664],[-100.28999999999999,36.669444444444444],[-100.23111111111112,36.670833333333334],[-100.08444444444444,36.67333333333333],[-100.08444444444444,36.67333333333333],[-100.08444444444444,36.67333333333333],[-100.08444444444444,36.67333333333333],[-99.88166666666666,36.676944444444445],[-99.88166666666666,36.676944444444445],[-99.67611111111111,36.68],[-99.67611111111111,36.68],[-99.47194444444445,36.68277777777777],[-99.47194444444445,36.68277777777777],[-99.26333333333334,36.68527777777778],[-99.26333333333334,36.68527777777778],[-99.26333333333334,36.68527777777778],[-99.26333333333334,36.68527777777778],[-99.26333333333334,36.68527777777778],[-99.06,36.6875],[-99.06,36.6875],[-98.23,36.69222222222222],[-98.23,36.69222222222222],[-98.23,36.69222222222222],[-97.81805555555555,36.692499999999995],[-97.81805555555555,36.692499999999995],[-97.81805555555555,36.692499999999995],[-97.81805555555555,36.692499999999995],[-97.81805555555555,36.692499999999995],[-97.81805555555555,36.692499999999995],[-97.21972222222223,36.69027777777777],[-96.79694444444445,36.68666666666666],[-96.79694444444445,36.68666666666666],[-96.79694444444445,36.68666666666666],[-95.78583333333333,36.6725],[-95.78583333333333,36.6725],[-95.78583333333333,36.6725],[-95.78583333333333,36.6725],[-95.78583333333333,36.6725],[-95.41666666666667,36.68555555555555],[-95.41666666666667,36.68555555555555],[-95.02444444444444,36.76888888888889],[-95.02444444444444,36.76888888888889],[-95.02444444444444,36.76888888888889],[-95.02444444444444,36.76888888888889],[-95.02444444444444,36.76888888888889],[-94.42972222222222,36.89277777777778],[-94.42972222222222,36.89277777777778],[-94.42972222222222,36.89277777777778],[-94.42972222222222,36.89277777777778],[-94.03527777777778,36.973055555555554],[-94.03527777777778,36.973055555555554],[-94.03527777777778,36.973055555555554],[-93.6236111111111,37.05583333333333],[-93.6236111111111,37.05583333333333],[-93.02638888888889,37.17194444444444],[-93.02638888888889,37.17194444444444],[-92.82944444444443,37.21027777777778],[-92.82944444444443,37.21027777777778],[-92.63472222222222,37.246944444444445],[-92.63472222222222,37.246944444444445],[-92.63472222222222,37.246944444444445],[-92.63472222222222,37.246944444444445],[-92.04416666666667,37.356944444444444],[-92.04416666666667,37.356944444444444],[-91.45333333333333,37.46333333333334],[-91.45333333333333,37.46333333333334],[-91.45333333333333,37.46333333333334],[-91.05833333333334,37.53333333333333],[-91.05833333333334,37.53333333333333],[-90.68833333333333,37.596944444444446],[-90.68833333333333,37.596944444444446],[-90.68833333333333,37.596944444444446],[-89.98416666666667,37.70194444444445],[-89.9025,37.71027777777778],[-89.9025,37.71027777777778],[-89.7038888888889,37.73166666666667],[-89.7038888888889,37.73166666666667],[-89.59194444444444,37.743611111111115],[-89.59194444444444,37.743611111111115],[-89.50444444444445,37.753055555555555],[-89.50444444444445,37.753055555555555],[-88.89583333333334,37.81638888888889],[-88.89583333333334,37.81638888888889],[-88.28333333333333,37.86888888888889],[-88.28333333333333,37.86888888888889],[-87.87666666666667,37.875277777777775],[-87.87666666666667,37.875277777777775],[-87.55083333333333,37.87972222222222],[-87.55083333333333,37.87972222222222],[-87.55083333333333,37.87972222222222],[-86.74888888888889,38.07694444444445],[-86.74888888888889,38.07694444444445],[-86.74888888888889,38.07694444444445],[-86.74888888888889,38.07694444444445],[-86.18166666666667,38.26083333333333],[-86.18166666666667,38.26083333333333],[-86.18166666666667,38.26083333333333],[-86.18166666666667,38.26083333333333],[-86.18166666666667,38.26083333333333],[-84.85222222222221,38.67638888888889],[-84.85222222222221,38.67638888888889],[-84.85222222222221,38.67638888888889],[-84.6613888888889,38.73444444444444],[-84.6613888888889,38.73444444444444],[-84.28111111111112,38.848888888888894],[-84.28111111111112,38.848888888888894],[-84.28111111111112,38.848888888888894],[-83.89944444444446,38.96222222222222],[-83.89944444444446,38.96222222222222],[-83.71055555555556,39.01777777777777],[-83.71055555555556,39.01777777777777],[-83.52,39.073055555555555],[-83.52,39.073055555555555],[-83.52,39.073055555555555],[-82.93222222222222,39.242222222222225],[-82.93222222222222,39.242222222222225],[-82.74416666666667,39.29527777777778],[-82.74416666666667,39.29527777777778],[-82.74416666666667,39.29527777777778],[-82.74416666666667,39.29527777777778],[-82.74416666666667,39.29527777777778],[-82.00611111111111,39.50055555555556],[-82.00611111111111,39.50055555555556],[-81.81583333333333,39.55277777777778],[-81.81583333333333,39.55277777777778],[-81.81583333333333,39.55277777777778],[-81.41305555555556,39.66138888888889],[-81.22416666666666,39.71194444444445],[-81.08027777777778,39.74861111111111],[-81.03027777777778,39.76305555555555],[-81.03027777777778,39.76305555555555],[-81.03027777777778,39.76305555555555],[-80.88916666666667,39.79861111111111],[-80.88916666666667,39.79861111111111],[-80.69861111111112,39.84916666666667],[-80.69861111111112,39.84916666666667],[-80.64722222222223,39.86333333333334],[-80.64722222222223,39.86333333333334],[-80.50666666666666,39.89861111111111],[-80.50666666666666,39.89861111111111],[-80.45361111111112,39.913333333333334],[-80.45361111111112,39.913333333333334],[-80.25916666666667,39.96333333333334],[-80.25916666666667,39.96333333333334],[-79.92722222222223,40.04805555555556],[-79.325,40.150277777777774],[-79.325,40.150277777777774],[-79.325,40.150277777777774],[-79.325,40.150277777777774],[-79.08944444444444,40.17944444444444],[-78.67833333333334,40.22972222222222],[-78.67833333333334,40.22972222222222],[-78.67833333333334,40.22972222222222],[-78.67833333333334,40.22972222222222],[-78.67833333333334,40.22972222222222],[-77.15944444444445,40.30361111111111],[-77.15944444444445,40.30361111111111],[-77.15944444444445,40.30361111111111],[-76.99555555555555,40.28527777777778],[-76.99555555555555,40.28527777777778],[-76.99555555555555,40.28527777777778],[-76.4113888888889,40.14833333333333],[-76.4113888888889,40.14833333333333],[-76.28194444444445,40.12027777777778],[-76.28194444444445,40.12027777777778],[-76.28194444444445,40.12027777777778],[-76.14055555555557,40.109722222222224],[-76.14055555555557,40.109722222222224],[-76.05,40.1],[-76.01027777777777,40.10055555555556],[-75.81666666666666,40.083333333333336],[-75.6,40.083333333333336],[-75.41666666666667,40.03333333333333],[-75.41666666666667,40.03333333333333],[-75.39972222222222,40.000277777777775],[-75.48833333333333,39.909166666666664],[-75.51666666666667,39.9],[-75.51666666666667,39.9],[-75.51666666666667,39.9],[-75.56666666666666,39.9],[-75.56666666666666,39.9],[-75.60249999999999,39.88638888888889],[-75.60249999999999,39.88638888888889],[-75.63333333333334,39.88333333333333],[-75.63333333333334,39.88333333333333],[-75.65416666666667,39.87],[-75.65,39.85],[-75.63805555555557,39.821111111111115],[-75.61666666666666,39.8],[-75.61666666666666,39.8],[-75.53333333333333,39.8],[-75.53333333333333,39.8],[-75.53333333333333,39.8],[-75.53333333333333,39.8],[-75.46666666666667,39.81666666666667],[-75.46666666666667,39.81666666666667],[-75.43583333333333,39.828611111111115],[-75.4,39.833333333333336],[-75.26888888888888,39.86222222222222],[-75.26888888888888,39.86222222222222],[-75.26888888888888,39.86222222222222],[-75.26888888888888,39.86222222222222]],"type":"LineString"}
}
