{
  "id": 2014824611,
  "type": "Feature",
  "properties": {
    "geom:area": 0,
    "geom:bbox": "-122.760000,37.400000,-74.183333,45.867500",
    "geom:latitude": 43.068570532444454,
    "geom:longitude": -99.05482648603407,
    "src:alt_label": "swim-path",
    "src:geom": "swim",
    "swim:altitudes": [
      "006",
      "006",
      "006",
      "035",
      "035",
      "062",
      "062",
      "116",
      "116",
      "116",
      "116",
      "116",
      "156",
      "156",
      "175",
      "175",
      "175",
      "278",
      "313",
      "313",
      "320C",
      "320C",
      "320C",
      "320C",
      "320C",
      "320C",
      "320C",
      "320C",
      "320C",
      "320C",
      "320C",
      "320C",
      "320C",
      "320C",
      "320C",
      "320C",
      "320C",
      "320C",
      "320C",
      "320C",
      "320C",
      "320C",
      "320C",
      "320C",
      "320C",
      "320C",
      "320C",
      "320C",
      "320C",
      "320C",
      "320",
      "330",
      "340C",
      "340C",
      "340C",
      "338",
      "338",
      "338",
      "325",
      "325",
      "320C",
      "320C",
      "320C",
      "320C",
      "320C",
      "320C",
      "320C",
      "320C",
      "320C",
      "320C",
      "320C",
      "320C",
      "320C",
      "320C",
      "320C",
      "320C",
      "320C",
      "320C",
      "320C",
      "320C",
      "320C",
      "320C",
      "320C",
      "320C",
      "320C",
      "320C",
      "320C",
      "320C",
      "320C",
      "320C",
      "320C",
      "320C",
      "320C",
      "320C",
      "320C",
      "320C",
      "320C",
      "320C",
      "320C",
      "320C",
      "320C",
      "320C",
      "320C",
      "320C",
      "320C",
      "320C",
      "320C",
      "338C",
      "338C",
      "340C",
      "340C",
      "340C",
      "340C",
      "340C",
      "340C",
      "340C",
      "340C",
      "340C",
      "340C",
      "340C",
      "340C",
      "340C",
      "340C",
      "340C",
      "340C",
      "340C",
      "340C",
      "340C",
      "340C",
      "340C",
      "340C",
      "340C",
      "340C",
      "340C",
      "340C",
      "340C",
      "340C",
      "340C",
      "340C",
      "340C",
      "340C",
      "340C",
      "340C",
      "340C",
      "340C",
      "340C",
      "340C",
      "340C",
      "340C",
      "340C",
      "340C",
      "340C",
      "340C",
      "340C",
      "340C",
      "340C",
      "340C",
      "340C",
      "340C",
      "340C",
      "340C",
      "340C",
      "340C",
      "340C",
      "340C",
      "340C",
      "340C",
      "340C",
      "340C",
      "340C",
      "340C",
      "340C",
      "340C",
      "340C",
      "340C",
      "340C",
      "340C",
      "340C",
      "340C",
      "340C",
      "340C",
      "340C",
      "340C",
      "340C",
      "340C",
      "340C",
      "340C",
      "340C",
      "340C",
      "340C",
      "340C",
      "340C",
      "340C",
      "340C",
      "340C",
      "340C",
      "340C",
      "340C",
      "340C",
      "340C",
      "340C",
      "340C",
      "340C",
      "340C",
      "340C",
      "340C",
      "340C",
      "340C",
      "340C",
      "340C",
      "340C",
      "340C",
      "340C",
      "340C",
      "340C",
      "340C",
      "340C",
      "340C",
      "340C",
      "340C",
      "340C",
      "340C",
      "340C",
      "340C",
      "340C",
      "340C",
      "340C",
      "340C",
      "340C",
      "340C",
      "340C",
      "340C",
      "340C",
      "340C",
      "340C",
      "340C",
      "340C",
      "340C",
      "340C",
      "340C",
      "340C",
      "340C",
      "340C",
      "340C",
      "340C",
      "340C",
      "340C",
      "340C",
      "340C",
      "340C",
      "340C",
      "340C",
      "340C",
      "340C",
      "340C",
      "340C",
      "340C",
      "340C",
      "340C",
      "340C",
      "340C",
      "340C",
      "340C",
      "340C",
      "340C",
      "340C",
      "340C",
      "340C",
      "340C",
      "340C",
      "340C",
      "340C",
      "340C",
      "340C",
      "340C",
      "340C",
      "340C",
      "340C",
      "340C",
      "340C",
      "340C",
      "340C",
      "340C",
      "340C",
      "340C",
      "340C",
      "340C",
      "340C",
      "340C",
      "340C",
      "340C",
      "340C",
      "340C",
      "340C",
      "340C",
      "340C",
      "340C",
      "340C",
      "340C",
      "340C",
      "340C",
      "340C",
      "340C",
      "340C",
      "340C",
      "340C",
      "340C",
      "340C",
      "340C",
      "340C",
      "340C",
      "340C",
      "340C",
      "340C",
      "340C",
      "340C",
      "340C",
      "340C",
      "340C",
      "340C",
      "340C",
      "340C",
      "340C",
      "340C",
      "340C",
      "340C",
      "340C",
      "340C",
      "340C",
      "340C",
      "340C",
      "340C",
      "340C",
      "340C",
      "340C",
      "340C",
      "340C",
      "340C",
      "340C",
      "340C",
      "340C",
      "340C",
      "340C",
      "340C",
      "340C",
      "340C",
      "340C",
      "340C",
      "340C",
      "340C",
      "340C",
      "340C",
      "340C",
      "340C",
      "340C",
      "340C",
      "340C",
      "340C",
      "340C",
      "340C",
      "340C",
      "340C",
      "340C",
      "340C",
      "340C",
      "340C",
      "340C",
      "340C",
      "340C",
      "340C",
      "340C",
      "340C",
      "340C",
      "340C",
      "340C",
      "340C",
      "340C",
      "340C",
      "340C",
      "340C",
      "340C",
      "340C",
      "340C",
      "340C",
      "340C",
      "340C",
      "340C",
      "340C",
      "340C",
      "340C",
      "340C",
      "340C",
      "340C",
      "340C",
      "340C",
      "340C",
      "340C",
      "340C",
      "340C",
      "340C",
      "340C",
      "340C",
      "340C",
      "340C",
      "340C",
      "340C",
      "340C",
      "340C",
      "340C",
      "340C",
      "340C",
      "340C",
      "340C",
      "340C",
      "340C",
      "340C",
      "340C",
      "340C",
      "340C",
      "340C",
      "340C",
      "340C",
      "340C",
      "340C",
      "340C",
      "340C",
      "340C",
      "340C",
      "340C",
      "340C",
      "340C",
      "340C",
      "340C",
      "340C",
      "340C",
      "340C",
      "340C",
      "340C",
      "340C",
      "340C",
      "340C",
      "340C",
      "340C",
      "340C",
      "340C",
      "340C",
      "340C",
      "340C",
      "340C",
      "340C",
      "340C",
      "340C",
      "340C",
      "340C",
      "340C",
      "340C",
      "340C",
      "340C",
      "340C",
      "340C",
      "340C",
      "340C",
      "340C",
      "340C",
      "340C",
      "340C",
      "340C",
      "340C",
      "340C",
      "340C",
      "340C",
      "340C",
      "340C",
      "340C",
      "340C",
      "340C",
      "340C",
      "340C",
      "340C",
      "340C",
      "340C",
      "340C",
      "340C",
      "340C",
      "340C",
      "340C",
      "340C",
      "340C",
      "340C",
      "340C",
      "340C",
      "340C",
      "340C",
      "340C",
      "340C",
      "340C",
      "340C",
      "340C",
      "340C",
      "340C",
      "340C",
      "340C",
      "340C",
      "340C",
      "340C",
      "340C",
      "340C",
      "340C",
      "340C",
      "340C",
      "340C",
      "340C",
      "340C",
      "340C",
      "340C",
      "340C",
      "340C",
      "340C",
      "340C",
      "341C",
      "341C",
      "341C",
      "340C",
      "340C",
      "340C",
      "340C",
      "340C",
      "340C",
      "340C",
      "340C",
      "340C",
      "340C",
      "340C",
      "340C",
      "340C",
      "340C",
      "340C",
      "340C",
      "340C",
      "340C",
      "340C",
      "340C",
      "340C",
      "340C",
      "340C",
      "340C",
      "340C",
      "340C",
      "340C",
      "340C",
      "340C",
      "340C",
      "340C",
      "340C",
      "340C",
      "340C",
      "340C",
      "340C",
      "340C",
      "340C",
      "340C",
      "340C",
      "340C",
      "340C",
      "340C",
      "340C",
      "340C",
      "340C",
      "340C",
      "340C",
      "340C",
      "340C",
      "340C",
      "340C",
      "340C",
      "340C",
      "340C",
      "340C",
      "340C",
      "340C",
      "340C",
      "340C",
      "340C",
      "340C",
      "340C",
      "340C",
      "340C",
      "340C",
      "340C",
      "340C",
      "340C",
      "340C",
      "340C",
      "340C",
      "340C",
      "340C",
      "340C",
      "340C",
      "340C",
      "340C",
      "340C",
      "340C",
      "340C",
      "340C",
      "340C",
      "340C",
      "340C",
      "340C",
      "340C",
      "340C",
      "340C",
      "340C",
      "340C",
      "340C",
      "340C",
      "333",
      "333",
      "333",
      "333",
      "333",
      "323",
      "323",
      "323",
      "313",
      "313",
      "313",
      "292",
      "292",
      "292",
      "292",
      "292",
      "292",
      "292",
      "264",
      "264",
      "264",
      "264",
      "248",
      "248",
      "248",
      "248",
      "223",
      "223",
      "223",
      "202",
      "202",
      "202",
      "202",
      "147",
      "147",
      "147",
      "147",
      "139",
      "139",
      "139",
      "139",
      "139",
      "139",
      "129",
      "129",
      "129",
      "114",
      "114",
      "114",
      "114",
      "110",
      "110",
      "098",
      "098",
      "098",
      "098",
      "098",
      "098",
      "083",
      "083",
      "083",
      "069",
      "069",
      "069",
      "062",
      "062",
      "056",
      "056",
      "056",
      "050",
      "050",
      "050",
      "043",
      "043",
      "040",
      "040",
      "040",
      "030",
      "030",
      "030",
      "026",
      "026",
      "026",
      "026",
      "026",
      "026",
      "026",
      "026",
      "022",
      "022",
      "022"
    ],
    "swim:geom": "path",
    "swim:speeds": [
      187,
      187,
      187,
      245,
      245,
      267,
      267,
      284,
      284,
      284,
      284,
      284,
      398,
      398,
      403,
      403,
      403,
      393,
      359,
      359,
      357,
      357,
      356,
      357,
      357,
      357,
      357,
      357,
      360,
      360,
      360,
      361,
      361,
      361,
      362,
      362,
      362,
      363,
      363,
      363,
      364,
      363,
      363,
      363,
      362,
      362,
      361,
      361,
      361,
      361,
      364,
      368,
      358,
      345,
      344,
      344,
      344,
      344,
      363,
      363,
      370,
      370,
      370,
      372,
      372,
      374,
      375,
      375,
      375,
      375,
      375,
      375,
      375,
      376,
      376,
      377,
      377,
      377,
      374,
      375,
      375,
      375,
      376,
      376,
      381,
      381,
      383,
      383,
      383,
      388,
      388,
      390,
      390,
      392,
      394,
      394,
      394,
      392,
      392,
      392,
      392,
      395,
      399,
      401,
      405,
      405,
      408,
      403,
      403,
      405,
      408,
      410,
      410,
      399,
      406,
      406,
      411,
      411,
      417,
      427,
      432,
      442,
      442,
      450,
      450,
      458,
      458,
      459,
      459,
      458,
      458,
      458,
      459,
      459,
      459,
      459,
      459,
      459,
      451,
      451,
      451,
      450,
      450,
      450,
      450,
      450,
      463,
      463,
      463,
      463,
      463,
      462,
      462,
      462,
      458,
      458,
      458,
      458,
      458,
      458,
      453,
      453,
      453,
      453,
      453,
      453,
      454,
      454,
      454,
      454,
      455,
      455,
      455,
      454,
      454,
      454,
      453,
      453,
      453,
      453,
      455,
      455,
      455,
      456,
      456,
      456,
      456,
      456,
      456,
      456,
      456,
      456,
      453,
      453,
      453,
      453,
      453,
      453,
      453,
      453,
      452,
      452,
      452,
      452,
      452,
      452,
      452,
      452,
      452,
      456,
      456,
      456,
      456,
      459,
      459,
      459,
      459,
      459,
      459,
      458,
      458,
      458,
      452,
      451,
      451,
      449,
      449,
      449,
      451,
      451,
      451,
      451,
      455,
      455,
      455,
      455,
      456,
      456,
      456,
      456,
      455,
      455,
      455,
      455,
      455,
      455,
      453,
      453,
      452,
      452,
      452,
      451,
      450,
      449,
      448,
      448,
      448,
      448,
      448,
      448,
      448,
      448,
      448,
      448,
      449,
      449,
      450,
      450,
      450,
      451,
      451,
      451,
      451,
      450,
      446,
      446,
      446,
      445,
      445,
      445,
      443,
      443,
      443,
      443,
      442,
      440,
      439,
      439,
      439,
      437,
      437,
      437,
      437,
      436,
      436,
      436,
      436,
      436,
      436,
      436,
      435,
      434,
      435,
      435,
      435,
      435,
      437,
      437,
      437,
      437,
      435,
      435,
      435,
      434,
      434,
      434,
      438,
      439,
      439,
      439,
      447,
      447,
      447,
      447,
      444,
      444,
      440,
      440,
      440,
      440,
      440,
      437,
      437,
      437,
      437,
      437,
      434,
      434,
      434,
      433,
      433,
      432,
      432,
      431,
      431,
      431,
      431,
      431,
      430,
      430,
      430,
      430,
      430,
      429,
      429,
      418,
      418,
      418,
      418,
      418,
      418,
      418,
      418,
      418,
      418,
      418,
      419,
      419,
      419,
      419,
      419,
      419,
      419,
      422,
      422,
      422,
      422,
      422,
      430,
      430,
      434,
      434,
      434,
      434,
      428,
      428,
      428,
      428,
      428,
      424,
      424,
      424,
      423,
      423,
      423,
      423,
      423,
      423,
      423,
      423,
      423,
      424,
      424,
      424,
      424,
      429,
      429,
      429,
      429,
      429,
      429,
      433,
      433,
      433,
      433,
      433,
      433,
      433,
      433,
      431,
      431,
      431,
      430,
      430,
      430,
      430,
      430,
      430,
      430,
      433,
      433,
      433,
      433,
      434,
      434,
      434,
      434,
      434,
      434,
      434,
      428,
      428,
      428,
      428,
      428,
      429,
      429,
      429,
      429,
      429,
      429,
      429,
      429,
      431,
      431,
      431,
      431,
      431,
      431,
      431,
      431,
      431,
      431,
      431,
      433,
      433,
      433,
      433,
      433,
      434,
      434,
      437,
      437,
      433,
      433,
      435,
      435,
      435,
      435,
      435,
      431,
      431,
      431,
      430,
      430,
      430,
      430,
      430,
      430,
      430,
      432,
      432,
      432,
      432,
      432,
      435,
      435,
      435,
      435,
      435,
      435,
      435,
      435,
      435,
      435,
      436,
      436,
      436,
      436,
      436,
      436,
      433,
      433,
      433,
      432,
      432,
      432,
      431,
      431,
      431,
      431,
      431,
      431,
      431,
      431,
      431,
      431,
      413,
      413,
      414,
      414,
      414,
      414,
      414,
      414,
      414,
      415,
      415,
      423,
      423,
      423,
      423,
      423,
      423,
      423,
      413,
      413,
      413,
      413,
      413,
      413,
      418,
      418,
      418,
      418,
      418,
      418,
      423,
      424,
      424,
      424,
      424,
      424,
      424,
      424,
      424,
      422,
      422,
      425,
      425,
      425,
      421,
      421,
      421,
      421,
      421,
      418,
      418,
      418,
      418,
      418,
      418,
      423,
      423,
      423,
      423,
      419,
      419,
      419,
      416,
      416,
      416,
      416,
      416,
      416,
      416,
      410,
      410,
      410,
      407,
      407,
      407,
      407,
      407,
      386,
      386,
      386,
      386,
      386,
      389,
      389,
      389,
      389,
      389,
      389,
      431,
      431,
      431,
      431,
      431,
      432,
      432,
      432,
      427,
      427,
      427,
      418,
      418,
      418,
      418,
      418,
      418,
      418,
      399,
      399,
      399,
      399,
      401,
      401,
      401,
      401,
      387,
      387,
      387,
      384,
      384,
      384,
      384,
      373,
      373,
      373,
      373,
      366,
      366,
      366,
      366,
      366,
      366,
      289,
      289,
      289,
      275,
      275,
      275,
      275,
      279,
      279,
      257,
      257,
      257,
      257,
      257,
      257,
      245,
      245,
      245,
      240,
      240,
      240,
      243,
      243,
      205,
      205,
      205,
      202,
      202,
      193,
      180,
      180,
      174,
      174,
      174,
      172,
      172,
      172,
      154,
      154,
      154,
      154,
      154,
      154,
      154,
      154,
      156,
      156,
      156
    ],
    "swim:timestamps": [
      1771412946,
      1771412946,
      1771412946,
      1771413067,
      1771413067,
      1771413127,
      1771413127,
      1771413307,
      1771413307,
      1771413307,
      1771413307,
      1771413307,
      1771413488,
      1771413488,
      1771413548,
      1771413548,
      1771413548,
      1771413968,
      1771414088,
      1771414088,
      1771414148,
      1771414148,
      1771414196,
      1771414256,
      1771414256,
      1771414256,
      1771414256,
      1771414269,
      1771414449,
      1771414449,
      1771414449,
      1771414509,
      1771414509,
      1771414509,
      1771414557,
      1771414557,
      1771414569,
      1771414689,
      1771414689,
      1771414749,
      1771414797,
      1771414869,
      1771414869,
      1771414918,
      1771414978,
      1771414978,
      1771415038,
      1771415038,
      1771415050,
      1771415050,
      1771415158,
      1771415230,
      1771415290,
      1771415338,
      1771415350,
      1771415398,
      1771415398,
      1771415398,
      1771415458,
      1771415458,
      1771415518,
      1771415518,
      1771415518,
      1771415639,
      1771415639,
      1771415759,
      1771415819,
      1771415819,
      1771415879,
      1771415879,
      1771415879,
      1771415879,
      1771415879,
      1771415999,
      1771415999,
      1771416119,
      1771416119,
      1771416119,
      1771416297,
      1771416357,
      1771416357,
      1771416357,
      1771416417,
      1771416417,
      1771416657,
      1771416657,
      1771416717,
      1771416717,
      1771416717,
      1771416958,
      1771416958,
      1771417078,
      1771417078,
      1771417378,
      1771417438,
      1771417438,
      1771417438,
      1771417460,
      1771417460,
      1771417460,
      1771417460,
      1771417498,
      1771417521,
      1771417559,
      1771417619,
      1771417619,
      1771417679,
      1771417820,
      1771417820,
      1771417894,
      1771417953,
      1771418014,
      1771418014,
      1771418373,
      1771418493,
      1771418493,
      1771418613,
      1771418613,
      1771418748,
      1771418853,
      1771418973,
      1771419274,
      1771419274,
      1771419454,
      1771419454,
      1771419574,
      1771419574,
      1771419634,
      1771419634,
      1771419754,
      1771419754,
      1771419754,
      1771419814,
      1771419814,
      1771420114,
      1771420114,
      1771420114,
      1771420114,
      1771420355,
      1771420355,
      1771420355,
      1771420415,
      1771420415,
      1771420415,
      1771420415,
      1771420415,
      1771420715,
      1771420715,
      1771420715,
      1771420715,
      1771420715,
      1771421015,
      1771421015,
      1771421015,
      1771421195,
      1771421195,
      1771421195,
      1771421195,
      1771421195,
      1771421195,
      1771421616,
      1771421616,
      1771421616,
      1771421616,
      1771421616,
      1771421616,
      1771421736,
      1771421736,
      1771421736,
      1771421736,
      1771421796,
      1771421796,
      1771421796,
      1771421916,
      1771421916,
      1771421916,
      1771422036,
      1771422036,
      1771422096,
      1771422096,
      1771422217,
      1771422217,
      1771422217,
      1771422277,
      1771422277,
      1771422277,
      1771422337,
      1771422337,
      1771422457,
      1771422457,
      1771422457,
      1771422457,
      1771422577,
      1771422577,
      1771422577,
      1771422577,
      1771422577,
      1771422577,
      1771422577,
      1771422577,
      1771422877,
      1771422877,
      1771422877,
      1771422937,
      1771422937,
      1771422937,
      1771422937,
      1771422937,
      1771422937,
      1771423178,
      1771423178,
      1771423178,
      1771423178,
      1771423418,
      1771423418,
      1771423418,
      1771423418,
      1771423418,
      1771423418,
      1771423538,
      1771423538,
      1771423538,
      1771423658,
      1771423692,
      1771423692,
      1771423699,
      1771423699,
      1771423699,
      1771423718,
      1771423718,
      1771423718,
      1771423718,
      1771423898,
      1771423898,
      1771423959,
      1771423959,
      1771423992,
      1771423992,
      1771423992,
      1771423992,
      1771424079,
      1771424079,
      1771424079,
      1771424112,
      1771424112,
      1771424112,
      1771424259,
      1771424259,
      1771424319,
      1771424319,
      1771424319,
      1771424353,
      1771424413,
      1771424439,
      1771424480,
      1771424499,
      1771424499,
      1771424499,
      1771424499,
      1771424499,
      1771424533,
      1771424559,
      1771424559,
      1771424559,
      1771424619,
      1771424619,
      1771424679,
      1771424679,
      1771424679,
      1771424739,
      1771424739,
      1771424739,
      1771424739,
      1771424780,
      1771424840,
      1771424840,
      1771424840,
      1771424900,
      1771424900,
      1771424900,
      1771424960,
      1771424960,
      1771424980,
      1771424980,
      1771425013,
      1771425073,
      1771425081,
      1771425081,
      1771425100,
      1771425134,
      1771425134,
      1771425134,
      1771425141,
      1771425160,
      1771425160,
      1771425160,
      1771425194,
      1771425201,
      1771425201,
      1771425201,
      1771425261,
      1771425314,
      1771425374,
      1771425374,
      1771425374,
      1771425374,
      1771425441,
      1771425441,
      1771425494,
      1771425494,
      1771425561,
      1771425561,
      1771425561,
      1771425614,
      1771425614,
      1771425621,
      1771425734,
      1771425741,
      1771425741,
      1771425741,
      1771425794,
      1771425794,
      1771425794,
      1771425794,
      1771425975,
      1771425975,
      1771426035,
      1771426035,
      1771426035,
      1771426035,
      1771426042,
      1771426095,
      1771426095,
      1771426102,
      1771426102,
      1771426102,
      1771426215,
      1771426215,
      1771426215,
      1771426282,
      1771426282,
      1771426335,
      1771426335,
      1771426395,
      1771426395,
      1771426395,
      1771426395,
      1771426395,
      1771426455,
      1771426455,
      1771426462,
      1771426462,
      1771426462,
      1771426515,
      1771426515,
      1771426823,
      1771426823,
      1771426823,
      1771426823,
      1771426883,
      1771426883,
      1771426883,
      1771426883,
      1771426883,
      1771426883,
      1771426883,
      1771427063,
      1771427063,
      1771427063,
      1771427063,
      1771427063,
      1771427063,
      1771427063,
      1771427123,
      1771427123,
      1771427123,
      1771427123,
      1771427123,
      1771427183,
      1771427183,
      1771427243,
      1771427243,
      1771427243,
      1771427243,
      1771427303,
      1771427303,
      1771427303,
      1771427303,
      1771427303,
      1771427364,
      1771427364,
      1771427364,
      1771427424,
      1771427424,
      1771427424,
      1771427424,
      1771427424,
      1771427484,
      1771427484,
      1771427484,
      1771427484,
      1771427544,
      1771427544,
      1771427544,
      1771427544,
      1771427664,
      1771427664,
      1771427664,
      1771427664,
      1771427664,
      1771427664,
      1771427904,
      1771427904,
      1771427904,
      1771427904,
      1771427904,
      1771427904,
      1771427904,
      1771427904,
      1771428024,
      1771428024,
      1771428024,
      1771428145,
      1771428145,
      1771428145,
      1771428145,
      1771428145,
      1771428145,
      1771428145,
      1771428325,
      1771428325,
      1771428325,
      1771428325,
      1771428445,
      1771428445,
      1771428445,
      1771428445,
      1771428445,
      1771428445,
      1771428445,
      1771428625,
      1771428625,
      1771428625,
      1771428625,
      1771428625,
      1771428745,
      1771428745,
      1771428745,
      1771428745,
      1771428745,
      1771428745,
      1771428745,
      1771428745,
      1771429046,
      1771429046,
      1771429046,
      1771429046,
      1771429046,
      1771429106,
      1771429106,
      1771429106,
      1771429106,
      1771429106,
      1771429106,
      1771429226,
      1771429226,
      1771429226,
      1771429226,
      1771429226,
      1771429286,
      1771429286,
      1771429325,
      1771429325,
      1771429346,
      1771429346,
      1771429385,
      1771429385,
      1771429385,
      1771429385,
      1771429385,
      1771429565,
      1771429565,
      1771429565,
      1771429587,
      1771429587,
      1771429587,
      1771429587,
      1771429587,
      1771429587,
      1771429587,
      1771429767,
      1771429767,
      1771429767,
      1771429767,
      1771429767,
      1771429887,
      1771429887,
      1771429887,
      1771429887,
      1771429947,
      1771429947,
      1771429947,
      1771429947,
      1771429947,
      1771429947,
      1771430007,
      1771430007,
      1771430007,
      1771430007,
      1771430007,
      1771430007,
      1771430247,
      1771430247,
      1771430247,
      1771430286,
      1771430286,
      1771430286,
      1771430308,
      1771430308,
      1771430346,
      1771430346,
      1771430346,
      1771430368,
      1771430368,
      1771430368,
      1771430368,
      1771430368,
      1771430466,
      1771430466,
      1771430548,
      1771430548,
      1771430548,
      1771430548,
      1771430586,
      1771430586,
      1771430586,
      1771430608,
      1771430608,
      1771430646,
      1771430646,
      1771430646,
      1771430646,
      1771430668,
      1771430668,
      1771430668,
      1771430826,
      1771430826,
      1771430826,
      1771430826,
      1771430826,
      1771430826,
      1771430908,
      1771430908,
      1771430908,
      1771430908,
      1771430908,
      1771430908,
      1771431007,
      1771431028,
      1771431028,
      1771431028,
      1771431067,
      1771431067,
      1771431067,
      1771431089,
      1771431089,
      1771431127,
      1771431127,
      1771431209,
      1771431209,
      1771431209,
      1771431269,
      1771431269,
      1771431269,
      1771431269,
      1771431269,
      1771431427,
      1771431427,
      1771431427,
      1771431427,
      1771431427,
      1771431427,
      1771431607,
      1771431607,
      1771431607,
      1771431607,
      1771431727,
      1771431727,
      1771431727,
      1771431788,
      1771431788,
      1771431788,
      1771431788,
      1771431788,
      1771431788,
      1771431788,
      1771431908,
      1771431908,
      1771431908,
      1771431968,
      1771431968,
      1771431968,
      1771431968,
      1771431968,
      1771432088,
      1771432088,
      1771432088,
      1771432088,
      1771432088,
      1771432268,
      1771432268,
      1771432268,
      1771432268,
      1771432268,
      1771432268,
      1771432388,
      1771432388,
      1771432388,
      1771432388,
      1771432388,
      1771432448,
      1771432448,
      1771432448,
      1771432508,
      1771432508,
      1771432508,
      1771432628,
      1771432628,
      1771432628,
      1771432628,
      1771432628,
      1771432628,
      1771432628,
      1771432749,
      1771432749,
      1771432749,
      1771432749,
      1771432809,
      1771432809,
      1771432809,
      1771432809,
      1771432929,
      1771432929,
      1771432929,
      1771432989,
      1771432989,
      1771432989,
      1771432989,
      1771433133,
      1771433133,
      1771433133,
      1771433133,
      1771433169,
      1771433169,
      1771433169,
      1771433169,
      1771433169,
      1771433169,
      1771433289,
      1771433289,
      1771433289,
      1771433349,
      1771433349,
      1771433349,
      1771433349,
      1771433427,
      1771433427,
      1771433487,
      1771433487,
      1771433487,
      1771433487,
      1771433487,
      1771433487,
      1771433547,
      1771433547,
      1771433547,
      1771433606,
      1771433606,
      1771433606,
      1771433666,
      1771433666,
      1771433727,
      1771433727,
      1771433727,
      1771433770,
      1771433770,
      1771433793,
      1771433830,
      1771433830,
      1771433853,
      1771433853,
      1771433853,
      1771433950,
      1771433950,
      1771433950,
      1771433972,
      1771433972,
      1771433972,
      1771433972,
      1771433972,
      1771433972,
      1771433972,
      1771433972,
      1771434010,
      1771434010,
      1771434010
    ],
    "wof:geomhash": "5873c67f77905969c0adaad78d76e4d9",
    "wof:id": 2014824611,
    "wof:repo": "sfomuseum-data-flights-2026-02"
  },
  "bbox": [
    -122.76,
    37.4,
    -74.18333333333334,
    45.8675
  ],
  "geometry": {"coordinates":[[-74.18333333333334,40.666666666666664],[-74.18333333333334,40.666666666666664],[-74.18333333333334,40.666666666666664],[-74.30166666666666,40.657777777777774],[-74.30166666666666,40.657777777777774],[-74.33999999999999,40.71888888888889],[-74.33999999999999,40.71888888888889],[-74.37027777777777,40.96611111111111],[-74.37027777777777,40.96611111111111],[-74.37027777777777,40.96611111111111],[-74.37027777777777,40.96611111111111],[-74.37027777777777,40.96611111111111],[-74.36138888888888,41.25888888888889],[-74.36138888888888,41.25888888888889],[-74.36166666666666,41.37222222222222],[-74.36166666666666,41.37222222222222],[-74.36166666666666,41.37222222222222],[-75.20722222222223,41.770833333333336],[-75.44472222222223,41.87083333333334],[-75.44472222222223,41.87083333333334],[-75.5586111111111,41.91833333333333],[-75.5586111111111,41.91833333333333],[-75.66777777777779,41.96388888888889],[-75.785,42.01277777777778],[-75.785,42.01277777777778],[-75.785,42.01277777777778],[-75.785,42.01277777777778],[-75.78999999999999,42.014722222222225],[-76.1538888888889,42.163333333333334],[-76.1538888888889,42.163333333333334],[-76.1538888888889,42.163333333333334],[-76.27916666666667,42.20333333333333],[-76.27916666666667,42.20333333333333],[-76.27916666666667,42.20333333333333],[-76.38722222222223,42.23777777777778],[-76.38722222222223,42.23777777777778],[-76.40305555555557,42.24305555555556],[-76.65472222222223,42.32277777777778],[-76.65472222222223,42.32277777777778],[-76.77916666666667,42.36194444444445],[-76.88222222222221,42.39333333333333],[-77.04083333333332,42.409444444444446],[-77.04083333333332,42.409444444444446],[-77.15166666666667,42.41833333333333],[-77.28722222222223,42.428888888888885],[-77.28722222222223,42.428888888888885],[-77.42305555555556,42.439166666666665],[-77.42305555555556,42.439166666666665],[-77.44777777777779,42.441111111111105],[-77.44777777777779,42.441111111111105],[-77.70166666666667,42.46],[-77.86444444444444,42.471944444444446],[-78.00055555555555,42.48166666666667],[-78.07972222222222,42.48722222222222],[-78.13027777777778,42.490833333333335],[-78.2075,42.49638888888889],[-78.2075,42.49638888888889],[-78.2075,42.49638888888889],[-78.33972222222222,42.50527777777778],[-78.33972222222222,42.50527777777778],[-78.48027777777779,42.515],[-78.48027777777779,42.515],[-78.48027777777779,42.515],[-78.75777777777778,42.533055555555556],[-78.75777777777778,42.533055555555556],[-79.03944444444444,42.55083333333333],[-79.18194444444445,42.559444444444445],[-79.18194444444445,42.559444444444445],[-79.32166666666666,42.56777777777778],[-79.32166666666666,42.56777777777778],[-79.32166666666666,42.56777777777778],[-79.32166666666666,42.56777777777778],[-79.32166666666666,42.56777777777778],[-79.60555555555555,42.58444444444444],[-79.60555555555555,42.58444444444444],[-79.8863888888889,42.6],[-79.8863888888889,42.6],[-79.8863888888889,42.6],[-80.31194444444444,42.62222222222222],[-80.45194444444445,42.629444444444445],[-80.45194444444445,42.629444444444445],[-80.45194444444445,42.629444444444445],[-80.59555555555555,42.63638888888889],[-80.59555555555555,42.63638888888889],[-81.16611111111112,42.66222222222222],[-81.16611111111112,42.66222222222222],[-81.31083333333333,42.67194444444444],[-81.31083333333333,42.67194444444444],[-81.31083333333333,42.67194444444444],[-81.9,42.73888888888889],[-81.9,42.73888888888889],[-82.18944444444445,42.77055555555555],[-82.18944444444445,42.77055555555555],[-82.91777777777779,42.85861111111111],[-83.06555555555555,42.87861111111111],[-83.06555555555555,42.87861111111111],[-83.06555555555555,42.87861111111111],[-83.13472222222222,42.88777777777778],[-83.13472222222222,42.88777777777778],[-83.13472222222222,42.88777777777778],[-83.13472222222222,42.88777777777778],[-83.21472222222222,42.89833333333333],[-83.28305555555555,42.907222222222224],[-83.35833333333333,42.93222222222222],[-83.49305555555556,42.98444444444444],[-83.49305555555556,42.98444444444444],[-83.62666666666667,43.03611111111111],[-83.97444444444444,43.169999999999995],[-83.97444444444444,43.169999999999995],[-84.13694444444445,43.23166666666667],[-84.27472222222222,43.28388888888889],[-84.41388888888889,43.33638888888889],[-84.41388888888889,43.33638888888889],[-85.23777777777778,43.64111111111111],[-85.51527777777778,43.74194444444444],[-85.51527777777778,43.74194444444444],[-85.7975,43.843333333333334],[-85.7975,43.843333333333334],[-86.1111111111111,43.955000000000005],[-86.37916666666666,44.04888888888889],[-86.69277777777778,44.15833333333333],[-87.44111111111111,44.41361111111111],[-87.44111111111111,44.41361111111111],[-87.93361111111112,44.5775],[-87.93361111111112,44.5775],[-88.235,44.67666666666666],[-88.235,44.67666666666666],[-88.39861111111112,44.730000000000004],[-88.39861111111112,44.730000000000004],[-88.72194444444445,44.83388888888889],[-88.72194444444445,44.83388888888889],[-88.72194444444445,44.83388888888889],[-88.88583333333334,44.88638888888889],[-88.88583333333334,44.88638888888889],[-89.71277777777777,45.14555555555555],[-89.71277777777777,45.14555555555555],[-89.71277777777777,45.14555555555555],[-89.71277777777777,45.14555555555555],[-90.37972222222221,45.348333333333336],[-90.37972222222221,45.348333333333336],[-90.37972222222221,45.348333333333336],[-90.54416666666667,45.3975],[-90.54416666666667,45.3975],[-90.54416666666667,45.3975],[-90.54416666666667,45.3975],[-90.54416666666667,45.3975],[-91.37666666666667,45.64194444444444],[-91.37666666666667,45.64194444444444],[-91.37666666666667,45.64194444444444],[-91.37666666666667,45.64194444444444],[-91.37666666666667,45.64194444444444],[-92.23583333333333,45.8675],[-92.23583333333333,45.8675],[-92.23583333333333,45.8675],[-92.77555555555556,45.841944444444444],[-92.77555555555556,45.841944444444444],[-92.77555555555556,45.841944444444444],[-92.77555555555556,45.841944444444444],[-92.77555555555556,45.841944444444444],[-92.77555555555556,45.841944444444444],[-94.06333333333333,45.76888888888889],[-94.06333333333333,45.76888888888889],[-94.06333333333333,45.76888888888889],[-94.06333333333333,45.76888888888889],[-94.06333333333333,45.76888888888889],[-94.06333333333333,45.76888888888889],[-94.42,45.74611111111111],[-94.42,45.74611111111111],[-94.42,45.74611111111111],[-94.42,45.74611111111111],[-94.60027777777778,45.73444444444444],[-94.60027777777778,45.73444444444444],[-94.60027777777778,45.73444444444444],[-94.95805555555556,45.70916666666667],[-94.95805555555556,45.70916666666667],[-94.95805555555556,45.70916666666667],[-95.29166666666667,45.68555555555555],[-95.29166666666667,45.68555555555555],[-95.47027777777778,45.67222222222222],[-95.47027777777778,45.67222222222222],[-95.86555555555555,45.64222222222222],[-95.86555555555555,45.64222222222222],[-95.86555555555555,45.64222222222222],[-96.04305555555555,45.62777777777778],[-96.04305555555555,45.62777777777778],[-96.04305555555555,45.62777777777778],[-96.22305555555556,45.613055555555555],[-96.22305555555556,45.613055555555555],[-96.57777777777777,45.58388888888889],[-96.57777777777777,45.58388888888889],[-96.57777777777777,45.58388888888889],[-96.57777777777777,45.58388888888889],[-96.9325,45.55305555555555],[-96.9325,45.55305555555555],[-96.9325,45.55305555555555],[-96.9325,45.55305555555555],[-96.9325,45.55305555555555],[-96.9325,45.55305555555555],[-96.9325,45.55305555555555],[-96.9325,45.55305555555555],[-97.81527777777778,45.471944444444446],[-97.81527777777778,45.471944444444446],[-97.81527777777778,45.471944444444446],[-97.99194444444444,45.45472222222222],[-97.99194444444444,45.45472222222222],[-97.99194444444444,45.45472222222222],[-97.99194444444444,45.45472222222222],[-97.99194444444444,45.45472222222222],[-97.99194444444444,45.45472222222222],[-98.70111111111112,45.38777777777778],[-98.70111111111112,45.38777777777778],[-98.70111111111112,45.38777777777778],[-98.70111111111112,45.38777777777778],[-99.41805555555555,45.32194444444445],[-99.41805555555555,45.32194444444445],[-99.41805555555555,45.32194444444445],[-99.41805555555555,45.32194444444445],[-99.41805555555555,45.32194444444445],[-99.41805555555555,45.32194444444445],[-99.77277777777778,45.28777777777778],[-99.77277777777778,45.28777777777778],[-99.77277777777778,45.28777777777778],[-100.11666666666666,45.25277777777778],[-100.21916666666667,45.2425],[-100.21916666666667,45.2425],[-100.2538888888889,45.237500000000004],[-100.2538888888889,45.237500000000004],[-100.2538888888889,45.237500000000004],[-100.29138888888889,45.235],[-100.29138888888889,45.235],[-100.29138888888889,45.235],[-100.29138888888889,45.235],[-100.81861111111111,45.17916666666667],[-100.81861111111111,45.17916666666667],[-100.99583333333334,45.159444444444446],[-100.99583333333334,45.159444444444446],[-101.10111111111111,45.147777777777776],[-101.10111111111111,45.147777777777776],[-101.10111111111111,45.147777777777776],[-101.10111111111111,45.147777777777776],[-101.34722222222221,45.12027777777778],[-101.34722222222221,45.12027777777778],[-101.34722222222221,45.12027777777778],[-101.45444444444445,45.108333333333334],[-101.45444444444445,45.108333333333334],[-101.45444444444445,45.108333333333334],[-101.86972222222222,45.04666666666667],[-101.86972222222222,45.04666666666667],[-102.03833333333333,45.011944444444445],[-102.03833333333333,45.011944444444445],[-102.03833333333333,45.011944444444445],[-102.14166666666668,44.99055555555556],[-102.31055555555555,44.95472222222222],[-102.375,44.941111111111105],[-102.51083333333334,44.9125],[-102.54388888888889,44.90555555555555],[-102.54388888888889,44.90555555555555],[-102.54388888888889,44.90555555555555],[-102.54388888888889,44.90555555555555],[-102.54388888888889,44.90555555555555],[-102.6438888888889,44.88472222222222],[-102.70833333333334,44.87083333333334],[-102.70833333333334,44.87083333333334],[-102.70833333333334,44.87083333333334],[-102.87722222222222,44.83444444444444],[-102.87722222222222,44.83444444444444],[-103.04833333333333,44.79722222222222],[-103.04833333333333,44.79722222222222],[-103.04833333333333,44.79722222222222],[-103.21583333333334,44.760555555555555],[-103.21583333333334,44.760555555555555],[-103.21583333333334,44.760555555555555],[-103.21583333333334,44.760555555555555],[-103.35055555555554,44.73111111111111],[-103.51666666666667,44.69416666666666],[-103.51666666666667,44.69416666666666],[-103.51666666666667,44.69416666666666],[-103.67916666666667,44.658055555555556],[-103.67916666666667,44.658055555555556],[-103.67916666666667,44.658055555555556],[-103.84333333333333,44.62111111111111],[-103.84333333333333,44.62111111111111],[-103.87333333333332,44.61416666666667],[-103.87333333333332,44.61416666666667],[-103.9713888888889,44.591944444444444],[-104.13361111111112,44.555277777777775],[-104.16694444444445,44.547777777777775],[-104.16694444444445,44.547777777777775],[-104.2,44.54],[-104.29388888888889,44.51833333333333],[-104.29388888888889,44.51833333333333],[-104.29388888888889,44.51833333333333],[-104.32833333333333,44.51027777777778],[-104.36583333333333,44.501666666666665],[-104.36583333333333,44.501666666666665],[-104.36583333333333,44.501666666666665],[-104.45472222222223,44.48111111111111],[-104.48694444444445,44.47361111111111],[-104.48694444444445,44.47361111111111],[-104.48694444444445,44.47361111111111],[-104.64777777777779,44.43555555555555],[-104.77527777777777,44.405833333333334],[-104.93361111111112,44.36888888888889],[-104.93361111111112,44.36888888888889],[-104.93361111111112,44.36888888888889],[-104.93361111111112,44.36888888888889],[-105.12638888888888,44.32222222222222],[-105.12638888888888,44.32222222222222],[-105.25277777777778,44.29194444444444],[-105.25277777777778,44.29194444444444],[-105.44583333333334,44.245555555555555],[-105.44583333333334,44.245555555555555],[-105.44583333333334,44.245555555555555],[-105.57111111111111,44.215],[-105.57111111111111,44.215],[-105.60277777777777,44.20722222222223],[-105.91972222222223,44.12916666666667],[-105.9225,44.12833333333333],[-105.9225,44.12833333333333],[-105.9225,44.12833333333333],[-106.08472222222221,44.088055555555556],[-106.08472222222221,44.088055555555556],[-106.08472222222221,44.088055555555556],[-106.08472222222221,44.088055555555556],[-106.5675,43.96527777777778],[-106.5675,43.96527777777778],[-106.7238888888889,43.922777777777775],[-106.7238888888889,43.922777777777775],[-106.7238888888889,43.922777777777775],[-106.7238888888889,43.922777777777775],[-106.7238888888889,43.922777777777775],[-106.88055555555555,43.880833333333335],[-106.88055555555555,43.880833333333335],[-106.88055555555555,43.880833333333335],[-106.88055555555555,43.880833333333335],[-106.88055555555555,43.880833333333335],[-107.18388888888889,43.79861111111111],[-107.18388888888889,43.79861111111111],[-107.18388888888889,43.79861111111111],[-107.33833333333332,43.756388888888885],[-107.33833333333332,43.756388888888885],[-107.49333333333334,43.71361111111111],[-107.49333333333334,43.71361111111111],[-107.64750000000001,43.670833333333334],[-107.64750000000001,43.670833333333334],[-107.64750000000001,43.670833333333334],[-107.64750000000001,43.670833333333334],[-107.64750000000001,43.670833333333334],[-107.80027777777778,43.62833333333333],[-107.80027777777778,43.62833333333333],[-107.80027777777778,43.62833333333333],[-107.80027777777778,43.62833333333333],[-107.80027777777778,43.62833333333333],[-107.95416666666667,43.584722222222226],[-107.95416666666667,43.584722222222226],[-108.70333333333333,43.370555555555555],[-108.70333333333333,43.370555555555555],[-108.70333333333333,43.370555555555555],[-108.70333333333333,43.370555555555555],[-108.85,43.32805555555556],[-108.85,43.32805555555556],[-108.85,43.32805555555556],[-108.85,43.32805555555556],[-108.85,43.32805555555556],[-108.85,43.32805555555556],[-108.85,43.32805555555556],[-109.29277777777777,43.1975],[-109.29277777777777,43.1975],[-109.29277777777777,43.1975],[-109.29277777777777,43.1975],[-109.29277777777777,43.1975],[-109.29277777777777,43.1975],[-109.29277777777777,43.1975],[-109.44305555555556,43.152499999999996],[-109.44305555555556,43.152499999999996],[-109.44305555555556,43.152499999999996],[-109.44305555555556,43.152499999999996],[-109.44305555555556,43.152499999999996],[-109.59472222222222,43.10722222222223],[-109.59472222222222,43.10722222222223],[-109.74666666666667,43.06166666666666],[-109.74666666666667,43.06166666666666],[-109.74666666666667,43.06166666666666],[-109.74666666666667,43.06166666666666],[-109.92305555555556,43.007777777777775],[-109.92305555555556,43.007777777777775],[-109.92305555555556,43.007777777777775],[-109.92305555555556,43.007777777777775],[-109.92305555555556,43.007777777777775],[-110.07055555555556,42.963055555555556],[-110.07055555555556,42.963055555555556],[-110.07055555555556,42.963055555555556],[-110.21888888888888,42.91722222222222],[-110.21888888888888,42.91722222222222],[-110.21888888888888,42.91722222222222],[-110.21888888888888,42.91722222222222],[-110.21888888888888,42.91722222222222],[-110.335,42.88111111111111],[-110.335,42.88111111111111],[-110.335,42.88111111111111],[-110.335,42.88111111111111],[-110.48361111111112,42.83527777777778],[-110.48361111111112,42.83527777777778],[-110.48361111111112,42.83527777777778],[-110.48361111111112,42.83527777777778],[-110.78472222222221,42.74111111111111],[-110.78472222222221,42.74111111111111],[-110.78472222222221,42.74111111111111],[-110.78472222222221,42.74111111111111],[-110.78472222222221,42.74111111111111],[-110.78472222222221,42.74111111111111],[-111.40416666666667,42.54388888888889],[-111.40416666666667,42.54388888888889],[-111.40416666666667,42.54388888888889],[-111.40416666666667,42.54388888888889],[-111.40416666666667,42.54388888888889],[-111.40416666666667,42.54388888888889],[-111.40416666666667,42.54388888888889],[-111.40416666666667,42.54388888888889],[-111.70111111111112,42.448055555555555],[-111.70111111111112,42.448055555555555],[-111.70111111111112,42.448055555555555],[-111.99361111111111,42.35166666666667],[-111.99361111111111,42.35166666666667],[-111.99361111111111,42.35166666666667],[-111.99361111111111,42.35166666666667],[-111.99361111111111,42.35166666666667],[-111.99361111111111,42.35166666666667],[-111.99361111111111,42.35166666666667],[-112.43694444444445,42.20472222222222],[-112.43694444444445,42.20472222222222],[-112.43694444444445,42.20472222222222],[-112.43694444444445,42.20472222222222],[-112.74083333333333,42.120555555555555],[-112.74083333333333,42.120555555555555],[-112.74083333333333,42.120555555555555],[-112.74083333333333,42.120555555555555],[-112.74083333333333,42.120555555555555],[-112.74083333333333,42.120555555555555],[-112.74083333333333,42.120555555555555],[-113.18722222222223,41.99611111111111],[-113.18722222222223,41.99611111111111],[-113.18722222222223,41.99611111111111],[-113.18722222222223,41.99611111111111],[-113.18722222222223,41.99611111111111],[-113.48666666666666,41.911944444444444],[-113.48666666666666,41.911944444444444],[-113.48666666666666,41.911944444444444],[-113.48666666666666,41.911944444444444],[-113.48666666666666,41.911944444444444],[-113.48666666666666,41.911944444444444],[-113.48666666666666,41.911944444444444],[-113.48666666666666,41.911944444444444],[-114.22972222222222,41.698055555555555],[-114.22972222222222,41.698055555555555],[-114.22972222222222,41.698055555555555],[-114.22972222222222,41.698055555555555],[-114.22972222222222,41.698055555555555],[-114.38,41.654444444444444],[-114.38,41.654444444444444],[-114.38,41.654444444444444],[-114.38,41.654444444444444],[-114.38,41.654444444444444],[-114.38,41.654444444444444],[-114.66944444444445,41.568333333333335],[-114.66944444444445,41.568333333333335],[-114.66944444444445,41.568333333333335],[-114.66944444444445,41.568333333333335],[-114.66944444444445,41.568333333333335],[-114.82638888888889,41.52194444444444],[-114.82638888888889,41.52194444444444],[-114.94,41.48916666666667],[-114.94,41.48916666666667],[-114.9975,41.47],[-114.9975,41.47],[-115.08749999999999,41.44555555555555],[-115.08749999999999,41.44555555555555],[-115.08749999999999,41.44555555555555],[-115.08749999999999,41.44555555555555],[-115.08749999999999,41.44555555555555],[-115.5286111111111,41.31055555555555],[-115.5286111111111,41.31055555555555],[-115.5286111111111,41.31055555555555],[-115.58388888888888,41.291666666666664],[-115.58388888888888,41.291666666666664],[-115.58388888888888,41.291666666666664],[-115.58388888888888,41.291666666666664],[-115.58388888888888,41.291666666666664],[-115.58388888888888,41.291666666666664],[-115.58388888888888,41.291666666666664],[-116.0261111111111,41.155],[-116.0261111111111,41.155],[-116.0261111111111,41.155],[-116.0261111111111,41.155],[-116.0261111111111,41.155],[-116.32055555555556,41.06194444444444],[-116.32055555555556,41.06194444444444],[-116.32055555555556,41.06194444444444],[-116.32055555555556,41.06194444444444],[-116.46805555555555,41.015277777777776],[-116.46805555555555,41.015277777777776],[-116.46805555555555,41.015277777777776],[-116.46805555555555,41.015277777777776],[-116.46805555555555,41.015277777777776],[-116.46805555555555,41.015277777777776],[-116.61527777777778,40.968333333333334],[-116.61527777777778,40.968333333333334],[-116.61527777777778,40.968333333333334],[-116.61527777777778,40.968333333333334],[-116.61527777777778,40.968333333333334],[-116.61527777777778,40.968333333333334],[-117.19500000000001,40.78111111111111],[-117.19500000000001,40.78111111111111],[-117.19500000000001,40.78111111111111],[-117.28277777777778,40.75222222222222],[-117.28277777777778,40.75222222222222],[-117.28277777777778,40.75222222222222],[-117.33888888888889,40.73416666666667],[-117.33888888888889,40.73416666666667],[-117.42666666666668,40.705000000000005],[-117.42666666666668,40.705000000000005],[-117.42666666666668,40.705000000000005],[-117.48277777777778,40.686388888888885],[-117.48277777777778,40.686388888888885],[-117.48277777777778,40.686388888888885],[-117.48277777777778,40.686388888888885],[-117.48277777777778,40.686388888888885],[-117.70555555555556,40.61277777777778],[-117.70555555555556,40.61277777777778],[-117.89694444444446,40.54833333333333],[-117.89694444444446,40.54833333333333],[-117.89694444444446,40.54833333333333],[-117.89694444444446,40.54833333333333],[-117.98055555555555,40.52055555555555],[-117.98055555555555,40.52055555555555],[-117.98055555555555,40.52055555555555],[-118.03388888888888,40.50277777777778],[-118.03388888888888,40.50277777777778],[-118.1211111111111,40.473333333333336],[-118.1211111111111,40.473333333333336],[-118.1211111111111,40.473333333333336],[-118.1211111111111,40.473333333333336],[-118.17611111111111,40.45472222222222],[-118.17611111111111,40.45472222222222],[-118.17611111111111,40.45472222222222],[-118.53166666666667,40.32361111111111],[-118.53166666666667,40.32361111111111],[-118.53166666666667,40.32361111111111],[-118.53166666666667,40.32361111111111],[-118.53166666666667,40.32361111111111],[-118.53166666666667,40.32361111111111],[-118.71694444444445,40.24861111111111],[-118.71694444444445,40.24861111111111],[-118.71694444444445,40.24861111111111],[-118.71694444444445,40.24861111111111],[-118.71694444444445,40.24861111111111],[-118.71694444444445,40.24861111111111],[-118.9363888888889,40.159166666666664],[-118.99,40.13722222222222],[-118.99,40.13722222222222],[-118.99,40.13722222222222],[-119.07083333333333,40.10388888888889],[-119.07083333333333,40.10388888888889],[-119.07083333333333,40.10388888888889],[-119.12305555555555,40.08222222222223],[-119.12305555555555,40.08222222222223],[-119.20416666666667,40.04888888888889],[-119.20416666666667,40.04888888888889],[-119.39250000000001,39.970555555555556],[-119.39250000000001,39.970555555555556],[-119.39250000000001,39.970555555555556],[-119.52833333333334,39.92027777777778],[-119.52833333333334,39.92027777777778],[-119.52833333333334,39.92027777777778],[-119.52833333333334,39.92027777777778],[-119.52833333333334,39.92027777777778],[-119.89111111111112,39.78805555555555],[-119.89111111111112,39.78805555555555],[-119.89111111111112,39.78805555555555],[-119.89111111111112,39.78805555555555],[-119.89111111111112,39.78805555555555],[-119.89111111111112,39.78805555555555],[-120.30111111111111,39.63638888888889],[-120.30111111111111,39.63638888888889],[-120.30111111111111,39.63638888888889],[-120.30111111111111,39.63638888888889],[-120.57194444444444,39.53527777777778],[-120.57194444444444,39.53527777777778],[-120.57194444444444,39.53527777777778],[-120.7063888888889,39.484722222222224],[-120.7063888888889,39.484722222222224],[-120.7063888888889,39.484722222222224],[-120.7063888888889,39.484722222222224],[-120.7063888888889,39.484722222222224],[-120.7063888888889,39.484722222222224],[-120.7063888888889,39.484722222222224],[-120.97,39.38444444444444],[-120.97,39.38444444444444],[-120.97,39.38444444444444],[-121.09805555555555,39.33444444444444],[-121.09805555555555,39.33444444444444],[-121.09805555555555,39.33444444444444],[-121.09805555555555,39.33444444444444],[-121.09805555555555,39.33444444444444],[-121.37027777777777,39.31527777777777],[-121.37027777777777,39.31527777777777],[-121.37027777777777,39.31527777777777],[-121.37027777777777,39.31527777777777],[-121.37027777777777,39.31527777777777],[-121.78777777777778,39.312777777777775],[-121.78777777777778,39.312777777777775],[-121.78777777777778,39.312777777777775],[-121.78777777777778,39.312777777777775],[-121.78777777777778,39.312777777777775],[-121.78777777777778,39.312777777777775],[-122.01611111111112,39.18416666666666],[-122.01611111111112,39.18416666666666],[-122.01611111111112,39.18416666666666],[-122.01611111111112,39.18416666666666],[-122.01611111111112,39.18416666666666],[-122.10444444444444,39.085],[-122.10444444444444,39.085],[-122.10444444444444,39.085],[-122.19222222222223,38.98972222222222],[-122.19222222222223,38.98972222222222],[-122.19222222222223,38.98972222222222],[-122.36638888888888,38.80166666666666],[-122.36638888888888,38.80166666666666],[-122.36638888888888,38.80166666666666],[-122.36638888888888,38.80166666666666],[-122.36638888888888,38.80166666666666],[-122.36638888888888,38.80166666666666],[-122.36638888888888,38.80166666666666],[-122.53722222222223,38.61805555555556],[-122.53722222222223,38.61805555555556],[-122.53722222222223,38.61805555555556],[-122.53722222222223,38.61805555555556],[-122.59777777777778,38.51583333333333],[-122.59777777777778,38.51583333333333],[-122.59777777777778,38.51583333333333],[-122.59777777777778,38.51583333333333],[-122.71166666666667,38.32027777777778],[-122.71166666666667,38.32027777777778],[-122.71166666666667,38.32027777777778],[-122.76,38.22416666666667],[-122.76,38.22416666666667],[-122.76,38.22416666666667],[-122.76,38.22416666666667],[-122.68333333333334,37.95],[-122.68333333333334,37.95],[-122.68333333333334,37.95],[-122.68333333333334,37.95],[-122.66444444444446,37.894444444444446],[-122.66444444444446,37.894444444444446],[-122.66444444444446,37.894444444444446],[-122.66444444444446,37.894444444444446],[-122.66444444444446,37.894444444444446],[-122.66444444444446,37.894444444444446],[-122.52722222222222,37.76111111111111],[-122.52722222222222,37.76111111111111],[-122.52722222222222,37.76111111111111],[-122.46527777777779,37.70333333333333],[-122.46527777777779,37.70333333333333],[-122.46527777777779,37.70333333333333],[-122.46527777777779,37.70333333333333],[-122.38333333333334,37.61666666666667],[-122.38333333333334,37.61666666666667],[-122.33333333333333,37.56666666666667],[-122.33333333333333,37.56666666666667],[-122.33333333333333,37.56666666666667],[-122.33333333333333,37.56666666666667],[-122.33333333333333,37.56666666666667],[-122.33333333333333,37.56666666666667],[-122.3,37.5],[-122.3,37.5],[-122.3,37.5],[-122.3,37.43333333333333],[-122.3,37.43333333333333],[-122.3,37.43333333333333],[-122.21666666666667,37.4],[-122.21666666666667,37.4],[-122.15,37.416666666666664],[-122.15,37.416666666666664],[-122.15,37.416666666666664],[-122.11944444444444,37.431666666666665],[-122.11944444444444,37.431666666666665],[-122.1,37.45],[-122.09666666666666,37.47888888888889],[-122.09666666666666,37.47888888888889],[-122.11666666666666,37.5],[-122.11666666666666,37.5],[-122.11666666666666,37.5],[-122.18611111111112,37.53916666666667],[-122.18611111111112,37.53916666666667],[-122.18611111111112,37.53916666666667],[-122.21666666666667,37.55],[-122.21666666666667,37.55],[-122.21666666666667,37.55],[-122.21666666666667,37.55],[-122.21666666666667,37.55],[-122.21666666666667,37.55],[-122.21666666666667,37.55],[-122.21666666666667,37.55],[-122.23277777777778,37.55888888888889],[-122.23277777777778,37.55888888888889],[-122.23277777777778,37.55888888888889]],"type":"LineString"}
}
