{
  "id": 2014772469,
  "type": "Feature",
  "properties": {
    "geom:area": 0,
    "geom:bbox": "-122.350000,35.876111,-115.150278,37.700000",
    "geom:latitude": 37.15922857445531,
    "geom:longitude": -118.58010413380384,
    "src:alt_label": "swim-path",
    "src:geom": "swim",
    "swim:altitudes": [
      "035",
      "060",
      "084",
      "084",
      "084",
      "183",
      "183",
      "183",
      "258",
      "275",
      "284",
      "284",
      "322",
      "325",
      "331",
      "340C",
      "340C",
      "340C",
      "340C",
      "340C",
      "340C",
      "340C",
      "340C",
      "340C",
      "340C",
      "340C",
      "340C",
      "340C",
      "340C",
      "340C",
      "340C",
      "340C",
      "340C",
      "340C",
      "340C",
      "340C",
      "340C",
      "340C",
      "340C",
      "340C",
      "324",
      "279",
      "263",
      "235",
      "235",
      "235",
      "194",
      "159",
      "159",
      "142",
      "124",
      "124",
      "124",
      "107",
      "087",
      "070",
      "063",
      "063",
      "038",
      "008",
      "008",
      "008",
      "001",
      "001",
      "001"
    ],
    "swim:geom": "path",
    "swim:speeds": [
      187,
      227,
      280,
      280,
      280,
      356,
      356,
      356,
      412,
      418,
      425,
      425,
      449,
      438,
      437,
      443,
      447,
      456,
      456,
      449,
      443,
      443,
      438,
      425,
      422,
      429,
      443,
      443,
      446,
      446,
      447,
      449,
      450,
      450,
      450,
      449,
      449,
      450,
      450,
      451,
      455,
      432,
      423,
      419,
      419,
      419,
      381,
      356,
      356,
      346,
      335,
      335,
      335,
      330,
      281,
      248,
      237,
      237,
      218,
      140,
      140,
      140,
      141,
      141,
      141
    ],
    "swim:timestamps": [
      1770941340,
      1770941413,
      1770941468,
      1770941468,
      1770941468,
      1770941713,
      1770941713,
      1770941713,
      1770941954,
      1770942014,
      1770942074,
      1770942074,
      1770942229,
      1770942254,
      1770942289,
      1770942434,
      1770942470,
      1770942590,
      1770942615,
      1770942675,
      1770942735,
      1770942735,
      1770942770,
      1770942915,
      1770942950,
      1770943095,
      1770943203,
      1770943203,
      1770943323,
      1770943323,
      1770943383,
      1770943443,
      1770943503,
      1770943503,
      1770943503,
      1770943623,
      1770943623,
      1770943683,
      1770943683,
      1770943743,
      1770943864,
      1770943984,
      1770944022,
      1770944104,
      1770944104,
      1770944104,
      1770944226,
      1770944346,
      1770944346,
      1770944400,
      1770944460,
      1770944460,
      1770944460,
      1770944520,
      1770944657,
      1770944760,
      1770944837,
      1770944837,
      1770944957,
      1770945121,
      1770945121,
      1770945121,
      1770945181,
      1770945181,
      1770945181
    ],
    "wof:geomhash": "b420072cb6b03cdff989eeb4ea47db28",
    "wof:id": 2014772469,
    "wof:repo": "sfomuseum-data-flights-2026-02"
  },
  "bbox": [
    -122.35,
    35.876111111111115,
    -115.15027777777779,
    37.7
  ],
  "geometry": {"coordinates":[[-115.15027777777779,36.11805555555556],[-115.22166666666666,36.11944444444445],[-115.29916666666666,36.086111111111116],[-115.29916666666666,36.086111111111116],[-115.29916666666666,36.086111111111116],[-115.58999999999999,35.876111111111115],[-115.58999999999999,35.876111111111115],[-115.58999999999999,35.876111111111115],[-116.05666666666666,35.99111111111111],[-116.17527777777778,36.086666666666666],[-116.26138888888889,36.156666666666666],[-116.26138888888889,36.156666666666666],[-116.55777777777777,36.400277777777774],[-116.5825,36.420833333333334],[-116.64416666666668,36.47277777777778],[-116.91361111111112,36.709722222222226],[-116.95083333333334,36.74944444444444],[-117.09888888888888,36.974722222222226],[-117.1286111111111,37.02027777777778],[-117.20083333333334,37.13138888888889],[-117.27277777777778,37.240833333333335],[-117.27277777777778,37.240833333333335],[-117.31805555555555,37.30333333333333],[-117.575,37.49861111111111],[-117.66444444444446,37.505833333333335],[-118.0225,37.535],[-118.29861111111111,37.556666666666665],[-118.29861111111111,37.556666666666665],[-118.61083333333333,37.580000000000005],[-118.61083333333333,37.580000000000005],[-118.76972222222223,37.59166666666667],[-118.93194444444445,37.60333333333333],[-119.09166666666667,37.61472222222223],[-119.09166666666667,37.61472222222223],[-119.09166666666667,37.61472222222223],[-119.40527777777778,37.63611111111111],[-119.40527777777778,37.63611111111111],[-119.56,37.646388888888886],[-119.56,37.646388888888886],[-119.7213888888889,37.65694444444444],[-120.03861111111111,37.676944444444445],[-120.34777777777778,37.69583333333333],[-120.45,37.7],[-120.64222222222223,37.67194444444444],[-120.64222222222223,37.67194444444444],[-120.64222222222223,37.67194444444444],[-120.93333333333334,37.63333333333333],[-121.18333333333334,37.6],[-121.18333333333334,37.6],[-121.28333333333333,37.583333333333336],[-121.4,37.583333333333336],[-121.4,37.583333333333336],[-121.4,37.583333333333336],[-121.51666666666667,37.56666666666667],[-121.73194444444445,37.525277777777774],[-121.9,37.483333333333334],[-121.99388888888889,37.496944444444445],[-121.99388888888889,37.496944444444445],[-122.13472222222222,37.54222222222222],[-122.31666666666666,37.6],[-122.31666666666666,37.6],[-122.31666666666666,37.6],[-122.35,37.61666666666667],[-122.35,37.61666666666667],[-122.35,37.61666666666667]],"type":"LineString"}
}
