{
  "id": 2014904523,
  "type": "Feature",
  "properties": {
    "geom:area": 0,
    "geom:bbox": "-77.225278,39.837500,-75.266667,39.948056",
    "geom:latitude": 39.89942839863697,
    "geom:longitude": -76.24419639331052,
    "src:alt_label": "swim-path",
    "src:geom": "swim",
    "swim:altitudes": [
      "006",
      "022",
      "022",
      "022",
      "062",
      "124",
      "124",
      "124",
      "146",
      "146",
      "180",
      "180",
      "221",
      "221",
      "258",
      "268",
      "268",
      "278",
      "289"
    ],
    "swim:geom": "path",
    "swim:speeds": [
      177,
      220,
      220,
      220,
      252,
      318,
      318,
      318,
      333,
      333,
      340,
      340,
      354,
      354,
      383,
      389,
      389,
      392,
      396
    ],
    "swim:timestamps": [
      1772312507,
      1772312561,
      1772312561,
      1772312561,
      1772312660,
      1772312841,
      1772312841,
      1772312841,
      1772312901,
      1772312901,
      1772313022,
      1772313022,
      1772313141,
      1772313141,
      1772313322,
      1772313381,
      1772313381,
      1772313442,
      1772313502
    ],
    "wof:geomhash": "c21a6ad5cf32f7c34e067b93a0b06bee",
    "wof:id": 2014904523,
    "wof:repo": "sfomuseum-data-flights-2026-02"
  },
  "bbox": [
    -77.22527777777778,
    39.837500000000006,
    -75.26666666666667,
    39.948055555555555
  ],
  "geometry": {"coordinates":[[-75.26666666666667,39.86666666666667],[-75.33333333333333,39.85],[-75.33333333333333,39.85],[-75.33333333333333,39.85],[-75.47,39.837500000000006],[-75.77194444444444,39.867222222222225],[-75.77194444444444,39.867222222222225],[-75.77194444444444,39.867222222222225],[-75.89222222222223,39.87916666666667],[-75.89222222222223,39.87916666666667],[-76.11305555555555,39.900277777777774],[-76.11305555555555,39.900277777777774],[-76.39333333333335,39.91611111111111],[-76.39333333333335,39.91611111111111],[-76.79861111111111,39.9325],[-76.94027777777778,39.937777777777775],[-76.94027777777778,39.937777777777775],[-77.08388888888888,39.94333333333333],[-77.22527777777778,39.948055555555555]],"type":"LineString"}
}
