{
  "id": 2014798355,
  "type": "Feature",
  "properties": {
    "geom:area": 0,
    "geom:bbox": "-122.765980,37.626820,-122.235150,38.502240",
    "geom:latitude": 37.946541199392094,
    "geom:longitude": -122.54883883296489,
    "src:alt_label": "swim-approach",
    "src:geom": "swim",
    "swim:elevations": [
      6975,
      6930,
      6896,
      6872,
      6677,
      6628,
      6435,
      5978,
      5804,
      5530,
      5373,
      5324,
      5133,
      5048,
      4763,
      4538,
      4246,
      4060,
      3993,
      3690,
      3505,
      3218,
      3039,
      3021,
      2909,
      2831,
      2738,
      2560,
      2422,
      2308,
      2137,
      2073,
      2073,
      2046,
      1993,
      1825,
      1829,
      1829,
      1831,
      1829,
      1829,
      1829,
      1829,
      1701,
      1596,
      1577,
      1531,
      1524,
      1451,
      1342,
      1341,
      1132,
      1031,
      943,
      755,
      695,
      494,
      372,
      327,
      273,
      220,
      169,
      30,
      74
    ],
    "swim:geom": "approach",
    "swim:timestamps": [
      1771156618,
      1771156628,
      1771156634,
      1771156638,
      1771156674,
      1771156683,
      1771156720,
      1771156767,
      1771156783,
      1771156809,
      1771156826,
      1771156831,
      1771156855,
      1771156866,
      1771156903,
      1771156933,
      1771156969,
      1771156991,
      1771157001,
      1771157036,
      1771157059,
      1771157097,
      1771157127,
      1771157130,
      1771157145,
      1771157163,
      1771157183,
      1771157216,
      1771157241,
      1771157261,
      1771157289,
      1771157327,
      1771157334,
      1771157341,
      1771157356,
      1771157391,
      1771157424,
      1771157455,
      1771157467,
      1771157485,
      1771157499,
      1771157518,
      1771157546,
      1771157578,
      1771157603,
      1771157606,
      1771157618,
      1771157650,
      1771157696,
      1771157718,
      1771157741,
      1771157782,
      1771157809,
      1771157830,
      1771157875,
      1771157890,
      1771157934,
      1771157967,
      1771157980,
      1771157994,
      1771158005,
      1771158021,
      1771158058,
      1771158062
    ],
    "wof:geomhash": "b9018b1db7a04d4ea97f06b574b68fd2",
    "wof:id": 2014798355,
    "wof:repo": "sfomuseum-data-flights-2026-02"
  },
  "bbox": [
    -122.76598,
    37.62682,
    -122.23515,
    38.50224
  ],
  "geometry": {"coordinates":[[-122.73957,38.50224],[-122.74089,38.48876],[-122.7417,38.48057],[-122.74226,38.47516],[-122.74732,38.42516],[-122.74861,38.41288],[-122.7536,38.36343],[-122.76008,38.29707],[-122.76233,38.2745],[-122.76598,38.23831],[-122.76435,38.21599],[-122.76284,38.20907],[-122.75357,38.17656],[-122.74954,38.16275],[-122.736,38.11633],[-122.72515,38.07856],[-122.71237,38.03455],[-122.70469,38.0077],[-122.70149,37.99651],[-122.68897,37.95411],[-122.68257,37.92685],[-122.67609,37.88341],[-122.67066,37.84856],[-122.67017,37.84518],[-122.66766,37.82856],[-122.6646,37.80818],[-122.66107,37.78608],[-122.64814,37.75002],[-122.6169,37.73459],[-122.58935,37.72372],[-122.55011,37.70824],[-122.49569,37.70009],[-122.48646,37.70401],[-122.47886,37.70949],[-122.46819,37.72437],[-122.45063,37.76201],[-122.43523,37.79631],[-122.42116,37.82768],[-122.41466,37.83971],[-122.39989,37.85285],[-122.38766,37.86272],[-122.37152,37.87578],[-122.34487,37.89394],[-122.31058,37.90213],[-122.28368,37.90403],[-122.28057,37.90357],[-122.26827,37.90148],[-122.24254,37.88913],[-122.23722,37.85513],[-122.23515,37.83914],[-122.23953,37.8233],[-122.25446,37.79572],[-122.26635,37.77888],[-122.27505,37.76588],[-122.29389,37.73755],[-122.30035,37.72795],[-122.31789,37.70147],[-122.33064,37.68226],[-122.33558,37.67494],[-122.34064,37.66728],[-122.34505,37.66068],[-122.351,37.65173],[-122.3658,37.6293],[-122.36748,37.62682]],"type":"LineString"}
}
