{
  "id": 2014867239,
  "type": "Feature",
  "properties": {
    "geom:area": 0,
    "geom:bbox": "-177.500000,25.080000,180.000000,47.100000",
    "geom:latitude": 44.82054927511735,
    "geom:longitude": 2.809517772171901,
    "src:alt_label": "swim-route",
    "src:geom": "swim",
    "swim:geom": "route",
    "wof:geomhash": "d2bb3059cb89283fef6afc08dfd393e9",
    "wof:id": 2014867239,
    "wof:repo": "sfomuseum-data-flights-2026-02"
  },
  "bbox": [
    -177.5,
    25.08,
    180,
    47.1
  ],
  "geometry": {"coordinates":[[[-122.38,37.62],[-122.5,37.67],[-122.51,37.68],[-122.59,37.73],[-122.6,37.73],[-122.63,37.75],[-122.7,37.79],[-122.71,37.8],[-122.74,37.81],[-122.76,37.82],[-122.79,37.87],[-122.91,38.01],[-123.14,38.28],[-123.14,38.29],[-123.29,38.46],[-123.41,38.6],[-123.46,38.67],[-123.57,38.79],[-123.58,38.8],[-123.63,38.86],[-123.67,38.91],[-123.75,39],[-124.07,39.12],[-124.11,39.14],[-125,39.47],[-125.09,39.5],[-125.68,39.72],[-126.19,39.89],[-126.5,40],[-127,40.3],[-127,40.3],[-128.48,41.16],[-130,42],[-130.94,42.44],[-132.86,43.29],[-140,46],[-141.23,46.17],[-147.65,46.85],[-150,47],[-152.5,47.08],[-153.75,47.1],[-155.75,47.1],[-157.92,47.07],[-160,47],[-165.57,46.55],[-170,46],[-171.02,46.03],[-171.04,46.04],[-174.17,46.11],[-176.25,46.1],[-177.5,46.08]],[[180,46],[178.71,45.8],[177.44,45.58],[175.27,45.18],[170,44],[167.44,43.58],[164.92,43.11],[164.92,43.11],[163.67,42.85],[162.74,42.65],[160,42],[150,38.1],[147.82,37.67],[145.67,37.2],[143.19,36.45],[140.76,35.65],[140.44,35.54],[139.06,35.06],[137.77,34.58],[137.11,34.33],[136.81,34.22],[136.54,34.11],[135,33.5],[134.8,33.41],[133.53,32.88],[131.37,31.94],[129.96,31.29],[129.41,30.92],[128.07,30.02],[128.06,30.01],[124.72,27.62],[124,27.1],[123,26.33],[122.86,26.22],[122.8,26.18],[122.58,26.02],[122.49,25.95],[122.4,25.87],[122.22,25.73],[122.08,25.62],[121.95,25.54],[121.79,25.44],[121.6,25.32],[121.56,25.29],[121.44,25.22],[121.37,25.18],[121.29,25.13],[121.22,25.08]]],"type":"MultiLineString"}
}
