{
  "id": 2014798573,
  "type": "Feature",
  "properties": {
    "geom:area": 0,
    "geom:bbox": "-123.898889,37.636667,-122.300000,47.591389",
    "geom:latitude": 42.46368209143223,
    "geom:longitude": -123.17185874552898,
    "src:alt_label": "swim-path",
    "src:geom": "swim",
    "swim:altitudes": [
      "028",
      "028",
      "028",
      "061",
      "061",
      "061",
      "061",
      "114",
      "114",
      "114",
      "114",
      "159",
      "159",
      "159",
      "159",
      "159",
      "198",
      "198",
      "198",
      "198",
      "198",
      "198",
      "230",
      "230",
      "230",
      "230",
      "230",
      "254",
      "254",
      "254",
      "254",
      "309",
      "309",
      "309",
      "317",
      "317",
      "317",
      "317",
      "317",
      "317",
      "351C",
      "351C",
      "351C",
      "351C",
      "351C",
      "351C",
      "351C",
      "351C",
      "351C",
      "351C",
      "351C",
      "351C",
      "351C",
      "351C",
      "350C",
      "350C",
      "350C",
      "350C",
      "350C",
      "350C",
      "350C",
      "350C",
      "350C",
      "350C",
      "350C",
      "350C",
      "350C",
      "350C",
      "350C",
      "350C",
      "350C",
      "350C",
      "350C",
      "350C",
      "350C",
      "350C",
      "350C",
      "350C",
      "350C",
      "350C",
      "350C",
      "350C",
      "350C",
      "350C",
      "350C",
      "350C",
      "350C",
      "350C",
      "350C",
      "350C",
      "350C",
      "350C",
      "350C",
      "350C",
      "350C",
      "351C",
      "351C",
      "351C",
      "350C",
      "350C",
      "350C",
      "350C",
      "350C",
      "350C",
      "350C",
      "350C",
      "350C",
      "350C",
      "350C",
      "350C",
      "350C",
      "350C",
      "350C",
      "350C",
      "350C",
      "350C",
      "350C",
      "350C",
      "350C",
      "350C",
      "351C",
      "351C",
      "351C",
      "350C",
      "350C",
      "350C",
      "350C",
      "350C",
      "350C",
      "350C",
      "350C",
      "350C",
      "350C",
      "350C",
      "350C",
      "350C",
      "350C",
      "350C",
      "350C",
      "350C",
      "350C",
      "350C",
      "350C",
      "350C",
      "351C",
      "351C",
      "351C",
      "350C",
      "350C",
      "350C",
      "350C",
      "350C",
      "350C",
      "350C",
      "350C",
      "349",
      "349",
      "349",
      "340",
      "340",
      "340",
      "331",
      "331",
      "331",
      "323",
      "323",
      "323",
      "314",
      "314",
      "314",
      "314",
      "314",
      "294",
      "294",
      "294",
      "294",
      "294",
      "274",
      "274",
      "274",
      "274",
      "274",
      "274",
      "274",
      "216",
      "216",
      "216",
      "216",
      "216",
      "216",
      "216",
      "186",
      "186",
      "186",
      "186",
      "186",
      "176",
      "176",
      "176",
      "176",
      "176",
      "158",
      "158",
      "158",
      "153",
      "153",
      "153",
      "153",
      "153",
      "112",
      "112",
      "112",
      "112",
      "112",
      "106",
      "106",
      "106",
      "106",
      "106",
      "077",
      "077",
      "077",
      "077",
      "077",
      "066",
      "066",
      "060",
      "060",
      "060",
      "060",
      "060",
      "060",
      "060",
      "060",
      "060",
      "060",
      "060",
      "060",
      "024",
      "024",
      "024",
      "024",
      "024",
      "024",
      "016",
      "016",
      "009",
      "009",
      "009",
      "009",
      "009"
    ],
    "swim:geom": "path",
    "swim:speeds": [
      208,
      208,
      208,
      271,
      271,
      271,
      271,
      306,
      306,
      306,
      306,
      349,
      349,
      349,
      349,
      349,
      366,
      366,
      366,
      366,
      366,
      366,
      389,
      389,
      389,
      389,
      389,
      406,
      406,
      406,
      406,
      455,
      455,
      455,
      459,
      459,
      459,
      459,
      459,
      459,
      449,
      449,
      449,
      449,
      449,
      449,
      449,
      441,
      441,
      441,
      441,
      444,
      444,
      444,
      446,
      446,
      446,
      446,
      446,
      446,
      446,
      421,
      421,
      421,
      421,
      421,
      421,
      426,
      426,
      426,
      433,
      433,
      433,
      433,
      441,
      441,
      441,
      441,
      441,
      405,
      405,
      405,
      405,
      405,
      404,
      404,
      404,
      404,
      404,
      404,
      404,
      404,
      405,
      405,
      405,
      405,
      405,
      405,
      398,
      398,
      398,
      413,
      413,
      413,
      413,
      413,
      419,
      419,
      425,
      425,
      425,
      425,
      425,
      416,
      416,
      416,
      416,
      408,
      408,
      408,
      404,
      404,
      404,
      400,
      398,
      398,
      398,
      398,
      389,
      390,
      390,
      390,
      390,
      390,
      390,
      390,
      390,
      390,
      388,
      388,
      384,
      384,
      384,
      384,
      369,
      369,
      369,
      354,
      354,
      354,
      353,
      353,
      353,
      353,
      353,
      357,
      357,
      357,
      357,
      357,
      357,
      358,
      358,
      358,
      405,
      405,
      405,
      441,
      441,
      441,
      441,
      441,
      361,
      361,
      361,
      361,
      361,
      357,
      357,
      357,
      357,
      357,
      357,
      357,
      343,
      343,
      343,
      343,
      343,
      343,
      343,
      341,
      341,
      341,
      341,
      341,
      339,
      339,
      339,
      339,
      339,
      325,
      325,
      325,
      327,
      327,
      327,
      327,
      327,
      264,
      264,
      264,
      264,
      264,
      230,
      230,
      230,
      230,
      230,
      220,
      220,
      220,
      220,
      220,
      231,
      231,
      225,
      225,
      225,
      225,
      224,
      224,
      224,
      223,
      223,
      223,
      223,
      223,
      164,
      164,
      164,
      164,
      164,
      164,
      151,
      151,
      140,
      140,
      140,
      140,
      140
    ],
    "swim:timestamps": [
      1771173926,
      1771173926,
      1771173926,
      1771174008,
      1771174008,
      1771174008,
      1771174008,
      1771174128,
      1771174128,
      1771174128,
      1771174128,
      1771174248,
      1771174248,
      1771174248,
      1771174248,
      1771174248,
      1771174369,
      1771174369,
      1771174369,
      1771174369,
      1771174369,
      1771174369,
      1771174489,
      1771174489,
      1771174489,
      1771174489,
      1771174489,
      1771174609,
      1771174609,
      1771174609,
      1771174609,
      1771174909,
      1771174909,
      1771174909,
      1771174969,
      1771174969,
      1771174969,
      1771174969,
      1771174969,
      1771174969,
      1771175329,
      1771175329,
      1771175329,
      1771175329,
      1771175329,
      1771175329,
      1771175329,
      1771175630,
      1771175630,
      1771175630,
      1771175630,
      1771175690,
      1771175690,
      1771175690,
      1771175810,
      1771175810,
      1771175810,
      1771175810,
      1771175810,
      1771175810,
      1771175810,
      1771176110,
      1771176110,
      1771176110,
      1771176110,
      1771176110,
      1771176110,
      1771176170,
      1771176170,
      1771176170,
      1771176230,
      1771176230,
      1771176230,
      1771176230,
      1771176350,
      1771176350,
      1771176350,
      1771176350,
      1771176350,
      1771176530,
      1771176530,
      1771176530,
      1771176530,
      1771176530,
      1771176639,
      1771176639,
      1771176650,
      1771176650,
      1771176650,
      1771176699,
      1771176699,
      1771176699,
      1771176771,
      1771176771,
      1771176771,
      1771176831,
      1771176831,
      1771176831,
      1771176951,
      1771176951,
      1771176951,
      1771177059,
      1771177059,
      1771177059,
      1771177059,
      1771177059,
      1771177071,
      1771177071,
      1771177131,
      1771177131,
      1771177131,
      1771177131,
      1771177131,
      1771177371,
      1771177371,
      1771177371,
      1771177371,
      1771177431,
      1771177431,
      1771177431,
      1771177540,
      1771177540,
      1771177540,
      1771177600,
      1771177611,
      1771177611,
      1771177611,
      1771177611,
      1771177720,
      1771177731,
      1771177731,
      1771177731,
      1771177731,
      1771177780,
      1771177780,
      1771177791,
      1771177791,
      1771177791,
      1771177852,
      1771177852,
      1771177900,
      1771177900,
      1771177900,
      1771177912,
      1771177972,
      1771177972,
      1771177972,
      1771178080,
      1771178080,
      1771178080,
      1771178092,
      1771178092,
      1771178092,
      1771178092,
      1771178092,
      1771178272,
      1771178272,
      1771178272,
      1771178332,
      1771178332,
      1771178332,
      1771178392,
      1771178392,
      1771178392,
      1771178441,
      1771178441,
      1771178441,
      1771178501,
      1771178501,
      1771178501,
      1771178501,
      1771178501,
      1771178801,
      1771178801,
      1771178801,
      1771178801,
      1771178801,
      1771178981,
      1771178981,
      1771178981,
      1771178981,
      1771178981,
      1771178981,
      1771178981,
      1771179342,
      1771179342,
      1771179342,
      1771179342,
      1771179342,
      1771179342,
      1771179342,
      1771179522,
      1771179522,
      1771179522,
      1771179522,
      1771179522,
      1771179582,
      1771179582,
      1771179582,
      1771179582,
      1771179582,
      1771179685,
      1771179685,
      1771179685,
      1771179702,
      1771179702,
      1771179702,
      1771179702,
      1771179702,
      1771179878,
      1771179878,
      1771179878,
      1771179878,
      1771179878,
      1771179942,
      1771179942,
      1771179942,
      1771179942,
      1771179942,
      1771180123,
      1771180123,
      1771180123,
      1771180123,
      1771180123,
      1771180183,
      1771180183,
      1771180243,
      1771180243,
      1771180243,
      1771180243,
      1771180303,
      1771180303,
      1771180303,
      1771180363,
      1771180363,
      1771180363,
      1771180363,
      1771180363,
      1771180778,
      1771180778,
      1771180778,
      1771180778,
      1771180778,
      1771180778,
      1771180843,
      1771180843,
      1771180904,
      1771180904,
      1771180904,
      1771180904,
      1771180904
    ],
    "wof:geomhash": "898425e5abaf677fb4a0df51459320e6",
    "wof:id": 2014798573,
    "wof:repo": "sfomuseum-data-flights-2026-02"
  },
  "bbox": [
    -123.89888888888889,
    37.63666666666666,
    -122.3,
    47.59138888888889
  ],
  "geometry": {"coordinates":[[-122.30749999999999,47.50555555555555],[-122.30749999999999,47.50555555555555],[-122.30749999999999,47.50555555555555],[-122.345,47.59138888888889],[-122.345,47.59138888888889],[-122.345,47.59138888888889],[-122.345,47.59138888888889],[-122.5411111111111,47.573055555555555],[-122.5411111111111,47.573055555555555],[-122.5411111111111,47.573055555555555],[-122.5411111111111,47.573055555555555],[-122.74333333333334,47.44],[-122.74333333333334,47.44],[-122.74333333333334,47.44],[-122.74333333333334,47.44],[-122.74333333333334,47.44],[-122.9538888888889,47.30083333333333],[-122.9538888888889,47.30083333333333],[-122.9538888888889,47.30083333333333],[-122.9538888888889,47.30083333333333],[-122.9538888888889,47.30083333333333],[-122.9538888888889,47.30083333333333],[-123.15555555555557,47.1375],[-123.15555555555557,47.1375],[-123.15555555555557,47.1375],[-123.15555555555557,47.1375],[-123.15555555555557,47.1375],[-123.33611111111111,46.970555555555556],[-123.33611111111111,46.970555555555556],[-123.33611111111111,46.970555555555556],[-123.33611111111111,46.970555555555556],[-123.38388888888889,46.346111111111114],[-123.38388888888889,46.346111111111114],[-123.38388888888889,46.346111111111114],[-123.37972222222221,46.217777777777776],[-123.37972222222221,46.217777777777776],[-123.37972222222221,46.217777777777776],[-123.37972222222221,46.217777777777776],[-123.37972222222221,46.217777777777776],[-123.37972222222221,46.217777777777776],[-123.35722222222222,45.465833333333336],[-123.35722222222222,45.465833333333336],[-123.35722222222222,45.465833333333336],[-123.35722222222222,45.465833333333336],[-123.35722222222222,45.465833333333336],[-123.35722222222222,45.465833333333336],[-123.35722222222222,45.465833333333336],[-123.33888888888889,44.840833333333336],[-123.33888888888889,44.840833333333336],[-123.33888888888889,44.840833333333336],[-123.33888888888889,44.840833333333336],[-123.33583333333333,44.74166666666667],[-123.33583333333333,44.74166666666667],[-123.33583333333333,44.74166666666667],[-123.3286111111111,44.49194444444444],[-123.3286111111111,44.49194444444444],[-123.3286111111111,44.49194444444444],[-123.3286111111111,44.49194444444444],[-123.3286111111111,44.49194444444444],[-123.3286111111111,44.49194444444444],[-123.3286111111111,44.49194444444444],[-123.30416666666666,43.88722222222222],[-123.30416666666666,43.88722222222222],[-123.30416666666666,43.88722222222222],[-123.30416666666666,43.88722222222222],[-123.30416666666666,43.88722222222222],[-123.30416666666666,43.88722222222222],[-123.29944444444445,43.76722222222222],[-123.29944444444445,43.76722222222222],[-123.29944444444445,43.76722222222222],[-123.29472222222222,43.64555555555555],[-123.29472222222222,43.64555555555555],[-123.29472222222222,43.64555555555555],[-123.29472222222222,43.64555555555555],[-123.28527777777778,43.4],[-123.28527777777778,43.4],[-123.28527777777778,43.4],[-123.28527777777778,43.4],[-123.28527777777778,43.4],[-123.2713888888889,43.0475],[-123.2713888888889,43.0475],[-123.2713888888889,43.0475],[-123.2713888888889,43.0475],[-123.2713888888889,43.0475],[-123.26277777777777,42.85],[-123.26277777777777,42.85],[-123.26277777777777,42.823055555555555],[-123.26277777777777,42.823055555555555],[-123.26277777777777,42.823055555555555],[-123.25888888888889,42.73833333333334],[-123.25888888888889,42.73833333333334],[-123.25888888888889,42.73833333333334],[-123.25444444444445,42.60333333333333],[-123.25444444444445,42.60333333333333],[-123.25444444444445,42.60333333333333],[-123.25027777777778,42.49194444444444],[-123.25027777777778,42.49194444444444],[-123.25027777777778,42.49194444444444],[-123.24166666666667,42.25083333333333],[-123.24166666666667,42.25083333333333],[-123.24166666666667,42.25083333333333],[-123.23416666666667,42.04888888888889],[-123.23416666666667,42.04888888888889],[-123.23416666666667,42.04888888888889],[-123.23416666666667,42.04888888888889],[-123.23416666666667,42.04888888888889],[-123.23305555555555,42.025277777777774],[-123.23305555555555,42.025277777777774],[-123.2286111111111,41.906666666666666],[-123.2286111111111,41.906666666666666],[-123.2286111111111,41.906666666666666],[-123.2286111111111,41.906666666666666],[-123.2286111111111,41.906666666666666],[-123.21222222222222,41.44],[-123.21222222222222,41.44],[-123.21222222222222,41.44],[-123.21222222222222,41.44],[-123.20861111111111,41.33916666666667],[-123.20861111111111,41.33916666666667],[-123.20861111111111,41.33916666666667],[-123.20361111111112,41.136944444444445],[-123.20361111111112,41.136944444444445],[-123.20361111111112,41.136944444444445],[-123.20083333333334,41.027499999999996],[-123.2,41.00388888888889],[-123.2,41.00388888888889],[-123.2,41.00388888888889],[-123.2,41.00388888888889],[-123.19527777777778,40.808611111111105],[-123.19472222222223,40.786944444444444],[-123.19472222222223,40.786944444444444],[-123.19472222222223,40.786944444444444],[-123.19472222222223,40.786944444444444],[-123.19277777777778,40.70277777777778],[-123.19277777777778,40.70277777777778],[-123.19194444444445,40.67833333333333],[-123.19194444444445,40.67833333333333],[-123.19194444444445,40.67833333333333],[-123.18944444444445,40.571111111111115],[-123.18944444444445,40.571111111111115],[-123.18722222222223,40.489444444444445],[-123.18722222222223,40.489444444444445],[-123.18722222222223,40.489444444444445],[-123.18666666666667,40.46361111111111],[-123.24277777777777,40.37305555555555],[-123.24277777777777,40.37305555555555],[-123.24277777777777,40.37305555555555],[-123.44166666666668,40.277499999999996],[-123.44166666666668,40.277499999999996],[-123.44166666666668,40.277499999999996],[-123.46277777777777,40.26722222222222],[-123.46277777777777,40.26722222222222],[-123.46277777777777,40.26722222222222],[-123.46277777777777,40.26722222222222],[-123.46277777777777,40.26722222222222],[-123.79388888888889,40.10888888888889],[-123.79388888888889,40.10888888888889],[-123.79388888888889,40.10888888888889],[-123.89250000000001,40.04527777777778],[-123.89250000000001,40.04527777777778],[-123.89250000000001,40.04527777777778],[-123.89888888888889,39.948611111111106],[-123.89888888888889,39.948611111111106],[-123.89888888888889,39.948611111111106],[-123.82249999999999,39.88666666666666],[-123.82249999999999,39.88666666666666],[-123.82249999999999,39.88666666666666],[-123.67277777777778,39.85472222222222],[-123.67277777777778,39.85472222222222],[-123.67277777777778,39.85472222222222],[-123.67277777777778,39.85472222222222],[-123.67277777777778,39.85472222222222],[-123.0461111111111,39.580000000000005],[-123.0461111111111,39.580000000000005],[-123.0461111111111,39.580000000000005],[-123.0461111111111,39.580000000000005],[-123.0461111111111,39.580000000000005],[-122.98805555555556,39.303888888888885],[-122.98805555555556,39.303888888888885],[-122.98805555555556,39.303888888888885],[-122.98805555555556,39.303888888888885],[-122.98805555555556,39.303888888888885],[-122.98805555555556,39.303888888888885],[-122.98805555555556,39.303888888888885],[-122.86944444444444,38.72888888888889],[-122.86944444444444,38.72888888888889],[-122.86944444444444,38.72888888888889],[-122.86944444444444,38.72888888888889],[-122.86944444444444,38.72888888888889],[-122.86944444444444,38.72888888888889],[-122.86944444444444,38.72888888888889],[-122.80916666666667,38.43],[-122.80916666666667,38.43],[-122.80916666666667,38.43],[-122.80916666666667,38.43],[-122.80916666666667,38.43],[-122.79861111111111,38.337500000000006],[-122.79861111111111,38.337500000000006],[-122.79861111111111,38.337500000000006],[-122.79861111111111,38.337500000000006],[-122.79861111111111,38.337500000000006],[-122.75,38.18333333333333],[-122.75,38.18333333333333],[-122.75,38.18333333333333],[-122.74833333333333,38.159444444444446],[-122.74833333333333,38.159444444444446],[-122.74833333333333,38.159444444444446],[-122.74833333333333,38.159444444444446],[-122.74833333333333,38.159444444444446],[-122.68333333333334,37.916666666666664],[-122.68333333333334,37.916666666666664],[-122.68333333333334,37.916666666666664],[-122.68333333333334,37.916666666666664],[-122.68333333333334,37.916666666666664],[-122.68111111111112,37.856944444444444],[-122.68111111111112,37.856944444444444],[-122.68111111111112,37.856944444444444],[-122.68111111111112,37.856944444444444],[-122.68111111111112,37.856944444444444],[-122.67111111111112,37.68194444444444],[-122.67111111111112,37.68194444444444],[-122.67111111111112,37.68194444444444],[-122.67111111111112,37.68194444444444],[-122.67111111111112,37.68194444444444],[-122.60777777777777,37.65],[-122.60777777777777,37.65],[-122.53194444444445,37.63666666666666],[-122.53194444444445,37.63666666666666],[-122.53194444444445,37.63666666666666],[-122.53194444444445,37.63666666666666],[-122.48333333333333,37.7],[-122.48333333333333,37.7],[-122.48333333333333,37.7],[-122.44083333333333,37.740833333333335],[-122.44083333333333,37.740833333333335],[-122.44083333333333,37.740833333333335],[-122.44083333333333,37.740833333333335],[-122.44083333333333,37.740833333333335],[-122.3,37.733333333333334],[-122.3,37.733333333333334],[-122.3,37.733333333333334],[-122.3,37.733333333333334],[-122.3,37.733333333333334],[-122.3,37.733333333333334],[-122.31944444444444,37.69944444444444],[-122.31944444444444,37.69944444444444],[-122.34166666666667,37.66555555555556],[-122.34166666666667,37.66555555555556],[-122.34166666666667,37.66555555555556],[-122.34166666666667,37.66555555555556],[-122.34166666666667,37.66555555555556]],"type":"LineString"}
}
