{
  "id": 2014807701,
  "type": "Feature",
  "properties": {
    "geom:area": 0,
    "geom:bbox": "-122.358470,36.722700,-121.879120,37.611710",
    "geom:latitude": 37.21178680906144,
    "geom:longitude": -122.07004083169004,
    "src:alt_label": "swim-approach",
    "src:geom": "swim",
    "swim:elevations": [
      5342,
      5161,
      4818,
      4396,
      4190,
      4080,
      3797,
      3649,
      3436,
      3274,
      3136,
      3016,
      2804,
      2709,
      2532,
      2379,
      2263,
      2225,
      2001,
      1606,
      1507,
      1291,
      1242,
      1028,
      912,
      914,
      821,
      581,
      556,
      308,
      246,
      124,
      58,
      0
    ],
    "swim:geom": "approach",
    "swim:timestamps": [
      1771242015,
      1771242032,
      1771242071,
      1771242114,
      1771242142,
      1771242163,
      1771242201,
      1771242223,
      1771242256,
      1771242282,
      1771242303,
      1771242322,
      1771242356,
      1771242377,
      1771242407,
      1771242424,
      1771242445,
      1771242456,
      1771242488,
      1771242532,
      1771242550,
      1771242591,
      1771242606,
      1771242646,
      1771242664,
      1771242682,
      1771242697,
      1771242747,
      1771242754,
      1771242806,
      1771242820,
      1771242852,
      1771242868,
      1771242878
    ],
    "wof:geomhash": "7d6e5357c5618589a7b748c061bee9b7",
    "wof:id": 2014807701,
    "wof:repo": "sfomuseum-data-flights-2026-02"
  },
  "bbox": [
    -122.35847,
    36.7227,
    -121.87912,
    37.61171
  ],
  "geometry": {"coordinates":[[-121.87912,36.7227],[-121.89513,36.75186],[-121.91584,36.81909],[-121.93598,36.89136],[-121.94841,36.93601],[-121.95922,36.96727],[-121.98024,37.02149],[-121.99141,37.05072],[-122.00885,37.09506],[-122.02175,37.128],[-122.03181,37.15415],[-122.04119,37.17807],[-122.05723,37.21838],[-122.06699,37.24356],[-122.08011,37.27695],[-122.08735,37.29518],[-122.0963,37.31798],[-122.10103,37.32982],[-122.11316,37.3607],[-122.12914,37.4044],[-122.13488,37.42176],[-122.14761,37.45942],[-122.15253,37.4734],[-122.16536,37.51034],[-122.17124,37.52692],[-122.18453,37.53864],[-122.19929,37.54474],[-122.24681,37.56488],[-122.25364,37.56778],[-122.30142,37.58775],[-122.3121,37.59231],[-122.33765,37.60313],[-122.35046,37.60852],[-122.35847,37.61171]],"type":"LineString"}
}
