{
  "id": 2014876361,
  "type": "Feature",
  "properties": {
    "geom:area": 0,
    "geom:bbox": "-173.750000,33.450000,180.000000,45.100000",
    "geom:latitude": 44.46440197643702,
    "geom:longitude": 1.680350761646551,
    "src:alt_label": "swim-route",
    "src:geom": "swim",
    "swim:geom": "route",
    "wof:geomhash": "7f6e2a87a7f546f0209afab735ac9f1b",
    "wof:id": 2014876361,
    "wof:repo": "sfomuseum-data-flights-2026-02"
  },
  "bbox": [
    -173.75,
    33.45,
    180,
    45.1
  ],
  "geometry": {"coordinates":[[[-122.38,37.62],[-122.5,37.67],[-122.51,37.68],[-122.59,37.73],[-122.6,37.73],[-122.63,37.75],[-122.7,37.79],[-122.71,37.8],[-122.74,37.81],[-122.76,37.82],[-122.79,37.87],[-122.91,38.01],[-123.14,38.28],[-123.14,38.29],[-123.29,38.46],[-123.41,38.6],[-123.46,38.67],[-123.57,38.79],[-123.58,38.8],[-123.63,38.86],[-123.72,38.97],[-123.75,39],[-124.05,39.11],[-124.07,39.12],[-124.52,39.29],[-124.7,39.36],[-126.5,40],[-126.99,40.3],[-127,40.3],[-130,42],[-140,45],[-146.25,45.1],[-150,45],[-160,45],[-170,45],[-172.5,45.08],[-173.75,45.1]],[[180,45],[172.5,45.08],[170,45],[164.27,43.98],[164.27,43.98],[160,43],[159,42.68],[156.07,41.67],[154.16,40.96],[149.83,39.15],[148.76,38.68],[147.72,38.19],[145.67,37.2],[140.86,35.52],[139.99,35.18],[137.67,34.25],[137.64,34.24],[137.04,33.99],[136.94,33.94],[136.68,33.83],[136.63,33.81],[136.28,33.66],[136.21,33.63],[135.94,33.51],[135.82,33.46],[135.79,33.45],[135.69,33.45],[135.59,33.46],[135.44,33.46],[135.33,33.47],[135.15,33.64],[135.13,33.66],[135.15,33.8],[135.18,34.01],[135.19,34.06],[135.21,34.18],[135.22,34.26],[135.23,34.34],[135.24,34.43]]],"type":"MultiLineString"}
}
