{
  "id": 2014911107,
  "type": "Feature",
  "properties": {
    "geom:area": 0,
    "geom:bbox": "-122.562010,36.746370,-122.309430,37.716020",
    "geom:latitude": 37.275742361260285,
    "geom:longitude": -122.49819999529936,
    "src:alt_label": "swim-takeoff",
    "src:geom": "swim",
    "swim:elevations": [
      213,
      699,
      815,
      985,
      1218,
      1346,
      1882,
      2528,
      2680,
      3047,
      3353,
      3527,
      3552,
      3857,
      4812,
      5130,
      5561,
      5846,
      5854,
      6249,
      6343,
      6393,
      6840,
      6861,
      7132,
      7434,
      7630,
      7726,
      7928
    ],
    "swim:geom": "takeoff",
    "swim:timestamps": [
      1772276655,
      1772276697,
      1772276709,
      1772276732,
      1772276787,
      1772276806,
      1772276838,
      1772276874,
      1772276886,
      1772276911,
      1772276934,
      1772276968,
      1772276972,
      1772277006,
      1772277051,
      1772277077,
      1772277103,
      1772277147,
      1772277151,
      1772277200,
      1772277208,
      1772277212,
      1772277268,
      1772277272,
      1772277310,
      1772277355,
      1772277388,
      1772277400,
      1772277433
    ],
    "wof:geomhash": "c54954773f1ca3e94fbcf19854b58322",
    "wof:id": 2014911107,
    "wof:repo": "sfomuseum-data-flights-2026-02"
  },
  "bbox": [
    -122.56201,
    36.74637,
    -122.30943,
    37.71602
  ],
  "geometry": {"coordinates":[[-122.36853,37.62956],[-122.36319,37.65931],[-122.36246,37.668],[-122.36692,37.68375],[-122.42284,37.70788],[-122.44967,37.71602],[-122.49527,37.70391],[-122.53792,37.67541],[-122.54468,37.66201],[-122.54611,37.62943],[-122.54715,37.60002],[-122.549,37.55207],[-122.54923,37.54592],[-122.5508,37.49131],[-122.55295,37.41687],[-122.55412,37.37392],[-122.55563,37.32975],[-122.55797,37.25254],[-122.55811,37.24528],[-122.55991,37.15463],[-122.56021,37.14095],[-122.56038,37.13355],[-122.56201,37.02915],[-122.56093,37.02155],[-122.52018,36.95207],[-122.44247,36.87676],[-122.3865,36.82239],[-122.36648,36.80249],[-122.30943,36.74637]],"type":"LineString"}
}
