{
  "id": 2014828697,
  "type": "Feature",
  "properties": {
    "geom:area": 0,
    "geom:bbox": "-177.990000,14.000000,180.000000,37.670000",
    "geom:latitude": 26.588032333003376,
    "geom:longitude": 2.3227572366714924,
    "src:alt_label": "swim-route",
    "src:geom": "swim",
    "swim:geom": "route",
    "wof:geomhash": "7ff324a2d8038c96f305c9fb9c9cf0bb",
    "wof:id": 2014828697,
    "wof:repo": "sfomuseum-data-flights-2026-02"
  },
  "bbox": [
    -177.99,
    14,
    180,
    37.67
  ],
  "geometry": {"coordinates":[[[-122.38,37.62],[-122.5,37.67],[-122.5,37.67],[-122.5,37.67],[-122.61,37.65],[-122.61,37.65],[-122.65,37.64],[-122.73,37.62],[-122.74,37.61],[-122.86,37.58],[-122.86,37.58],[-122.97,37.55],[-123.06,37.53],[-123.48,37.42],[-123.49,37.42],[-123.74,37.35],[-123.93,37.3],[-124.03,37.27],[-124.22,37.22],[-125,37],[-126.48,36.58],[-126.92,36.46],[-126.93,36.46],[-126.93,36.46],[-133.73,35.07],[-134,35],[-134.87,34.73],[-137.2,33.98],[-139.48,33.18],[-139.74,33.09],[-140,33],[-145,32],[-145.35,31.93],[-145.7,31.87],[-145.84,31.85],[-150,31],[-156.72,30.42],[-160,30],[-161.01,29.93],[-162.01,29.86],[-165.02,29.59],[-167.23,29.35],[-168.02,29.26],[-170,29],[-171.15,28.82],[-171.85,28.69],[-174.05,28.28],[-175.5,28],[-177.31,27.62],[-177.99,27.47]],[[180,27],[170,22],[160,19],[157.01,18.17],[154.79,17.51],[153.18,17.02],[151.59,16.52],[150,16],[148.63,15.76],[147.94,15.63],[144.49,14.96],[142.48,14.54],[140,14],[138.83,14.05],[137.66,14.1],[136.89,14.12],[136.11,14.15],[134.55,14.19],[132.73,14.22],[130,14.25],[129.12,14.29],[127.57,14.36],[126.02,14.41],[123.69,14.47],[122.92,14.49],[122.75,14.49],[122.44,14.5],[122.17,14.5],[121.84,14.51],[121.67,14.51],[121.45,14.51],[121.4,14.51],[121.27,14.51],[121.19,14.51],[121.1,14.52],[121.02,14.52]]],"type":"MultiLineString"}
}
