{
  "id": 2014807739,
  "type": "Feature",
  "properties": {
    "geom:area": 0,
    "geom:bbox": "-122.150000,37.494722,-104.700000,39.900000",
    "geom:latitude": 38.78573775602303,
    "geom:longitude": -113.44229848074771,
    "src:alt_label": "swim-path",
    "src:geom": "swim",
    "swim:altitudes": [
      "061",
      "061",
      "061",
      "061",
      "061",
      "061",
      "061",
      "103",
      "103",
      "103",
      "103",
      "136",
      "161",
      "190",
      "190",
      "190",
      "190",
      "190",
      "190",
      "202",
      "202",
      "224",
      "224",
      "246",
      "246",
      "246",
      "246",
      "260C",
      "260C",
      "260C",
      "260C",
      "260C",
      "260C",
      "260C",
      "260C",
      "260C",
      "260C",
      "260C",
      "260C",
      "260C",
      "260C",
      "260C",
      "260C",
      "260C",
      "260C",
      "260C",
      "260C",
      "260C",
      "260C",
      "260C",
      "260C",
      "260C",
      "260C",
      "260C",
      "260C",
      "260C",
      "261",
      "261",
      "261",
      "261",
      "261",
      "261",
      "280C",
      "280C",
      "280C",
      "280C",
      "280C",
      "280C",
      "280C",
      "280C",
      "280C",
      "280C",
      "280C",
      "280C",
      "280C",
      "280C",
      "280C",
      "280C",
      "280C",
      "280C",
      "280C",
      "280C",
      "280C",
      "280C",
      "280C",
      "280C",
      "280C",
      "280C",
      "280C",
      "280C",
      "280C",
      "280C",
      "280C",
      "280C",
      "280C",
      "280C",
      "280C",
      "280C",
      "280C",
      "280C",
      "280C",
      "280C",
      "280C",
      "280C",
      "280C",
      "280C",
      "280C",
      "280C",
      "280C",
      "280C",
      "280C",
      "280C",
      "280C",
      "280C",
      "280C",
      "280C",
      "280C",
      "280C",
      "280C",
      "280C",
      "280",
      "280",
      "280",
      "280",
      "280",
      "280",
      "280",
      "290",
      "290",
      "290",
      "290",
      "290",
      "300C",
      "300C",
      "300C",
      "300C",
      "300C",
      "300C",
      "300C",
      "300C",
      "300C",
      "300C",
      "300C",
      "300C",
      "300C",
      "300C",
      "300C",
      "300C",
      "300C",
      "300C",
      "300C",
      "300C",
      "300C",
      "300C",
      "300C",
      "300C",
      "300C",
      "300C",
      "300C",
      "308",
      "308",
      "339",
      "339",
      "339",
      "339",
      "353",
      "353",
      "353",
      "353",
      "353",
      "353",
      "368",
      "377",
      "377",
      "380C",
      "380C",
      "380C",
      "380C",
      "380C",
      "380C",
      "380C",
      "380C",
      "380C",
      "380C",
      "380C",
      "380C",
      "380C",
      "380C",
      "380C",
      "380C",
      "380C",
      "380C",
      "380C",
      "380C",
      "380C",
      "380C",
      "380C",
      "380C",
      "380C",
      "380C",
      "380C",
      "380C",
      "380C",
      "380C",
      "380C",
      "380C",
      "380C",
      "380C",
      "380C",
      "380C",
      "380C",
      "380C",
      "380C",
      "380C",
      "380C",
      "380C",
      "380C",
      "380C",
      "380C",
      "380C",
      "380C",
      "380C",
      "380C",
      "380C",
      "380C",
      "380C",
      "380C",
      "380C",
      "380C",
      "380C",
      "380C",
      "380C",
      "380C",
      "380C",
      "380C",
      "380C",
      "380C",
      "380C",
      "380C",
      "380C",
      "380C",
      "380C",
      "380C",
      "380C",
      "380C",
      "380",
      "380",
      "380",
      "380",
      "380",
      "380",
      "380",
      "380",
      "380",
      "380",
      "380",
      "380",
      "380",
      "380",
      "380",
      "380",
      "380",
      "380",
      "380",
      "380",
      "380",
      "361",
      "361",
      "361",
      "361",
      "361",
      "307",
      "307",
      "307",
      "309",
      "309",
      "309",
      "285",
      "285",
      "285",
      "285",
      "261",
      "261",
      "261",
      "214",
      "214",
      "214",
      "214",
      "197",
      "197",
      "197",
      "197",
      "197",
      "144",
      "144",
      "144",
      "144",
      "144",
      "131",
      "131",
      "131",
      "106",
      "106",
      "106",
      "106",
      "106",
      "090",
      "090",
      "090",
      "090",
      "090",
      "076",
      "076",
      "060",
      "060",
      "060",
      "060",
      "060",
      "060",
      "060",
      "055",
      "055",
      "055",
      "040",
      "040",
      "040",
      "040",
      "040",
      "040",
      "040",
      "040"
    ],
    "swim:geom": "path",
    "swim:speeds": [
      195,
      195,
      195,
      195,
      195,
      195,
      195,
      259,
      259,
      259,
      259,
      273,
      275,
      314,
      314,
      314,
      314,
      314,
      314,
      383,
      383,
      386,
      386,
      395,
      395,
      395,
      395,
      391,
      391,
      391,
      391,
      391,
      391,
      400,
      400,
      400,
      400,
      400,
      400,
      400,
      400,
      400,
      400,
      400,
      400,
      400,
      400,
      400,
      403,
      403,
      403,
      403,
      403,
      403,
      403,
      403,
      394,
      394,
      394,
      394,
      394,
      394,
      373,
      373,
      371,
      371,
      370,
      370,
      370,
      370,
      370,
      370,
      388,
      390,
      390,
      390,
      390,
      392,
      392,
      392,
      392,
      392,
      392,
      394,
      394,
      394,
      394,
      395,
      395,
      395,
      393,
      393,
      393,
      393,
      393,
      388,
      388,
      388,
      388,
      389,
      389,
      389,
      389,
      389,
      389,
      389,
      389,
      387,
      387,
      387,
      387,
      387,
      387,
      392,
      392,
      392,
      392,
      393,
      393,
      393,
      395,
      395,
      395,
      383,
      383,
      383,
      383,
      380,
      380,
      380,
      380,
      380,
      377,
      377,
      377,
      378,
      378,
      378,
      379,
      379,
      379,
      379,
      379,
      380,
      380,
      383,
      383,
      383,
      383,
      382,
      382,
      382,
      382,
      381,
      381,
      381,
      381,
      383,
      383,
      377,
      377,
      353,
      353,
      353,
      353,
      350,
      350,
      350,
      350,
      350,
      350,
      342,
      340,
      340,
      357,
      359,
      359,
      361,
      361,
      361,
      361,
      361,
      369,
      369,
      369,
      369,
      369,
      363,
      363,
      363,
      360,
      360,
      360,
      360,
      360,
      356,
      356,
      356,
      356,
      356,
      356,
      356,
      356,
      356,
      356,
      351,
      351,
      351,
      351,
      351,
      351,
      351,
      351,
      351,
      351,
      358,
      358,
      358,
      360,
      360,
      360,
      362,
      362,
      362,
      362,
      363,
      363,
      363,
      363,
      361,
      361,
      361,
      361,
      361,
      362,
      362,
      362,
      362,
      362,
      374,
      378,
      378,
      378,
      378,
      378,
      382,
      382,
      382,
      382,
      382,
      401,
      401,
      401,
      401,
      401,
      401,
      404,
      404,
      404,
      404,
      406,
      406,
      406,
      402,
      400,
      400,
      384,
      384,
      384,
      384,
      384,
      357,
      357,
      357,
      357,
      357,
      357,
      377,
      377,
      377,
      377,
      375,
      375,
      375,
      378,
      378,
      378,
      378,
      375,
      375,
      375,
      375,
      375,
      340,
      340,
      340,
      340,
      340,
      333,
      333,
      333,
      325,
      325,
      325,
      325,
      325,
      277,
      277,
      277,
      277,
      277,
      256,
      256,
      263,
      263,
      263,
      259,
      259,
      259,
      259,
      247,
      247,
      247,
      238,
      238,
      238,
      238,
      238,
      238,
      238,
      238
    ],
    "swim:timestamps": [
      1771248847,
      1771248847,
      1771248847,
      1771248847,
      1771248847,
      1771248847,
      1771248847,
      1771248966,
      1771248966,
      1771248966,
      1771248966,
      1771249026,
      1771249069,
      1771249146,
      1771249146,
      1771249146,
      1771249146,
      1771249146,
      1771249146,
      1771249206,
      1771249206,
      1771249268,
      1771249268,
      1771249326,
      1771249326,
      1771249326,
      1771249326,
      1771249448,
      1771249448,
      1771249448,
      1771249448,
      1771249448,
      1771249448,
      1771249687,
      1771249687,
      1771249687,
      1771249687,
      1771249687,
      1771249687,
      1771249687,
      1771249808,
      1771249808,
      1771249808,
      1771249808,
      1771249868,
      1771249868,
      1771249868,
      1771249868,
      1771249927,
      1771249927,
      1771249927,
      1771250107,
      1771250107,
      1771250107,
      1771250107,
      1771250107,
      1771250229,
      1771250229,
      1771250229,
      1771250229,
      1771250229,
      1771250229,
      1771250287,
      1771250287,
      1771250349,
      1771250349,
      1771250469,
      1771250469,
      1771250469,
      1771250469,
      1771250469,
      1771250469,
      1771250527,
      1771250589,
      1771250589,
      1771250589,
      1771250589,
      1771250769,
      1771250769,
      1771250769,
      1771250769,
      1771250769,
      1771250769,
      1771250829,
      1771250829,
      1771250829,
      1771250829,
      1771250949,
      1771250949,
      1771250949,
      1771251009,
      1771251009,
      1771251009,
      1771251009,
      1771251009,
      1771251129,
      1771251129,
      1771251129,
      1771251129,
      1771251189,
      1771251189,
      1771251189,
      1771251189,
      1771251189,
      1771251189,
      1771251189,
      1771251189,
      1771251310,
      1771251310,
      1771251310,
      1771251310,
      1771251310,
      1771251310,
      1771251850,
      1771251850,
      1771251850,
      1771251850,
      1771251910,
      1771251910,
      1771251910,
      1771251970,
      1771251970,
      1771251970,
      1771252030,
      1771252030,
      1771252030,
      1771252030,
      1771252090,
      1771252090,
      1771252090,
      1771252090,
      1771252090,
      1771252331,
      1771252331,
      1771252331,
      1771252391,
      1771252391,
      1771252391,
      1771252451,
      1771252451,
      1771252451,
      1771252451,
      1771252451,
      1771252511,
      1771252511,
      1771252631,
      1771252631,
      1771252631,
      1771252631,
      1771252811,
      1771252811,
      1771252811,
      1771252811,
      1771252871,
      1771252871,
      1771252871,
      1771252871,
      1771252931,
      1771252931,
      1771253112,
      1771253112,
      1771253232,
      1771253232,
      1771253232,
      1771253232,
      1771253292,
      1771253292,
      1771253292,
      1771253292,
      1771253292,
      1771253292,
      1771253352,
      1771253408,
      1771253408,
      1771253588,
      1771253648,
      1771253648,
      1771253708,
      1771253708,
      1771253708,
      1771253708,
      1771253708,
      1771253828,
      1771253828,
      1771253828,
      1771253828,
      1771253828,
      1771253888,
      1771253888,
      1771253888,
      1771254013,
      1771254013,
      1771254013,
      1771254013,
      1771254013,
      1771254308,
      1771254308,
      1771254308,
      1771254308,
      1771254308,
      1771254368,
      1771254368,
      1771254368,
      1771254368,
      1771254368,
      1771254489,
      1771254489,
      1771254489,
      1771254489,
      1771254489,
      1771254549,
      1771254549,
      1771254549,
      1771254549,
      1771254549,
      1771254789,
      1771254789,
      1771254789,
      1771254849,
      1771254849,
      1771254849,
      1771254909,
      1771254909,
      1771254909,
      1771254909,
      1771254969,
      1771254969,
      1771254969,
      1771255089,
      1771255209,
      1771255209,
      1771255209,
      1771255209,
      1771255209,
      1771255269,
      1771255269,
      1771255269,
      1771255269,
      1771255269,
      1771255449,
      1771255509,
      1771255509,
      1771255509,
      1771255509,
      1771255509,
      1771255569,
      1771255569,
      1771255569,
      1771255569,
      1771255569,
      1771255690,
      1771255690,
      1771255690,
      1771255690,
      1771255690,
      1771255690,
      1771255750,
      1771255750,
      1771255750,
      1771255750,
      1771255810,
      1771255810,
      1771255810,
      1771255870,
      1771255930,
      1771255930,
      1771255990,
      1771255990,
      1771255990,
      1771255990,
      1771255990,
      1771256104,
      1771256104,
      1771256104,
      1771256110,
      1771256110,
      1771256110,
      1771256170,
      1771256170,
      1771256170,
      1771256170,
      1771256230,
      1771256230,
      1771256230,
      1771256350,
      1771256350,
      1771256350,
      1771256350,
      1771256380,
      1771256380,
      1771256380,
      1771256380,
      1771256380,
      1771256530,
      1771256530,
      1771256530,
      1771256530,
      1771256530,
      1771256560,
      1771256560,
      1771256560,
      1771256650,
      1771256650,
      1771256650,
      1771256650,
      1771256650,
      1771256734,
      1771256734,
      1771256734,
      1771256734,
      1771256734,
      1771256800,
      1771256800,
      1771256860,
      1771256860,
      1771256860,
      1771256891,
      1771256891,
      1771256891,
      1771256891,
      1771256951,
      1771256951,
      1771256951,
      1771257034,
      1771257034,
      1771257034,
      1771257034,
      1771257034,
      1771257034,
      1771257034,
      1771257034
    ],
    "wof:geomhash": "4ebb2fb1ff2939860f04483f731270fd",
    "wof:id": 2014807739,
    "wof:repo": "sfomuseum-data-flights-2026-02"
  },
  "bbox": [
    -122.15,
    37.49472222222222,
    -104.7,
    39.9
  ],
  "geometry": {"coordinates":[[-104.7,39.9],[-104.7,39.9],[-104.7,39.9],[-104.7,39.9],[-104.7,39.9],[-104.7,39.9],[-104.7,39.9],[-104.8236111111111,39.875],[-104.8236111111111,39.875],[-104.8236111111111,39.875],[-104.8236111111111,39.875],[-104.91361111111112,39.844722222222224],[-104.98333333333333,39.85],[-105.11888888888888,39.84805555555556],[-105.11888888888888,39.84805555555556],[-105.11888888888888,39.84805555555556],[-105.11888888888888,39.84805555555556],[-105.11888888888888,39.84805555555556],[-105.11888888888888,39.84805555555556],[-105.25277777777778,39.85055555555556],[-105.25277777777778,39.85055555555556],[-105.38333333333334,39.85277777777778],[-105.38333333333334,39.85277777777778],[-105.51861111111111,39.85666666666667],[-105.51861111111111,39.85666666666667],[-105.51861111111111,39.85666666666667],[-105.51861111111111,39.85666666666667],[-105.81333333333333,39.85416666666667],[-105.81333333333333,39.85416666666667],[-105.81333333333333,39.85416666666667],[-105.81333333333333,39.85416666666667],[-105.81333333333333,39.85416666666667],[-105.81333333333333,39.85416666666667],[-106.37638888888888,39.80277777777778],[-106.37638888888888,39.80277777777778],[-106.37638888888888,39.80277777777778],[-106.37638888888888,39.80277777777778],[-106.37638888888888,39.80277777777778],[-106.37638888888888,39.80277777777778],[-106.37638888888888,39.80277777777778],[-106.67500000000001,39.77222222222222],[-106.67500000000001,39.77222222222222],[-106.67500000000001,39.77222222222222],[-106.67500000000001,39.77222222222222],[-106.81777777777778,39.75666666666667],[-106.81777777777778,39.75666666666667],[-106.81777777777778,39.75666666666667],[-106.81777777777778,39.75666666666667],[-106.97361111111111,39.74],[-106.97361111111111,39.74],[-106.97361111111111,39.74],[-107.39555555555556,39.69222222222222],[-107.39555555555556,39.69222222222222],[-107.39555555555556,39.69222222222222],[-107.39555555555556,39.69222222222222],[-107.39555555555556,39.69222222222222],[-107.67555555555556,39.659444444444446],[-107.67555555555556,39.659444444444446],[-107.67555555555556,39.659444444444446],[-107.67555555555556,39.659444444444446],[-107.67555555555556,39.659444444444446],[-107.67555555555556,39.659444444444446],[-107.81805555555555,39.64277777777778],[-107.81805555555555,39.64277777777778],[-107.93861111111111,39.62833333333333],[-107.93861111111111,39.62833333333333],[-108.20111111111112,39.59638888888889],[-108.20111111111112,39.59638888888889],[-108.20111111111112,39.59638888888889],[-108.20111111111112,39.59638888888889],[-108.20111111111112,39.59638888888889],[-108.20111111111112,39.59638888888889],[-108.35222222222221,39.57777777777778],[-108.47888888888889,39.56194444444444],[-108.47888888888889,39.56194444444444],[-108.47888888888889,39.56194444444444],[-108.47888888888889,39.56194444444444],[-108.90277777777779,39.50805555555556],[-108.90277777777779,39.50805555555556],[-108.90277777777779,39.50805555555556],[-108.90277777777779,39.50805555555556],[-108.90277777777779,39.50805555555556],[-108.90277777777779,39.50805555555556],[-109.045,39.48972222222222],[-109.045,39.48972222222222],[-109.045,39.48972222222222],[-109.045,39.48972222222222],[-109.32444444444444,39.45305555555556],[-109.32444444444444,39.45305555555556],[-109.32444444444444,39.45305555555556],[-109.46444444444445,39.43444444444444],[-109.46444444444445,39.43444444444444],[-109.46444444444445,39.43444444444444],[-109.46444444444445,39.43444444444444],[-109.46444444444445,39.43444444444444],[-109.73694444444445,39.3975],[-109.73694444444445,39.3975],[-109.73694444444445,39.3975],[-109.73694444444445,39.3975],[-109.87472222222222,39.37861111111111],[-109.87472222222222,39.37861111111111],[-109.87472222222222,39.37861111111111],[-109.87472222222222,39.37861111111111],[-109.87472222222222,39.37861111111111],[-109.87472222222222,39.37861111111111],[-109.87472222222222,39.37861111111111],[-109.87472222222222,39.37861111111111],[-110.14694444444446,39.34166666666667],[-110.14694444444446,39.34166666666667],[-110.14694444444446,39.34166666666667],[-110.14694444444446,39.34166666666667],[-110.14694444444446,39.34166666666667],[-110.14694444444446,39.34166666666667],[-111.38444444444445,39.16833333333333],[-111.38444444444445,39.16833333333333],[-111.38444444444445,39.16833333333333],[-111.38444444444445,39.16833333333333],[-111.5225,39.14833333333333],[-111.5225,39.14833333333333],[-111.5225,39.14833333333333],[-111.66333333333334,39.1275],[-111.66333333333334,39.1275],[-111.66333333333334,39.1275],[-111.79638888888888,39.10777777777778],[-111.79638888888888,39.10777777777778],[-111.79638888888888,39.10777777777778],[-111.79638888888888,39.10777777777778],[-111.92888888888889,39.08777777777778],[-111.92888888888889,39.08777777777778],[-111.92888888888889,39.08777777777778],[-111.92888888888889,39.08777777777778],[-111.92888888888889,39.08777777777778],[-112.45277777777778,39.0075],[-112.45277777777778,39.0075],[-112.45277777777778,39.0075],[-112.58444444444444,38.98694444444445],[-112.58444444444444,38.98694444444445],[-112.58444444444444,38.98694444444445],[-112.71694444444445,38.96611111111111],[-112.71694444444445,38.96611111111111],[-112.71694444444445,38.96611111111111],[-112.71694444444445,38.96611111111111],[-112.71694444444445,38.96611111111111],[-112.85,38.94499999999999],[-112.85,38.94499999999999],[-113.11722222222221,38.90222222222222],[-113.11722222222221,38.90222222222222],[-113.11722222222221,38.90222222222222],[-113.11722222222221,38.90222222222222],[-113.51555555555555,38.83694444444445],[-113.51555555555555,38.83694444444445],[-113.51555555555555,38.83694444444445],[-113.51555555555555,38.83694444444445],[-113.64805555555556,38.81472222222222],[-113.64805555555556,38.81472222222222],[-113.64805555555556,38.81472222222222],[-113.64805555555556,38.81472222222222],[-113.78166666666667,38.79361111111111],[-113.78166666666667,38.79361111111111],[-114.17750000000001,38.73083333333334],[-114.17750000000001,38.73083333333334],[-114.42500000000001,38.69083333333333],[-114.42500000000001,38.69083333333333],[-114.42500000000001,38.69083333333333],[-114.42500000000001,38.69083333333333],[-114.54444444444444,38.671388888888885],[-114.54444444444444,38.671388888888885],[-114.54444444444444,38.671388888888885],[-114.54444444444444,38.671388888888885],[-114.54444444444444,38.671388888888885],[-114.54444444444444,38.671388888888885],[-114.66444444444446,38.65138888888889],[-114.75833333333334,38.63611111111111],[-114.75833333333334,38.63611111111111],[-115.11999999999999,38.575],[-115.24638888888889,38.553888888888885],[-115.24638888888889,38.553888888888885],[-115.38666666666667,38.53111111111111],[-115.38666666666667,38.53111111111111],[-115.38666666666667,38.53111111111111],[-115.38666666666667,38.53111111111111],[-115.38666666666667,38.53111111111111],[-115.64222222222223,38.486111111111114],[-115.64222222222223,38.486111111111114],[-115.64222222222223,38.486111111111114],[-115.64222222222223,38.486111111111114],[-115.64222222222223,38.486111111111114],[-115.76638888888888,38.46527777777778],[-115.76638888888888,38.46527777777778],[-115.76638888888888,38.46527777777778],[-116.01277777777777,38.42055555555555],[-116.01277777777777,38.42055555555555],[-116.01277777777777,38.42055555555555],[-116.01277777777777,38.42055555555555],[-116.01277777777777,38.42055555555555],[-116.62805555555555,38.30916666666666],[-116.62805555555555,38.30916666666666],[-116.62805555555555,38.30916666666666],[-116.62805555555555,38.30916666666666],[-116.62805555555555,38.30916666666666],[-116.75,38.28722222222222],[-116.75,38.28722222222222],[-116.75,38.28722222222222],[-116.75,38.28722222222222],[-116.75,38.28722222222222],[-116.99111111111111,38.242222222222225],[-116.99111111111111,38.242222222222225],[-116.99111111111111,38.242222222222225],[-116.99111111111111,38.242222222222225],[-116.99111111111111,38.242222222222225],[-117.1111111111111,38.21944444444445],[-117.1111111111111,38.21944444444445],[-117.1111111111111,38.21944444444445],[-117.1111111111111,38.21944444444445],[-117.1111111111111,38.21944444444445],[-117.59472222222222,38.12777777777778],[-117.59472222222222,38.12777777777778],[-117.59472222222222,38.12777777777778],[-117.71861111111112,38.103611111111114],[-117.71861111111112,38.103611111111114],[-117.71861111111112,38.103611111111114],[-117.84194444444444,38.07972222222222],[-117.84194444444444,38.07972222222222],[-117.84194444444444,38.07972222222222],[-117.84194444444444,38.07972222222222],[-117.96722222222222,38.055277777777775],[-117.96722222222222,38.055277777777775],[-117.96722222222222,38.055277777777775],[-118.21555555555555,38.00611111111111],[-118.45944444444444,37.95722222222223],[-118.45944444444444,37.95722222222223],[-118.45944444444444,37.95722222222223],[-118.45944444444444,37.95722222222223],[-118.45944444444444,37.95722222222223],[-118.58472222222221,37.93194444444444],[-118.58472222222221,37.93194444444444],[-118.58472222222221,37.93194444444444],[-118.58472222222221,37.93194444444444],[-118.58472222222221,37.93194444444444],[-118.96861111111112,37.8725],[-119.11916666666666,37.85527777777778],[-119.11916666666666,37.85527777777778],[-119.11916666666666,37.85527777777778],[-119.11916666666666,37.85527777777778],[-119.11916666666666,37.85527777777778],[-119.2525,37.83972222222222],[-119.2525,37.83972222222222],[-119.2525,37.83972222222222],[-119.2525,37.83972222222222],[-119.2525,37.83972222222222],[-119.5275,37.80694444444444],[-119.5275,37.80694444444444],[-119.5275,37.80694444444444],[-119.5275,37.80694444444444],[-119.5275,37.80694444444444],[-119.5275,37.80694444444444],[-119.67083333333333,37.79],[-119.67083333333333,37.79],[-119.67083333333333,37.79],[-119.67083333333333,37.79],[-119.81194444444444,37.77305555555555],[-119.81194444444444,37.77305555555555],[-119.81194444444444,37.77305555555555],[-119.95027777777779,37.755833333333335],[-120.08805555555556,37.73888888888889],[-120.08805555555556,37.73888888888889],[-120.22527777777778,37.72222222222222],[-120.22527777777778,37.72222222222222],[-120.22527777777778,37.72222222222222],[-120.22527777777778,37.72222222222222],[-120.22527777777778,37.72222222222222],[-120.45,37.7],[-120.45,37.7],[-120.45,37.7],[-120.44500000000001,37.69333333333333],[-120.44500000000001,37.69333333333333],[-120.44500000000001,37.69333333333333],[-120.5761111111111,37.67944444444444],[-120.5761111111111,37.67944444444444],[-120.5761111111111,37.67944444444444],[-120.5761111111111,37.67944444444444],[-120.70472222222223,37.663888888888884],[-120.70472222222223,37.663888888888884],[-120.70472222222223,37.663888888888884],[-120.96833333333333,37.632222222222225],[-120.96833333333333,37.632222222222225],[-120.96833333333333,37.632222222222225],[-120.96833333333333,37.632222222222225],[-121.05,37.61666666666667],[-121.05,37.61666666666667],[-121.05,37.61666666666667],[-121.05,37.61666666666667],[-121.05,37.61666666666667],[-121.33888888888889,37.58361111111111],[-121.33888888888889,37.58361111111111],[-121.33888888888889,37.58361111111111],[-121.33888888888889,37.58361111111111],[-121.33888888888889,37.58361111111111],[-121.41666666666667,37.583333333333336],[-121.41666666666667,37.583333333333336],[-121.41666666666667,37.583333333333336],[-121.56638888888888,37.5575],[-121.56638888888888,37.5575],[-121.56638888888888,37.5575],[-121.56638888888888,37.5575],[-121.56638888888888,37.5575],[-121.71666666666667,37.53333333333333],[-121.71666666666667,37.53333333333333],[-121.71666666666667,37.53333333333333],[-121.71666666666667,37.53333333333333],[-121.71666666666667,37.53333333333333],[-121.81666666666666,37.5],[-121.81666666666666,37.5],[-121.91666666666667,37.5],[-121.91666666666667,37.5],[-121.91666666666667,37.5],[-121.94,37.49472222222222],[-121.94,37.49472222222222],[-121.94,37.49472222222222],[-121.94,37.49472222222222],[-122.02666666666667,37.49944444444444],[-122.02666666666667,37.49944444444444],[-122.02666666666667,37.49944444444444],[-122.15,37.53333333333333],[-122.15,37.53333333333333],[-122.15,37.53333333333333],[-122.15,37.53333333333333],[-122.15,37.53333333333333],[-122.15,37.53333333333333],[-122.15,37.53333333333333],[-122.15,37.53333333333333]],"type":"LineString"}
}
