{
  "id": 2014763695,
  "type": "Feature",
  "properties": {
    "geom:area": 0,
    "geom:bbox": "-123.132550,37.619960,-122.253090,38.515530",
    "geom:latitude": 38.006258489731955,
    "geom:longitude": -122.64605011551689,
    "src:alt_label": "swim-approach",
    "src:geom": "swim",
    "swim:elevations": [
      7317,
      7191,
      6879,
      6757,
      6328,
      6083,
      5782,
      5626,
      5088,
      5011,
      4612,
      4524,
      4184,
      3906,
      3602,
      3327,
      3249,
      2936,
      2911,
      2602,
      2529,
      2501,
      2438,
      2413,
      2200,
      1953,
      1890,
      1828,
      1832,
      1829,
      1837,
      1770,
      1642,
      1569,
      1452,
      1147,
      972,
      923,
      914,
      777,
      735,
      622,
      569,
      365,
      320,
      131,
      72,
      123
    ],
    "swim:geom": "approach",
    "swim:timestamps": [
      1770841701,
      1770841711,
      1770841737,
      1770841762,
      1770841791,
      1770841815,
      1770841845,
      1770841860,
      1770841913,
      1770841922,
      1770841972,
      1770841985,
      1770842032,
      1770842068,
      1770842095,
      1770842122,
      1770842137,
      1770842188,
      1770842191,
      1770842244,
      1770842271,
      1770842282,
      1770842299,
      1770842311,
      1770842354,
      1770842393,
      1770842414,
      1770842442,
      1770842464,
      1770842488,
      1770842518,
      1770842548,
      1770842575,
      1770842586,
      1770842612,
      1770842664,
      1770842694,
      1770842719,
      1770842756,
      1770842787,
      1770842793,
      1770842818,
      1770842830,
      1770842879,
      1770842888,
      1770842936,
      1770842953,
      1770842973
    ],
    "wof:geomhash": "edd9d6e960ddb2dda131953519668fe9",
    "wof:id": 2014763695,
    "wof:repo": "sfomuseum-data-flights-2026-02"
  },
  "bbox": [
    -123.13255,
    37.61996,
    -122.25309,
    38.51553
  ],
  "geometry": {"coordinates":[[-123.13255,38.51553],[-123.11576,38.50243],[-123.07255,38.4678],[-123.03318,38.43723],[-122.98589,38.39903],[-122.94726,38.36812],[-122.90098,38.33121],[-122.87862,38.31344],[-122.79874,38.24966],[-122.78661,38.23909],[-122.75079,38.16786],[-122.74462,38.14758],[-122.72479,38.07778],[-122.71018,38.02645],[-122.69979,37.99097],[-122.68988,37.95689],[-122.68435,37.93772],[-122.67825,37.87276],[-122.67903,37.86898],[-122.67868,37.80309],[-122.64993,37.78036],[-122.63791,37.77222],[-122.61905,37.76134],[-122.60356,37.7573],[-122.54623,37.74925],[-122.4947,37.74308],[-122.46813,37.75016],[-122.44696,37.7743],[-122.4325,37.79384],[-122.41695,37.8144],[-122.39744,37.84005],[-122.36935,37.85656],[-122.34112,37.85167],[-122.32975,37.84896],[-122.30267,37.84259],[-122.25447,37.82591],[-122.25309,37.80366],[-122.26143,37.78609],[-122.27881,37.76023],[-122.29297,37.73899],[-122.29572,37.73483],[-122.30712,37.71771],[-122.31266,37.70937],[-122.33295,37.67881],[-122.33649,37.67351],[-122.35551,37.64481],[-122.36243,37.63441],[-122.3706,37.61996]],"type":"LineString"}
}
