{
  "id": 2014813065,
  "type": "Feature",
  "properties": {
    "geom:area": 0,
    "geom:bbox": "-122.350000,37.433333,-73.541111,44.628056",
    "geom:latitude": 42.531998118036974,
    "geom:longitude": -98.13158197474107,
    "src:alt_label": "swim-path",
    "src:geom": "swim",
    "swim:altitudes": [
      "023",
      "042",
      "042",
      "110",
      "110",
      "110",
      "120",
      "157",
      "157",
      "185",
      "185",
      "260",
      "260",
      "260",
      "283",
      "283",
      "283",
      "283",
      "300C",
      "300C",
      "300C",
      "300C",
      "300C",
      "300C",
      "300C",
      "300C",
      "300C",
      "300C",
      "300C",
      "300C",
      "300C",
      "300C",
      "300C",
      "300C",
      "300C",
      "300C",
      "300C",
      "300C",
      "300C",
      "300C",
      "300C",
      "300C",
      "300C",
      "300C",
      "300C",
      "300C",
      "300C",
      "300C",
      "300C",
      "300C",
      "300C",
      "300C",
      "300C",
      "300C",
      "300C",
      "300C",
      "300C",
      "300C",
      "300C",
      "300C",
      "300C",
      "324",
      "324",
      "331",
      "331",
      "339C",
      "339C",
      "339C",
      "340C",
      "340C",
      "340C",
      "340C",
      "340C",
      "340C",
      "340C",
      "340C",
      "340C",
      "340C",
      "340C",
      "340C",
      "340C",
      "340C",
      "340C",
      "340C",
      "340C",
      "340C",
      "340C",
      "340C",
      "340C",
      "340C",
      "340C",
      "340C",
      "340C",
      "341C",
      "341C",
      "340C",
      "340C",
      "340C",
      "340C",
      "340C",
      "340C",
      "340C",
      "340C",
      "340C",
      "340C",
      "340C",
      "340C",
      "340C",
      "340C",
      "340C",
      "340C",
      "340C",
      "340C",
      "340C",
      "340C",
      "340C",
      "341C",
      "341C",
      "340C",
      "340C",
      "340C",
      "340C",
      "340C",
      "340C",
      "340C",
      "340C",
      "340C",
      "340C",
      "340C",
      "340C",
      "340C",
      "340C",
      "340C",
      "340C",
      "340C",
      "340C",
      "340C",
      "340C",
      "340C",
      "340C",
      "340C",
      "341C",
      "341C",
      "340C",
      "340C",
      "340C",
      "340C",
      "340C",
      "340C",
      "340C",
      "340C",
      "340C",
      "340C",
      "340C",
      "340C",
      "340C",
      "340C",
      "340C",
      "340C",
      "340C",
      "340C",
      "340C",
      "340C",
      "340C",
      "340C",
      "340C",
      "340C",
      "341C",
      "341C",
      "341C",
      "340C",
      "340C",
      "340C",
      "340C",
      "340C",
      "340C",
      "340C",
      "340C",
      "340C",
      "340C",
      "340C",
      "340C",
      "341C",
      "341C",
      "340C",
      "341",
      "341",
      "343",
      "343",
      "347",
      "349",
      "349",
      "353",
      "353",
      "355",
      "355",
      "355",
      "360C",
      "360C",
      "360C",
      "360C",
      "360C",
      "360C",
      "360C",
      "360C",
      "360C",
      "360C",
      "360C",
      "360C",
      "360C",
      "360C",
      "360C",
      "360C",
      "360C",
      "360C",
      "360C",
      "360C",
      "360C",
      "360C",
      "360C",
      "360C",
      "360C",
      "360C",
      "360C",
      "360C",
      "360C",
      "360C",
      "360C",
      "360C",
      "360C",
      "360C",
      "360C",
      "360C",
      "360C",
      "360C",
      "360C",
      "360C",
      "360C",
      "360C",
      "360C",
      "360C",
      "361C",
      "361C",
      "361C",
      "361C",
      "360C",
      "360C",
      "360C",
      "360C",
      "360C",
      "360C",
      "360C",
      "360C",
      "360C",
      "360C",
      "360C",
      "360C",
      "360C",
      "360C",
      "360C",
      "360C",
      "360C",
      "360C",
      "360C",
      "360C",
      "360C",
      "360C",
      "360C",
      "360C",
      "361C",
      "360C",
      "360C",
      "360C",
      "360C",
      "361C",
      "360C",
      "360C",
      "360C",
      "360C",
      "360C",
      "360C",
      "360C",
      "360C",
      "360C",
      "360C",
      "360C",
      "360C",
      "360C",
      "360C",
      "360C",
      "360C",
      "360C",
      "360C",
      "360C",
      "361C",
      "360C",
      "360C",
      "360C",
      "361C",
      "361C",
      "360C",
      "360C",
      "361C",
      "361C",
      "361C",
      "360C",
      "360C",
      "360C",
      "360C",
      "360C",
      "360C",
      "360C",
      "360C",
      "360C",
      "360C",
      "360C",
      "360C",
      "350",
      "350",
      "340",
      "281",
      "279",
      "279",
      "271",
      "261",
      "234",
      "214",
      "173",
      "155",
      "134",
      "134",
      "122",
      "110",
      "106",
      "106",
      "089",
      "074",
      "070",
      "067",
      "060",
      "060",
      "056",
      "044",
      "035",
      "035",
      "034",
      "034",
      "027",
      "018",
      "016",
      "010",
      "009",
      "003"
    ],
    "swim:geom": "path",
    "swim:speeds": [
      211,
      260,
      260,
      283,
      283,
      283,
      325,
      352,
      352,
      363,
      363,
      366,
      366,
      366,
      365,
      365,
      365,
      365,
      360,
      360,
      360,
      361,
      361,
      361,
      361,
      360,
      360,
      360,
      359,
      359,
      359,
      359,
      361,
      361,
      361,
      361,
      358,
      358,
      359,
      360,
      360,
      360,
      360,
      373,
      373,
      373,
      373,
      373,
      375,
      375,
      375,
      377,
      377,
      377,
      377,
      376,
      376,
      376,
      376,
      378,
      378,
      367,
      367,
      367,
      367,
      367,
      367,
      367,
      363,
      363,
      364,
      364,
      364,
      364,
      364,
      361,
      361,
      359,
      359,
      359,
      359,
      360,
      361,
      362,
      364,
      364,
      364,
      364,
      367,
      369,
      369,
      371,
      371,
      373,
      373,
      372,
      372,
      372,
      371,
      371,
      371,
      371,
      372,
      375,
      375,
      376,
      376,
      376,
      377,
      377,
      387,
      387,
      387,
      392,
      392,
      392,
      395,
      395,
      397,
      397,
      398,
      398,
      398,
      398,
      398,
      401,
      401,
      401,
      402,
      404,
      404,
      405,
      405,
      405,
      405,
      405,
      408,
      408,
      420,
      420,
      420,
      422,
      422,
      422,
      422,
      419,
      418,
      418,
      418,
      417,
      417,
      417,
      417,
      417,
      417,
      421,
      423,
      423,
      423,
      423,
      429,
      429,
      429,
      433,
      434,
      434,
      434,
      436,
      436,
      436,
      436,
      435,
      435,
      433,
      434,
      434,
      448,
      443,
      441,
      441,
      441,
      441,
      441,
      441,
      443,
      434,
      434,
      443,
      443,
      434,
      438,
      438,
      440,
      440,
      441,
      441,
      441,
      438,
      428,
      427,
      427,
      427,
      431,
      431,
      429,
      429,
      431,
      431,
      437,
      437,
      439,
      439,
      439,
      439,
      439,
      440,
      440,
      441,
      441,
      440,
      440,
      440,
      440,
      440,
      439,
      437,
      436,
      436,
      436,
      433,
      433,
      428,
      428,
      430,
      425,
      425,
      426,
      426,
      428,
      428,
      428,
      429,
      429,
      429,
      428,
      426,
      426,
      423,
      422,
      422,
      436,
      439,
      439,
      439,
      418,
      418,
      411,
      419,
      424,
      425,
      427,
      429,
      444,
      444,
      433,
      433,
      433,
      404,
      410,
      412,
      405,
      406,
      401,
      401,
      403,
      397,
      397,
      398,
      400,
      400,
      403,
      403,
      403,
      409,
      416,
      416,
      416,
      417,
      417,
      416,
      416,
      416,
      416,
      416,
      418,
      419,
      419,
      418,
      417,
      417,
      414,
      400,
      401,
      401,
      401,
      401,
      399,
      398,
      398,
      399,
      399,
      406,
      408,
      409,
      411,
      411,
      401,
      401,
      401,
      387,
      385,
      381,
      381,
      380,
      377,
      354,
      345,
      334,
      311,
      276,
      276,
      229,
      217,
      211,
      211,
      234,
      219,
      203,
      204,
      203,
      203,
      177,
      174,
      159,
      159,
      163,
      163,
      158,
      157,
      150,
      136,
      140,
      134
    ],
    "swim:timestamps": [
      1771381081,
      1771381141,
      1771381141,
      1771381322,
      1771381322,
      1771381322,
      1771381382,
      1771381502,
      1771381502,
      1771381622,
      1771381622,
      1771381922,
      1771381922,
      1771381922,
      1771382043,
      1771382043,
      1771382043,
      1771382043,
      1771382283,
      1771382283,
      1771382283,
      1771382464,
      1771382464,
      1771382464,
      1771382523,
      1771382763,
      1771382825,
      1771382825,
      1771382885,
      1771383065,
      1771383065,
      1771383065,
      1771383246,
      1771383246,
      1771383246,
      1771383246,
      1771383907,
      1771383907,
      1771384027,
      1771384087,
      1771384087,
      1771384147,
      1771384147,
      1771385108,
      1771385108,
      1771385108,
      1771385168,
      1771385168,
      1771385349,
      1771385349,
      1771385349,
      1771385950,
      1771385950,
      1771385950,
      1771385950,
      1771386065,
      1771386245,
      1771386245,
      1771386245,
      1771386365,
      1771386365,
      1771386546,
      1771386546,
      1771386606,
      1771386606,
      1771386668,
      1771386668,
      1771386668,
      1771386848,
      1771386848,
      1771386906,
      1771386906,
      1771386906,
      1771386966,
      1771387028,
      1771387086,
      1771387086,
      1771387146,
      1771387146,
      1771387206,
      1771387206,
      1771387266,
      1771387386,
      1771387446,
      1771387507,
      1771387507,
      1771387507,
      1771387507,
      1771387567,
      1771387627,
      1771387627,
      1771387687,
      1771387687,
      1771387747,
      1771387747,
      1771387867,
      1771387867,
      1771387867,
      1771387927,
      1771387927,
      1771387927,
      1771387927,
      1771387987,
      1771388107,
      1771388107,
      1771388167,
      1771388167,
      1771388167,
      1771388227,
      1771388227,
      1771388527,
      1771388527,
      1771388527,
      1771388888,
      1771388888,
      1771388888,
      1771388948,
      1771388948,
      1771389008,
      1771389008,
      1771389188,
      1771389188,
      1771389248,
      1771389248,
      1771389248,
      1771389428,
      1771389428,
      1771389428,
      1771389488,
      1771389548,
      1771389548,
      1771389668,
      1771389668,
      1771389849,
      1771389849,
      1771389849,
      1771389909,
      1771389909,
      1771390089,
      1771390089,
      1771390089,
      1771390149,
      1771390149,
      1771390269,
      1771390269,
      1771390389,
      1771390449,
      1771390449,
      1771390449,
      1771390509,
      1771390509,
      1771390629,
      1771390629,
      1771390629,
      1771390629,
      1771390749,
      1771390809,
      1771390809,
      1771390809,
      1771390809,
      1771391170,
      1771391170,
      1771391170,
      1771391290,
      1771391350,
      1771391350,
      1771391350,
      1771391410,
      1771391410,
      1771391410,
      1771391470,
      1771391530,
      1771391530,
      1771391590,
      1771391770,
      1771391770,
      1771391950,
      1771392010,
      1771392070,
      1771392070,
      1771392070,
      1771392070,
      1771392190,
      1771392190,
      1771392424,
      1771392477,
      1771392477,
      1771392484,
      1771392484,
      1771392537,
      1771392544,
      1771392544,
      1771392597,
      1771392597,
      1771392611,
      1771392611,
      1771392611,
      1771392664,
      1771392671,
      1771392777,
      1771392791,
      1771392791,
      1771392898,
      1771392898,
      1771392904,
      1771392904,
      1771392964,
      1771392964,
      1771393138,
      1771393151,
      1771393198,
      1771393198,
      1771393198,
      1771393198,
      1771393211,
      1771393271,
      1771393318,
      1771393331,
      1771393391,
      1771393438,
      1771393438,
      1771393438,
      1771393445,
      1771393451,
      1771393511,
      1771393571,
      1771393625,
      1771393678,
      1771393685,
      1771393798,
      1771393798,
      1771393858,
      1771393858,
      1771393865,
      1771393918,
      1771393918,
      1771393978,
      1771393978,
      1771394045,
      1771394045,
      1771394225,
      1771394339,
      1771394339,
      1771394339,
      1771394345,
      1771394519,
      1771394519,
      1771394579,
      1771394639,
      1771394639,
      1771394706,
      1771394759,
      1771394759,
      1771394759,
      1771394819,
      1771394819,
      1771394879,
      1771394946,
      1771394999,
      1771395006,
      1771395066,
      1771395126,
      1771395246,
      1771395246,
      1771395299,
      1771395299,
      1771395299,
      1771395426,
      1771395727,
      1771395787,
      1771395907,
      1771396267,
      1771396387,
      1771396507,
      1771396567,
      1771397168,
      1771397228,
      1771397348,
      1771397528,
      1771397528,
      1771397768,
      1771397768,
      1771397768,
      1771398068,
      1771398489,
      1771398489,
      1771398489,
      1771398845,
      1771398845,
      1771398905,
      1771398965,
      1771398965,
      1771399025,
      1771399085,
      1771399145,
      1771399205,
      1771399265,
      1771399325,
      1771399385,
      1771399385,
      1771399445,
      1771399745,
      1771399925,
      1771399925,
      1771399925,
      1771399985,
      1771400105,
      1771400165,
      1771400165,
      1771400225,
      1771400225,
      1771400345,
      1771400406,
      1771400466,
      1771400526,
      1771400526,
      1771400766,
      1771400946,
      1771400946,
      1771401006,
      1771401366,
      1771401373,
      1771401373,
      1771401426,
      1771401481,
      1771401606,
      1771401666,
      1771401776,
      1771401846,
      1771401906,
      1771401906,
      1771401967,
      1771402086,
      1771402146,
      1771402146,
      1771402261,
      1771402322,
      1771402382,
      1771402447,
      1771402507,
      1771402507,
      1771402555,
      1771402616,
      1771402676,
      1771402676,
      1771402687,
      1771402687,
      1771402730,
      1771402790,
      1771402807,
      1771402849,
      1771402867,
      1771402910
    ],
    "wof:geomhash": "6aeecddf367b7660b3ebccc318929d4c",
    "wof:id": 2014813065,
    "wof:repo": "sfomuseum-data-flights-2026-02"
  },
  "bbox": [
    -122.35,
    37.43333333333333,
    -73.5411111111111,
    44.628055555555555
  ],
  "geometry": {"coordinates":[[-73.80111111111111,40.57416666666667],[-73.71666666666667,40.57638888888889],[-73.71666666666667,40.57638888888889],[-73.5411111111111,40.74777777777778],[-73.5411111111111,40.74777777777778],[-73.5411111111111,40.74777777777778],[-73.57916666666667,40.83166666666667],[-73.73861111111111,40.97083333333334],[-73.73861111111111,40.97083333333334],[-73.99888888888889,41.01694444444444],[-73.99888888888889,41.01694444444444],[-74.62555555555555,41.18194444444444],[-74.62555555555555,41.18194444444444],[-74.62555555555555,41.18194444444444],[-74.86777777777777,41.26583333333333],[-74.86777777777777,41.26583333333333],[-74.86777777777777,41.26583333333333],[-74.86777777777777,41.26583333333333],[-75.35555555555555,41.433055555555555],[-75.35555555555555,41.433055555555555],[-75.35555555555555,41.433055555555555],[-75.71416666666667,41.54277777777778],[-75.71416666666667,41.54277777777778],[-75.71416666666667,41.54277777777778],[-75.85,41.581388888888895],[-76.34444444444443,41.720555555555556],[-76.46194444444444,41.753055555555555],[-76.46194444444444,41.753055555555555],[-76.58694444444444,41.78777777777778],[-76.96277777777777,41.89111111111111],[-76.96277777777777,41.89111111111111],[-76.96277777777777,41.89111111111111],[-77.34444444444443,41.99388888888889],[-77.34444444444443,41.99388888888889],[-77.34444444444443,41.99388888888889],[-77.34444444444443,41.99388888888889],[-78.74833333333333,42.36027777777778],[-78.74833333333333,42.36027777777778],[-79.01861111111111,42.42666666666666],[-79.14666666666668,42.45805555555556],[-79.14666666666668,42.45805555555556],[-79.26333333333334,42.48638888888889],[-79.26333333333334,42.48638888888889],[-81.3786111111111,42.977222222222224],[-81.3786111111111,42.977222222222224],[-81.3786111111111,42.977222222222224],[-81.5213888888889,43.00861111111111],[-81.5213888888889,43.00861111111111],[-81.93055555555556,43.097500000000004],[-81.93055555555556,43.097500000000004],[-81.93055555555556,43.097500000000004],[-83.29638888888888,43.38027777777778],[-83.29638888888888,43.38027777777778],[-83.29638888888888,43.38027777777778],[-83.29638888888888,43.38027777777778],[-83.55666666666666,43.43138888888889],[-83.97111111111111,43.51166666666666],[-83.97111111111111,43.51166666666666],[-83.97111111111111,43.51166666666666],[-84.27027777777778,43.589444444444446],[-84.27027777777778,43.589444444444446],[-84.66833333333334,43.70638888888889],[-84.66833333333334,43.70638888888889],[-84.79777777777778,43.74444444444445],[-84.79777777777778,43.74444444444445],[-84.92805555555556,43.782222222222224],[-84.92805555555556,43.782222222222224],[-84.92805555555556,43.782222222222224],[-85.31472222222222,43.89333333333333],[-85.31472222222222,43.89333333333333],[-85.44583333333334,43.93055555555555],[-85.44583333333334,43.93055555555555],[-85.44583333333334,43.93055555555555],[-85.57527777777777,43.967222222222226],[-85.70361111111112,44.0025],[-85.84027777777777,44.02194444444444],[-85.84027777777777,44.02194444444444],[-85.97527777777778,44.0375],[-85.97527777777778,44.0375],[-86.11305555555555,44.05333333333333],[-86.11305555555555,44.05333333333333],[-86.25,44.06861111111112],[-86.52472222222222,44.09916666666667],[-86.66305555555556,44.11416666666667],[-86.80222222222221,44.12916666666667],[-86.80222222222221,44.12916666666667],[-86.80222222222221,44.12916666666667],[-86.80222222222221,44.12916666666667],[-86.94472222222223,44.144444444444446],[-87.08666666666666,44.159444444444446],[-87.08666666666666,44.159444444444446],[-87.2125,44.1725],[-87.2125,44.1725],[-87.36194444444443,44.18805555555555],[-87.36194444444443,44.18805555555555],[-87.64416666666668,44.21666666666667],[-87.64416666666668,44.21666666666667],[-87.64416666666668,44.21666666666667],[-87.78583333333333,44.230555555555554],[-87.78583333333333,44.230555555555554],[-87.78583333333333,44.230555555555554],[-87.78583333333333,44.230555555555554],[-87.92777777777778,44.24444444444445],[-88.21444444444445,44.27194444444444],[-88.21444444444445,44.27194444444444],[-88.35888888888888,44.285555555555554],[-88.35888888888888,44.285555555555554],[-88.35888888888888,44.285555555555554],[-88.50527777777778,44.299166666666665],[-88.50527777777778,44.299166666666665],[-89.26916666666666,44.36638888888889],[-89.26916666666666,44.36638888888889],[-89.26916666666666,44.36638888888889],[-90.16861111111112,44.43944444444444],[-90.16861111111112,44.43944444444444],[-90.16861111111112,44.43944444444444],[-90.32388888888889,44.45138888888889],[-90.32388888888889,44.45138888888889],[-90.47694444444444,44.463055555555556],[-90.47694444444444,44.463055555555556],[-90.93583333333333,44.49583333333334],[-90.93583333333333,44.49583333333334],[-91.09083333333332,44.50666666666667],[-91.09083333333332,44.50666666666667],[-91.09083333333332,44.50666666666667],[-91.55499999999999,44.5375],[-91.55499999999999,44.5375],[-91.55499999999999,44.5375],[-91.71194444444444,44.5475],[-91.86611111111111,44.55722222222222],[-91.86611111111111,44.55722222222222],[-92.18138888888889,44.57638888888889],[-92.18138888888889,44.57638888888889],[-92.65222222222222,44.60333333333333],[-92.65222222222222,44.60333333333333],[-92.65222222222222,44.60333333333333],[-92.81055555555555,44.61194444444445],[-92.81055555555555,44.61194444444445],[-93.30722222222222,44.628055555555555],[-93.30722222222222,44.628055555555555],[-93.30722222222222,44.628055555555555],[-93.4738888888889,44.62416666666667],[-93.4738888888889,44.62416666666667],[-93.77027777777778,44.61611111111111],[-93.77027777777778,44.61611111111111],[-94.12666666666667,44.605555555555554],[-94.28777777777778,44.6],[-94.28777777777778,44.6],[-94.28777777777778,44.6],[-94.44944444444445,44.594722222222224],[-94.44944444444445,44.594722222222224],[-94.75694444444444,44.58388888888889],[-94.75694444444444,44.58388888888889],[-94.75694444444444,44.58388888888889],[-94.75694444444444,44.58388888888889],[-95.08305555555555,44.57138888888889],[-95.24888888888889,44.56444444444444],[-95.24888888888889,44.56444444444444],[-95.24888888888889,44.56444444444444],[-95.24888888888889,44.56444444444444],[-96.24638888888889,44.51916666666666],[-96.24638888888889,44.51916666666666],[-96.24638888888889,44.51916666666666],[-96.57138888888889,44.50222222222222],[-96.74111111111111,44.49305555555556],[-96.74111111111111,44.49305555555556],[-96.74111111111111,44.49305555555556],[-96.94194444444445,44.481944444444444],[-96.94194444444445,44.481944444444444],[-96.94194444444445,44.481944444444444],[-97.11027777777777,44.47222222222222],[-97.27805555555555,44.462500000000006],[-97.27805555555555,44.462500000000006],[-97.44333333333334,44.4525],[-97.94666666666667,44.42111111111111],[-97.94666666666667,44.42111111111111],[-98.43055555555556,44.38861111111111],[-98.60222222222221,44.37638888888889],[-98.77111111111111,44.36416666666667],[-98.77111111111111,44.36416666666667],[-98.77111111111111,44.36416666666667],[-98.77111111111111,44.36416666666667],[-99.1111111111111,44.33916666666667],[-99.1111111111111,44.33916666666667],[-99.78805555555556,44.28638888888889],[-99.91333333333334,44.27583333333333],[-99.91333333333334,44.27583333333333],[-99.95666666666666,44.27222222222222],[-99.95666666666666,44.27222222222222],[-100.07944444444443,44.261944444444445],[-100.12277777777777,44.257222222222225],[-100.12277777777777,44.257222222222225],[-100.25111111111111,44.24722222222222],[-100.25111111111111,44.24722222222222],[-100.29638888888888,44.24333333333333],[-100.29638888888888,44.24333333333333],[-100.29638888888888,44.24333333333333],[-100.46138888888889,44.22777777777778],[-100.46166666666667,44.22888888888889],[-100.76555555555555,44.20194444444445],[-100.7925,44.19944444444444],[-100.7925,44.19944444444444],[-101.09777777777778,44.171388888888885],[-101.09777777777778,44.171388888888885],[-101.09722222222221,44.16888888888889],[-101.09722222222221,44.16888888888889],[-101.26305555555555,44.15333333333333],[-101.26305555555555,44.15333333333333],[-101.76361111111112,44.10722222222223],[-101.79388888888889,44.10444444444445],[-101.9325,44.09027777777778],[-101.9325,44.09027777777778],[-101.9325,44.09027777777778],[-101.9325,44.09027777777778],[-101.9625,44.08722222222222],[-102.12916666666666,44.07055555555556],[-102.26805555555555,44.05611111111111],[-102.29944444444445,44.05277777777778],[-102.46666666666667,44.03527777777778],[-102.60499999999999,44.02055555555555],[-102.60499999999999,44.02055555555555],[-102.60499999999999,44.02055555555555],[-102.60749999999999,44.02027777777778],[-102.63527777777779,44.01722222222222],[-102.80027777777778,43.99944444444444],[-102.96611111111112,43.981388888888894],[-103.10222222222221,43.96333333333334],[-103.26583333333333,43.939722222222215],[-103.26611111111112,43.939722222222215],[-103.58999999999999,43.89222222222222],[-103.58999999999999,43.89222222222222],[-103.74916666666667,43.86888888888889],[-103.74916666666667,43.86888888888889],[-103.75,43.86694444444444],[-103.91000000000001,43.84444444444445],[-103.91000000000001,43.84444444444445],[-104.06805555555555,43.82055555555556],[-104.06805555555555,43.82055555555556],[-104.26055555555556,43.79083333333333],[-104.26055555555556,43.79083333333333],[-104.73944444444444,43.71611111111111],[-105.03111111111112,43.669444444444444],[-105.03111111111112,43.669444444444444],[-105.03111111111112,43.669444444444444],[-105.06027777777777,43.664722222222224],[-105.50638888888889,43.59166666666667],[-105.50638888888889,43.59166666666667],[-105.66250000000001,43.565555555555555],[-105.81888888888888,43.53916666666667],[-105.81888888888888,43.53916666666667],[-106.01555555555555,43.505833333333335],[-106.14277777777778,43.48416666666667],[-106.14277777777778,43.48416666666667],[-106.14277777777778,43.48416666666667],[-106.29972222222221,43.456944444444446],[-106.29972222222221,43.456944444444446],[-106.44916666666667,43.43083333333333],[-106.63555555555556,43.39805555555556],[-106.76138888888889,43.37583333333333],[-106.79444444444444,43.36972222222222],[-106.9538888888889,43.34111111111111],[-107.1036111111111,43.314166666666665],[-107.43361111111112,43.25361111111111],[-107.43361111111112,43.25361111111111],[-107.59583333333333,43.22361111111111],[-107.59583333333333,43.22361111111111],[-107.59583333333333,43.22361111111111],[-107.89527777777778,43.16722222222222],[-108.6463888888889,43.02222222222222],[-108.79722222222222,42.9925],[-109.10722222222222,42.93055555555555],[-109.99222222222222,42.74277777777778],[-110.27555555555556,42.6475],[-110.55,42.55444444444444],[-110.68805555555556,42.507222222222225],[-112.02333333333333,42.03805555555555],[-112.15527777777778,41.99027777777778],[-112.44777777777779,41.884166666666665],[-112.8461111111111,41.737500000000004],[-112.8461111111111,41.737500000000004],[-113.38027777777778,41.53805555555555],[-113.38027777777778,41.53805555555555],[-113.38027777777778,41.53805555555555],[-114.02444444444444,41.248333333333335],[-114.83111111111111,40.736111111111114],[-114.83111111111111,40.736111111111114],[-114.83111111111111,40.736111111111114],[-115.5038888888889,40.29833333333333],[-115.5038888888889,40.29833333333333],[-115.61749999999999,40.223055555555554],[-115.73166666666667,40.14833333333333],[-115.73166666666667,40.14833333333333],[-115.84583333333333,40.07166666666667],[-115.96111111111111,39.995555555555555],[-116.07666666666667,39.91833333333333],[-116.19083333333333,39.84166666666667],[-116.30499999999999,39.764722222222225],[-116.41861111111112,39.687777777777775],[-116.53111111111112,39.61138888888889],[-116.53111111111112,39.61138888888889],[-116.6438888888889,39.53472222222222],[-117.18333333333334,39.163333333333334],[-117.515,38.931666666666665],[-117.515,38.931666666666665],[-117.515,38.931666666666665],[-117.61583333333333,38.861111111111114],[-117.83111111111111,38.70861111111111],[-117.93694444444445,38.63361111111111],[-117.93694444444445,38.63361111111111],[-118.03416666666666,38.56333333333333],[-118.03416666666666,38.56333333333333],[-118.23027777777779,38.38638888888889],[-118.32638888888889,38.29888888888889],[-118.42111111111112,38.21222222222222],[-118.51638888888888,38.125],[-118.51638888888888,38.125],[-118.95194444444445,37.874722222222225],[-119.36805555555554,37.82611111111112],[-119.36805555555554,37.82611111111112],[-119.50222222222222,37.81027777777778],[-120.31222222222222,37.71083333333333],[-120.33333333333333,37.7],[-120.33333333333333,37.7],[-120.44277777777778,37.69472222222222],[-120.58333333333333,37.68333333333333],[-120.82722222222222,37.64944444444444],[-120.94694444444445,37.635],[-121.18333333333334,37.6],[-121.29833333333333,37.58861111111111],[-121.39500000000001,37.57777777777778],[-121.39500000000001,37.57777777777778],[-121.48333333333333,37.56666666666667],[-121.62944444444443,37.54972222222222],[-121.70027777777779,37.54611111111111],[-121.70027777777779,37.54611111111111],[-121.8,37.5],[-121.8,37.45],[-121.88333333333334,37.43333333333333],[-121.94555555555556,37.45055555555556],[-122.01055555555556,37.47027777777778],[-122.01055555555556,37.47027777777778],[-122.06666666666666,37.483333333333334],[-122.11666666666666,37.516666666666666],[-122.16666666666667,37.53333333333333],[-122.16666666666667,37.53333333333333],[-122.17333333333333,37.53611111111111],[-122.17333333333333,37.53611111111111],[-122.21666666666667,37.55],[-122.26666666666667,37.56666666666667],[-122.27055555555556,37.577222222222225],[-122.3,37.583333333333336],[-122.31305555555555,37.595],[-122.35,37.61666666666667]],"type":"LineString"}
}
