{
  "id": 2014794273,
  "type": "Feature",
  "properties": {
    "geom:area": 0,
    "geom:bbox": "-122.548333,33.526111,-117.816667,37.406389",
    "geom:latitude": 35.033198364974915,
    "geom:longitude": -120.37991249340313,
    "src:alt_label": "swim-path",
    "src:geom": "swim",
    "swim:altitudes": [
      "141",
      "141",
      "141",
      "141",
      "141",
      "166",
      "192",
      "192",
      "192",
      "212",
      "212",
      "212",
      "229",
      "229",
      "247",
      "247",
      "260",
      "260",
      "260",
      "260",
      "340",
      "340",
      "350C",
      "350C",
      "350C",
      "350C",
      "350C",
      "350C",
      "350C",
      "350C",
      "350C",
      "350C",
      "350C",
      "350C",
      "350C",
      "350C",
      "350C",
      "350C",
      "350C",
      "350C",
      "350C",
      "350C",
      "350C",
      "350C",
      "350",
      "350",
      "350",
      "350",
      "350",
      "323",
      "323",
      "323",
      "323",
      "323",
      "283",
      "283",
      "263",
      "263",
      "263",
      "171",
      "171",
      "171",
      "171",
      "152",
      "152",
      "143",
      "143",
      "125",
      "125",
      "125",
      "113",
      "107",
      "071",
      "071",
      "071",
      "071",
      "071",
      "064",
      "064",
      "061",
      "061",
      "053",
      "050",
      "050",
      "050",
      "050",
      "050",
      "050",
      "050",
      "050",
      "050",
      "050",
      "050",
      "050",
      "050",
      "050",
      "043",
      "043",
      "043",
      "043",
      "020",
      "020",
      "020",
      "014",
      "012",
      "012",
      "006",
      "006",
      "006"
    ],
    "swim:geom": "path",
    "swim:speeds": [
      347,
      347,
      347,
      347,
      347,
      360,
      362,
      362,
      362,
      371,
      371,
      371,
      416,
      416,
      430,
      430,
      445,
      445,
      445,
      445,
      468,
      468,
      467,
      467,
      467,
      467,
      467,
      467,
      467,
      467,
      467,
      469,
      469,
      469,
      470,
      470,
      470,
      470,
      470,
      461,
      461,
      461,
      461,
      461,
      463,
      463,
      463,
      463,
      464,
      461,
      461,
      461,
      461,
      461,
      452,
      452,
      446,
      446,
      446,
      367,
      367,
      367,
      367,
      358,
      358,
      359,
      359,
      359,
      359,
      359,
      354,
      346,
      278,
      278,
      278,
      278,
      278,
      275,
      275,
      265,
      265,
      226,
      219,
      219,
      218,
      218,
      218,
      218,
      217,
      217,
      217,
      222,
      222,
      222,
      222,
      222,
      219,
      219,
      219,
      219,
      152,
      152,
      152,
      147,
      140,
      140,
      142,
      142,
      142
    ],
    "swim:timestamps": [
      1771096366,
      1771096366,
      1771096366,
      1771096366,
      1771096366,
      1771096426,
      1771096487,
      1771096487,
      1771096487,
      1771096548,
      1771096548,
      1771096548,
      1771096607,
      1771096607,
      1771096668,
      1771096668,
      1771096728,
      1771096728,
      1771096728,
      1771096728,
      1771097087,
      1771097087,
      1771097147,
      1771097147,
      1771097147,
      1771097147,
      1771097208,
      1771097268,
      1771097268,
      1771097268,
      1771097268,
      1771097389,
      1771097389,
      1771097389,
      1771097628,
      1771097628,
      1771097628,
      1771097628,
      1771097628,
      1771097868,
      1771097868,
      1771097868,
      1771097868,
      1771097868,
      1771098049,
      1771098049,
      1771098049,
      1771098049,
      1771098110,
      1771098230,
      1771098230,
      1771098230,
      1771098230,
      1771098230,
      1771098350,
      1771098350,
      1771098410,
      1771098410,
      1771098410,
      1771098711,
      1771098711,
      1771098711,
      1771098711,
      1771098771,
      1771098771,
      1771098788,
      1771098788,
      1771098842,
      1771098842,
      1771098842,
      1771098891,
      1771098902,
      1771099082,
      1771099082,
      1771099082,
      1771099082,
      1771099082,
      1771099131,
      1771099131,
      1771099142,
      1771099142,
      1771099208,
      1771099251,
      1771099251,
      1771099311,
      1771099311,
      1771099311,
      1771099311,
      1771099382,
      1771099382,
      1771099382,
      1771099502,
      1771099502,
      1771099502,
      1771099569,
      1771099569,
      1771099629,
      1771099629,
      1771099629,
      1771099629,
      1771099863,
      1771099863,
      1771099863,
      1771099912,
      1771099923,
      1771099923,
      1771099972,
      1771099972,
      1771099972
    ],
    "wof:geomhash": "bf80d3b578a58fd33ea8712ccb1ecec0",
    "wof:id": 2014794273,
    "wof:repo": "sfomuseum-data-flights-2026-02"
  },
  "bbox": [
    -122.54833333333333,
    33.52611111111111,
    -117.81666666666666,
    37.406388888888884
  ],
  "geometry": {"coordinates":[[-122.48583333333333,37.406388888888884],[-122.48583333333333,37.406388888888884],[-122.48583333333333,37.406388888888884],[-122.48583333333333,37.406388888888884],[-122.48583333333333,37.406388888888884],[-122.50555555555556,37.30583333333333],[-122.5286111111111,37.19027777777777],[-122.5286111111111,37.19027777777777],[-122.5286111111111,37.19027777777777],[-122.54833333333333,37.089444444444446],[-122.54833333333333,37.089444444444446],[-122.54833333333333,37.089444444444446],[-122.51527777777778,37.00083333333333],[-122.51527777777778,37.00083333333333],[-122.40722222222223,36.893055555555556],[-122.40722222222223,36.893055555555556],[-122.31083333333333,36.79694444444444],[-122.31083333333333,36.79694444444444],[-122.31083333333333,36.79694444444444],[-122.31083333333333,36.79694444444444],[-121.71111111111111,36.19],[-121.71111111111111,36.19],[-121.61361111111111,36.09],[-121.61361111111111,36.09],[-121.61361111111111,36.09],[-121.61361111111111,36.09],[-121.51777777777778,35.99055555555556],[-121.41527777777779,35.885],[-121.41527777777779,35.885],[-121.41527777777779,35.885],[-121.41527777777779,35.885],[-121.22027777777778,35.68277777777777],[-121.22027777777778,35.68277777777777],[-121.22027777777778,35.68277777777777],[-120.81194444444444,35.278888888888886],[-120.81194444444444,35.278888888888886],[-120.81194444444444,35.278888888888886],[-120.81194444444444,35.278888888888886],[-120.81194444444444,35.278888888888886],[-120.42416666666666,34.875],[-120.42416666666666,34.875],[-120.42416666666666,34.875],[-120.42416666666666,34.875],[-120.42416666666666,34.875],[-120.16861111111112,34.5575],[-120.16861111111112,34.5575],[-120.16861111111112,34.5575],[-120.16861111111112,34.5575],[-120.08472222222221,34.45194444444445],[-119.90833333333335,34.23027777777778],[-119.90833333333335,34.23027777777778],[-119.90833333333335,34.23027777777778],[-119.90833333333335,34.23027777777778],[-119.90833333333335,34.23027777777778],[-119.71944444444445,34.04194444444444],[-119.71944444444445,34.04194444444444],[-119.58972222222222,33.97666666666667],[-119.58972222222222,33.97666666666667],[-119.58972222222222,33.97666666666667],[-119.02,33.69499999999999],[-119.02,33.69499999999999],[-119.02,33.69499999999999],[-119.02,33.69499999999999],[-118.91861111111112,33.64416666666666],[-118.91861111111112,33.64416666666666],[-118.88333333333334,33.63333333333333],[-118.88333333333334,33.63333333333333],[-118.76666666666667,33.6],[-118.76666666666667,33.6],[-118.76666666666667,33.6],[-118.69194444444445,33.590833333333336],[-118.66666666666667,33.583333333333336],[-118.36666666666666,33.53333333333333],[-118.36666666666666,33.53333333333333],[-118.36666666666666,33.53333333333333],[-118.36666666666666,33.53333333333333],[-118.36666666666666,33.53333333333333],[-118.30805555555555,33.52611111111111],[-118.30805555555555,33.52611111111111],[-118.28333333333333,33.53333333333333],[-118.28333333333333,33.53333333333333],[-118.2,33.56666666666667],[-118.15194444444445,33.58222222222223],[-118.15194444444445,33.58222222222223],[-118.0925,33.615],[-118.0925,33.615],[-118.0925,33.615],[-118.0925,33.615],[-118.01666666666667,33.65],[-118.01666666666667,33.65],[-118.01666666666667,33.65],[-117.91666666666667,33.733333333333334],[-117.91666666666667,33.733333333333334],[-117.91666666666667,33.733333333333334],[-117.88333333333334,33.8],[-117.88333333333334,33.8],[-117.85,33.85],[-117.85,33.85],[-117.85,33.85],[-117.85,33.85],[-117.81666666666666,33.766666666666666],[-117.81666666666666,33.766666666666666],[-117.81666666666666,33.766666666666666],[-117.82833333333333,33.739444444444445],[-117.83333333333333,33.733333333333334],[-117.83333333333333,33.733333333333334],[-117.85,33.70527777777778],[-117.85,33.70527777777778],[-117.85,33.70527777777778]],"type":"LineString"}
}
