{
  "id": 2014880617,
  "type": "Feature",
  "properties": {
    "geom:area": 0,
    "geom:bbox": "-122.329444,35.211944,-77.033333,38.854444",
    "geom:latitude": 36.89186669878775,
    "geom:longitude": -99.71091430282229,
    "src:alt_label": "swim-path",
    "src:geom": "swim",
    "swim:altitudes": [
      "010",
      "010",
      "026",
      "026",
      "102",
      "102",
      "126",
      "143",
      "208",
      "223",
      "239",
      "239",
      "256",
      "260C",
      "260C",
      "260C",
      "260C",
      "260C",
      "261",
      "288",
      "288",
      "294",
      "294",
      "300C",
      "300C",
      "300C",
      "300C",
      "300C",
      "300C",
      "300C",
      "300C",
      "300C",
      "300C",
      "300C",
      "300C",
      "300C",
      "300C",
      "300C",
      "300C",
      "300C",
      "300C",
      "300C",
      "300C",
      "300C",
      "300C",
      "300C",
      "300C",
      "300C",
      "300C",
      "300C",
      "300C",
      "300C",
      "300C",
      "300C",
      "300C",
      "300C",
      "300C",
      "300C",
      "300C",
      "300C",
      "300C",
      "300C",
      "300C",
      "300C",
      "300C",
      "300C",
      "300C",
      "300C",
      "300C",
      "300C",
      "300C",
      "300C",
      "300C",
      "300C",
      "300C",
      "300C",
      "300C",
      "300C",
      "300C",
      "300C",
      "300C",
      "300C",
      "300C",
      "300C",
      "300C",
      "300C",
      "300C",
      "300C",
      "300C",
      "300C",
      "300C",
      "300C",
      "300C",
      "300C",
      "300C",
      "300C",
      "300C",
      "300C",
      "300C",
      "300C",
      "300C",
      "300C",
      "300C",
      "300C",
      "300C",
      "300C",
      "300C",
      "300C",
      "300C",
      "320C",
      "320C",
      "320C",
      "320C",
      "320C",
      "320C",
      "320C",
      "320C",
      "320C",
      "320C",
      "320C",
      "320C",
      "320C",
      "320C",
      "320C",
      "320C",
      "320C",
      "320C",
      "320C",
      "320C",
      "320C",
      "320C",
      "320C",
      "320C",
      "320C",
      "320C",
      "320C",
      "320C",
      "320C",
      "320C",
      "320C",
      "320C",
      "320C",
      "320C",
      "320C",
      "320C",
      "320C",
      "320C",
      "320C",
      "320C",
      "320C",
      "320C",
      "320C",
      "320C",
      "320C",
      "320C",
      "320C",
      "320C",
      "320C",
      "320C",
      "320C",
      "320C",
      "320C",
      "320C",
      "320C",
      "320C",
      "320C",
      "320C",
      "320C",
      "320C",
      "320C",
      "320C",
      "320C",
      "320C",
      "320C",
      "320C",
      "320C",
      "320C",
      "320C",
      "320C",
      "320C",
      "320C",
      "320C",
      "320C",
      "320C",
      "320C",
      "320C",
      "320C",
      "320C",
      "320C",
      "320C",
      "320C",
      "320C",
      "320C",
      "320C",
      "320C",
      "320C",
      "320C",
      "320C",
      "320C",
      "320C",
      "320C",
      "320C",
      "320C",
      "320C",
      "320C",
      "320C",
      "320C",
      "320C",
      "320C",
      "320C",
      "320C",
      "320C",
      "320C",
      "320C",
      "320C",
      "320C",
      "320C",
      "320C",
      "320C",
      "320C",
      "320C",
      "320C",
      "320C",
      "320C",
      "320C",
      "320C",
      "320C",
      "320C",
      "320C",
      "320C",
      "320C",
      "320C",
      "320C",
      "320C",
      "323",
      "340C",
      "340C",
      "340C",
      "340C",
      "340C",
      "340C",
      "340C",
      "340C",
      "340C",
      "340C",
      "340C",
      "340C",
      "340C",
      "340C",
      "340C",
      "340C",
      "340C",
      "340C",
      "340C",
      "340C",
      "340C",
      "340C",
      "340C",
      "340C",
      "340C",
      "340C",
      "340C",
      "340C",
      "340C",
      "340C",
      "340C",
      "340C",
      "340C",
      "340C",
      "340C",
      "340C",
      "340C",
      "340C",
      "340C",
      "340C",
      "340C",
      "340C",
      "340C",
      "340C",
      "340C",
      "340C",
      "340C",
      "340C",
      "340C",
      "340C",
      "340C",
      "340C",
      "340C",
      "340C",
      "340C",
      "340C",
      "340C",
      "340C",
      "340C",
      "340C",
      "340C",
      "340C",
      "340C",
      "340C",
      "340C",
      "340C",
      "340C",
      "340C",
      "340C",
      "340C",
      "340C",
      "340C",
      "340C",
      "340C",
      "340C",
      "340C",
      "340C",
      "340C",
      "340C",
      "340C",
      "340C",
      "340C",
      "340C",
      "340C",
      "340C",
      "340C",
      "340C",
      "340C",
      "340C",
      "340C",
      "340C",
      "340C",
      "340C",
      "340C",
      "340C",
      "340C",
      "340C",
      "340C",
      "340C",
      "340C",
      "340C",
      "340C",
      "340C",
      "340C",
      "340C",
      "340C",
      "340C",
      "340C",
      "340C",
      "340C",
      "340C",
      "340C",
      "340C",
      "340C",
      "340C",
      "340C",
      "340C",
      "340C",
      "340C",
      "340C",
      "340C",
      "340C",
      "340C",
      "340C",
      "340C",
      "340C",
      "340C",
      "340C",
      "340C",
      "340C",
      "340C",
      "340C",
      "340C",
      "340C",
      "340C",
      "340C",
      "340C",
      "340C",
      "340C",
      "340C",
      "340C",
      "340C",
      "340C",
      "340C",
      "340C",
      "340C",
      "340C",
      "340C",
      "340C",
      "340C",
      "340C",
      "340C",
      "340C",
      "340C",
      "340C",
      "340C",
      "340C",
      "340C",
      "340C",
      "341C",
      "341C",
      "340C",
      "340C",
      "340C",
      "340C",
      "340C",
      "340C",
      "340",
      "340",
      "340",
      "340",
      "313",
      "313",
      "313",
      "313",
      "293",
      "272",
      "272",
      "272",
      "256",
      "256",
      "256",
      "215",
      "215",
      "217",
      "194",
      "177",
      "177",
      "135",
      "135",
      "135",
      "107",
      "107",
      "088",
      "080",
      "080",
      "080",
      "069",
      "069",
      "069",
      "060",
      "060",
      "033",
      "033",
      "014",
      "014",
      "014",
      "014",
      "005"
    ],
    "swim:geom": "path",
    "swim:speeds": [
      156,
      156,
      152,
      152,
      236,
      236,
      331,
      345,
      339,
      334,
      333,
      333,
      331,
      358,
      358,
      359,
      359,
      359,
      359,
      353,
      353,
      358,
      358,
      356,
      354,
      354,
      354,
      354,
      354,
      354,
      353,
      352,
      351,
      351,
      349,
      349,
      348,
      348,
      349,
      349,
      349,
      349,
      350,
      350,
      352,
      353,
      355,
      355,
      356,
      356,
      356,
      357,
      357,
      357,
      357,
      357,
      357,
      357,
      357,
      358,
      357,
      357,
      357,
      357,
      357,
      357,
      368,
      371,
      371,
      374,
      374,
      372,
      372,
      372,
      373,
      376,
      376,
      376,
      376,
      377,
      377,
      382,
      383,
      383,
      383,
      383,
      383,
      383,
      383,
      386,
      386,
      387,
      387,
      389,
      389,
      390,
      390,
      390,
      392,
      400,
      400,
      400,
      401,
      401,
      401,
      401,
      394,
      394,
      394,
      402,
      402,
      402,
      391,
      391,
      388,
      388,
      388,
      388,
      380,
      380,
      380,
      373,
      372,
      369,
      369,
      369,
      364,
      364,
      362,
      362,
      361,
      360,
      361,
      361,
      361,
      364,
      364,
      367,
      372,
      374,
      374,
      382,
      377,
      377,
      377,
      377,
      381,
      380,
      379,
      379,
      380,
      380,
      381,
      381,
      383,
      383,
      386,
      386,
      386,
      387,
      387,
      387,
      388,
      388,
      388,
      388,
      390,
      390,
      390,
      393,
      394,
      395,
      397,
      398,
      401,
      403,
      402,
      403,
      402,
      403,
      403,
      403,
      405,
      405,
      405,
      406,
      406,
      408,
      408,
      408,
      408,
      409,
      409,
      409,
      409,
      412,
      408,
      408,
      408,
      409,
      409,
      408,
      407,
      408,
      408,
      407,
      407,
      407,
      407,
      407,
      407,
      408,
      408,
      408,
      408,
      408,
      409,
      409,
      411,
      411,
      411,
      414,
      414,
      414,
      414,
      414,
      414,
      413,
      413,
      413,
      413,
      413,
      413,
      415,
      416,
      411,
      410,
      410,
      409,
      409,
      409,
      409,
      410,
      410,
      410,
      406,
      406,
      405,
      405,
      406,
      406,
      406,
      406,
      406,
      408,
      408,
      408,
      408,
      408,
      408,
      408,
      408,
      415,
      415,
      419,
      419,
      419,
      420,
      421,
      421,
      422,
      404,
      404,
      404,
      402,
      400,
      400,
      400,
      397,
      397,
      397,
      397,
      394,
      394,
      394,
      395,
      395,
      395,
      395,
      396,
      393,
      390,
      390,
      389,
      388,
      388,
      389,
      392,
      392,
      392,
      393,
      392,
      390,
      388,
      388,
      387,
      386,
      385,
      384,
      384,
      384,
      386,
      386,
      386,
      386,
      384,
      384,
      384,
      379,
      379,
      379,
      379,
      378,
      378,
      378,
      379,
      379,
      379,
      379,
      379,
      378,
      378,
      378,
      378,
      381,
      385,
      385,
      385,
      385,
      387,
      387,
      387,
      385,
      385,
      385,
      385,
      385,
      385,
      385,
      385,
      385,
      385,
      386,
      386,
      386,
      386,
      386,
      386,
      385,
      385,
      384,
      383,
      383,
      383,
      383,
      382,
      382,
      382,
      381,
      381,
      381,
      381,
      381,
      380,
      380,
      380,
      380,
      380,
      380,
      387,
      387,
      387,
      386,
      386,
      382,
      381,
      379,
      379,
      379,
      380,
      380,
      381,
      381,
      381,
      387,
      387,
      388,
      388,
      390,
      390,
      390,
      381,
      380,
      380,
      380,
      380,
      381,
      381,
      381,
      381,
      372,
      360,
      360,
      360,
      333,
      333,
      333,
      322,
      322,
      327,
      316,
      318,
      318,
      318,
      318,
      318,
      235,
      235,
      242,
      230,
      234,
      234,
      233,
      233,
      233,
      217,
      217,
      196,
      196,
      163,
      163,
      163,
      163,
      154
    ],
    "swim:timestamps": [
      1772021444,
      1772021444,
      1772021487,
      1772021487,
      1772021719,
      1772021719,
      1772021839,
      1772021899,
      1772022080,
      1772022140,
      1772022200,
      1772022200,
      1772022262,
      1772022382,
      1772022382,
      1772022442,
      1772022442,
      1772022442,
      1772022485,
      1772022622,
      1772022622,
      1772022666,
      1772022666,
      1772022743,
      1772022786,
      1772022786,
      1772022786,
      1772022786,
      1772022863,
      1772022906,
      1772022923,
      1772022966,
      1772023026,
      1772023026,
      1772023086,
      1772023086,
      1772023146,
      1772023146,
      1772023206,
      1772023222,
      1772023282,
      1772023282,
      1772023327,
      1772023327,
      1772023402,
      1772023507,
      1772023582,
      1772023582,
      1772023627,
      1772023627,
      1772023642,
      1772023687,
      1772023702,
      1772023702,
      1772023823,
      1772023823,
      1772023823,
      1772023943,
      1772023987,
      1772024003,
      1772024108,
      1772024108,
      1772024108,
      1772024108,
      1772024168,
      1772024168,
      1772024468,
      1772024588,
      1772024588,
      1772024650,
      1772024710,
      1772024770,
      1772024891,
      1772024891,
      1772024951,
      1772025131,
      1772025191,
      1772025191,
      1772025191,
      1772025249,
      1772025249,
      1772025491,
      1772025552,
      1772025552,
      1772025552,
      1772025610,
      1772025610,
      1772025732,
      1772025732,
      1772025850,
      1772025850,
      1772025912,
      1772025912,
      1772025970,
      1772025970,
      1772026030,
      1772026030,
      1772026030,
      1772026150,
      1772026453,
      1772026453,
      1772026453,
      1772026511,
      1772026511,
      1772026511,
      1772026511,
      1772027114,
      1772027114,
      1772027114,
      1772027294,
      1772027294,
      1772027294,
      1772027354,
      1772027354,
      1772027594,
      1772027594,
      1772027594,
      1772027594,
      1772027835,
      1772027835,
      1772027835,
      1772027939,
      1772027955,
      1772027999,
      1772027999,
      1772027999,
      1772028119,
      1772028119,
      1772028239,
      1772028239,
      1772028315,
      1772028435,
      1772028556,
      1772028556,
      1772028556,
      1772028676,
      1772028676,
      1772028960,
      1772029020,
      1772029036,
      1772029036,
      1772029088,
      1772029156,
      1772029156,
      1772029156,
      1772029156,
      1772029208,
      1772029501,
      1772029569,
      1772029569,
      1772029629,
      1772029629,
      1772029637,
      1772029637,
      1772029741,
      1772029809,
      1772029877,
      1772029877,
      1772030050,
      1772030058,
      1772030118,
      1772030170,
      1772030178,
      1772030290,
      1772030330,
      1772030330,
      1772030510,
      1772030510,
      1772030526,
      1772030650,
      1772030710,
      1772030750,
      1772030811,
      1772030891,
      1772030931,
      1772031111,
      1772031131,
      1772031171,
      1772031311,
      1772031351,
      1772031371,
      1772031411,
      1772031552,
      1772031552,
      1772031552,
      1772031592,
      1772031592,
      1772031672,
      1772031672,
      1772031712,
      1772031712,
      1772031772,
      1772031772,
      1772031772,
      1772031792,
      1772031861,
      1772031912,
      1772031912,
      1772031952,
      1772031981,
      1772031981,
      1772032012,
      1772032032,
      1772032041,
      1772032041,
      1772032132,
      1772032153,
      1772032153,
      1772032213,
      1772032213,
      1772032221,
      1772032273,
      1772032281,
      1772032281,
      1772032281,
      1772032281,
      1772032342,
      1772032342,
      1772032453,
      1772032462,
      1772032462,
      1772032693,
      1772032693,
      1772032693,
      1772032702,
      1772032753,
      1772032753,
      1772032814,
      1772032814,
      1772032822,
      1772032874,
      1772032934,
      1772032994,
      1772033063,
      1772033183,
      1772033294,
      1772033354,
      1772033354,
      1772033483,
      1772033483,
      1772033483,
      1772033483,
      1772033784,
      1772033784,
      1772033784,
      1772033904,
      1772033904,
      1772033964,
      1772033964,
      1772034024,
      1772034024,
      1772034084,
      1772034084,
      1772034084,
      1772034265,
      1772034265,
      1772034325,
      1772034434,
      1772034445,
      1772034445,
      1772034445,
      1772034494,
      1772034685,
      1772034685,
      1772034734,
      1772034734,
      1772034734,
      1772034805,
      1772034866,
      1772034866,
      1772034926,
      1772035155,
      1772035155,
      1772035166,
      1772035275,
      1772035406,
      1772035467,
      1772035467,
      1772035635,
      1772035635,
      1772035707,
      1772035707,
      1772036188,
      1772036188,
      1772036188,
      1772036296,
      1772036308,
      1772036356,
      1772036368,
      1772036537,
      1772036684,
      1772036717,
      1772036717,
      1772036924,
      1772036956,
      1772036956,
      1772036984,
      1772037016,
      1772037016,
      1772037077,
      1772037136,
      1772037196,
      1772037317,
      1772037405,
      1772037437,
      1772037497,
      1772037525,
      1772037654,
      1772037773,
      1772037773,
      1772037773,
      1772038005,
      1772038005,
      1772038014,
      1772038014,
      1772038126,
      1772038126,
      1772038126,
      1772038426,
      1772038434,
      1772038434,
      1772038434,
      1772038494,
      1772038554,
      1772038554,
      1772038666,
      1772038675,
      1772038675,
      1772038726,
      1772038726,
      1772038786,
      1772038786,
      1772038847,
      1772038847,
      1772038967,
      1772039087,
      1772039087,
      1772039087,
      1772039087,
      1772039207,
      1772039207,
      1772039207,
      1772039339,
      1772039372,
      1772039372,
      1772039432,
      1772039432,
      1772039519,
      1772039519,
      1772039552,
      1772039579,
      1772039579,
      1772039700,
      1772039732,
      1772039732,
      1772039760,
      1772039760,
      1772039760,
      1772039792,
      1772039792,
      1772039820,
      1772039880,
      1772039972,
      1772039972,
      1772039972,
      1772040060,
      1772040092,
      1772040092,
      1772040120,
      1772040152,
      1772040180,
      1772040180,
      1772040180,
      1772040393,
      1772040393,
      1772040393,
      1772040393,
      1772040421,
      1772040421,
      1772040601,
      1772040601,
      1772040601,
      1772040661,
      1772040661,
      1772040753,
      1772040781,
      1772040813,
      1772040813,
      1772040873,
      1772040933,
      1772040933,
      1772040993,
      1772040993,
      1772040993,
      1772041054,
      1772041054,
      1772041114,
      1772041114,
      1772041174,
      1772041174,
      1772041174,
      1772041294,
      1772041474,
      1772041474,
      1772041474,
      1772041474,
      1772041654,
      1772041654,
      1772041654,
      1772041654,
      1772041774,
      1772041834,
      1772041834,
      1772041834,
      1772041895,
      1772041895,
      1772041895,
      1772042009,
      1772042009,
      1772042015,
      1772042069,
      1772042135,
      1772042135,
      1772042255,
      1772042255,
      1772042255,
      1772042435,
      1772042435,
      1772042555,
      1772042609,
      1772042615,
      1772042615,
      1772042675,
      1772042675,
      1772042675,
      1772042730,
      1772042730,
      1772042916,
      1772042916,
      1772043036,
      1772043036,
      1772043036,
      1772043036,
      1772043096
    ],
    "wof:geomhash": "83c291118d70a453a2f80ccac19e81db",
    "wof:id": 2014880617,
    "wof:repo": "sfomuseum-data-flights-2026-02"
  },
  "bbox": [
    -122.32944444444443,
    35.21194444444445,
    -77.03333333333333,
    38.85444444444445
  ],
  "geometry": {"coordinates":[[-77.03333333333333,38.833333333333336],[-77.03333333333333,38.833333333333336],[-77.03333333333333,38.8],[-77.03333333333333,38.8],[-77.27194444444444,38.74111111111111],[-77.27194444444444,38.74111111111111],[-77.48222222222222,38.78861111111111],[-77.59833333333333,38.81361111111111],[-77.98166666666667,38.84805555555556],[-78.09972222222221,38.85138888888889],[-78.21638888888889,38.85444444444445],[-78.21638888888889,38.85444444444445],[-78.335,38.853611111111114],[-78.57694444444444,38.82027777777778],[-78.57694444444444,38.82027777777778],[-78.70194444444445,38.79944444444444],[-78.70194444444445,38.79944444444444],[-78.70194444444445,38.79944444444444],[-78.78138888888888,38.78666666666666],[-79.07249999999999,38.73722222222222],[-79.07249999999999,38.73722222222222],[-79.17666666666668,38.719722222222224],[-79.17666666666668,38.719722222222224],[-79.32083333333333,38.69555555555555],[-79.42222222222223,38.678888888888885],[-79.42222222222223,38.678888888888885],[-79.42222222222223,38.678888888888885],[-79.42222222222223,38.678888888888885],[-79.56611111111111,38.655],[-79.66638888888889,38.63805555555555],[-79.69027777777778,38.634166666666665],[-79.78833333333333,38.61666666666667],[-79.9075,38.59527777777778],[-79.9075,38.59527777777778],[-80.02777777777777,38.57361111111111],[-80.02777777777777,38.57361111111111],[-80.1463888888889,38.551944444444445],[-80.1463888888889,38.551944444444445],[-80.26638888888888,38.52972222222222],[-80.29055555555556,38.525],[-80.41055555555556,38.50277777777778],[-80.41055555555556,38.50277777777778],[-80.5,38.486111111111114],[-80.5,38.486111111111114],[-80.65083333333334,38.4575],[-80.86749999999999,38.41638888888889],[-81.01638888888888,38.38777777777778],[-81.01638888888888,38.38777777777778],[-81.11194444444443,38.36888888888889],[-81.11194444444443,38.36888888888889],[-81.13916666666667,38.36222222222222],[-81.23388888888888,38.33916666666667],[-81.26,38.33277777777778],[-81.26,38.33277777777778],[-81.50194444444445,38.27388888888889],[-81.50194444444445,38.27388888888889],[-81.50194444444445,38.27388888888889],[-81.74138888888889,38.21416666666667],[-81.8411111111111,38.18611111111111],[-81.85972222222222,38.18083333333333],[-82.08027777777778,38.11888888888889],[-82.08027777777778,38.11888888888889],[-82.08027777777778,38.11888888888889],[-82.08027777777778,38.11888888888889],[-82.19861111111112,38.08527777777778],[-82.19861111111112,38.08527777777778],[-82.80222222222221,37.91166666666666],[-83.03555555555555,37.8425],[-83.03555555555555,37.8425],[-83.17277777777778,37.79833333333333],[-83.29638888888888,37.76305555555555],[-83.41694444444445,37.727222222222224],[-83.66361111111112,37.6575],[-83.66361111111112,37.6575],[-83.78805555555556,37.62638888888889],[-84.16722222222222,37.534166666666664],[-84.29083333333332,37.50083333333333],[-84.29083333333332,37.50083333333333],[-84.29083333333332,37.50083333333333],[-84.39583333333334,37.474722222222226],[-84.39583333333334,37.474722222222226],[-84.9225,37.33861111111111],[-85.04944444444445,37.305277777777775],[-85.04944444444445,37.305277777777775],[-85.04944444444445,37.305277777777775],[-85.15527777777778,37.27722222222222],[-85.15527777777778,37.27722222222222],[-85.42916666666667,37.20472222222222],[-85.42916666666667,37.20472222222222],[-85.67611111111111,37.13861111111111],[-85.67611111111111,37.13861111111111],[-85.80499999999999,37.103611111111114],[-85.80499999999999,37.103611111111114],[-85.93166666666667,37.06944444444445],[-85.93166666666667,37.06944444444445],[-86.0611111111111,37.034166666666664],[-86.0611111111111,37.034166666666664],[-86.0611111111111,37.034166666666664],[-86.31777777777778,36.96361111111111],[-86.95222222222222,36.74527777777778],[-86.95222222222222,36.74527777777778],[-86.95222222222222,36.74527777777778],[-87.0761111111111,36.7],[-87.0761111111111,36.7],[-87.0761111111111,36.7],[-87.0761111111111,36.7],[-88.42444444444445,36.4675],[-88.42444444444445,36.4675],[-88.42444444444445,36.4675],[-88.81583333333333,36.34638888888889],[-88.81583333333333,36.34638888888889],[-88.81583333333333,36.34638888888889],[-88.9475,36.33027777777778],[-88.9475,36.33027777777778],[-89.46611111111112,36.3125],[-89.46611111111112,36.3125],[-89.46611111111112,36.3125],[-89.46611111111112,36.3125],[-89.99222222222222,36.2925],[-89.99222222222222,36.2925],[-89.99222222222222,36.2925],[-90.22305555555556,36.283055555555556],[-90.2475,36.28194444444444],[-90.34694444444445,36.277499999999996],[-90.34694444444445,36.277499999999996],[-90.34694444444445,36.277499999999996],[-90.59694444444445,36.26638888888889],[-90.59694444444445,36.26638888888889],[-90.82138888888889,36.25611111111111],[-90.82138888888889,36.25611111111111],[-90.99361111111111,36.24777777777778],[-91.24138888888889,36.23527777777778],[-91.4925,36.22222222222222],[-91.4925,36.22222222222222],[-91.4925,36.22222222222222],[-91.74222222222222,36.20861111111111],[-91.74222222222222,36.20861111111111],[-92.325,36.175],[-92.45583333333333,36.16694444444444],[-92.50583333333333,36.163888888888884],[-92.50583333333333,36.163888888888884],[-92.61083333333333,36.156666666666666],[-92.76694444444445,36.1475],[-92.76694444444445,36.1475],[-92.76694444444445,36.1475],[-92.76694444444445,36.1475],[-92.87305555555555,36.14111111111111],[-93.4975,36.09861111111111],[-93.65527777777778,36.08722222222222],[-93.65527777777778,36.08722222222222],[-93.78472222222221,36.07777777777778],[-93.78472222222221,36.07777777777778],[-93.81194444444444,36.075833333333335],[-93.81194444444444,36.075833333333335],[-94.02361111111111,36.06027777777778],[-94.17972222222222,36.04861111111111],[-94.34027777777777,36.03638888888889],[-94.34027777777777,36.03638888888889],[-94.71194444444444,36.00694444444444],[-94.73805555555556,36.00472222222222],[-94.84527777777777,35.99611111111111],[-94.9775,35.98527777777778],[-94.9786111111111,35.98527777777778],[-95.24472222222222,35.96277777777778],[-95.32666666666667,35.95583333333334],[-95.32666666666667,35.95583333333334],[-95.72888888888889,35.92055555555555],[-95.72888888888889,35.92055555555555],[-95.755,35.91833333333333],[-96.02555555555556,35.89388888888889],[-96.16055555555556,35.88138888888889],[-96.24333333333334,35.87361111111111],[-96.38083333333333,35.86055555555556],[-96.57249999999999,35.842222222222226],[-96.65694444444445,35.83416666666667],[-97.06805555555555,35.79361111111111],[-97.11944444444444,35.788333333333334],[-97.20555555555556,35.77972222222222],[-97.55027777777778,35.74388888888889],[-97.63277777777778,35.73527777777778],[-97.68916666666667,35.72944444444445],[-97.76888888888888,35.72083333333334],[-98.09694444444445,35.68555555555555],[-98.09694444444445,35.68555555555555],[-98.09694444444445,35.68555555555555],[-98.17888888888889,35.67666666666666],[-98.17888888888889,35.67666666666666],[-98.375,35.65472222222222],[-98.375,35.65472222222222],[-98.45694444444445,35.64555555555555],[-98.45694444444445,35.64555555555555],[-98.59583333333333,35.62972222222222],[-98.59583333333333,35.62972222222222],[-98.59583333333333,35.62972222222222],[-98.65,35.62361111111111],[-98.80666666666666,35.605555555555554],[-98.92527777777778,35.59166666666667],[-98.92527777777778,35.59166666666667],[-99.00583333333333,35.58222222222223],[-99.08222222222221,35.57333333333334],[-99.08222222222221,35.57333333333334],[-99.14555555555556,35.566111111111105],[-99.19916666666667,35.55972222222222],[-99.22,35.55722222222222],[-99.22,35.55722222222222],[-99.4175,35.53333333333333],[-99.47194444444445,35.526666666666664],[-99.47194444444445,35.526666666666664],[-99.60333333333332,35.51083333333333],[-99.60333333333332,35.51083333333333],[-99.63055555555555,35.5075],[-99.74083333333333,35.49388888888889],[-99.76805555555555,35.49055555555556],[-99.76805555555555,35.49055555555556],[-99.76805555555555,35.49055555555556],[-99.76805555555555,35.49055555555556],[-99.9063888888889,35.473333333333336],[-99.9063888888889,35.473333333333336],[-100.15361111111112,35.44194444444444],[-100.18388888888889,35.43833333333333],[-100.18388888888889,35.43833333333333],[-100.7125,35.36944444444445],[-100.7125,35.36944444444445],[-100.7125,35.36944444444445],[-100.74083333333333,35.365833333333335],[-100.85,35.35138888888889],[-100.85,35.35138888888889],[-100.98861111111111,35.33305555555556],[-100.98861111111111,35.33305555555556],[-101.01694444444445,35.32916666666667],[-101.12638888888888,35.314166666666665],[-101.265,35.29527777777778],[-101.4038888888889,35.27611111111111],[-101.5786111111111,35.25194444444445],[-101.86,35.2325],[-102.11638888888888,35.2275],[-102.25416666666666,35.224722222222226],[-102.25416666666666,35.224722222222226],[-102.53416666666666,35.218611111111116],[-102.53416666666666,35.218611111111116],[-102.53416666666666,35.218611111111116],[-102.53416666666666,35.218611111111116],[-103.24805555555555,35.21194444444445],[-103.24805555555555,35.21194444444445],[-103.24805555555555,35.21194444444445],[-103.51138888888889,35.27111111111111],[-103.51138888888889,35.27111111111111],[-103.64527777777778,35.30083333333333],[-103.64527777777778,35.30083333333333],[-103.77833333333334,35.33027777777778],[-103.77833333333334,35.33027777777778],[-103.91166666666668,35.359722222222224],[-103.91166666666668,35.359722222222224],[-103.91166666666668,35.359722222222224],[-104.30444444444444,35.44499999999999],[-104.30444444444444,35.44499999999999],[-104.4375,35.47361111111111],[-104.69861111111112,35.52777777777778],[-104.705,35.53055555555555],[-104.705,35.53055555555555],[-104.705,35.53055555555555],[-104.82472222222222,35.55555555555555],[-105.24972222222222,35.64472222222222],[-105.24972222222222,35.64472222222222],[-105.37388888888889,35.669999999999995],[-105.37388888888889,35.669999999999995],[-105.37388888888889,35.669999999999995],[-105.52722222222222,35.70166666666667],[-105.66861111111112,35.730555555555554],[-105.66861111111112,35.730555555555554],[-105.80749999999999,35.75861111111111],[-106.33694444444444,35.86388888888889],[-106.33694444444444,35.86388888888889],[-106.36055555555555,35.868611111111115],[-106.60333333333332,35.91583333333333],[-106.8938888888889,35.971944444444446],[-107.02666666666667,35.99722222222222],[-107.02666666666667,35.99722222222222],[-107.39666666666668,36.06666666666667],[-107.39666666666668,36.06666666666667],[-107.55666666666666,36.09666666666667],[-107.55666666666666,36.09666666666667],[-108.60583333333332,36.28583333333333],[-108.60583333333332,36.28583333333333],[-108.60583333333332,36.28583333333333],[-108.84388888888888,36.3275],[-108.8711111111111,36.33222222222223],[-108.97527777777778,36.35027777777778],[-109.00277777777778,36.355000000000004],[-109.375,36.41833333333333],[-109.71277777777777,36.480000000000004],[-109.75888888888889,36.50361111111111],[-109.75888888888889,36.50361111111111],[-110.1888888888889,36.67583333333333],[-110.23777777777778,36.69499999999999],[-110.23777777777778,36.69499999999999],[-110.31,36.72416666666667],[-110.35833333333333,36.74444444444445],[-110.35833333333333,36.74444444444445],[-110.48138888888889,36.79333333333333],[-110.60333333333332,36.84166666666667],[-110.72444444444444,36.88944444444444],[-110.96805555555555,36.984722222222224],[-111.15916666666668,37.05916666666666],[-111.2088888888889,37.07833333333333],[-111.32972222222222,37.125],[-111.40055555555556,37.15222222222222],[-111.6675,37.254444444444445],[-111.88777777777779,37.330555555555556],[-111.88777777777779,37.330555555555556],[-111.88777777777779,37.330555555555556],[-112.3825,37.49861111111111],[-112.3825,37.49861111111111],[-112.4063888888889,37.50694444444444],[-112.4063888888889,37.50694444444444],[-112.6275,37.58083333333334],[-112.6275,37.58083333333334],[-112.6275,37.58083333333334],[-113.23111111111112,37.780277777777776],[-113.25777777777778,37.788888888888884],[-113.25777777777778,37.788888888888884],[-113.25777777777778,37.788888888888884],[-113.37916666666666,37.828611111111115],[-113.50138888888888,37.86805555555556],[-113.50138888888888,37.86805555555556],[-113.72305555555556,37.93944444444444],[-113.74888888888889,37.948055555555555],[-113.74888888888889,37.948055555555555],[-113.84694444444445,37.97944444444445],[-113.84694444444445,37.97944444444445],[-113.97027777777778,38.01861111111111],[-113.97027777777778,38.01861111111111],[-114.09333333333333,38.05777777777777],[-114.09333333333333,38.05777777777777],[-114.34333333333333,38.13666666666666],[-114.59555555555555,38.21555555555556],[-114.59555555555555,38.21555555555556],[-114.59555555555555,38.21555555555556],[-114.59555555555555,38.21555555555556],[-114.85083333333333,38.29472222222222],[-114.85083333333333,38.29472222222222],[-114.85083333333333,38.29472222222222],[-115.14166666666668,38.330555555555556],[-115.23666666666666,38.33222222222223],[-115.23666666666666,38.33222222222223],[-115.37277777777777,38.3325],[-115.37277777777777,38.3325],[-115.56277777777777,38.33277777777778],[-115.56277777777777,38.33277777777778],[-115.64555555555556,38.333333333333336],[-115.67166666666667,38.333333333333336],[-115.67166666666667,38.333333333333336],[-115.97277777777778,38.33361111111111],[-116.05666666666666,38.33361111111111],[-116.05666666666666,38.33361111111111],[-116.10777777777777,38.33361111111111],[-116.10777777777777,38.33361111111111],[-116.10777777777777,38.33361111111111],[-116.19027777777778,38.33361111111111],[-116.19027777777778,38.33361111111111],[-116.24388888888889,38.33361111111111],[-116.37722222222222,38.325833333333335],[-116.59055555555555,38.28972222222222],[-116.59055555555555,38.28972222222222],[-116.59055555555555,38.28972222222222],[-116.77472222222222,38.25972222222222],[-116.85583333333332,38.24944444444444],[-116.85583333333332,38.24944444444444],[-116.90527777777778,38.24277777777778],[-116.9863888888889,38.23111111111111],[-117.03944444444444,38.22361111111111],[-117.03944444444444,38.22361111111111],[-117.03944444444444,38.22361111111111],[-117.50444444444445,38.157222222222224],[-117.50444444444445,38.157222222222224],[-117.50444444444445,38.157222222222224],[-117.50444444444445,38.157222222222224],[-117.55499999999999,38.15],[-117.55499999999999,38.15],[-117.9575,38.090833333333336],[-117.9575,38.090833333333336],[-117.9575,38.090833333333336],[-118.09083333333332,38.07083333333334],[-118.09083333333332,38.07083333333334],[-118.30472222222222,38.03861111111111],[-118.35416666666666,38.03111111111111],[-118.43444444444445,38.01888888888889],[-118.43444444444445,38.01888888888889],[-118.56388888888888,37.99888888888889],[-118.69555555555556,37.97833333333333],[-118.69555555555556,37.97833333333333],[-118.82888888888888,37.95777777777778],[-118.82888888888888,37.95777777777778],[-118.82888888888888,37.95777777777778],[-118.9625,37.936388888888885],[-118.9625,37.936388888888885],[-119.09694444444445,37.915],[-119.09694444444445,37.915],[-119.22194444444445,37.89527777777778],[-119.22194444444445,37.89527777777778],[-119.22194444444445,37.89527777777778],[-119.48916666666666,37.85194444444445],[-119.88083333333333,37.7875],[-119.88083333333333,37.7875],[-119.88083333333333,37.7875],[-119.88083333333333,37.7875],[-120.27333333333333,37.72138888888889],[-120.27333333333333,37.72138888888889],[-120.27333333333333,37.72138888888889],[-120.27333333333333,37.72138888888889],[-120.53138888888888,37.68416666666666],[-120.6563888888889,37.66972222222222],[-120.6563888888889,37.66972222222222],[-120.6563888888889,37.66972222222222],[-120.77555555555556,37.655833333333334],[-120.77555555555556,37.655833333333334],[-120.77555555555556,37.655833333333334],[-121,37.63333333333333],[-121,37.63333333333333],[-121.00111111111111,37.628055555555555],[-121.11666666666666,37.61666666666667],[-121.22,37.598333333333336],[-121.22,37.598333333333336],[-121.43666666666667,37.57277777777778],[-121.43666666666667,37.57277777777778],[-121.43666666666667,37.57277777777778],[-121.7063888888889,37.55472222222222],[-121.7063888888889,37.55472222222222],[-121.77888888888889,37.48444444444444],[-121.83333333333333,37.45],[-121.83388888888888,37.44833333333333],[-121.83388888888888,37.44833333333333],[-121.91555555555556,37.44],[-121.91555555555556,37.44],[-121.91555555555556,37.44],[-122,37.46666666666667],[-122,37.46666666666667],[-122.17361111111111,37.53638888888889],[-122.17361111111111,37.53638888888889],[-122.28305555555555,37.58222222222223],[-122.28305555555555,37.58222222222223],[-122.28305555555555,37.58222222222223],[-122.28305555555555,37.58222222222223],[-122.32944444444443,37.60166666666667]],"type":"LineString"}
}
