{
  "id": 2014876399,
  "type": "Feature",
  "properties": {
    "geom:area": 0,
    "geom:bbox": "-122.400278,37.634167,-83.248056,43.508333",
    "geom:latitude": 42.29911918857595,
    "geom:longitude": -103.00609935600548,
    "src:alt_label": "swim-path",
    "src:geom": "swim",
    "swim:altitudes": [
      "011",
      "011",
      "011",
      "062",
      "062",
      "062",
      "062",
      "062",
      "062",
      "088",
      "088",
      "105",
      "146",
      "146",
      "146",
      "146",
      "146",
      "146",
      "146",
      "218",
      "218",
      "218",
      "218",
      "218",
      "218",
      "232",
      "232",
      "242",
      "242",
      "242",
      "242",
      "255",
      "255",
      "255",
      "255",
      "266",
      "277",
      "277",
      "294",
      "294",
      "298",
      "298",
      "298",
      "302",
      "318",
      "318",
      "327",
      "327",
      "349C",
      "349C",
      "349C",
      "349C",
      "350C",
      "350C",
      "350C",
      "351C",
      "351C",
      "351C",
      "351C",
      "351C",
      "351C",
      "350C",
      "350C",
      "350C",
      "350C",
      "350C",
      "350C",
      "350C",
      "350C",
      "350C",
      "351C",
      "351C",
      "350C",
      "350C",
      "350C",
      "350C",
      "350C",
      "350C",
      "350C",
      "350C",
      "351C",
      "351C",
      "351C",
      "350C",
      "350C",
      "350C",
      "350C",
      "350C",
      "351C",
      "351C",
      "350C",
      "350C",
      "350C",
      "350C",
      "349C",
      "351C",
      "351C",
      "350C",
      "350C",
      "350C",
      "350C",
      "350C",
      "350C",
      "350C",
      "350C",
      "350C",
      "350C",
      "350C",
      "350C",
      "350C",
      "350C",
      "350C",
      "350C",
      "350C",
      "350C",
      "350C",
      "350C",
      "350C",
      "350C",
      "350C",
      "350C",
      "350C",
      "350C",
      "350C",
      "350C",
      "350C",
      "350C",
      "350C",
      "350C",
      "350C",
      "350C",
      "350C",
      "350C",
      "350C",
      "350C",
      "351C",
      "351C",
      "350C",
      "350C",
      "350C",
      "350C",
      "350C",
      "350C",
      "350C",
      "350C",
      "350C",
      "350C",
      "350C",
      "350C",
      "350C",
      "350C",
      "350C",
      "350C",
      "350C",
      "350C",
      "350C",
      "350C",
      "350C",
      "350C",
      "350C",
      "350C",
      "350C",
      "350C",
      "350C",
      "350C",
      "350C",
      "350C",
      "350C",
      "350C",
      "350C",
      "350C",
      "350C",
      "350C",
      "350C",
      "350C",
      "350C",
      "350C",
      "350C",
      "350C",
      "350C",
      "350C",
      "350C",
      "350C",
      "350C",
      "350C",
      "350C",
      "350C",
      "350C",
      "350C",
      "350C",
      "350C",
      "350C",
      "350C",
      "350C",
      "350C",
      "350C",
      "350C",
      "350C",
      "350C",
      "350C",
      "350C",
      "350C",
      "350C",
      "350C",
      "350C",
      "350C",
      "350C",
      "350C",
      "350C",
      "350C",
      "350C",
      "350C",
      "350C",
      "350C",
      "350C",
      "350C",
      "351C",
      "351C",
      "350C",
      "350C",
      "350C",
      "350C",
      "350C",
      "350C",
      "350C",
      "350C",
      "350C",
      "350C",
      "350C",
      "350C",
      "350C",
      "350C",
      "351C",
      "350C",
      "350C",
      "350C",
      "350C",
      "350C",
      "350C",
      "350C",
      "350C",
      "350C",
      "350C",
      "350C",
      "350C",
      "350C",
      "350C",
      "350C",
      "351C",
      "351C",
      "351C",
      "350C",
      "350C",
      "350C",
      "350C",
      "350C",
      "350C",
      "350C",
      "350C",
      "350C",
      "350C",
      "350C",
      "350C",
      "350C",
      "350C",
      "350C",
      "350C",
      "350C",
      "350C",
      "350C",
      "350C",
      "350C",
      "350C",
      "350C",
      "350C",
      "350C",
      "350C",
      "350C",
      "350C",
      "350C",
      "350C",
      "350C",
      "350C",
      "350C",
      "350C",
      "350C",
      "350C",
      "350C",
      "350C",
      "350C",
      "350C",
      "350C",
      "350C",
      "350C",
      "350C",
      "350C",
      "350C",
      "350C",
      "350C",
      "350C",
      "350C",
      "350C",
      "350",
      "350",
      "331C",
      "331C",
      "330C",
      "330C",
      "330C",
      "330",
      "330",
      "330",
      "315",
      "315",
      "278",
      "259",
      "256",
      "256",
      "227",
      "211",
      "188",
      "188",
      "188",
      "142",
      "131",
      "131",
      "083",
      "083",
      "074",
      "064",
      "064",
      "053",
      "053",
      "044",
      "044",
      "044",
      "033",
      "033",
      "030",
      "024",
      "024",
      "024",
      "017",
      "009",
      "009",
      "007",
      "007",
      "007",
      "007"
    ],
    "swim:geom": "path",
    "swim:speeds": [
      169,
      169,
      169,
      297,
      297,
      297,
      297,
      297,
      297,
      330,
      330,
      371,
      425,
      425,
      425,
      425,
      425,
      425,
      425,
      466,
      466,
      466,
      466,
      466,
      466,
      478,
      478,
      487,
      487,
      487,
      487,
      497,
      497,
      497,
      497,
      504,
      511,
      511,
      529,
      529,
      527,
      527,
      527,
      538,
      534,
      534,
      526,
      526,
      526,
      526,
      526,
      526,
      517,
      517,
      517,
      517,
      517,
      517,
      517,
      517,
      517,
      512,
      512,
      515,
      515,
      515,
      516,
      516,
      516,
      516,
      525,
      525,
      523,
      523,
      523,
      523,
      523,
      522,
      522,
      522,
      522,
      522,
      522,
      521,
      521,
      521,
      524,
      524,
      528,
      528,
      526,
      526,
      527,
      526,
      526,
      526,
      526,
      525,
      525,
      525,
      525,
      527,
      527,
      527,
      527,
      527,
      527,
      527,
      525,
      525,
      524,
      524,
      524,
      524,
      524,
      527,
      527,
      527,
      524,
      524,
      522,
      522,
      522,
      522,
      522,
      522,
      522,
      522,
      522,
      522,
      523,
      523,
      523,
      523,
      523,
      527,
      527,
      528,
      528,
      526,
      526,
      526,
      527,
      527,
      527,
      527,
      527,
      527,
      527,
      527,
      527,
      521,
      522,
      522,
      525,
      525,
      525,
      525,
      525,
      525,
      525,
      525,
      525,
      524,
      524,
      524,
      524,
      524,
      524,
      524,
      524,
      523,
      523,
      523,
      524,
      524,
      524,
      524,
      524,
      531,
      531,
      531,
      534,
      534,
      534,
      541,
      541,
      541,
      541,
      541,
      542,
      542,
      542,
      543,
      543,
      544,
      544,
      544,
      544,
      544,
      544,
      544,
      542,
      542,
      542,
      542,
      542,
      544,
      544,
      546,
      548,
      548,
      548,
      548,
      550,
      550,
      551,
      551,
      551,
      551,
      551,
      549,
      549,
      549,
      548,
      547,
      547,
      547,
      547,
      547,
      547,
      547,
      545,
      545,
      544,
      544,
      544,
      543,
      543,
      543,
      542,
      542,
      541,
      541,
      541,
      540,
      540,
      540,
      542,
      542,
      542,
      543,
      544,
      544,
      544,
      544,
      544,
      544,
      544,
      543,
      543,
      543,
      552,
      552,
      552,
      552,
      552,
      554,
      554,
      554,
      554,
      554,
      559,
      560,
      560,
      560,
      560,
      558,
      558,
      558,
      557,
      555,
      555,
      542,
      542,
      542,
      542,
      542,
      542,
      535,
      535,
      535,
      535,
      527,
      527,
      526,
      525,
      525,
      525,
      520,
      520,
      520,
      518,
      518,
      517,
      517,
      525,
      525,
      526,
      525,
      525,
      525,
      526,
      526,
      515,
      484,
      483,
      483,
      455,
      433,
      425,
      425,
      425,
      386,
      384,
      384,
      316,
      316,
      277,
      265,
      265,
      240,
      240,
      173,
      173,
      173,
      158,
      158,
      140,
      142,
      142,
      142,
      123,
      124,
      124,
      120,
      120,
      120,
      120
    ],
    "swim:timestamps": [
      1771968459,
      1771968459,
      1771968459,
      1771968640,
      1771968640,
      1771968640,
      1771968640,
      1771968640,
      1771968640,
      1771968700,
      1771968700,
      1771968760,
      1771968880,
      1771968880,
      1771968880,
      1771968880,
      1771968880,
      1771968880,
      1771968880,
      1771969120,
      1771969120,
      1771969120,
      1771969120,
      1771969120,
      1771969120,
      1771969180,
      1771969180,
      1771969240,
      1771969240,
      1771969240,
      1771969240,
      1771969300,
      1771969300,
      1771969300,
      1771969300,
      1771969360,
      1771969421,
      1771969421,
      1771969541,
      1771969541,
      1771969571,
      1771969571,
      1771969571,
      1771969601,
      1771969661,
      1771969661,
      1771969721,
      1771969721,
      1771969811,
      1771969811,
      1771969811,
      1771969811,
      1771969841,
      1771969871,
      1771969871,
      1771969931,
      1771969931,
      1771969931,
      1771969931,
      1771969931,
      1771969931,
      1771970021,
      1771970021,
      1771970051,
      1771970051,
      1771970051,
      1771970172,
      1771970172,
      1771970172,
      1771970172,
      1771970232,
      1771970232,
      1771970382,
      1771970382,
      1771970382,
      1771970382,
      1771970382,
      1771970412,
      1771970412,
      1771970412,
      1771970502,
      1771970502,
      1771970502,
      1771970532,
      1771970532,
      1771970532,
      1771970592,
      1771970592,
      1771970742,
      1771970742,
      1771970832,
      1771970832,
      1771970862,
      1771970892,
      1771970922,
      1771970982,
      1771970982,
      1771971013,
      1771971013,
      1771971013,
      1771971253,
      1771971313,
      1771971373,
      1771971373,
      1771971373,
      1771971373,
      1771971373,
      1771971373,
      1771971674,
      1771971674,
      1771971734,
      1771971734,
      1771971734,
      1771971734,
      1771971734,
      1771971854,
      1771971854,
      1771971854,
      1771971974,
      1771971974,
      1771972094,
      1771972094,
      1771972094,
      1771972154,
      1771972154,
      1771972394,
      1771972394,
      1771972394,
      1771972394,
      1771972394,
      1771972695,
      1771972695,
      1771972695,
      1771972695,
      1771972755,
      1771972875,
      1771972875,
      1771972935,
      1771972935,
      1771972995,
      1771972995,
      1771972995,
      1771973236,
      1771973236,
      1771973236,
      1771973236,
      1771973236,
      1771973356,
      1771973356,
      1771973356,
      1771973356,
      1771973596,
      1771973618,
      1771973618,
      1771973738,
      1771973738,
      1771973776,
      1771973776,
      1771973858,
      1771973858,
      1771973897,
      1771973897,
      1771973897,
      1771973978,
      1771973978,
      1771974017,
      1771974038,
      1771974038,
      1771974077,
      1771974077,
      1771974077,
      1771974137,
      1771974197,
      1771974197,
      1771974218,
      1771974278,
      1771974278,
      1771974278,
      1771974278,
      1771974339,
      1771974339,
      1771974339,
      1771974377,
      1771974377,
      1771974399,
      1771974699,
      1771974699,
      1771974699,
      1771974699,
      1771974699,
      1771974819,
      1771974819,
      1771974819,
      1771974939,
      1771974939,
      1771975060,
      1771975060,
      1771975060,
      1771975300,
      1771975300,
      1771975300,
      1771975300,
      1771975328,
      1771975420,
      1771975420,
      1771975420,
      1771975420,
      1771975568,
      1771975568,
      1771975628,
      1771975660,
      1771975660,
      1771975688,
      1771975688,
      1771975720,
      1771975720,
      1771975781,
      1771975781,
      1771975869,
      1771975869,
      1771975869,
      1771975961,
      1771975961,
      1771975961,
      1771975989,
      1771976081,
      1771976081,
      1771976081,
      1771976081,
      1771976081,
      1771976109,
      1771976141,
      1771976169,
      1771976201,
      1771976229,
      1771976229,
      1771976229,
      1771976349,
      1771976349,
      1771976349,
      1771976469,
      1771976469,
      1771976529,
      1771976529,
      1771976529,
      1771976650,
      1771976650,
      1771976650,
      1771976770,
      1771976770,
      1771976770,
      1771976830,
      1771976890,
      1771976890,
      1771976890,
      1771976950,
      1771976950,
      1771977010,
      1771977010,
      1771977070,
      1771977130,
      1771977130,
      1771977371,
      1771977371,
      1771977371,
      1771977371,
      1771977371,
      1771977491,
      1771977669,
      1771977669,
      1771977669,
      1771977669,
      1771977969,
      1771978029,
      1771978029,
      1771978029,
      1771978029,
      1771978270,
      1771978270,
      1771978270,
      1771978330,
      1771978390,
      1771978390,
      1771978632,
      1771978632,
      1771978632,
      1771978813,
      1771978813,
      1771978813,
      1771978991,
      1771978991,
      1771978991,
      1771978991,
      1771979233,
      1771979233,
      1771979293,
      1771979413,
      1771979413,
      1771979473,
      1771979592,
      1771979592,
      1771979592,
      1771979652,
      1771979652,
      1771979892,
      1771979892,
      1771979952,
      1771979952,
      1771980012,
      1771980208,
      1771980208,
      1771980208,
      1771980328,
      1771980328,
      1771980433,
      1771980493,
      1771980508,
      1771980508,
      1771980613,
      1771980673,
      1771980749,
      1771980749,
      1771980749,
      1771980929,
      1771980973,
      1771980973,
      1771981229,
      1771981229,
      1771981280,
      1771981340,
      1771981340,
      1771981410,
      1771981410,
      1771981470,
      1771981470,
      1771981470,
      1771981584,
      1771981584,
      1771981650,
      1771981704,
      1771981704,
      1771981704,
      1771981767,
      1771981827,
      1771981827,
      1771981890,
      1771981890,
      1771981890,
      1771981890
    ],
    "wof:geomhash": "b9a70789cff63181a52f9add3cbce3f2",
    "wof:id": 2014876399,
    "wof:repo": "sfomuseum-data-flights-2026-02"
  },
  "bbox": [
    -122.40027777777779,
    37.634166666666665,
    -83.24805555555555,
    43.50833333333333
  ],
  "geometry": {"coordinates":[[-122.40027777777779,37.634166666666665],[-122.40027777777779,37.634166666666665],[-122.40027777777779,37.634166666666665],[-122.19416666666667,37.69916666666666],[-122.19416666666667,37.69916666666666],[-122.19416666666667,37.69916666666666],[-122.19416666666667,37.69916666666666],[-122.19416666666667,37.69916666666666],[-122.19416666666667,37.69916666666666],[-122.10388888888889,37.75083333333333],[-122.10388888888889,37.75083333333333],[-122.02027777777778,37.82055555555556],[-121.82111111111111,37.98444444444444],[-121.82111111111111,37.98444444444444],[-121.82111111111111,37.98444444444444],[-121.82111111111111,37.98444444444444],[-121.82111111111111,37.98444444444444],[-121.82111111111111,37.98444444444444],[-121.82111111111111,37.98444444444444],[-121.37888888888888,38.342222222222226],[-121.37888888888888,38.342222222222226],[-121.37888888888888,38.342222222222226],[-121.37888888888888,38.342222222222226],[-121.37888888888888,38.342222222222226],[-121.37888888888888,38.342222222222226],[-121.2475,38.42444444444444],[-121.2475,38.42444444444444],[-121.11638888888888,38.50527777777778],[-121.11638888888888,38.50527777777778],[-121.11638888888888,38.50527777777778],[-121.11638888888888,38.50527777777778],[-120.98,38.589444444444446],[-120.98,38.589444444444446],[-120.98,38.589444444444446],[-120.98,38.589444444444446],[-120.84083333333332,38.67472222222222],[-120.69583333333334,38.76305555555555],[-120.69583333333334,38.76305555555555],[-120.40027777777779,38.94222222222222],[-120.40027777777779,38.94222222222222],[-120.32666666666667,38.98388888888889],[-120.32666666666667,38.98388888888889],[-120.32666666666667,38.98388888888889],[-120.24861111111112,39.03333333333333],[-120.08166666666666,39.13333333333333],[-120.08166666666666,39.13333333333333],[-119.93444444444445,39.221111111111114],[-119.93444444444445,39.221111111111114],[-119.72666666666667,39.34305555555556],[-119.72666666666667,39.34305555555556],[-119.72666666666667,39.34305555555556],[-119.72666666666667,39.34305555555556],[-119.63805555555557,39.396388888888886],[-119.58,39.43],[-119.58,39.43],[-119.43111111111112,39.51694444444444],[-119.43111111111112,39.51694444444444],[-119.43111111111112,39.51694444444444],[-119.43111111111112,39.51694444444444],[-119.43111111111112,39.51694444444444],[-119.43111111111112,39.51694444444444],[-119.19222222222223,39.65694444444444],[-119.19222222222223,39.65694444444444],[-119.13555555555556,39.69],[-119.13555555555556,39.69],[-119.13555555555556,39.69],[-118.83666666666666,39.86222222222222],[-118.83666666666666,39.86222222222222],[-118.83666666666666,39.86222222222222],[-118.83666666666666,39.86222222222222],[-118.67027777777778,39.936388888888885],[-118.67027777777778,39.936388888888885],[-118.26416666666667,40.10111111111111],[-118.26416666666667,40.10111111111111],[-118.26416666666667,40.10111111111111],[-118.26416666666667,40.10111111111111],[-118.26416666666667,40.10111111111111],[-118.17194444444445,40.13805555555555],[-118.17194444444445,40.13805555555555],[-118.17194444444445,40.13805555555555],[-117.92444444444445,40.22777777777778],[-117.92444444444445,40.22777777777778],[-117.92444444444445,40.22777777777778],[-117.82805555555555,40.25666666666667],[-117.82805555555555,40.25666666666667],[-117.82805555555555,40.25666666666667],[-117.64944444444446,40.31027777777778],[-117.64944444444446,40.31027777777778],[-117.17888888888889,40.44888888888889],[-117.17888888888889,40.44888888888889],[-116.92583333333334,40.5225],[-116.92583333333334,40.5225],[-116.85083333333333,40.54416666666666],[-116.74083333333333,40.575833333333335],[-116.66861111111112,40.59666666666667],[-116.48666666666666,40.64833333333333],[-116.48666666666666,40.64833333333333],[-116.38111111111111,40.67833333333333],[-116.38111111111111,40.67833333333333],[-116.38111111111111,40.67833333333333],[-115.66055555555556,40.87972222222222],[-115.47611111111111,40.930277777777775],[-115.29444444444444,40.97972222222222],[-115.29444444444444,40.97972222222222],[-115.29444444444444,40.97972222222222],[-115.29444444444444,40.97972222222222],[-115.29444444444444,40.97972222222222],[-115.29444444444444,40.97972222222222],[-114.37222222222222,41.22555555555556],[-114.37222222222222,41.22555555555556],[-114.19055555555556,41.272777777777776],[-114.19055555555556,41.272777777777776],[-114.19055555555556,41.272777777777776],[-114.19055555555556,41.272777777777776],[-114.19055555555556,41.272777777777776],[-113.82055555555556,41.36944444444445],[-113.82055555555556,41.36944444444445],[-113.82055555555556,41.36944444444445],[-113.46333333333334,41.48222222222223],[-113.46333333333334,41.48222222222223],[-113.10638888888889,41.593611111111116],[-113.10638888888889,41.593611111111116],[-113.10638888888889,41.593611111111116],[-112.92750000000001,41.64888888888889],[-112.92750000000001,41.64888888888889],[-112.24166666666667,41.856944444444444],[-112.24166666666667,41.856944444444444],[-112.24166666666667,41.856944444444444],[-112.24166666666667,41.856944444444444],[-112.24166666666667,41.856944444444444],[-111.33444444444444,42.12416666666667],[-111.33444444444444,42.12416666666667],[-111.33444444444444,42.12416666666667],[-111.33444444444444,42.12416666666667],[-111.14972222222222,42.17722222222222],[-110.76027777777777,42.288333333333334],[-110.76027777777777,42.288333333333334],[-110.575,42.34055555555556],[-110.575,42.34055555555556],[-110.39083333333333,42.39194444444444],[-110.39083333333333,42.39194444444444],[-110.39083333333333,42.39194444444444],[-109.64111111111112,42.57638888888889],[-109.64111111111112,42.57638888888889],[-109.64111111111112,42.57638888888889],[-109.64111111111112,42.57638888888889],[-109.64111111111112,42.57638888888889],[-109.26,42.65611111111111],[-109.26,42.65611111111111],[-109.26,42.65611111111111],[-109.26,42.65611111111111],[-108.49833333333333,42.81083333333333],[-108.43138888888889,42.82416666666667],[-108.43138888888889,42.82416666666667],[-108.03611111111111,42.901666666666664],[-108.03611111111111,42.901666666666664],[-107.92055555555557,42.924166666666665],[-107.92055555555557,42.924166666666665],[-107.65305555555557,42.97555555555556],[-107.65305555555557,42.97555555555556],[-107.55944444444444,42.99333333333333],[-107.55944444444444,42.99333333333333],[-107.55944444444444,42.99333333333333],[-107.29166666666667,43.04388888888889],[-107.29166666666667,43.04388888888889],[-107.17611111111111,43.065555555555555],[-107.0925,43.08111111111111],[-107.0925,43.08111111111111],[-106.98416666666667,43.10111111111111],[-106.98416666666667,43.10111111111111],[-106.98416666666667,43.10111111111111],[-106.78305555555555,43.13805555555555],[-106.62805555555555,43.16611111111111],[-106.62805555555555,43.16611111111111],[-106.5125,43.18694444444444],[-106.31833333333333,43.22166666666667],[-106.31833333333333,43.22166666666667],[-106.31833333333333,43.22166666666667],[-106.31833333333333,43.22166666666667],[-106.12277777777777,43.25],[-106.12277777777777,43.25],[-106.12277777777777,43.25],[-105.99805555555555,43.25944444444445],[-105.99805555555555,43.25944444444445],[-105.91888888888889,43.26583333333333],[-104.8913888888889,43.34027777777778],[-104.8913888888889,43.34027777777778],[-104.8913888888889,43.34027777777778],[-104.8913888888889,43.34027777777778],[-104.8913888888889,43.34027777777778],[-104.47694444444444,43.367777777777775],[-104.47694444444444,43.367777777777775],[-104.47694444444444,43.367777777777775],[-104.06305555555555,43.39361111111111],[-104.06305555555555,43.39361111111111],[-103.64555555555556,43.418055555555554],[-103.64555555555556,43.418055555555554],[-103.64555555555556,43.418055555555554],[-102.81666666666666,43.46222222222222],[-102.81666666666666,43.46222222222222],[-102.81666666666666,43.46222222222222],[-102.81666666666666,43.46222222222222],[-102.74694444444445,43.465833333333336],[-102.40333333333334,43.48222222222223],[-102.40333333333334,43.48222222222223],[-102.40333333333334,43.48222222222223],[-102.40333333333334,43.48222222222223],[-101.91555555555556,43.50055555555556],[-101.91555555555556,43.50055555555556],[-101.70583333333333,43.50222222222222],[-101.57083333333333,43.50277777777778],[-101.57083333333333,43.50277777777778],[-101.49666666666667,43.50333333333333],[-101.49666666666667,43.50333333333333],[-101.35694444444444,43.50388888888889],[-101.35694444444444,43.50388888888889],[-101.1463888888889,43.50416666666667],[-101.1463888888889,43.50416666666667],[-100.86638888888888,43.50416666666667],[-100.86638888888888,43.50416666666667],[-100.86638888888888,43.50416666666667],[-100.5375,43.50333333333333],[-100.5375,43.50333333333333],[-100.5375,43.50333333333333],[-100.44861111111112,43.503055555555555],[-100.11749999999999,43.50083333333333],[-100.11749999999999,43.50083333333333],[-100.11749999999999,43.50083333333333],[-100.11749999999999,43.50083333333333],[-100.11749999999999,43.50083333333333],[-99.99194444444444,43.499722222222225],[-99.90777777777778,43.500277777777775],[-99.78583333333333,43.50222222222222],[-99.70333333333333,43.503055555555555],[-99.57833333333333,43.50416666666667],[-99.57833333333333,43.50416666666667],[-99.57833333333333,43.50416666666667],[-99.16472222222222,43.50694444444444],[-99.16472222222222,43.50694444444444],[-99.16472222222222,43.50694444444444],[-98.7525,43.50833333333333],[-98.7525,43.50833333333333],[-98.56333333333333,43.50833333333333],[-98.56333333333333,43.50833333333333],[-98.56333333333333,43.50833333333333],[-98.15,43.5075],[-98.15,43.5075],[-98.15,43.5075],[-97.73611111111111,43.505],[-97.73611111111111,43.505],[-97.73611111111111,43.505],[-97.52833333333334,43.50333333333333],[-97.32277777777777,43.50111111111111],[-97.32277777777777,43.50111111111111],[-97.32277777777777,43.50111111111111],[-97.11472222222221,43.49861111111111],[-97.11472222222221,43.49861111111111],[-96.90916666666668,43.495555555555555],[-96.90916666666668,43.495555555555555],[-96.70222222222222,43.492222222222225],[-96.49888888888889,43.48861111111111],[-96.49888888888889,43.48861111111111],[-95.66722222222222,43.44361111111111],[-95.66722222222222,43.44361111111111],[-95.66722222222222,43.44361111111111],[-95.66722222222222,43.44361111111111],[-95.66722222222222,43.44361111111111],[-95.24944444444445,43.399166666666666],[-94.63166666666666,43.32611111111112],[-94.63166666666666,43.32611111111112],[-94.63166666666666,43.32611111111112],[-94.63166666666666,43.32611111111112],[-93.58361111111111,43.20666666666667],[-93.37416666666665,43.18083333333333],[-93.37416666666665,43.18083333333333],[-93.37416666666665,43.18083333333333],[-93.37416666666665,43.18083333333333],[-92.53888888888889,43.07277777777778],[-92.53888888888889,43.07277777777778],[-92.53888888888889,43.07277777777778],[-92.33194444444445,43.04527777777778],[-92.12333333333332,43.01694444444444],[-92.12333333333332,43.01694444444444],[-91.29277777777777,43.031666666666666],[-91.29277777777777,43.031666666666666],[-91.29277777777777,43.031666666666666],[-90.67222222222223,43.05555555555555],[-90.67222222222223,43.05555555555555],[-90.67222222222223,43.05555555555555],[-90.06722222222221,43.075833333333335],[-90.06722222222221,43.075833333333335],[-90.06722222222221,43.075833333333335],[-90.06722222222221,43.075833333333335],[-89.25,43.099722222222226],[-89.25,43.099722222222226],[-89.05333333333333,43.10333333333333],[-88.65694444444445,43.11083333333333],[-88.65694444444445,43.11083333333333],[-88.46000000000001,43.11361111111111],[-88.07,43.14416666666666],[-88.07,43.14416666666666],[-88.07,43.14416666666666],[-87.87833333333333,43.16833333333333],[-87.87833333333333,43.16833333333333],[-87.08833333333332,43.26111111111111],[-87.08833333333332,43.26111111111111],[-86.89,43.26916666666666],[-86.89,43.26916666666666],[-86.68944444444445,43.27638888888889],[-86.04444444444444,43.29833333333333],[-86.04444444444444,43.29833333333333],[-86.04444444444444,43.29833333333333],[-85.63833333333334,43.30083333333333],[-85.63833333333334,43.30083333333333],[-85.27777777777777,43.30027777777777],[-85.1036111111111,43.25111111111111],[-85.07694444444444,43.23861111111111],[-85.07694444444444,43.23861111111111],[-84.83666666666666,43.126111111111115],[-84.69972222222222,43.056666666666665],[-84.515,42.96333333333334],[-84.515,42.96333333333334],[-84.515,42.96333333333334],[-84.15583333333333,42.78527777777778],[-84.06722222222221,42.740833333333335],[-84.06722222222221,42.740833333333335],[-83.56555555555555,42.56722222222223],[-83.56555555555555,42.56722222222223],[-83.4675,42.53361111111111],[-83.36611111111111,42.51833333333333],[-83.36611111111111,42.51833333333333],[-83.27805555555555,42.49722222222222],[-83.27805555555555,42.49722222222222],[-83.24805555555555,42.453611111111115],[-83.24805555555555,42.453611111111115],[-83.24805555555555,42.453611111111115],[-83.2625,42.365],[-83.2625,42.365],[-83.28805555555556,42.3325],[-83.3125,42.29833333333333],[-83.3125,42.29833333333333],[-83.3125,42.29833333333333],[-83.33611111111111,42.26722222222222],[-83.36,42.23583333333333],[-83.36,42.23583333333333],[-83.37722222222222,42.211666666666666],[-83.37722222222222,42.211666666666666],[-83.37722222222222,42.211666666666666],[-83.37722222222222,42.211666666666666]],"type":"LineString"}
}
