{
  "id": 2014693471,
  "type": "Feature",
  "properties": {
    "geom:area": 0,
    "geom:bbox": "-122.494100,37.180890,-121.266940,37.715880",
    "geom:latitude": 37.38323295376077,
    "geom:longitude": -122.01965903897404,
    "src:alt_label": "swim-takeoff",
    "src:geom": "swim",
    "swim:elevations": [
      213,
      614,
      984,
      1166,
      1368,
      1644,
      2084,
      2632,
      3018,
      3436,
      4074,
      4504,
      5132,
      5295,
      5936,
      6043,
      6099,
      6096,
      6147,
      6493,
      6898,
      7251,
      7542,
      7635,
      8034,
      8413,
      8996,
      9158,
      9435,
      9449
    ],
    "swim:geom": "takeoff",
    "swim:timestamps": [
      1769942019,
      1769942067,
      1769942095,
      1769942107,
      1769942125,
      1769942147,
      1769942179,
      1769942206,
      1769942223,
      1769942264,
      1769942301,
      1769942326,
      1769942363,
      1769942376,
      1769942427,
      1769942451,
      1769942477,
      1769942518,
      1769942542,
      1769942571,
      1769942608,
      1769942637,
      1769942662,
      1769942671,
      1769942703,
      1769942737,
      1769942785,
      1769942798,
      1769942821,
      1769942858
    ],
    "wof:geomhash": "98f2aec244e244a83b142d46692483de",
    "wof:id": 2014693471,
    "wof:repo": "sfomuseum-data-flights-2026-02"
  },
  "bbox": [
    -122.4941,
    37.18089,
    -121.26694,
    37.71588
  ],
  "geometry": {"coordinates":[[-122.36661,37.63239],[-122.3624,37.67192],[-122.37392,37.69659],[-122.38675,37.70319],[-122.40602,37.71307],[-122.43536,37.71588],[-122.47579,37.6939],[-122.4941,37.66435],[-122.49056,37.64172],[-122.48057,37.58424],[-122.46997,37.52577],[-122.46209,37.4858],[-122.44281,37.42695],[-122.42398,37.4107],[-122.31123,37.38279],[-122.25774,37.37274],[-122.19703,37.3611],[-122.10159,37.34282],[-122.0458,37.3322],[-121.97686,37.3189],[-121.89005,37.30224],[-121.81771,37.28842],[-121.75513,37.27641],[-121.73423,37.27234],[-121.6522,37.25636],[-121.56821,37.24014],[-121.44579,37.21642],[-121.41508,37.21016],[-121.35709,37.19864],[-121.26694,37.18089]],"type":"LineString"}
}
