{
  "id": 2014751733,
  "type": "Feature",
  "properties": {
    "geom:area": 0,
    "geom:bbox": "-122.526480,37.627940,-122.115820,38.495910",
    "geom:latitude": 38.031192105627994,
    "geom:longitude": -122.32266492726451,
    "src:alt_label": "swim-takeoff",
    "src:geom": "swim",
    "swim:elevations": [
      152,
      556,
      631,
      844,
      971,
      1037,
      1445,
      1563,
      2027,
      2093,
      2295,
      2604,
      2943,
      3248,
      3341,
      4241,
      4425,
      4662,
      5053,
      5330,
      5631,
      5973,
      6284,
      6468,
      6581,
      6963,
      7097
    ],
    "swim:geom": "takeoff",
    "swim:timestamps": [
      1770664643,
      1770664677,
      1770664686,
      1770664706,
      1770664733,
      1770664751,
      1770664794,
      1770664807,
      1770664850,
      1770664856,
      1770664874,
      1770664900,
      1770664927,
      1770664962,
      1770664983,
      1770665034,
      1770665047,
      1770665062,
      1770665096,
      1770665124,
      1770665156,
      1770665186,
      1770665216,
      1770665246,
      1770665262,
      1770665297,
      1770665315
    ],
    "wof:geomhash": "6af91f2a871940959857a6c4864ab746",
    "wof:id": 2014751733,
    "wof:repo": "sfomuseum-data-flights-2026-02"
  },
  "bbox": [
    -122.52648,
    37.62794,
    -122.11582,
    38.49591
  ],
  "geometry": {"coordinates":[[-122.39731,37.62794],[-122.43205,37.64278],[-122.44018,37.64643],[-122.46214,37.65587],[-122.49239,37.66919],[-122.51384,37.68082],[-122.52604,37.72913],[-122.52648,37.74472],[-122.50521,37.79443],[-122.50048,37.80111],[-122.48568,37.8219],[-122.46367,37.85198],[-122.44088,37.88369],[-122.41157,37.92409],[-122.39125,37.95228],[-122.34153,38.02128],[-122.32876,38.03892],[-122.31399,38.05911],[-122.27899,38.10739],[-122.24896,38.14884],[-122.21263,38.19889],[-122.17712,38.24779],[-122.14104,38.29729],[-122.11704,38.35321],[-122.11582,38.38459],[-122.1203,38.45811],[-122.12327,38.49591]],"type":"LineString"}
}
