{
  "id": 2014802693,
  "type": "Feature",
  "properties": {
    "geom:area": 0,
    "geom:bbox": "-126.995278,37.467222,-122.137222,40.295833",
    "geom:latitude": 38.737566157947455,
    "geom:longitude": -124.57466261199728,
    "src:alt_label": "swim-path",
    "src:geom": "swim",
    "swim:altitudes": [
      "057",
      "057",
      "057",
      "057",
      "079",
      "079",
      "079",
      "079",
      "079",
      "103",
      "103",
      "103",
      "118",
      "118",
      "118",
      "138",
      "138",
      "138",
      "138",
      "157",
      "157",
      "157",
      "157",
      "157",
      "225",
      "225",
      "225",
      "239",
      "239",
      "239",
      "250",
      "250",
      "250",
      "263",
      "263",
      "263",
      "263",
      "284",
      "284",
      "284",
      "291",
      "291",
      "291",
      "291",
      "299",
      "299",
      "299",
      "299",
      "305",
      "316",
      "316",
      "316",
      "316",
      "316",
      "320C",
      "320C",
      "320C",
      "320C",
      "320C",
      "320C",
      "320C",
      "320C",
      "320C",
      "320C",
      "320C",
      "320C",
      "320C",
      "320C",
      "320C",
      "320C",
      "320C",
      "320C",
      "320C",
      "320C",
      "320C",
      "320C",
      "320C",
      "320C",
      "320C",
      "320C",
      "320C",
      "320C",
      "320C",
      "320C",
      "320C",
      "320C",
      "320C",
      "320C",
      "320C",
      "320C",
      "320C",
      "320C",
      "320C",
      "320C",
      "320C"
    ],
    "swim:geom": "path",
    "swim:speeds": [
      244,
      244,
      244,
      244,
      249,
      249,
      249,
      249,
      249,
      282,
      282,
      282,
      313,
      313,
      313,
      348,
      348,
      348,
      348,
      359,
      359,
      359,
      359,
      359,
      377,
      377,
      377,
      391,
      391,
      391,
      401,
      401,
      401,
      415,
      415,
      415,
      415,
      421,
      421,
      421,
      436,
      436,
      436,
      436,
      477,
      477,
      477,
      477,
      483,
      488,
      488,
      488,
      488,
      488,
      491,
      491,
      491,
      491,
      491,
      491,
      499,
      499,
      499,
      499,
      499,
      501,
      501,
      501,
      501,
      503,
      503,
      503,
      507,
      507,
      507,
      508,
      508,
      509,
      509,
      509,
      507,
      507,
      507,
      507,
      507,
      506,
      506,
      506,
      506,
      505,
      505,
      505,
      505,
      505,
      505
    ],
    "swim:timestamps": [
      1771182141,
      1771182141,
      1771182141,
      1771182141,
      1771182201,
      1771182201,
      1771182201,
      1771182201,
      1771182201,
      1771182261,
      1771182261,
      1771182261,
      1771182321,
      1771182321,
      1771182321,
      1771182381,
      1771182381,
      1771182381,
      1771182381,
      1771182441,
      1771182441,
      1771182441,
      1771182441,
      1771182441,
      1771182622,
      1771182622,
      1771182622,
      1771182682,
      1771182682,
      1771182682,
      1771182742,
      1771182742,
      1771182742,
      1771182802,
      1771182802,
      1771182802,
      1771182802,
      1771182922,
      1771182922,
      1771182922,
      1771182982,
      1771182982,
      1771182982,
      1771182982,
      1771183102,
      1771183102,
      1771183102,
      1771183102,
      1771183162,
      1771183222,
      1771183222,
      1771183222,
      1771183222,
      1771183222,
      1771183343,
      1771183343,
      1771183343,
      1771183343,
      1771183343,
      1771183343,
      1771183583,
      1771183583,
      1771183583,
      1771183583,
      1771183583,
      1771183703,
      1771183703,
      1771183703,
      1771183703,
      1771183763,
      1771183763,
      1771183763,
      1771183883,
      1771183883,
      1771183883,
      1771183943,
      1771183943,
      1771184003,
      1771184003,
      1771184003,
      1771184184,
      1771184184,
      1771184184,
      1771184184,
      1771184184,
      1771184244,
      1771184244,
      1771184244,
      1771184244,
      1771184484,
      1771184484,
      1771184484,
      1771184484,
      1771184484,
      1771184484
    ],
    "wof:geomhash": "cf7b7c0dc654f92199c4b0ac5ebea6ce",
    "wof:id": 2014802693,
    "wof:repo": "sfomuseum-data-flights-2026-02"
  },
  "bbox": [
    -126.99527777777777,
    37.467222222222226,
    -122.13722222222223,
    40.295833333333334
  ],
  "geometry": {"coordinates":[[-122.17166666666667,37.56305555555555],[-122.17166666666667,37.56305555555555],[-122.17166666666667,37.56305555555555],[-122.17166666666667,37.56305555555555],[-122.13722222222223,37.500277777777775],[-122.13722222222223,37.500277777777775],[-122.13722222222223,37.500277777777775],[-122.13722222222223,37.500277777777775],[-122.13722222222223,37.500277777777775],[-122.20805555555556,37.467222222222226],[-122.20805555555556,37.467222222222226],[-122.20805555555556,37.467222222222226],[-122.31222222222222,37.48361111111111],[-122.31222222222222,37.48361111111111],[-122.31222222222222,37.48361111111111],[-122.43166666666667,37.50083333333333],[-122.43166666666667,37.50083333333333],[-122.43166666666667,37.50083333333333],[-122.43166666666667,37.50083333333333],[-122.55499999999999,37.51722222222222],[-122.55499999999999,37.51722222222222],[-122.55499999999999,37.51722222222222],[-122.55499999999999,37.51722222222222],[-122.55499999999999,37.51722222222222],[-122.95416666666667,37.580000000000005],[-122.95416666666667,37.580000000000005],[-122.95416666666667,37.580000000000005],[-123.05749999999999,37.652499999999996],[-123.05749999999999,37.652499999999996],[-123.05749999999999,37.652499999999996],[-123.16222222222223,37.72777777777778],[-123.16222222222223,37.72777777777778],[-123.16222222222223,37.72777777777778],[-123.27027777777778,37.805277777777775],[-123.27027777777778,37.805277777777775],[-123.27027777777778,37.805277777777775],[-123.27027777777778,37.805277777777775],[-123.49083333333333,37.96222222222222],[-123.49083333333333,37.96222222222222],[-123.49083333333333,37.96222222222222],[-123.60555555555555,38.04333333333333],[-123.60555555555555,38.04333333333333],[-123.60555555555555,38.04333333333333],[-123.60555555555555,38.04333333333333],[-123.85166666666666,38.216944444444444],[-123.85166666666666,38.216944444444444],[-123.85166666666666,38.216944444444444],[-123.85166666666666,38.216944444444444],[-123.9775,38.305277777777775],[-124.10972222222222,38.3975],[-124.10972222222222,38.3975],[-124.10972222222222,38.3975],[-124.10972222222222,38.3975],[-124.10972222222222,38.3975],[-124.37055555555555,38.57833333333333],[-124.37055555555555,38.57833333333333],[-124.37055555555555,38.57833333333333],[-124.37055555555555,38.57833333333333],[-124.37055555555555,38.57833333333333],[-124.37055555555555,38.57833333333333],[-124.89500000000001,38.93722222222222],[-124.89500000000001,38.93722222222222],[-124.89500000000001,38.93722222222222],[-124.89500000000001,38.93722222222222],[-124.89500000000001,38.93722222222222],[-125.16666666666667,39.12111111111111],[-125.16666666666667,39.12111111111111],[-125.16666666666667,39.12111111111111],[-125.16666666666667,39.12111111111111],[-125.31083333333333,39.217777777777776],[-125.31083333333333,39.217777777777776],[-125.31083333333333,39.217777777777776],[-125.58777777777777,39.40277777777778],[-125.58777777777777,39.40277777777778],[-125.58777777777777,39.40277777777778],[-125.71861111111112,39.489444444444445],[-125.71861111111112,39.489444444444445],[-125.8586111111111,39.581944444444446],[-125.8586111111111,39.581944444444446],[-125.8586111111111,39.581944444444446],[-126.27916666666667,39.856944444444444],[-126.27916666666667,39.856944444444444],[-126.27916666666667,39.856944444444444],[-126.27916666666667,39.856944444444444],[-126.27916666666667,39.856944444444444],[-126.41777777777779,39.94694444444444],[-126.41777777777779,39.94694444444444],[-126.41777777777779,39.94694444444444],[-126.41777777777779,39.94694444444444],[-126.99527777777777,40.295833333333334],[-126.99527777777777,40.295833333333334],[-126.99527777777777,40.295833333333334],[-126.99527777777777,40.295833333333334],[-126.99527777777777,40.295833333333334],[-126.99527777777777,40.295833333333334]],"type":"LineString"}
}
