{
  "id": 2014798283,
  "type": "Feature",
  "properties": {
    "geom:area": 0,
    "geom:bbox": "-122.367470,37.626890,-121.243520,37.841320",
    "geom:latitude": 37.76498078657277,
    "geom:longitude": -121.8474653233412,
    "src:alt_label": "swim-approach",
    "src:geom": "swim",
    "swim:elevations": [
      4167,
      4044,
      3820,
      3600,
      3304,
      3123,
      3003,
      2958,
      2851,
      2744,
      2645,
      2629,
      2529,
      2401,
      2340,
      2216,
      2141,
      2132,
      2134,
      2134,
      2093,
      1956,
      1742,
      1550,
      1328,
      1172,
      1035,
      1029,
      819,
      706,
      605,
      508,
      414,
      364,
      332,
      242,
      150,
      0
    ],
    "swim:geom": "approach",
    "swim:timestamps": [
      1771192163,
      1771192181,
      1771192211,
      1771192238,
      1771192275,
      1771192301,
      1771192332,
      1771192355,
      1771192398,
      1771192431,
      1771192467,
      1771192470,
      1771192487,
      1771192519,
      1771192540,
      1771192577,
      1771192610,
      1771192622,
      1771192674,
      1771192690,
      1771192708,
      1771192728,
      1771192763,
      1771192784,
      1771192820,
      1771192857,
      1771192887,
      1771192890,
      1771192941,
      1771192970,
      1771192997,
      1771193019,
      1771193046,
      1771193061,
      1771193070,
      1771193091,
      1771193121,
      1771193156
    ],
    "wof:geomhash": "a65ae1d50dbb1a9f3806e15f19cdddfa",
    "wof:id": 2014798283,
    "wof:repo": "sfomuseum-data-flights-2026-02"
  },
  "bbox": [
    -122.36747,
    37.62689,
    -121.24352,
    37.84132
  ],
  "geometry": {"coordinates":[[-121.24352,37.68609],[-121.27483,37.69193],[-121.32773,37.70164],[-121.37627,37.7105],[-121.44196,37.72245],[-121.48699,37.73065],[-121.53822,37.7401],[-121.57629,37.747],[-121.64501,37.75942],[-121.69663,37.76889],[-121.75038,37.77864],[-121.75484,37.77946],[-121.77947,37.78396],[-121.82736,37.79234],[-121.85799,37.79777],[-121.91153,37.80739],[-121.95916,37.81596],[-121.97651,37.81903],[-122.05166,37.83246],[-122.07491,37.83584],[-122.10161,37.83707],[-122.1304,37.83857],[-122.17898,37.84035],[-122.20638,37.84132],[-122.23698,37.82356],[-122.254,37.79788],[-122.26684,37.77821],[-122.26811,37.77631],[-122.28837,37.74587],[-122.29988,37.72859],[-122.31023,37.71321],[-122.3189,37.70029],[-122.32858,37.68577],[-122.33346,37.67822],[-122.33651,37.67343],[-122.34415,37.66234],[-122.35466,37.64611],[-122.36747,37.62689]],"type":"LineString"}
}
