{
  "id": 2014791017,
  "type": "Feature",
  "properties": {
    "geom:area": 0,
    "geom:bbox": "-122.362500,32.288611,-97.053889,38.511667",
    "geom:latitude": 36.2031473995498,
    "geom:longitude": -109.13210939727882,
    "src:alt_label": "swim-path",
    "src:geom": "swim",
    "swim:altitudes": [
      "010",
      "010",
      "010",
      "010",
      "037",
      "037",
      "037",
      "105",
      "105",
      "132",
      "132",
      "132",
      "150",
      "150",
      "182",
      "182",
      "199",
      "199",
      "210",
      "210",
      "210",
      "216",
      "216",
      "216",
      "216",
      "216",
      "262",
      "262",
      "262",
      "262",
      "285",
      "285",
      "285",
      "312",
      "312",
      "312",
      "312",
      "312",
      "318",
      "323",
      "323",
      "323",
      "330",
      "330",
      "330",
      "330",
      "330",
      "330",
      "330",
      "330",
      "330",
      "330",
      "330",
      "341",
      "341",
      "341",
      "343",
      "343",
      "343",
      "347",
      "348C",
      "350C",
      "350C",
      "350C",
      "350C",
      "350C",
      "350C",
      "350C",
      "350C",
      "350C",
      "350C",
      "350C",
      "350C",
      "350C",
      "350C",
      "350C",
      "350C",
      "350C",
      "350C",
      "350C",
      "350C",
      "350C",
      "350C",
      "350C",
      "350C",
      "350C",
      "350C",
      "350C",
      "350C",
      "350C",
      "350C",
      "350C",
      "350C",
      "350C",
      "350C",
      "350C",
      "350C",
      "350C",
      "350C",
      "350C",
      "350C",
      "350C",
      "350C",
      "350C",
      "350C",
      "350C",
      "350C",
      "350C",
      "350C",
      "350C",
      "350C",
      "350C",
      "350C",
      "350C",
      "350C",
      "350C",
      "350C",
      "350C",
      "350C",
      "350C",
      "350C",
      "350C",
      "350C",
      "350C",
      "351C",
      "351C",
      "351C",
      "351C",
      "350C",
      "350C",
      "350C",
      "350C",
      "350C",
      "350C",
      "350C",
      "350C",
      "350C",
      "350C",
      "350C",
      "350C",
      "350C",
      "350C",
      "350C",
      "350C",
      "350C",
      "350C",
      "350C",
      "350C",
      "350C",
      "350C",
      "350C",
      "350C",
      "350C",
      "350C",
      "350C",
      "350C",
      "350C",
      "350C",
      "350C",
      "350C",
      "350C",
      "350C",
      "350C",
      "350C",
      "350C",
      "350C",
      "350C",
      "350C",
      "350C",
      "350C",
      "350C",
      "350C",
      "350",
      "331C",
      "331C",
      "330C",
      "330C",
      "330C",
      "330C",
      "330C",
      "330C",
      "330C",
      "330C",
      "330C",
      "330C",
      "330C",
      "330C",
      "330C",
      "330C",
      "330C",
      "330C",
      "330C",
      "330C",
      "330C",
      "330C",
      "330C",
      "330C",
      "330C",
      "330C",
      "331C",
      "331C",
      "331C",
      "331C",
      "331C",
      "331C",
      "331C",
      "330C",
      "330C",
      "330C",
      "330C",
      "330C",
      "331C",
      "331C",
      "331C",
      "331C",
      "330C",
      "330C",
      "330C",
      "330C",
      "330C",
      "330C",
      "330C",
      "330C",
      "330C",
      "330C",
      "330C",
      "330C",
      "330C",
      "330C",
      "330C",
      "330C",
      "330C",
      "330C",
      "330C",
      "330C",
      "330C",
      "320",
      "320",
      "301",
      "301",
      "301",
      "291",
      "291",
      "291",
      "291",
      "252",
      "252",
      "252",
      "252",
      "252",
      "218",
      "218",
      "200",
      "200",
      "197",
      "197",
      "171",
      "162",
      "156",
      "156",
      "149",
      "149",
      "146",
      "142",
      "142",
      "142",
      "138",
      "123",
      "123",
      "120",
      "116",
      "116",
      "116",
      "113",
      "113",
      "086",
      "086",
      "073",
      "057",
      "057",
      "057",
      "040",
      "040",
      "040",
      "030",
      "030",
      "030",
      "030",
      "030",
      "030",
      "030",
      "030",
      "030",
      "022",
      "022",
      "022"
    ],
    "swim:geom": "path",
    "swim:speeds": [
      169,
      169,
      169,
      169,
      244,
      244,
      244,
      307,
      307,
      381,
      381,
      381,
      391,
      391,
      429,
      429,
      440,
      440,
      456,
      456,
      456,
      462,
      462,
      462,
      462,
      462,
      497,
      497,
      497,
      497,
      497,
      497,
      497,
      495,
      495,
      495,
      495,
      495,
      496,
      502,
      502,
      500,
      513,
      513,
      513,
      528,
      528,
      529,
      529,
      529,
      530,
      530,
      530,
      518,
      518,
      518,
      518,
      518,
      518,
      517,
      518,
      518,
      521,
      522,
      522,
      522,
      522,
      524,
      523,
      523,
      523,
      523,
      523,
      523,
      523,
      523,
      523,
      509,
      509,
      509,
      509,
      509,
      508,
      508,
      508,
      508,
      508,
      509,
      509,
      509,
      505,
      505,
      505,
      502,
      502,
      497,
      497,
      493,
      493,
      493,
      493,
      493,
      493,
      493,
      493,
      494,
      494,
      494,
      494,
      497,
      497,
      497,
      497,
      499,
      499,
      499,
      499,
      499,
      499,
      498,
      498,
      498,
      501,
      501,
      503,
      503,
      503,
      503,
      504,
      504,
      504,
      510,
      510,
      510,
      510,
      512,
      514,
      514,
      516,
      515,
      515,
      516,
      516,
      515,
      515,
      515,
      515,
      515,
      515,
      514,
      514,
      514,
      514,
      514,
      514,
      513,
      513,
      513,
      513,
      513,
      513,
      513,
      513,
      513,
      513,
      513,
      511,
      511,
      511,
      510,
      510,
      510,
      507,
      496,
      496,
      496,
      496,
      496,
      490,
      490,
      490,
      494,
      494,
      494,
      494,
      494,
      483,
      483,
      483,
      483,
      481,
      481,
      480,
      480,
      480,
      485,
      485,
      485,
      485,
      483,
      483,
      483,
      483,
      483,
      482,
      482,
      481,
      481,
      493,
      503,
      503,
      505,
      505,
      505,
      505,
      505,
      505,
      495,
      495,
      495,
      495,
      484,
      484,
      481,
      481,
      481,
      481,
      481,
      481,
      481,
      485,
      485,
      485,
      485,
      485,
      497,
      508,
      508,
      505,
      505,
      505,
      498,
      498,
      498,
      498,
      443,
      443,
      443,
      443,
      443,
      426,
      426,
      414,
      414,
      416,
      416,
      413,
      413,
      415,
      415,
      407,
      407,
      385,
      352,
      352,
      352,
      326,
      315,
      315,
      300,
      243,
      243,
      243,
      228,
      228,
      221,
      221,
      216,
      221,
      221,
      221,
      207,
      207,
      207,
      209,
      209,
      211,
      206,
      206,
      206,
      205,
      201,
      201,
      184,
      184,
      184
    ],
    "swim:timestamps": [
      1771101329,
      1771101329,
      1771101329,
      1771101329,
      1771101449,
      1771101449,
      1771101449,
      1771101629,
      1771101629,
      1771101749,
      1771101749,
      1771101749,
      1771101809,
      1771101809,
      1771101930,
      1771101930,
      1771101990,
      1771101990,
      1771102050,
      1771102050,
      1771102050,
      1771102170,
      1771102170,
      1771102170,
      1771102170,
      1771102170,
      1771102410,
      1771102410,
      1771102410,
      1771102410,
      1771102530,
      1771102530,
      1771102530,
      1771102721,
      1771102721,
      1771102721,
      1771102721,
      1771102721,
      1771102781,
      1771102831,
      1771102831,
      1771102841,
      1771102961,
      1771102961,
      1771102961,
      1771103142,
      1771103142,
      1771103202,
      1771103202,
      1771103202,
      1771103262,
      1771103262,
      1771103262,
      1771103431,
      1771103431,
      1771103431,
      1771103442,
      1771103442,
      1771103442,
      1771103492,
      1771103502,
      1771103552,
      1771103672,
      1771103682,
      1771103682,
      1771103682,
      1771103682,
      1771103803,
      1771103863,
      1771103863,
      1771103863,
      1771103863,
      1771103983,
      1771103983,
      1771103983,
      1771104163,
      1771104163,
      1771104343,
      1771104343,
      1771104343,
      1771104343,
      1771104343,
      1771104463,
      1771104463,
      1771104524,
      1771104524,
      1771104524,
      1771104584,
      1771104584,
      1771104584,
      1771104782,
      1771104782,
      1771104782,
      1771104842,
      1771104842,
      1771104962,
      1771104962,
      1771105082,
      1771105082,
      1771105082,
      1771105082,
      1771105082,
      1771105425,
      1771105425,
      1771105425,
      1771105443,
      1771105485,
      1771105485,
      1771105485,
      1771105623,
      1771105623,
      1771105623,
      1771105623,
      1771105785,
      1771105785,
      1771105845,
      1771105845,
      1771105863,
      1771105863,
      1771105923,
      1771105923,
      1771105923,
      1771106043,
      1771106043,
      1771106103,
      1771106103,
      1771106103,
      1771106103,
      1771106344,
      1771106344,
      1771106344,
      1771106464,
      1771106464,
      1771106464,
      1771106464,
      1771106481,
      1771106601,
      1771106601,
      1771106644,
      1771106661,
      1771106661,
      1771106704,
      1771106704,
      1771106721,
      1771106721,
      1771106721,
      1771106721,
      1771106824,
      1771106824,
      1771106901,
      1771106901,
      1771107005,
      1771107005,
      1771107005,
      1771107005,
      1771107082,
      1771107082,
      1771107082,
      1771107125,
      1771107142,
      1771107185,
      1771107202,
      1771107202,
      1771107442,
      1771107442,
      1771107442,
      1771107502,
      1771107502,
      1771107502,
      1771107562,
      1771107562,
      1771107562,
      1771107683,
      1771107803,
      1771107803,
      1771107863,
      1771107863,
      1771107863,
      1771107988,
      1771107988,
      1771107988,
      1771108103,
      1771108103,
      1771108103,
      1771108103,
      1771108103,
      1771108344,
      1771108344,
      1771108344,
      1771108344,
      1771108409,
      1771108409,
      1771108464,
      1771108464,
      1771108464,
      1771108584,
      1771108584,
      1771108584,
      1771108584,
      1771108704,
      1771108704,
      1771108704,
      1771108704,
      1771108704,
      1771108829,
      1771108829,
      1771108944,
      1771108944,
      1771109070,
      1771109190,
      1771109190,
      1771109250,
      1771109250,
      1771109250,
      1771109250,
      1771109310,
      1771109310,
      1771109550,
      1771109550,
      1771109550,
      1771109550,
      1771109791,
      1771109791,
      1771109851,
      1771109851,
      1771109851,
      1771109851,
      1771109971,
      1771109971,
      1771109971,
      1771110151,
      1771110151,
      1771110151,
      1771110151,
      1771110151,
      1771110211,
      1771110331,
      1771110331,
      1771110452,
      1771110452,
      1771110452,
      1771110512,
      1771110512,
      1771110512,
      1771110512,
      1771110752,
      1771110752,
      1771110752,
      1771110752,
      1771110752,
      1771110932,
      1771110932,
      1771110979,
      1771110979,
      1771110992,
      1771110992,
      1771111075,
      1771111113,
      1771111136,
      1771111136,
      1771111173,
      1771111173,
      1771111196,
      1771111233,
      1771111233,
      1771111233,
      1771111256,
      1771111316,
      1771111316,
      1771111353,
      1771111413,
      1771111413,
      1771111413,
      1771111442,
      1771111442,
      1771111533,
      1771111533,
      1771111561,
      1771111593,
      1771111593,
      1771111593,
      1771111676,
      1771111676,
      1771111676,
      1771111736,
      1771111736,
      1771111774,
      1771111801,
      1771111801,
      1771111801,
      1771111834,
      1771111894,
      1771111894,
      1771111954,
      1771111954,
      1771111954
    ],
    "wof:geomhash": "d5d6bc79a2093349bf875a27a9f670e7",
    "wof:id": 2014791017,
    "wof:repo": "sfomuseum-data-flights-2026-02"
  },
  "bbox": [
    -122.3625,
    32.28861111111111,
    -97.05388888888889,
    38.51166666666666
  ],
  "geometry": {"coordinates":[[-122.3625,37.63361111111111],[-122.3625,37.63361111111111],[-122.3625,37.63361111111111],[-122.3625,37.63361111111111],[-122.25083333333333,37.69833333333333],[-122.25083333333333,37.69833333333333],[-122.25083333333333,37.69833333333333],[-121.99694444444445,37.827222222222225],[-121.99694444444445,37.827222222222225],[-121.75305555555556,37.87277777777778],[-121.75305555555556,37.87277777777778],[-121.75305555555556,37.87277777777778],[-121.62916666666666,37.89555555555555],[-121.62916666666666,37.89555555555555],[-121.3175,37.9525],[-121.3175,37.9525],[-121.16611111111112,37.97972222222222],[-121.16611111111112,37.97972222222222],[-121.00888888888889,38.00611111111111],[-121.00888888888889,38.00611111111111],[-121.00888888888889,38.00611111111111],[-120.69166666666668,38.05444444444444],[-120.69166666666668,38.05444444444444],[-120.69166666666668,38.05444444444444],[-120.69166666666668,38.05444444444444],[-120.69166666666668,38.05444444444444],[-120.01333333333334,38.155833333333334],[-120.01333333333334,38.155833333333334],[-120.01333333333334,38.155833333333334],[-120.01333333333334,38.155833333333334],[-119.67027777777778,38.20527777777778],[-119.67027777777778,38.20527777777778],[-119.67027777777778,38.20527777777778],[-119.14305555555556,38.27833333333333],[-119.14305555555556,38.27833333333333],[-119.14305555555556,38.27833333333333],[-119.14305555555556,38.27833333333333],[-119.14305555555556,38.27833333333333],[-118.9725,38.30222222222222],[-118.79666666666667,38.32666666666667],[-118.79666666666667,38.32666666666667],[-118.79777777777778,38.32555555555556],[-118.40777777777778,38.37861111111111],[-118.40777777777778,38.37861111111111],[-118.40777777777778,38.37861111111111],[-117.88555555555556,38.44611111111111],[-117.88555555555556,38.44611111111111],[-117.6975,38.469722222222224],[-117.6975,38.469722222222224],[-117.6975,38.469722222222224],[-117.50888888888889,38.49333333333333],[-117.50888888888889,38.49333333333333],[-117.50888888888889,38.49333333333333],[-116.98305555555555,38.51166666666666],[-116.98305555555555,38.51166666666666],[-116.98305555555555,38.51166666666666],[-116.9475,38.510555555555555],[-116.9475,38.510555555555555],[-116.9475,38.510555555555555],[-116.79694444444445,38.505833333333335],[-116.76305555555555,38.50472222222222],[-116.61361111111111,38.499722222222225],[-116.24527777777777,38.48638888888889],[-116.20666666666666,38.485],[-116.20666666666666,38.485],[-116.20666666666666,38.485],[-116.20666666666666,38.485],[-115.83722222222222,38.47083333333334],[-115.65138888888889,38.463055555555556],[-115.65138888888889,38.463055555555556],[-115.65138888888889,38.463055555555556],[-115.65138888888889,38.463055555555556],[-115.2775,38.446666666666665],[-115.2775,38.446666666666665],[-115.2775,38.446666666666665],[-114.75083333333333,38.42166666666667],[-114.75083333333333,38.42166666666667],[-114.20611111111111,38.37],[-114.20611111111111,38.37],[-114.20611111111111,38.37],[-114.20611111111111,38.37],[-114.20611111111111,38.37],[-113.86277777777777,38.288888888888884],[-113.86277777777777,38.288888888888884],[-113.69166666666668,38.24805555555556],[-113.69166666666668,38.24805555555556],[-113.69166666666668,38.24805555555556],[-113.51888888888888,38.20638888888889],[-113.51888888888888,38.20638888888889],[-113.51888888888888,38.20638888888889],[-112.93666666666667,38.06444444444444],[-112.93666666666667,38.06444444444444],[-112.93666666666667,38.06444444444444],[-112.76777777777778,38.0225],[-112.76777777777778,38.0225],[-112.43277777777779,37.93833333333333],[-112.43277777777779,37.93833333333333],[-112.10277777777777,37.85444444444445],[-112.10277777777777,37.85444444444445],[-112.10277777777777,37.85444444444445],[-112.10277777777777,37.85444444444445],[-112.10277777777777,37.85444444444445],[-111.17444444444445,37.638333333333335],[-111.17444444444445,37.638333333333335],[-111.17444444444445,37.638333333333335],[-111.10722222222222,37.6225],[-111.00611111111111,37.598888888888894],[-111.00611111111111,37.598888888888894],[-111.00611111111111,37.598888888888894],[-110.61138888888888,37.490833333333335],[-110.61138888888888,37.490833333333335],[-110.61138888888888,37.490833333333335],[-110.61138888888888,37.490833333333335],[-110.18611111111112,37.36555555555556],[-110.18611111111112,37.36555555555556],[-110.03222222222222,37.319722222222225],[-110.03222222222222,37.319722222222225],[-109.95166666666667,37.29555555555555],[-109.95166666666667,37.29555555555555],[-109.78999999999999,37.2475],[-109.78999999999999,37.2475],[-109.78999999999999,37.2475],[-109.4625,37.14805555555556],[-109.4625,37.14805555555556],[-109.29944444444445,37.098333333333336],[-109.29944444444445,37.098333333333336],[-109.29944444444445,37.098333333333336],[-109.29944444444445,37.098333333333336],[-108.67694444444444,36.90555555555555],[-108.67694444444444,36.90555555555555],[-108.67694444444444,36.90555555555555],[-108.345,36.801111111111105],[-108.345,36.801111111111105],[-108.345,36.801111111111105],[-108.345,36.801111111111105],[-108.27805555555555,36.78],[-107.94638888888889,36.67388888888889],[-107.94638888888889,36.67388888888889],[-107.84638888888888,36.64194444444444],[-107.7825,36.62111111111111],[-107.7825,36.62111111111111],[-107.67944444444444,36.58777777777778],[-107.67944444444444,36.58777777777778],[-107.61472222222221,36.566944444444445],[-107.61472222222221,36.566944444444445],[-107.61472222222221,36.566944444444445],[-107.61472222222221,36.566944444444445],[-107.34972222222221,36.480555555555554],[-107.34972222222221,36.480555555555554],[-107.12249999999999,36.400277777777774],[-107.12249999999999,36.400277777777774],[-106.865,36.306666666666665],[-106.865,36.306666666666665],[-106.865,36.306666666666665],[-106.865,36.306666666666665],[-106.63972222222223,36.22416666666667],[-106.63972222222223,36.22416666666667],[-106.63972222222223,36.22416666666667],[-106.54583333333333,36.18472222222222],[-106.4875,36.15361111111111],[-106.39888888888889,36.10611111111111],[-106.33694444444444,36.07333333333334],[-106.33694444444444,36.07333333333334],[-105.74944444444445,35.75666666666667],[-105.74944444444445,35.75666666666667],[-105.74944444444445,35.75666666666667],[-105.60527777777777,35.677499999999995],[-105.60527777777777,35.677499999999995],[-105.60527777777777,35.677499999999995],[-105.48444444444445,35.61027777777778],[-105.48444444444445,35.61027777777778],[-105.48444444444445,35.61027777777778],[-105.19861111111112,35.45138888888889],[-104.89833333333334,35.32888888888889],[-104.89833333333334,35.32888888888889],[-104.745,35.26861111111111],[-104.745,35.26861111111111],[-104.745,35.26861111111111],[-104.41944444444445,35.14138888888889],[-104.41944444444445,35.14138888888889],[-104.41944444444445,35.14138888888889],[-104.12083333333332,35.01972222222222],[-104.12083333333332,35.01972222222222],[-104.12083333333332,35.01972222222222],[-104.12083333333332,35.01972222222222],[-104.12083333333332,35.01972222222222],[-103.53444444444445,34.78194444444444],[-103.53444444444445,34.78194444444444],[-103.53444444444445,34.78194444444444],[-103.53444444444445,34.78194444444444],[-103.39,34.72277777777778],[-103.39,34.72277777777778],[-103.24555555555555,34.663333333333334],[-103.24555555555555,34.663333333333334],[-103.24555555555555,34.663333333333334],[-102.95361111111112,34.54277777777778],[-102.95361111111112,34.54277777777778],[-102.95361111111112,34.54277777777778],[-102.95361111111112,34.54277777777778],[-102.64194444444445,34.475],[-102.64194444444445,34.475],[-102.64194444444445,34.475],[-102.64194444444445,34.475],[-102.64194444444445,34.475],[-102.32305555555556,34.44138888888889],[-102.32305555555556,34.44138888888889],[-102.00333333333333,34.400277777777774],[-102.00333333333333,34.400277777777774],[-101.71416666666667,34.2475],[-101.50472222222223,34.02861111111111],[-101.50472222222223,34.02861111111111],[-101.39861111111112,33.91694444444444],[-101.39861111111112,33.91694444444444],[-101.39861111111112,33.91694444444444],[-101.39861111111112,33.91694444444444],[-101.29472222222222,33.8075],[-101.29472222222222,33.8075],[-100.89666666666668,33.38333333333333],[-100.89666666666668,33.38333333333333],[-100.89666666666668,33.38333333333333],[-100.89666666666668,33.38333333333333],[-100.49972222222222,32.955000000000005],[-100.49972222222222,32.955000000000005],[-100.40194444444445,32.84861111111111],[-100.40194444444445,32.84861111111111],[-100.40194444444445,32.84861111111111],[-100.40194444444445,32.84861111111111],[-100.20777777777778,32.63638888888889],[-100.20777777777778,32.63638888888889],[-100.20777777777778,32.63638888888889],[-99.90555555555557,32.33027777777778],[-99.90555555555557,32.33027777777778],[-99.90555555555557,32.33027777777778],[-99.90555555555557,32.33027777777778],[-99.90555555555557,32.33027777777778],[-99.74972222222222,32.28861111111111],[-99.39750000000001,32.305],[-99.39750000000001,32.305],[-99.07027777777778,32.32083333333334],[-99.07027777777778,32.32083333333334],[-99.07027777777778,32.32083333333334],[-98.90805555555556,32.328611111111115],[-98.90805555555556,32.328611111111115],[-98.90805555555556,32.328611111111115],[-98.90805555555556,32.328611111111115],[-98.29638888888888,32.35611111111111],[-98.29638888888888,32.35611111111111],[-98.29638888888888,32.35611111111111],[-98.29638888888888,32.35611111111111],[-98.29638888888888,32.35611111111111],[-97.87444444444444,32.37277777777778],[-97.87444444444444,32.37277777777778],[-97.76666666666667,32.38333333333333],[-97.76666666666667,32.38333333333333],[-97.74111111111111,32.378055555555555],[-97.74111111111111,32.378055555555555],[-97.56666666666666,32.43333333333333],[-97.51416666666667,32.480000000000004],[-97.46666666666667,32.516666666666666],[-97.46666666666667,32.516666666666666],[-97.42055555555557,32.56166666666666],[-97.42055555555557,32.56166666666666],[-97.38333333333334,32.6],[-97.33638888888889,32.635],[-97.33638888888889,32.635],[-97.33638888888889,32.635],[-97.3,32.666666666666664],[-97.23333333333333,32.733333333333334],[-97.23333333333333,32.733333333333334],[-97.1863888888889,32.76555555555556],[-97.16722222222222,32.83277777777778],[-97.16722222222222,32.83277777777778],[-97.16722222222222,32.83277777777778],[-97.16666666666667,32.86666666666667],[-97.16666666666667,32.86666666666667],[-97.16555555555556,32.95666666666667],[-97.16555555555556,32.95666666666667],[-97.16666666666667,32.983333333333334],[-97.1575,33.01777777777777],[-97.1575,33.01777777777777],[-97.1575,33.01777777777777],[-97.13333333333334,33.1],[-97.13333333333334,33.1],[-97.13333333333334,33.1],[-97.11666666666666,33.15],[-97.11666666666666,33.15],[-97.07833333333333,33.15861111111111],[-97.06666666666666,33.13333333333333],[-97.06666666666666,33.13333333333333],[-97.06666666666666,33.13333333333333],[-97.05388888888889,33.108333333333334],[-97.05388888888889,33.05333333333333],[-97.05388888888889,33.05333333333333],[-97.05416666666666,32.99861111111111],[-97.05416666666666,32.99861111111111],[-97.05416666666666,32.99861111111111]],"type":"LineString"}
}
