{
  "id": 2014834817,
  "type": "Feature",
  "properties": {
    "geom:area": 0,
    "geom:bbox": "-180.000000,31.140000,171.970000,58.060000",
    "geom:latitude": 53.69562406676329,
    "geom:longitude": -7.101773136682482,
    "src:alt_label": "swim-route",
    "src:geom": "swim",
    "swim:geom": "route",
    "wof:geomhash": "439b9749fab19565106ad630052b73ef",
    "wof:id": 2014834817,
    "wof:repo": "sfomuseum-data-flights-2026-02"
  },
  "bbox": [
    -180,
    31.14,
    171.97,
    58.06
  ],
  "geometry": {"coordinates":[[[-122.38,37.62],[-122.49,37.69],[-122.49,37.69],[-122.58,37.74],[-122.58,37.74],[-122.61,37.76],[-122.68,37.8],[-122.69,37.81],[-122.72,37.83],[-122.73,37.84],[-122.77,37.89],[-122.89,38.02],[-123.14,38.31],[-123.15,38.32],[-123.3,38.49],[-123.42,38.63],[-123.48,38.69],[-123.59,38.83],[-123.64,38.88],[-123.69,38.93],[-123.75,39],[-123.77,39.25],[-123.77,39.3],[-123.78,39.36],[-123.8,39.52],[-123.82,39.67],[-123.81,39.73],[-123.8,40.24],[-123.76,41.59],[-123.69,43.29],[-123.66,43.65],[-123.72,46.26],[-123.73,46.46],[-123.65,46.52],[-123.47,47.23],[-123.55,47.29],[-123.53,47.44],[-123.8,48.03],[-123.97,48.15],[-124.33,48.37],[-124.36,48.39],[-124.52,48.49],[-124.68,48.59],[-124.84,48.69],[-125,48.78],[-125.02,48.78],[-126,49.35],[-126.78,49.8],[-127.15,50],[-127.57,50.25],[-128.33,50.64],[-130.7,51.79],[-130.7,51.79],[-133.28,52.92],[-136,54],[-141.63,55.62],[-144,56.19],[-148.5,57.11],[-150.53,57.46],[-153.21,57.69],[-155.91,57.86],[-160,58],[-163.21,58.06],[-165.22,58.06],[-166.44,57.94],[-171.44,57.3],[-173.87,56.91],[-180,56]],[[171.97,54.93],[169.34,53.63],[168.35,53.3],[163.7,51.61],[160.39,50.2],[159.36,49.72],[159.35,49.71],[159.35,49.71],[153,46.2],[146.86,43.03],[146.83,43],[145.51,42.23],[143.53,41],[140.56,39.01],[139.76,38.43],[139.11,37.95],[137.8,37.49],[135.01,36.44],[134.5,36.24],[132.84,35.24],[131.77,34.57],[130.39,33.68],[126.65,32.2],[126.65,32.19],[126.06,32.06],[125,31.84],[124,31.61],[124,31.61],[123.94,31.6],[123.7,31.55],[123.5,31.5],[123.36,31.47],[123.06,31.42],[122.78,31.36],[122.7,31.34],[122.51,31.3],[122.26,31.25],[122.21,31.24],[122.07,31.21],[121.98,31.19],[121.89,31.17],[121.79,31.14]]],"type":"MultiLineString"}
}
