{
  "id": 2014786693,
  "type": "Feature",
  "properties": {
    "geom:area": 0,
    "geom:bbox": "-122.380000,33.640000,-84.040000,38.520000",
    "geom:latitude": 37.02309251947767,
    "geom:longitude": -102.90257034500114,
    "src:alt_label": "swim-route",
    "src:geom": "swim",
    "swim:geom": "route",
    "wof:geomhash": "dd412fd842cfdd32d7e4fcee6cca4f3e",
    "wof:id": 2014786693,
    "wof:repo": "sfomuseum-data-flights-2026-02"
  },
  "bbox": [
    -122.38,
    33.64,
    -84.04,
    38.52
  ],
  "geometry": {"coordinates":[[-122.38,37.62],[-122.28,37.68],[-122.27,37.69],[-122.27,37.69],[-122.21,37.72],[-122.21,37.72],[-122.2,37.72],[-122.18,37.73],[-122.18,37.74],[-122.16,37.75],[-122.12,37.76],[-122.11,37.77],[-122,37.83],[-121.93,37.84],[-121.73,37.88],[-121.7,37.88],[-121.65,37.89],[-121.58,37.91],[-121.43,37.93],[-121.34,37.95],[-121.32,37.95],[-121.2,37.97],[-121.16,37.98],[-121.1,37.99],[-121.09,37.99],[-120.83,38.03],[-120.73,38.05],[-120.64,38.06],[-120.58,38.07],[-120.54,38.08],[-120.12,38.14],[-119.18,38.27],[-118.85,38.32],[-117.29,38.52],[-117.28,38.52],[-116.56,38.5],[-113.97,38.41],[-113.86,38.4],[-113.01,38.36],[-112.12,38.26],[-110.36,38.05],[-110,38],[-109.06,38],[-108,38],[-107.36,38],[-106.35,38],[-106.16,38],[-106,38],[-105.59,38.01],[-104,38],[-103.07,37.89],[-102.08,37.76],[-101.84,37.73],[-100.52,37.54],[-100.21,37.48],[-99.95,37.42],[-98,37],[-97.74,36.95],[-94.74,36.39],[-94.42,36.32],[-94.11,36.25],[-93.85,36.18],[-93.09,35.96],[-92.83,35.89],[-92.06,35.66],[-91.19,35.4],[-90.79,35.27],[-90.39,35.14],[-89.98,35.02],[-89.54,34.95],[-88.54,34.81],[-88.34,34.78],[-88.29,34.77],[-87.43,34.63],[-87.1,34.57],[-87,34.55],[-86.94,34.54],[-86.71,34.48],[-86.15,34.34],[-85.75,34.23],[-85.4,34.14],[-85.05,34.05],[-84.92,33.92],[-84.9,33.9],[-84.88,33.88],[-84.8,33.81],[-84.72,33.73],[-84.58,33.73],[-84.43,33.73],[-84.39,33.73],[-84.31,33.73],[-84.14,33.73],[-84.05,33.73],[-84.04,33.73],[-84.22,33.69],[-84.32,33.66],[-84.41,33.64],[-84.43,33.64]],"type":"LineString"}
}
