{
  "id": 2014903677,
  "type": "Feature",
  "properties": {
    "geom:area": 0,
    "geom:bbox": "-122.380000,35.880000,-78.790000,39.600000",
    "geom:latitude": 38.64319473428111,
    "geom:longitude": -100.23867400719118,
    "src:alt_label": "swim-route",
    "src:geom": "swim",
    "swim:geom": "route",
    "wof:geomhash": "c7327a007592a5dcf572b721b6a4f106",
    "wof:id": 2014903677,
    "wof:repo": "sfomuseum-data-flights-2026-02"
  },
  "bbox": [
    -122.38,
    35.88,
    -78.79,
    39.6
  ],
  "geometry": {"coordinates":[[-122.38,37.62],[-122.28,37.68],[-122.27,37.69],[-122.27,37.69],[-122.21,37.72],[-122.21,37.72],[-122.2,37.72],[-122.18,37.73],[-122.18,37.74],[-122.16,37.75],[-122.12,37.76],[-122.11,37.77],[-122,37.83],[-121.94,37.85],[-121.77,37.92],[-121.75,37.93],[-121.61,37.98],[-121.48,38.04],[-121.41,38.06],[-121.38,38.07],[-121.26,38.12],[-121.23,38.13],[-121.16,38.16],[-121.04,38.21],[-120.92,38.22],[-120.82,38.24],[-120.72,38.25],[-120.67,38.26],[-120.62,38.26],[-120.41,38.29],[-120.2,38.32],[-119.22,38.45],[-118.73,38.51],[-118.23,38.57],[-118.02,38.6],[-117.3,38.68],[-117.29,38.68],[-116.98,38.73],[-116.67,38.79],[-116.05,38.89],[-114.68,39.1],[-114,39.2],[-113.32,39.29],[-113.25,39.3],[-112.2,39.47],[-111.96,39.48],[-110.78,39.5],[-110.23,39.5],[-108,39.5],[-107.22,39.53],[-105.16,39.59],[-104.96,39.6],[-104.52,39.6],[-103.5,39.56],[-103.23,39.56],[-102,39.5],[-100.7,39.34],[-99.41,39.17],[-99,39.11],[-99,39.11],[-98.43,39.02],[-98.23,39.01],[-98.18,39.01],[-96.35,38.91],[-96.02,38.96],[-95.02,38.83],[-94.72,38.81],[-94.59,38.85],[-93.02,38.71],[-91.34,38.5],[-90.55,38.42],[-89.68,38.32],[-88.24,38.14],[-86.5,37.9],[-86.1,37.85],[-85.78,37.82],[-84.98,37.76],[-84.26,37.7],[-83.67,37.65],[-83.67,37.65],[-83.43,37.63],[-83.25,37.61],[-83.2,37.6],[-82.79,37.56],[-80.77,37.35],[-80.72,37.34],[-80.64,37.33],[-80.63,37.33],[-80.47,37.31],[-79.93,37.24],[-79.92,37.24],[-79.91,37.24],[-79.63,37.07],[-79.48,36.97],[-79.02,36.68],[-79.01,36.67],[-78.95,36.44],[-78.94,36.43],[-78.93,36.4],[-78.93,36.38],[-78.93,36.38],[-78.92,36.34],[-78.9,36.28],[-78.89,36.24],[-78.87,36.19],[-78.84,36.06],[-78.83,36.03],[-78.83,35.97],[-78.85,35.95],[-78.89,35.92],[-78.85,35.9],[-78.79,35.88]],"type":"LineString"}
}
