{
  "id": 2014783177,
  "type": "Feature",
  "properties": {
    "geom:area": 0,
    "geom:bbox": "-122.465360,36.737440,-121.463780,37.711600",
    "geom:latitude": 37.22677948610715,
    "geom:longitude": -122.06643805533595,
    "src:alt_label": "swim-takeoff",
    "src:geom": "swim",
    "swim:elevations": [
      246,
      313,
      610,
      731,
      1331,
      1671,
      2163,
      2776,
      3202,
      3478,
      3924,
      4397,
      4661,
      5081,
      5618,
      6031,
      6381,
      6704,
      7093,
      7339,
      7376,
      7443,
      7656,
      7842,
      8086,
      8199,
      8428,
      8948,
      9198,
      9248,
      9449,
      9449
    ],
    "swim:geom": "takeoff",
    "swim:timestamps": [
      1771050848,
      1771050854,
      1771050896,
      1771050912,
      1771050952,
      1771050972,
      1771050993,
      1771051030,
      1771051055,
      1771051091,
      1771051124,
      1771051163,
      1771051185,
      1771051214,
      1771051254,
      1771051284,
      1771051315,
      1771051342,
      1771051376,
      1771051400,
      1771051406,
      1771051412,
      1771051436,
      1771051455,
      1771051490,
      1771051503,
      1771051533,
      1771051583,
      1771051614,
      1771051620,
      1771051678,
      1771051696
    ],
    "wof:geomhash": "80edb7a986d34ba1f32263aba72c4aea",
    "wof:id": 2014783177,
    "wof:repo": "sfomuseum-data-flights-2026-02"
  },
  "bbox": [
    -122.46536,
    36.73744,
    -121.46378,
    37.7116
  ],
  "geometry": {"coordinates":[[-122.36509,37.63467],[-122.36271,37.63881],[-122.36156,37.67663],[-122.36545,37.69474],[-122.41818,37.7116],[-122.44181,37.69658],[-122.4481,37.67085],[-122.44863,37.62651],[-122.45461,37.59483],[-122.46456,37.54465],[-122.46536,37.49589],[-122.41486,37.4463],[-122.38123,37.42133],[-122.33379,37.38607],[-122.26796,37.33761],[-122.21754,37.30046],[-122.1661,37.2625],[-122.11913,37.22784],[-122.05966,37.18391],[-122.0176,37.15257],[-122.00699,37.14467],[-121.99641,37.1367],[-121.95302,37.10432],[-121.91975,37.07921],[-121.85485,37.03101],[-121.82995,37.01262],[-121.77318,36.97003],[-121.6787,36.90013],[-121.61904,36.85502],[-121.6077,36.84644],[-121.49804,36.76341],[-121.46378,36.73744]],"type":"LineString"}
}
