{
  "id": 2014802503,
  "type": "Feature",
  "properties": {
    "geom:area": 0,
    "geom:bbox": "-122.362580,37.601780,-121.243660,38.517930",
    "geom:latitude": 38.057176580523475,
    "geom:longitude": -121.81058872323133,
    "src:alt_label": "swim-takeoff",
    "src:geom": "swim",
    "swim:elevations": [
      152,
      700,
      1041,
      1104,
      1565,
      2078,
      2191,
      2720,
      3233,
      3436,
      3581,
      3834,
      4080,
      4590,
      4947,
      5149,
      5732,
      5978,
      6067,
      6326,
      6565,
      6796,
      6926,
      7169,
      7591,
      7670,
      7885,
      8238,
      8322
    ],
    "swim:geom": "takeoff",
    "swim:timestamps": [
      1771154324,
      1771154367,
      1771154393,
      1771154404,
      1771154450,
      1771154483,
      1771154491,
      1771154524,
      1771154572,
      1771154592,
      1771154603,
      1771154622,
      1771154644,
      1771154688,
      1771154712,
      1771154732,
      1771154776,
      1771154802,
      1771154814,
      1771154846,
      1771154876,
      1771154908,
      1771154922,
      1771154951,
      1771154995,
      1771155004,
      1771155031,
      1771155077,
      1771155091
    ],
    "wof:geomhash": "202ff6aa83f0b6fdee658de1cdb2142f",
    "wof:id": 2014802503,
    "wof:repo": "sfomuseum-data-flights-2026-02"
  },
  "bbox": [
    -122.36258,
    37.60178,
    -121.24366,
    38.51793
  ],
  "geometry": {"coordinates":[[-122.36258,37.61603],[-122.32398,37.60178],[-122.29894,37.61095],[-122.28985,37.61782],[-122.23844,37.65517],[-122.19661,37.68408],[-122.18626,37.69111],[-122.14767,37.72415],[-122.10001,37.78334],[-122.07781,37.81057],[-122.06529,37.82525],[-122.0435,37.85133],[-122.01798,37.88243],[-121.96608,37.94642],[-121.93777,37.98089],[-121.91371,38.00981],[-121.84634,38.06652],[-121.80263,38.09901],[-121.78144,38.11502],[-121.72408,38.15767],[-121.6702,38.19708],[-121.60897,38.242],[-121.58179,38.26234],[-121.52461,38.30463],[-121.43684,38.37072],[-121.41984,38.38362],[-121.36469,38.42493],[-121.2715,38.49502],[-121.24366,38.51793]],"type":"LineString"}
}
