{
  "id": 2014903663,
  "type": "Feature",
  "properties": {
    "geom:area": 0,
    "geom:bbox": "-122.470000,33.940000,-118.300000,37.680000",
    "geom:latitude": 35.77644075344432,
    "geom:longitude": -120.39900857975474,
    "src:alt_label": "swim-route",
    "src:geom": "swim",
    "swim:geom": "route",
    "wof:geomhash": "7e69c654d6b3071cdec40d4474f7b9a9",
    "wof:id": 2014903663,
    "wof:repo": "sfomuseum-data-flights-2026-02"
  },
  "bbox": [
    -122.47,
    33.94,
    -118.3,
    37.68
  ],
  "geometry": {"coordinates":[[-122.38,37.62],[-122.36,37.68],[-122.39,37.63],[-122.39,37.63],[-122.44,37.55],[-122.44,37.55],[-122.46,37.52],[-122.47,37.49],[-122.44,37.47],[-122.44,37.46],[-122.43,37.46],[-122.34,37.39],[-122.18,37.28],[-122.15,37.25],[-122.1,37.21],[-122.02,37.15],[-121.86,37.04],[-121.86,37.03],[-121.83,37.01],[-121.67,36.89],[-121.52,36.78],[-121.44,36.72],[-121.35,36.65],[-121.3,36.61],[-121.24,36.57],[-121.12,36.48],[-121.06,36.43],[-120.98,36.37],[-120.85,36.28],[-120.46,36.01],[-120.26,35.87],[-120.25,35.86],[-120.16,35.74],[-120.11,35.67],[-119.95,35.46],[-119.82,35.29],[-119.77,35.23],[-119.58,35.03],[-119.52,34.96],[-119.48,34.92],[-119.48,34.91],[-119.33,34.75],[-119.33,34.75],[-119.25,34.66],[-119.24,34.65],[-119.17,34.56],[-119.17,34.56],[-119.06,34.44],[-119.06,34.44],[-118.98,34.35],[-118.97,34.34],[-118.89,34.26],[-118.89,34.25],[-118.87,34.23],[-118.85,34.21],[-118.82,34.18],[-118.82,34.17],[-118.81,34.17],[-118.78,34.14],[-118.71,34.07],[-118.67,34.03],[-118.66,34.03],[-118.64,34.03],[-118.61,34.02],[-118.55,34.02],[-118.55,34.02],[-118.49,34.01],[-118.46,34.01],[-118.44,34.01],[-118.43,34.01],[-118.41,34.02],[-118.38,34.02],[-118.36,34.03],[-118.34,34.03],[-118.32,34.03],[-118.3,34.03],[-118.34,34],[-118.4,33.95],[-118.41,33.94]],"type":"LineString"}
}
