{
  "id": 2014811257,
  "type": "Feature",
  "properties": {
    "date:cessation_lower": "2026-02-16",
    "date:cessation_upper": "2026-02-16",
    "date:inception_lower": "2026-02-16",
    "date:inception_upper": "2026-02-16",
    "edtf:cessation": "2026-02-16T22:50:00Z",
    "edtf:inception": "2026-02-16T03:17:39-08:00",
    "flysfo:actual_timestamp": -1,
    "flysfo:airline": "WN",
    "flysfo:date": "2026-02-16",
    "flysfo:estimated_timestamp": 1771268760,
    "flysfo:event": "D",
    "flysfo:flight_number": "WN528",
    "flysfo:gate": "D7",
    "flysfo:journey": "SFO-BNA",
    "flysfo:scheduled_timestamp": 1771266900,
    "flysfo:timestamp": 1771268760,
    "geom:area": 0,
    "geom:bbox": "-122.370943,36.126387,-86.676652,37.617990",
    "geom:latitude": 36.8721885,
    "geom:longitude": -104.5237975,
    "iata:airline": "WN",
    "icao:aircraft": "B738",
    "icao:airline": "SWA",
    "lbl:latitude": 37.61705,
    "lbl:longitude": -122.380838,
    "sfomuseum:aircraft_id": 1159289871,
    "sfomuseum:airline_id": 1159285591,
    "sfomuseum:arrival_id": 102525035,
    "sfomuseum:departure_id": 102527513,
    "sfomuseum:flight_id": "20260216-D-SWA-528",
    "sfomuseum:flight_number": [
      "SWA528",
      "WN528"
    ],
    "sfomuseum:placetype": "flight",
    "src:geom": "flysfo",
    "src:geom_alt": [
      "swim-route",
      "swim-path",
      "swim-takeoff"
    ],
    "swim:tail_number": "N8605E",
    "wof:belongsto": [
      1947304067,
      102527513,
      1947304595,
      102191575,
      85633793,
      102087579,
      85922583,
      554784711,
      85688637,
      1947304601,
      1947304591,
      102085387
    ],
    "wof:concordances": {
      "swim:flight_ref": "139525825",
      "swim:gufi": "KO580652Sx"
    },
    "wof:country": "US",
    "wof:created": 1771344937,
    "wof:geomhash": "36f645f844d4838b633d7fed3f06d4a5",
    "wof:hierarchy": [
      {
        "building_id": 1947304067,
        "campus_id": 102527513,
        "concourse_id": 1947304595,
        "continent_id": 102191575,
        "country_id": 85633793,
        "county_id": 102087579,
        "custom_id": 2014811257,
        "flight_id": 2014811257,
        "locality_id": 85922583,
        "postalcode_id": 554784711,
        "region_id": 85688637,
        "venue_id": 1947304601,
        "wing_id": 1947304591
      },
      {
        "building_id": 1947304067,
        "campus_id": 102527513,
        "concourse_id": 1947304595,
        "continent_id": 102191575,
        "country_id": 85633793,
        "county_id": 102085387,
        "custom_id": 2014811257,
        "flight_id": 2014811257,
        "region_id": 85688637,
        "venue_id": 1947304601,
        "wing_id": 1947304591
      }
    ],
    "wof:id": 2014811257,
    "wof:involves": [
      1159289871,
      102525035,
      102527513,
      1159285591,
      1947304601
    ],
    "wof:lastmodified": 1771345104,
    "wof:name": "WN528 (SFO-BNA)",
    "wof:parent_id": 1947304601,
    "wof:placetype": "custom",
    "wof:placetype_alt": [
      "flight"
    ],
    "wof:repo": "sfomuseum-data-flights-2026-02",
    "wof:superseded_by": [],
    "wof:supersedes": []
  },
  "bbox": [
    -122.370943,
    36.126387,
    -86.676652,
    37.61799
  ],
  "geometry": {"coordinates":[[-122.370943,37.61799],[-86.676652,36.126387]],"type":"MultiPoint"}
}
