{
  "id": 2014804573,
  "type": "Feature",
  "properties": {
    "geom:area": 0,
    "geom:bbox": "-122.359620,37.491860,-121.357930,37.615500",
    "geom:latitude": 37.53844054420457,
    "geom:longitude": -121.86543888959503,
    "src:alt_label": "swim-approach",
    "src:geom": "swim",
    "swim:elevations": [
      4283,
      3466,
      3199,
      3008,
      2952,
      2778,
      2712,
      2587,
      2421,
      2306,
      2131,
      2067,
      1864,
      1798,
      1740,
      1726,
      1470,
      1420,
      1238,
      1195,
      997,
      940,
      744,
      604,
      475,
      422,
      326,
      118,
      240
    ],
    "swim:geom": "approach",
    "swim:timestamps": [
      1771288015,
      1771288146,
      1771288191,
      1771288228,
      1771288239,
      1771288278,
      1771288290,
      1771288314,
      1771288347,
      1771288371,
      1771288408,
      1771288423,
      1771288468,
      1771288483,
      1771288495,
      1771288500,
      1771288558,
      1771288573,
      1771288618,
      1771288630,
      1771288675,
      1771288687,
      1771288729,
      1771288762,
      1771288797,
      1771288809,
      1771288831,
      1771288888,
      1771288916
    ],
    "wof:geomhash": "dc17da5108856a01d184552d5b9abaf3",
    "wof:id": 2014804573,
    "wof:repo": "sfomuseum-data-flights-2026-02"
  },
  "bbox": [
    -122.35962,
    37.49186,
    -121.35793,
    37.6155
  ],
  "geometry": {"coordinates":[[-121.35793,37.58219],[-121.55753,37.55876],[-121.62209,37.55094],[-121.66937,37.53993],[-121.68343,37.53658],[-121.72897,37.52597],[-121.74262,37.52289],[-121.77042,37.51637],[-121.80866,37.50683],[-121.83649,37.50002],[-121.87895,37.49186],[-121.89686,37.49208],[-121.94993,37.49507],[-121.96754,37.49614],[-121.98125,37.4969],[-121.98774,37.49727],[-122.05126,37.50097],[-122.06763,37.50194],[-122.1152,37.51162],[-122.12699,37.51665],[-122.17077,37.5351],[-122.18207,37.53989],[-122.21906,37.55543],[-122.2468,37.56709],[-122.27371,37.57848],[-122.28255,37.58216],[-122.29882,37.58895],[-122.33931,37.60604],[-122.35962,37.6155]],"type":"LineString"}
}
