{
  "id": 2014821723,
  "type": "Feature",
  "properties": {
    "geom:area": 0,
    "geom:bbox": "-122.761667,37.396667,-75.111111,44.630278",
    "geom:latitude": 42.057373287839134,
    "geom:longitude": -99.8882915235297,
    "src:alt_label": "swim-path",
    "src:geom": "swim",
    "swim:altitudes": [
      "006",
      "006",
      "006",
      "030",
      "030",
      "030",
      "030",
      "038",
      "038",
      "038",
      "058",
      "058",
      "058",
      "080",
      "080",
      "119",
      "119",
      "119",
      "139",
      "139",
      "139",
      "139",
      "139",
      "139",
      "190",
      "190",
      "197",
      "197",
      "197",
      "257",
      "257",
      "257",
      "257",
      "280C",
      "280C",
      "280C",
      "280C",
      "280C",
      "280C",
      "280C",
      "281",
      "281",
      "300",
      "300",
      "300",
      "300",
      "309",
      "309",
      "309",
      "309",
      "317",
      "317",
      "331",
      "331",
      "331",
      "331",
      "335",
      "335",
      "335",
      "335",
      "335",
      "339C",
      "339C",
      "339C",
      "339C",
      "339C",
      "339C",
      "339C",
      "340C",
      "340C",
      "340C",
      "340C",
      "340C",
      "340C",
      "340C",
      "340C",
      "340C",
      "340C",
      "340C",
      "340C",
      "340C",
      "340C",
      "340C",
      "340C",
      "340C",
      "340C",
      "340C",
      "340C",
      "340C",
      "340C",
      "340C",
      "340C",
      "340C",
      "340C",
      "340C",
      "340C",
      "340C",
      "340C",
      "340C",
      "340C",
      "340C",
      "340C",
      "340C",
      "340C",
      "340C",
      "340C",
      "340C",
      "340C",
      "340C",
      "340C",
      "340C",
      "340C",
      "340C",
      "340C",
      "340C",
      "340C",
      "340C",
      "340C",
      "340C",
      "340C",
      "340C",
      "340C",
      "340C",
      "340C",
      "340C",
      "340C",
      "340C",
      "340C",
      "340C",
      "340C",
      "340C",
      "340C",
      "340C",
      "340C",
      "340C",
      "340C",
      "340C",
      "340C",
      "340C",
      "340C",
      "340C",
      "340C",
      "340C",
      "340C",
      "340C",
      "340C",
      "340C",
      "340C",
      "340C",
      "340C",
      "340C",
      "340C",
      "340C",
      "340C",
      "340C",
      "340C",
      "340C",
      "340C",
      "340C",
      "340C",
      "340C",
      "340C",
      "340C",
      "340C",
      "340C",
      "340C",
      "340C",
      "340C",
      "340C",
      "340C",
      "340C",
      "340C",
      "340C",
      "340C",
      "340C",
      "340C",
      "340C",
      "340C",
      "340C",
      "340C",
      "340C",
      "340C",
      "340C",
      "340C",
      "340C",
      "340C",
      "340C",
      "340C",
      "340C",
      "340C",
      "340C",
      "340C",
      "340C",
      "340C",
      "359C",
      "359C",
      "359C",
      "359C",
      "359C",
      "359C",
      "359C",
      "360C",
      "360C",
      "360C",
      "360C",
      "360C",
      "360C",
      "360C",
      "360C",
      "360C",
      "360C",
      "360C",
      "360C",
      "360C",
      "360C",
      "360C",
      "360C",
      "360C",
      "360C",
      "360C",
      "360C",
      "360C",
      "360C",
      "360C",
      "360C",
      "360C",
      "360C",
      "360C",
      "360C",
      "360C",
      "360C",
      "360C",
      "360C",
      "360C",
      "360C",
      "360C",
      "360C",
      "360C",
      "360C",
      "360C",
      "360C",
      "360C",
      "360C",
      "360C",
      "360C",
      "360C",
      "360C",
      "360C",
      "360C",
      "360C",
      "360C",
      "360C",
      "360C",
      "360C",
      "360C",
      "360C",
      "360C",
      "360C",
      "360C",
      "360C",
      "360C",
      "360C",
      "360C",
      "360C",
      "360C",
      "360C",
      "360C",
      "360C",
      "360C",
      "360C",
      "360C",
      "360C",
      "360C",
      "360C",
      "360C",
      "360C",
      "360C",
      "360C",
      "360C",
      "360C",
      "360C",
      "360C",
      "360C",
      "360C",
      "360C",
      "360C",
      "360C",
      "360C",
      "360C",
      "360C",
      "360C",
      "360C",
      "360C",
      "360C",
      "360C",
      "360C",
      "360C",
      "360C",
      "360C",
      "360C",
      "360C",
      "360C",
      "360C",
      "360C",
      "360C",
      "360C",
      "360C",
      "360C",
      "360C",
      "360C",
      "360C",
      "360C",
      "360C",
      "360C",
      "360C",
      "360C",
      "360C",
      "360C",
      "360C",
      "360C",
      "360C",
      "360C",
      "360C",
      "360C",
      "360C",
      "360C",
      "360C",
      "360C",
      "360C",
      "360C",
      "360C",
      "360C",
      "360C",
      "360C",
      "360C",
      "360C",
      "360C",
      "360C",
      "360C",
      "360C",
      "360C",
      "360C",
      "360C",
      "360C",
      "360C",
      "360C",
      "360C",
      "360C",
      "360C",
      "360C",
      "360C",
      "360C",
      "360C",
      "360C",
      "360C",
      "360C",
      "360C",
      "360C",
      "360C",
      "360C",
      "360C",
      "360C",
      "360C",
      "360C",
      "360C",
      "360C",
      "360C",
      "360C",
      "360C",
      "360C",
      "360C",
      "360C",
      "360C",
      "360C",
      "360C",
      "360C",
      "360C",
      "360C",
      "360C",
      "360C",
      "360C",
      "360C",
      "360C",
      "360C",
      "360C",
      "360C",
      "360C",
      "360C",
      "360C",
      "360C",
      "360C",
      "360C",
      "360C",
      "360C",
      "360C",
      "360C",
      "360C",
      "360C",
      "360C",
      "360C",
      "360C",
      "360C",
      "360C",
      "360C",
      "360C",
      "360C",
      "360C",
      "360C",
      "360C",
      "360C",
      "360C",
      "360C",
      "360C",
      "360C",
      "360C",
      "360C",
      "360C",
      "360C",
      "360C",
      "360C",
      "360C",
      "360C",
      "360C",
      "360C",
      "360C",
      "360C",
      "360C",
      "360C",
      "360C",
      "360C",
      "360C",
      "360C",
      "360C",
      "360C",
      "360C",
      "360C",
      "360C",
      "360C",
      "360C",
      "360C",
      "360C",
      "360C",
      "360C",
      "360C",
      "360C",
      "360C",
      "360C",
      "360C",
      "360C",
      "360C",
      "360C",
      "360C",
      "360C",
      "360C",
      "360C",
      "360C",
      "360C",
      "360C",
      "360C",
      "360C",
      "360C",
      "360C",
      "360C",
      "360C",
      "360C",
      "360C",
      "360C",
      "360C",
      "360C",
      "360C",
      "360C",
      "360C",
      "360C",
      "360C",
      "360C",
      "360C",
      "360C",
      "360C",
      "360C",
      "360C",
      "360C",
      "360C",
      "360C",
      "360C",
      "360C",
      "360C",
      "360C",
      "360C",
      "360C",
      "360C",
      "360C",
      "360C",
      "360C",
      "360C",
      "360C",
      "360C",
      "360C",
      "360C",
      "360C",
      "360C",
      "360C",
      "360C",
      "360C",
      "360C",
      "360C",
      "360C",
      "360C",
      "360C",
      "360C",
      "360C",
      "360C",
      "360C",
      "360C",
      "360C",
      "360C",
      "360C",
      "360C",
      "360C",
      "360C",
      "360C",
      "360C",
      "360C",
      "360C",
      "360C",
      "360C",
      "360C",
      "360C",
      "360C",
      "360C",
      "360C",
      "360C",
      "360C",
      "360C",
      "360C",
      "360C",
      "360C",
      "360C",
      "360C",
      "360C",
      "360C",
      "360C",
      "360C",
      "360C",
      "360C",
      "360C",
      "360C",
      "360C",
      "360C",
      "360C",
      "360C",
      "360C",
      "360C",
      "360C",
      "360C",
      "360C",
      "360C",
      "360C",
      "360C",
      "360C",
      "360C",
      "360C",
      "360C",
      "360C",
      "360C",
      "360C",
      "360C",
      "360C",
      "360C",
      "360C",
      "360C",
      "360C",
      "360C",
      "360C",
      "360C",
      "360C",
      "360C",
      "360C",
      "360C",
      "360C",
      "360C",
      "360C",
      "360C",
      "360C",
      "360C",
      "360C",
      "360C",
      "360C",
      "360C",
      "360C",
      "360C",
      "360C",
      "360C",
      "360C",
      "360C",
      "360C",
      "360C",
      "360C",
      "360C",
      "360C",
      "360C",
      "360C",
      "360C",
      "360C",
      "360C",
      "360C",
      "360C",
      "360C",
      "360C",
      "360C",
      "360C",
      "360C",
      "360C",
      "360C",
      "360C",
      "360C",
      "360C",
      "360C",
      "360C",
      "360C",
      "360C",
      "360C",
      "360C",
      "360C",
      "360C",
      "360C",
      "360C",
      "360C",
      "360C",
      "360C",
      "360C",
      "360C",
      "360C",
      "360C",
      "360C",
      "360C",
      "360C",
      "360C",
      "360C",
      "360C",
      "360C",
      "360C",
      "360C",
      "360C",
      "360C",
      "360C",
      "360C",
      "360C",
      "360C",
      "360C",
      "360C",
      "360C",
      "360C",
      "360C",
      "360C",
      "360C",
      "360C",
      "360C",
      "360C",
      "360C",
      "360C",
      "360C",
      "360C",
      "360C",
      "360C",
      "360C",
      "360C",
      "360C",
      "360C",
      "360C",
      "360C",
      "360C",
      "360C",
      "360C",
      "360C",
      "360C",
      "360C",
      "360C",
      "360C",
      "360C",
      "360C",
      "360C",
      "360C",
      "360C",
      "360C",
      "360C",
      "360C",
      "360C",
      "360C",
      "360C",
      "360C",
      "360C",
      "360C",
      "360C",
      "360C",
      "360C",
      "360C",
      "360C",
      "360C",
      "360C",
      "360C",
      "360C",
      "360C",
      "360C",
      "360C",
      "360C",
      "360C",
      "360C",
      "360C",
      "360C",
      "360C",
      "360C",
      "360C",
      "360C",
      "360C",
      "360C",
      "360C",
      "360C",
      "360C",
      "360C",
      "360C",
      "360C",
      "360C",
      "360C",
      "360C",
      "360C",
      "360C",
      "360C",
      "360C",
      "360C",
      "360C",
      "360C",
      "360C",
      "360C",
      "360C",
      "360C",
      "360C",
      "360C",
      "360C",
      "360C",
      "360C",
      "360C",
      "360C",
      "360C",
      "360C",
      "360C",
      "360C",
      "360C",
      "360C",
      "360C",
      "360C",
      "360C",
      "360C",
      "360C",
      "360C",
      "360C",
      "360C",
      "360C",
      "360C",
      "360C",
      "360C",
      "360C",
      "360C",
      "360C",
      "360C",
      "360C",
      "360C",
      "360C",
      "360C",
      "360C",
      "360C",
      "360C",
      "360C",
      "360C",
      "360C",
      "360C",
      "360C",
      "360C",
      "360C",
      "360C",
      "360C",
      "360C",
      "360C",
      "360C",
      "360C",
      "360C",
      "360C",
      "360C",
      "360C",
      "360C",
      "360C",
      "360C",
      "359",
      "359",
      "359",
      "349",
      "349",
      "349",
      "349",
      "271",
      "271",
      "271",
      "271",
      "271",
      "271",
      "232",
      "232",
      "232",
      "212",
      "212",
      "212",
      "212",
      "192",
      "177",
      "177",
      "147",
      "147",
      "147",
      "147",
      "145",
      "130",
      "130",
      "130",
      "130",
      "114",
      "098",
      "098",
      "098",
      "086",
      "086",
      "086",
      "086",
      "066",
      "054",
      "054",
      "054",
      "054",
      "040",
      "040",
      "037",
      "037",
      "030",
      "030",
      "030",
      "024",
      "024",
      "024",
      "022",
      "015",
      "008",
      "110",
      "110"
    ],
    "swim:geom": "path",
    "swim:speeds": [
      173,
      173,
      173,
      266,
      266,
      266,
      266,
      271,
      271,
      271,
      269,
      269,
      269,
      250,
      250,
      246,
      246,
      246,
      254,
      254,
      254,
      254,
      254,
      254,
      299,
      299,
      331,
      331,
      331,
      333,
      333,
      333,
      333,
      323,
      323,
      323,
      323,
      323,
      323,
      319,
      317,
      317,
      322,
      322,
      322,
      322,
      325,
      325,
      325,
      325,
      327,
      327,
      335,
      335,
      335,
      335,
      341,
      341,
      341,
      341,
      341,
      345,
      345,
      345,
      345,
      345,
      345,
      345,
      332,
      332,
      332,
      332,
      332,
      331,
      331,
      331,
      331,
      331,
      331,
      331,
      331,
      330,
      330,
      330,
      330,
      330,
      332,
      332,
      332,
      332,
      332,
      332,
      332,
      332,
      332,
      332,
      332,
      332,
      332,
      332,
      330,
      330,
      330,
      330,
      330,
      330,
      330,
      330,
      331,
      331,
      331,
      333,
      333,
      333,
      333,
      333,
      333,
      333,
      333,
      333,
      333,
      333,
      333,
      333,
      333,
      332,
      332,
      332,
      332,
      332,
      335,
      335,
      335,
      335,
      335,
      335,
      335,
      337,
      337,
      337,
      337,
      337,
      337,
      337,
      337,
      337,
      337,
      337,
      339,
      339,
      339,
      339,
      339,
      339,
      339,
      341,
      341,
      341,
      341,
      341,
      345,
      345,
      347,
      347,
      353,
      353,
      353,
      353,
      357,
      357,
      357,
      357,
      358,
      358,
      359,
      359,
      359,
      359,
      359,
      359,
      359,
      359,
      359,
      358,
      358,
      358,
      340,
      339,
      339,
      339,
      339,
      339,
      339,
      339,
      354,
      354,
      354,
      354,
      354,
      354,
      354,
      360,
      360,
      360,
      360,
      360,
      360,
      360,
      360,
      370,
      370,
      370,
      370,
      370,
      370,
      370,
      371,
      373,
      373,
      374,
      374,
      374,
      374,
      377,
      377,
      377,
      377,
      380,
      380,
      380,
      380,
      383,
      383,
      383,
      383,
      406,
      407,
      407,
      407,
      407,
      407,
      407,
      407,
      407,
      404,
      404,
      404,
      404,
      404,
      404,
      411,
      411,
      411,
      411,
      411,
      411,
      421,
      421,
      421,
      421,
      421,
      421,
      421,
      421,
      421,
      433,
      433,
      433,
      433,
      433,
      441,
      441,
      441,
      449,
      449,
      449,
      449,
      452,
      452,
      454,
      454,
      454,
      454,
      456,
      456,
      457,
      457,
      457,
      456,
      456,
      456,
      456,
      456,
      456,
      456,
      456,
      455,
      455,
      455,
      454,
      454,
      454,
      454,
      454,
      455,
      455,
      455,
      455,
      455,
      455,
      457,
      457,
      459,
      459,
      459,
      459,
      459,
      454,
      454,
      454,
      454,
      454,
      454,
      454,
      434,
      434,
      434,
      434,
      434,
      434,
      434,
      434,
      434,
      433,
      431,
      431,
      427,
      427,
      424,
      424,
      423,
      423,
      423,
      423,
      423,
      423,
      419,
      419,
      419,
      419,
      419,
      419,
      419,
      419,
      419,
      419,
      419,
      425,
      425,
      425,
      425,
      425,
      425,
      430,
      430,
      430,
      430,
      430,
      430,
      432,
      432,
      432,
      432,
      432,
      432,
      432,
      428,
      428,
      428,
      428,
      428,
      428,
      428,
      427,
      427,
      427,
      424,
      424,
      422,
      423,
      424,
      424,
      425,
      425,
      425,
      425,
      425,
      425,
      426,
      426,
      426,
      426,
      426,
      426,
      425,
      425,
      425,
      423,
      423,
      423,
      420,
      420,
      420,
      420,
      420,
      420,
      420,
      419,
      419,
      419,
      419,
      419,
      422,
      421,
      421,
      422,
      422,
      423,
      425,
      425,
      425,
      423,
      426,
      427,
      427,
      427,
      426,
      429,
      427,
      427,
      430,
      431,
      431,
      431,
      431,
      431,
      431,
      431,
      431,
      431,
      431,
      431,
      432,
      432,
      432,
      432,
      433,
      433,
      434,
      434,
      433,
      433,
      434,
      434,
      434,
      433,
      433,
      434,
      434,
      434,
      433,
      433,
      433,
      434,
      434,
      434,
      434,
      417,
      417,
      417,
      426,
      426,
      426,
      426,
      426,
      415,
      416,
      416,
      415,
      415,
      415,
      415,
      416,
      416,
      416,
      416,
      416,
      416,
      421,
      421,
      418,
      418,
      422,
      422,
      422,
      423,
      423,
      420,
      420,
      420,
      420,
      420,
      431,
      431,
      431,
      426,
      426,
      429,
      429,
      427,
      427,
      427,
      427,
      429,
      429,
      429,
      430,
      431,
      431,
      431,
      431,
      431,
      429,
      429,
      429,
      429,
      426,
      426,
      425,
      425,
      425,
      425,
      425,
      425,
      423,
      423,
      423,
      423,
      423,
      423,
      423,
      423,
      423,
      423,
      423,
      423,
      423,
      423,
      423,
      423,
      423,
      423,
      415,
      415,
      415,
      415,
      415,
      415,
      415,
      415,
      415,
      413,
      413,
      413,
      414,
      414,
      414,
      414,
      414,
      414,
      414,
      418,
      418,
      418,
      418,
      418,
      419,
      419,
      419,
      419,
      419,
      420,
      420,
      420,
      420,
      420,
      421,
      421,
      421,
      421,
      421,
      423,
      423,
      423,
      423,
      423,
      425,
      425,
      425,
      426,
      426,
      426,
      426,
      426,
      426,
      426,
      426,
      427,
      427,
      427,
      427,
      424,
      424,
      424,
      424,
      424,
      422,
      422,
      422,
      422,
      422,
      419,
      419,
      419,
      419,
      424,
      424,
      424,
      424,
      426,
      426,
      426,
      426,
      426,
      426,
      427,
      427,
      427,
      427,
      427,
      427,
      427,
      427,
      427,
      422,
      422,
      422,
      422,
      422,
      419,
      419,
      419,
      419,
      423,
      423,
      423,
      423,
      423,
      423,
      423,
      423,
      423,
      423,
      423,
      423,
      423,
      423,
      423,
      423,
      423,
      421,
      421,
      421,
      421,
      422,
      422,
      422,
      422,
      422,
      422,
      422,
      422,
      422,
      422,
      422,
      422,
      422,
      423,
      424,
      424,
      424,
      424,
      425,
      425,
      424,
      424,
      424,
      424,
      424,
      424,
      424,
      423,
      423,
      423,
      423,
      423,
      423,
      422,
      422,
      422,
      422,
      421,
      421,
      421,
      419,
      419,
      419,
      419,
      419,
      420,
      420,
      420,
      420,
      420,
      420,
      417,
      417,
      417,
      417,
      417,
      416,
      416,
      416,
      416,
      416,
      418,
      418,
      417,
      417,
      417,
      417,
      417,
      417,
      417,
      417,
      417,
      417,
      417,
      417,
      384,
      384,
      384,
      384,
      384,
      384,
      384,
      371,
      371,
      371,
      371,
      369,
      369,
      369,
      369,
      369,
      369,
      369,
      371,
      371,
      371,
      369,
      369,
      369,
      369,
      369,
      403,
      403,
      373,
      368,
      368,
      368,
      366,
      366,
      366,
      357,
      357,
      357,
      357,
      427,
      427,
      427,
      427,
      427,
      427,
      409,
      409,
      409,
      398,
      398,
      398,
      398,
      390,
      399,
      399,
      388,
      388,
      388,
      388,
      390,
      380,
      380,
      380,
      380,
      344,
      256,
      256,
      256,
      236,
      236,
      236,
      236,
      249,
      222,
      222,
      222,
      222,
      191,
      191,
      171,
      171,
      158,
      143,
      146,
      146,
      146,
      146,
      148,
      140,
      141,
      144,
      144
    ],
    "swim:timestamps": [
      1771425278,
      1771425278,
      1771425278,
      1771425372,
      1771425372,
      1771425372,
      1771425372,
      1771425392,
      1771425392,
      1771425392,
      1771425433,
      1771425433,
      1771425433,
      1771425553,
      1771425553,
      1771425673,
      1771425673,
      1771425673,
      1771425733,
      1771425733,
      1771425733,
      1771425733,
      1771425733,
      1771425733,
      1771425913,
      1771425913,
      1771425973,
      1771425973,
      1771425973,
      1771426214,
      1771426214,
      1771426214,
      1771426214,
      1771426334,
      1771426334,
      1771426334,
      1771426334,
      1771426334,
      1771426334,
      1771426394,
      1771426454,
      1771426454,
      1771426574,
      1771426574,
      1771426574,
      1771426574,
      1771426634,
      1771426634,
      1771426634,
      1771426634,
      1771426694,
      1771426694,
      1771426815,
      1771426815,
      1771426815,
      1771426815,
      1771426871,
      1771426871,
      1771426871,
      1771426871,
      1771426871,
      1771426931,
      1771426931,
      1771426931,
      1771426931,
      1771426931,
      1771426931,
      1771426931,
      1771427351,
      1771427351,
      1771427351,
      1771427351,
      1771427351,
      1771427412,
      1771427412,
      1771427412,
      1771427472,
      1771427472,
      1771427472,
      1771427472,
      1771427472,
      1771427532,
      1771427532,
      1771427652,
      1771427652,
      1771427652,
      1771427772,
      1771427772,
      1771427772,
      1771427772,
      1771427772,
      1771427772,
      1771427952,
      1771427952,
      1771427952,
      1771427952,
      1771427952,
      1771427952,
      1771427952,
      1771427952,
      1771428253,
      1771428253,
      1771428253,
      1771428253,
      1771428313,
      1771428313,
      1771428313,
      1771428313,
      1771428373,
      1771428373,
      1771428373,
      1771428613,
      1771428613,
      1771428613,
      1771428613,
      1771428613,
      1771428613,
      1771428613,
      1771428613,
      1771428673,
      1771428673,
      1771428673,
      1771428673,
      1771428673,
      1771428673,
      1771428794,
      1771428794,
      1771428794,
      1771428794,
      1771428794,
      1771429034,
      1771429034,
      1771429034,
      1771429034,
      1771429034,
      1771429034,
      1771429034,
      1771429154,
      1771429154,
      1771429154,
      1771429154,
      1771429214,
      1771429214,
      1771429214,
      1771429214,
      1771429214,
      1771429214,
      1771429214,
      1771429575,
      1771429575,
      1771429575,
      1771429575,
      1771429575,
      1771429597,
      1771429597,
      1771429718,
      1771429718,
      1771429718,
      1771429718,
      1771429718,
      1771429755,
      1771429755,
      1771429778,
      1771429778,
      1771429838,
      1771429838,
      1771429838,
      1771429838,
      1771429935,
      1771429935,
      1771429935,
      1771429935,
      1771429958,
      1771429958,
      1771429996,
      1771429996,
      1771429996,
      1771429996,
      1771430018,
      1771430018,
      1771430018,
      1771430018,
      1771430018,
      1771430056,
      1771430056,
      1771430056,
      1771430198,
      1771430236,
      1771430236,
      1771430236,
      1771430236,
      1771430236,
      1771430236,
      1771430236,
      1771430619,
      1771430619,
      1771430619,
      1771430619,
      1771430619,
      1771430619,
      1771430619,
      1771430739,
      1771430739,
      1771430739,
      1771430739,
      1771430739,
      1771430739,
      1771430739,
      1771430739,
      1771430837,
      1771430837,
      1771430859,
      1771430859,
      1771430859,
      1771430859,
      1771430859,
      1771430897,
      1771430957,
      1771430957,
      1771430979,
      1771430979,
      1771430979,
      1771430979,
      1771431039,
      1771431039,
      1771431039,
      1771431039,
      1771431100,
      1771431100,
      1771431100,
      1771431100,
      1771431160,
      1771431160,
      1771431160,
      1771431160,
      1771431220,
      1771431340,
      1771431340,
      1771431340,
      1771431340,
      1771431340,
      1771431340,
      1771431340,
      1771431340,
      1771431760,
      1771431760,
      1771431760,
      1771431760,
      1771431760,
      1771431760,
      1771431941,
      1771431941,
      1771431941,
      1771431941,
      1771431941,
      1771431941,
      1771432181,
      1771432181,
      1771432181,
      1771432181,
      1771432181,
      1771432181,
      1771432181,
      1771432181,
      1771432181,
      1771432561,
      1771432561,
      1771432561,
      1771432561,
      1771432561,
      1771432662,
      1771432662,
      1771432662,
      1771432782,
      1771432782,
      1771432782,
      1771432782,
      1771432842,
      1771432842,
      1771432862,
      1771432862,
      1771432862,
      1771432862,
      1771432902,
      1771432902,
      1771432994,
      1771432994,
      1771432994,
      1771433054,
      1771433054,
      1771433054,
      1771433054,
      1771433054,
      1771433054,
      1771433054,
      1771433054,
      1771433294,
      1771433294,
      1771433294,
      1771433354,
      1771433354,
      1771433354,
      1771433354,
      1771433354,
      1771433415,
      1771433415,
      1771433415,
      1771433415,
      1771433415,
      1771433415,
      1771433503,
      1771433503,
      1771433563,
      1771433563,
      1771433655,
      1771433655,
      1771433655,
      1771433715,
      1771433715,
      1771433715,
      1771433715,
      1771433715,
      1771433715,
      1771433715,
      1771434015,
      1771434015,
      1771434015,
      1771434015,
      1771434075,
      1771434075,
      1771434075,
      1771434075,
      1771434075,
      1771434136,
      1771434196,
      1771434196,
      1771434256,
      1771434256,
      1771434316,
      1771434316,
      1771434376,
      1771434376,
      1771434376,
      1771434376,
      1771434376,
      1771434376,
      1771434556,
      1771434556,
      1771434556,
      1771434556,
      1771434676,
      1771434676,
      1771434676,
      1771434676,
      1771434676,
      1771434676,
      1771434676,
      1771434796,
      1771434796,
      1771434796,
      1771434796,
      1771434796,
      1771434796,
      1771434977,
      1771434977,
      1771434977,
      1771434977,
      1771434977,
      1771434977,
      1771435157,
      1771435157,
      1771435157,
      1771435157,
      1771435157,
      1771435157,
      1771435157,
      1771435397,
      1771435397,
      1771435397,
      1771435397,
      1771435397,
      1771435397,
      1771435397,
      1771435457,
      1771435457,
      1771435457,
      1771435577,
      1771435577,
      1771435698,
      1771435758,
      1771435818,
      1771435818,
      1771435878,
      1771435878,
      1771435878,
      1771435878,
      1771435878,
      1771435878,
      1771436178,
      1771436178,
      1771436178,
      1771436178,
      1771436178,
      1771436178,
      1771436238,
      1771436238,
      1771436238,
      1771436358,
      1771436358,
      1771436358,
      1771436479,
      1771436479,
      1771436479,
      1771436479,
      1771436479,
      1771436479,
      1771436479,
      1771436670,
      1771436670,
      1771436670,
      1771436670,
      1771436670,
      1771436676,
      1771436719,
      1771436719,
      1771436790,
      1771436796,
      1771436839,
      1771436899,
      1771436899,
      1771436910,
      1771436917,
      1771436959,
      1771436970,
      1771436970,
      1771436970,
      1771436977,
      1771437030,
      1771437037,
      1771437037,
      1771437090,
      1771437157,
      1771437157,
      1771437157,
      1771437200,
      1771437200,
      1771437320,
      1771437320,
      1771437320,
      1771437337,
      1771437337,
      1771437440,
      1771437457,
      1771437457,
      1771437457,
      1771437457,
      1771437560,
      1771437560,
      1771437571,
      1771437577,
      1771437620,
      1771437620,
      1771437638,
      1771437638,
      1771437638,
      1771437691,
      1771437691,
      1771437751,
      1771437751,
      1771437751,
      1771437758,
      1771437758,
      1771437758,
      1771437811,
      1771437811,
      1771437811,
      1771437811,
      1771437931,
      1771437931,
      1771437931,
      1771437938,
      1771437938,
      1771437938,
      1771437938,
      1771437938,
      1771438052,
      1771438058,
      1771438058,
      1771438112,
      1771438112,
      1771438112,
      1771438112,
      1771438178,
      1771438178,
      1771438178,
      1771438178,
      1771438178,
      1771438178,
      1771438352,
      1771438352,
      1771438359,
      1771438359,
      1771438412,
      1771438412,
      1771438412,
      1771438472,
      1771438472,
      1771438479,
      1771438479,
      1771438479,
      1771438479,
      1771438479,
      1771438539,
      1771438539,
      1771438539,
      1771438592,
      1771438592,
      1771438599,
      1771438599,
      1771438652,
      1771438652,
      1771438652,
      1771438652,
      1771438659,
      1771438659,
      1771438659,
      1771438779,
      1771438839,
      1771438839,
      1771438839,
      1771438839,
      1771438899,
      1771438953,
      1771438953,
      1771438953,
      1771438953,
      1771439019,
      1771439019,
      1771439073,
      1771439073,
      1771439073,
      1771439073,
      1771439080,
      1771439080,
      1771439253,
      1771439253,
      1771439253,
      1771439253,
      1771439253,
      1771439260,
      1771439260,
      1771439260,
      1771439313,
      1771439313,
      1771439433,
      1771439433,
      1771439433,
      1771439433,
      1771439433,
      1771439433,
      1771439433,
      1771439433,
      1771439921,
      1771439921,
      1771439921,
      1771439921,
      1771439921,
      1771439921,
      1771439921,
      1771439981,
      1771439981,
      1771440101,
      1771440101,
      1771440101,
      1771440161,
      1771440161,
      1771440161,
      1771440161,
      1771440161,
      1771440161,
      1771440161,
      1771440341,
      1771440341,
      1771440341,
      1771440341,
      1771440341,
      1771440461,
      1771440461,
      1771440461,
      1771440461,
      1771440461,
      1771440582,
      1771440582,
      1771440582,
      1771440582,
      1771440582,
      1771440762,
      1771440762,
      1771440762,
      1771440762,
      1771440762,
      1771440882,
      1771440882,
      1771440882,
      1771440882,
      1771440882,
      1771441002,
      1771441002,
      1771441002,
      1771441062,
      1771441062,
      1771441122,
      1771441122,
      1771441122,
      1771441122,
      1771441122,
      1771441122,
      1771441182,
      1771441182,
      1771441182,
      1771441182,
      1771441363,
      1771441363,
      1771441363,
      1771441363,
      1771441363,
      1771441423,
      1771441423,
      1771441423,
      1771441423,
      1771441423,
      1771441543,
      1771441543,
      1771441543,
      1771441543,
      1771441783,
      1771441783,
      1771441783,
      1771441783,
      1771441903,
      1771441903,
      1771441903,
      1771441903,
      1771441903,
      1771441903,
      1771441963,
      1771441963,
      1771441963,
      1771442084,
      1771442084,
      1771442084,
      1771442084,
      1771442084,
      1771442084,
      1771442264,
      1771442264,
      1771442264,
      1771442264,
      1771442264,
      1771442372,
      1771442372,
      1771442372,
      1771442372,
      1771442384,
      1771442384,
      1771442384,
      1771442384,
      1771442444,
      1771442444,
      1771442444,
      1771442564,
      1771442564,
      1771442564,
      1771442624,
      1771442624,
      1771442624,
      1771442624,
      1771442624,
      1771442624,
      1771442624,
      1771442913,
      1771442913,
      1771442913,
      1771442913,
      1771442925,
      1771442925,
      1771442973,
      1771442973,
      1771442973,
      1771442985,
      1771442985,
      1771443033,
      1771443033,
      1771443045,
      1771443045,
      1771443045,
      1771443045,
      1771443105,
      1771443153,
      1771443153,
      1771443153,
      1771443153,
      1771443165,
      1771443165,
      1771443225,
      1771443225,
      1771443225,
      1771443225,
      1771443453,
      1771443453,
      1771443453,
      1771443514,
      1771443514,
      1771443514,
      1771443514,
      1771443514,
      1771443514,
      1771443574,
      1771443574,
      1771443574,
      1771443574,
      1771443586,
      1771443586,
      1771443586,
      1771443706,
      1771443706,
      1771443706,
      1771443706,
      1771443706,
      1771443814,
      1771443814,
      1771443874,
      1771443874,
      1771443874,
      1771443874,
      1771443946,
      1771443946,
      1771443946,
      1771443946,
      1771443946,
      1771444054,
      1771444054,
      1771444066,
      1771444066,
      1771444066,
      1771444114,
      1771444114,
      1771444187,
      1771444187,
      1771444187,
      1771444187,
      1771444187,
      1771444187,
      1771444247,
      1771444247,
      1771444247,
      1771444247,
      1771444295,
      1771444295,
      1771444535,
      1771444535,
      1771444535,
      1771444535,
      1771444535,
      1771444535,
      1771444535,
      1771444715,
      1771444715,
      1771444715,
      1771444715,
      1771444775,
      1771444775,
      1771444775,
      1771444835,
      1771444835,
      1771444835,
      1771444835,
      1771444955,
      1771444955,
      1771444955,
      1771445136,
      1771445136,
      1771445136,
      1771445136,
      1771445136,
      1771445196,
      1771445196,
      1771445256,
      1771445376,
      1771445376,
      1771445376,
      1771445436,
      1771445436,
      1771445436,
      1771445496,
      1771445496,
      1771445496,
      1771445496,
      1771445977,
      1771445977,
      1771445977,
      1771445977,
      1771445977,
      1771445977,
      1771446157,
      1771446157,
      1771446157,
      1771446217,
      1771446217,
      1771446217,
      1771446217,
      1771446277,
      1771446337,
      1771446337,
      1771446441,
      1771446441,
      1771446441,
      1771446441,
      1771446457,
      1771446507,
      1771446507,
      1771446507,
      1771446507,
      1771446577,
      1771446807,
      1771446807,
      1771446807,
      1771446861,
      1771446861,
      1771446861,
      1771446861,
      1771446938,
      1771446998,
      1771446998,
      1771446998,
      1771446998,
      1771447101,
      1771447101,
      1771447178,
      1771447178,
      1771447238,
      1771447281,
      1771447298,
      1771447335,
      1771447335,
      1771447335,
      1771447358,
      1771447401,
      1771447461,
      1771447538,
      1771447538
    ],
    "wof:geomhash": "f5f22dd2a0ddad2838ad728973fa1c0a",
    "wof:id": 2014821723,
    "wof:repo": "sfomuseum-data-flights-2026-02"
  },
  "bbox": [
    -122.76166666666667,
    37.39666666666667,
    -75.1111111111111,
    44.63027777777778
  ],
  "geometry": {"coordinates":[[-75.21666666666667,39.88333333333333],[-75.21666666666667,39.88333333333333],[-75.21666666666667,39.88333333333333],[-75.1111111111111,39.92444444444444],[-75.1111111111111,39.92444444444444],[-75.1111111111111,39.92444444444444],[-75.1111111111111,39.92444444444444],[-75.11666666666666,39.95],[-75.11666666666666,39.95],[-75.11666666666666,39.95],[-75.11916666666666,39.99944444444444],[-75.11916666666666,39.99944444444444],[-75.11916666666666,39.99944444444444],[-75.26888888888888,40.01694444444444],[-75.26888888888888,40.01694444444444],[-75.44027777777778,39.980555555555554],[-75.44027777777778,39.980555555555554],[-75.44027777777778,39.980555555555554],[-75.53166666666667,39.980000000000004],[-75.53166666666667,39.980000000000004],[-75.53166666666667,39.980000000000004],[-75.53166666666667,39.980000000000004],[-75.53166666666667,39.980000000000004],[-75.53166666666667,39.980000000000004],[-75.82305555555556,39.977222222222224],[-75.82305555555556,39.977222222222224],[-75.94722222222222,39.97527777777778],[-75.94722222222222,39.97527777777778],[-75.94722222222222,39.97527777777778],[-76.44527777777778,39.96805555555556],[-76.44527777777778,39.96805555555556],[-76.44527777777778,39.96805555555556],[-76.44527777777778,39.96805555555556],[-76.68027777777779,39.96416666666667],[-76.68027777777779,39.96416666666667],[-76.68027777777779,39.96416666666667],[-76.68027777777779,39.96416666666667],[-76.68027777777779,39.96416666666667],[-76.68027777777779,39.96416666666667],[-76.795,39.961666666666666],[-76.91000000000001,39.95944444444445],[-76.91000000000001,39.95944444444445],[-77.13583333333334,39.95444444444445],[-77.13583333333334,39.95444444444445],[-77.13583333333334,39.95444444444445],[-77.13583333333334,39.95444444444445],[-77.25416666666666,39.95138888888889],[-77.25416666666666,39.95138888888889],[-77.25416666666666,39.95138888888889],[-77.25416666666666,39.95138888888889],[-77.37138888888889,39.95305555555556],[-77.37138888888889,39.95305555555556],[-77.615,39.96083333333333],[-77.615,39.96083333333333],[-77.615,39.96083333333333],[-77.615,39.96083333333333],[-77.71055555555556,39.97833333333333],[-77.71055555555556,39.97833333333333],[-77.71055555555556,39.97833333333333],[-77.71055555555556,39.97833333333333],[-77.71055555555556,39.97833333333333],[-77.83083333333333,40.005],[-77.83083333333333,40.005],[-77.83083333333333,40.005],[-77.83083333333333,40.005],[-77.83083333333333,40.005],[-77.83083333333333,40.005],[-77.83083333333333,40.005],[-78.66944444444445,40.19083333333333],[-78.66944444444445,40.19083333333333],[-78.66944444444445,40.19083333333333],[-78.66944444444445,40.19083333333333],[-78.66944444444445,40.19083333333333],[-78.78555555555555,40.215833333333336],[-78.78555555555555,40.215833333333336],[-78.78555555555555,40.215833333333336],[-78.90055555555556,40.240833333333335],[-78.90055555555556,40.240833333333335],[-78.90055555555556,40.240833333333335],[-78.90055555555556,40.240833333333335],[-78.90055555555556,40.240833333333335],[-79.01638888888888,40.26555555555556],[-79.01638888888888,40.26555555555556],[-79.24861111111112,40.315],[-79.24861111111112,40.315],[-79.24861111111112,40.315],[-79.48083333333334,40.36388888888889],[-79.48083333333334,40.36388888888889],[-79.48083333333334,40.36388888888889],[-79.48083333333334,40.36388888888889],[-79.48083333333334,40.36388888888889],[-79.48083333333334,40.36388888888889],[-79.8325,40.43666666666666],[-79.8325,40.43666666666666],[-79.8325,40.43666666666666],[-79.8325,40.43666666666666],[-79.8325,40.43666666666666],[-79.8325,40.43666666666666],[-79.8325,40.43666666666666],[-79.8325,40.43666666666666],[-80.39250000000001,40.550555555555555],[-80.39250000000001,40.550555555555555],[-80.39250000000001,40.550555555555555],[-80.39250000000001,40.550555555555555],[-80.51055555555556,40.57416666666667],[-80.51055555555556,40.57416666666667],[-80.51055555555556,40.57416666666667],[-80.51055555555556,40.57416666666667],[-80.62777777777777,40.59722222222222],[-80.62777777777777,40.59722222222222],[-80.62777777777777,40.59722222222222],[-81.09972222222221,40.68944444444444],[-81.09972222222221,40.68944444444444],[-81.09972222222221,40.68944444444444],[-81.09972222222221,40.68944444444444],[-81.09972222222221,40.68944444444444],[-81.09972222222221,40.68944444444444],[-81.09972222222221,40.68944444444444],[-81.09972222222221,40.68944444444444],[-81.21805555555555,40.712500000000006],[-81.21805555555555,40.712500000000006],[-81.21805555555555,40.712500000000006],[-81.21805555555555,40.712500000000006],[-81.21805555555555,40.712500000000006],[-81.21805555555555,40.712500000000006],[-81.45333333333333,40.7575],[-81.45333333333333,40.7575],[-81.45333333333333,40.7575],[-81.45333333333333,40.7575],[-81.45333333333333,40.7575],[-81.92888888888889,40.84638888888889],[-81.92888888888889,40.84638888888889],[-81.92888888888889,40.84638888888889],[-81.92888888888889,40.84638888888889],[-81.92888888888889,40.84638888888889],[-81.92888888888889,40.84638888888889],[-81.92888888888889,40.84638888888889],[-82.17111111111112,40.89111111111111],[-82.17111111111112,40.89111111111111],[-82.17111111111112,40.89111111111111],[-82.17111111111112,40.89111111111111],[-82.29138888888889,40.91305555555555],[-82.29138888888889,40.91305555555555],[-82.29138888888889,40.91305555555555],[-82.29138888888889,40.91305555555555],[-82.29138888888889,40.91305555555555],[-82.29138888888889,40.91305555555555],[-82.29138888888889,40.91305555555555],[-82.8963888888889,41.23777777777778],[-82.8963888888889,41.23777777777778],[-82.8963888888889,41.23777777777778],[-82.8963888888889,41.23777777777778],[-82.8963888888889,41.23777777777778],[-82.94500000000001,41.263888888888886],[-82.94500000000001,41.263888888888886],[-83.1863888888889,41.30305555555555],[-83.1863888888889,41.30305555555555],[-83.1863888888889,41.30305555555555],[-83.1863888888889,41.30305555555555],[-83.1863888888889,41.30305555555555],[-83.25,41.31333333333333],[-83.25,41.31333333333333],[-83.3125,41.32277777777778],[-83.3125,41.32277777777778],[-83.44027777777778,41.344166666666666],[-83.44027777777778,41.344166666666666],[-83.44027777777778,41.344166666666666],[-83.44027777777778,41.344166666666666],[-83.63666666666667,41.37583333333333],[-83.63666666666667,41.37583333333333],[-83.63666666666667,41.37583333333333],[-83.63666666666667,41.37583333333333],[-83.70111111111112,41.38611111111111],[-83.70111111111112,41.38611111111111],[-83.76805555555555,41.39666666666667],[-83.76805555555555,41.39666666666667],[-83.76805555555555,41.39666666666667],[-83.76805555555555,41.39666666666667],[-83.8286111111111,41.40611111111111],[-83.8286111111111,41.40611111111111],[-83.8286111111111,41.40611111111111],[-83.8286111111111,41.40611111111111],[-83.8286111111111,41.40611111111111],[-83.8963888888889,41.416666666666664],[-83.8963888888889,41.416666666666664],[-83.8963888888889,41.416666666666664],[-84.20583333333333,41.46472222222223],[-84.27027777777778,41.474722222222226],[-84.27027777777778,41.474722222222226],[-84.27027777777778,41.474722222222226],[-84.27027777777778,41.474722222222226],[-84.27027777777778,41.474722222222226],[-84.27027777777778,41.474722222222226],[-84.27027777777778,41.474722222222226],[-85.08527777777778,41.596111111111114],[-85.08527777777778,41.596111111111114],[-85.08527777777778,41.596111111111114],[-85.08527777777778,41.596111111111114],[-85.08527777777778,41.596111111111114],[-85.08527777777778,41.596111111111114],[-85.08527777777778,41.596111111111114],[-85.34638888888888,41.63388888888889],[-85.34638888888888,41.63388888888889],[-85.34638888888888,41.63388888888889],[-85.34638888888888,41.63388888888889],[-85.34638888888888,41.63388888888889],[-85.34638888888888,41.63388888888889],[-85.34638888888888,41.63388888888889],[-85.34638888888888,41.63388888888889],[-85.55222222222221,41.66361111111111],[-85.55222222222221,41.66361111111111],[-85.60194444444444,41.67111111111111],[-85.60194444444444,41.67111111111111],[-85.60194444444444,41.67111111111111],[-85.60194444444444,41.67111111111111],[-85.60194444444444,41.67111111111111],[-85.69166666666668,41.68277777777777],[-85.8175,41.7],[-85.8175,41.7],[-85.87583333333333,41.708333333333336],[-85.87583333333333,41.708333333333336],[-85.87583333333333,41.708333333333336],[-85.87583333333333,41.708333333333336],[-86.01416666666667,41.727222222222224],[-86.01416666666667,41.727222222222224],[-86.01416666666667,41.727222222222224],[-86.01416666666667,41.727222222222224],[-86.15444444444445,41.74666666666667],[-86.15444444444445,41.74666666666667],[-86.15444444444445,41.74666666666667],[-86.15444444444445,41.74666666666667],[-86.2936111111111,41.76611111111111],[-86.2936111111111,41.76611111111111],[-86.2936111111111,41.76611111111111],[-86.2936111111111,41.76611111111111],[-86.42305555555556,41.823888888888895],[-86.67166666666667,41.95388888888889],[-86.67166666666667,41.95388888888889],[-86.67166666666667,41.95388888888889],[-86.67166666666667,41.95388888888889],[-86.67166666666667,41.95388888888889],[-86.67166666666667,41.95388888888889],[-86.67166666666667,41.95388888888889],[-86.67166666666667,41.95388888888889],[-87.54166666666667,42.401666666666664],[-87.54166666666667,42.401666666666664],[-87.54166666666667,42.401666666666664],[-87.54166666666667,42.401666666666664],[-87.54166666666667,42.401666666666664],[-87.54166666666667,42.401666666666664],[-87.94055555555556,42.60277777777778],[-87.94055555555556,42.60277777777778],[-87.94055555555556,42.60277777777778],[-87.94055555555556,42.60277777777778],[-87.94055555555556,42.60277777777778],[-87.94055555555556,42.60277777777778],[-88.4675,42.86416666666667],[-88.4675,42.86416666666667],[-88.4675,42.86416666666667],[-88.4675,42.86416666666667],[-88.4675,42.86416666666667],[-88.4675,42.86416666666667],[-88.4675,42.86416666666667],[-88.4675,42.86416666666667],[-88.4675,42.86416666666667],[-89.3125,43.27361111111111],[-89.3125,43.27361111111111],[-89.3125,43.27361111111111],[-89.3125,43.27361111111111],[-89.3125,43.27361111111111],[-89.56444444444445,43.39333333333333],[-89.56444444444445,43.39333333333333],[-89.56444444444445,43.39333333333333],[-89.85249999999999,43.52861111111111],[-89.85249999999999,43.52861111111111],[-89.85249999999999,43.52861111111111],[-89.85249999999999,43.52861111111111],[-89.99916666666667,43.59777777777778],[-89.99916666666667,43.59777777777778],[-90.03166666666667,43.613055555555555],[-90.03166666666667,43.613055555555555],[-90.03166666666667,43.613055555555555],[-90.03166666666667,43.613055555555555],[-90.14750000000001,43.66694444444444],[-90.14750000000001,43.66694444444444],[-90.3261111111111,43.74944444444444],[-90.3261111111111,43.74944444444444],[-90.3261111111111,43.74944444444444],[-90.505,43.83166666666667],[-90.505,43.83166666666667],[-90.505,43.83166666666667],[-90.505,43.83166666666667],[-90.505,43.83166666666667],[-90.505,43.83166666666667],[-90.505,43.83166666666667],[-90.505,43.83166666666667],[-91.09166666666667,44.098333333333336],[-91.09166666666667,44.098333333333336],[-91.09166666666667,44.098333333333336],[-91.24194444444444,44.16555555555556],[-91.24194444444444,44.16555555555556],[-91.24194444444444,44.16555555555556],[-91.24194444444444,44.16555555555556],[-91.24194444444444,44.16555555555556],[-91.41277777777778,44.24194444444444],[-91.41277777777778,44.24194444444444],[-91.41277777777778,44.24194444444444],[-91.41277777777778,44.24194444444444],[-91.41277777777778,44.24194444444444],[-91.41277777777778,44.24194444444444],[-91.62944444444443,44.337500000000006],[-91.62944444444443,44.337500000000006],[-91.78194444444445,44.40472222222222],[-91.78194444444445,44.40472222222222],[-92.02472222222222,44.50055555555556],[-92.02472222222222,44.50055555555556],[-92.02472222222222,44.50055555555556],[-92.19861111111112,44.522777777777776],[-92.19861111111112,44.522777777777776],[-92.19861111111112,44.522777777777776],[-92.19861111111112,44.522777777777776],[-92.19861111111112,44.522777777777776],[-92.19861111111112,44.522777777777776],[-92.19861111111112,44.522777777777776],[-93.03833333333333,44.615833333333335],[-93.03833333333333,44.615833333333335],[-93.03833333333333,44.615833333333335],[-93.03833333333333,44.615833333333335],[-93.20972222222223,44.63027777777778],[-93.20972222222223,44.63027777777778],[-93.20972222222223,44.63027777777778],[-93.20972222222223,44.63027777777778],[-93.20972222222223,44.63027777777778],[-93.34777777777778,44.62694444444445],[-93.51444444444445,44.62305555555555],[-93.51444444444445,44.62305555555555],[-93.68027777777779,44.61833333333333],[-93.68027777777779,44.61833333333333],[-93.84555555555555,44.61361111111111],[-93.84555555555555,44.61361111111111],[-94.00833333333334,44.60888888888889],[-94.00833333333334,44.60888888888889],[-94.00833333333334,44.60888888888889],[-94.00833333333334,44.60888888888889],[-94.00833333333334,44.60888888888889],[-94.00833333333334,44.60888888888889],[-94.49666666666667,44.59305555555556],[-94.49666666666667,44.59305555555556],[-94.49666666666667,44.59305555555556],[-94.49666666666667,44.59305555555556],[-94.82,44.58166666666667],[-94.82,44.58166666666667],[-94.82,44.58166666666667],[-94.82,44.58166666666667],[-94.82,44.58166666666667],[-94.82,44.58166666666667],[-94.82,44.58166666666667],[-95.1525,44.568333333333335],[-95.1525,44.568333333333335],[-95.1525,44.568333333333335],[-95.1525,44.568333333333335],[-95.1525,44.568333333333335],[-95.1525,44.568333333333335],[-95.65472222222223,44.54722222222222],[-95.65472222222223,44.54722222222222],[-95.65472222222223,44.54722222222222],[-95.65472222222223,44.54722222222222],[-95.65472222222223,44.54722222222222],[-95.65472222222223,44.54722222222222],[-96.18805555555556,44.52166666666667],[-96.18805555555556,44.52166666666667],[-96.18805555555556,44.52166666666667],[-96.18805555555556,44.52166666666667],[-96.18805555555556,44.52166666666667],[-96.18805555555556,44.52166666666667],[-96.18805555555556,44.52166666666667],[-96.83194444444445,44.48777777777778],[-96.83194444444445,44.48777777777778],[-96.83194444444445,44.48777777777778],[-96.83194444444445,44.48777777777778],[-96.83194444444445,44.48777777777778],[-96.83194444444445,44.48777777777778],[-96.83194444444445,44.48777777777778],[-96.99833333333333,44.47888888888889],[-96.99833333333333,44.47888888888889],[-96.99833333333333,44.47888888888889],[-97.32222222222222,44.46],[-97.32222222222222,44.46],[-97.65083333333334,44.44],[-97.81305555555555,44.42972222222222],[-97.97555555555556,44.41916666666666],[-97.97555555555556,44.41916666666666],[-98.14111111111112,44.408055555555556],[-98.14111111111112,44.408055555555556],[-98.14111111111112,44.408055555555556],[-98.14111111111112,44.408055555555556],[-98.14111111111112,44.408055555555556],[-98.14111111111112,44.408055555555556],[-98.97083333333333,44.349722222222226],[-98.97083333333333,44.349722222222226],[-98.97083333333333,44.349722222222226],[-98.97083333333333,44.349722222222226],[-98.97083333333333,44.349722222222226],[-98.97083333333333,44.349722222222226],[-99.13416666666667,44.337500000000006],[-99.13416666666667,44.337500000000006],[-99.13416666666667,44.337500000000006],[-99.46111111111111,44.31222222222222],[-99.46111111111111,44.31222222222222],[-99.46111111111111,44.31222222222222],[-99.78555555555555,44.28611111111111],[-99.78555555555555,44.28611111111111],[-99.78555555555555,44.28611111111111],[-99.78555555555555,44.28611111111111],[-99.78555555555555,44.28611111111111],[-99.78555555555555,44.28611111111111],[-99.78555555555555,44.28611111111111],[-100.29916666666666,44.24333333333333],[-100.29916666666666,44.24333333333333],[-100.29916666666666,44.24333333333333],[-100.29916666666666,44.24333333333333],[-100.29916666666666,44.24333333333333],[-100.29972222222221,44.2425],[-100.43416666666667,44.231388888888894],[-100.43416666666667,44.231388888888894],[-100.63694444444445,44.21361111111111],[-100.63583333333334,44.21194444444445],[-100.76,44.202222222222225],[-100.92305555555556,44.1875],[-100.92305555555556,44.1875],[-100.9625,44.18416666666666],[-100.9625,44.18138888888889],[-101.08916666666666,44.17222222222222],[-101.12694444444443,44.16888888888889],[-101.12694444444443,44.16888888888889],[-101.12694444444443,44.16888888888889],[-101.12694444444443,44.16638888888889],[-101.29333333333334,44.153055555555554],[-101.2911111111111,44.150555555555556],[-101.2911111111111,44.150555555555556],[-101.45722222222223,44.1375],[-101.62305555555555,44.11972222222222],[-101.62305555555555,44.11972222222222],[-101.62305555555555,44.11972222222222],[-101.7461111111111,44.10861111111111],[-101.7461111111111,44.10861111111111],[-102.0775,44.07555555555556],[-102.0775,44.07555555555556],[-102.0775,44.07555555555556],[-102.115,44.07166666666667],[-102.115,44.07166666666667],[-102.4063888888889,44.041666666666664],[-102.44416666666667,44.0375],[-102.44416666666667,44.0375],[-102.44416666666667,44.0375],[-102.44416666666667,44.0375],[-102.73583333333333,44.006388888888885],[-102.73583333333333,44.006388888888885],[-102.7761111111111,44.00194444444445],[-102.7761111111111,44.00194444444445],[-102.90333333333334,43.988055555555555],[-102.90333333333334,43.988055555555555],[-102.94194444444445,43.98361111111111],[-102.94194444444445,43.98361111111111],[-102.94194444444445,43.98361111111111],[-103.10277777777777,43.96138888888889],[-103.10277777777777,43.96138888888889],[-103.26555555555555,43.934999999999995],[-103.26555555555555,43.934999999999995],[-103.26555555555555,43.934999999999995],[-103.26611111111112,43.93472222222222],[-103.26611111111112,43.93472222222222],[-103.26611111111112,43.93472222222222],[-103.42888888888889,43.907777777777774],[-103.42888888888889,43.907777777777774],[-103.42888888888889,43.907777777777774],[-103.42888888888889,43.907777777777774],[-103.74472222222222,43.85472222222222],[-103.74472222222222,43.85472222222222],[-103.74472222222222,43.85472222222222],[-103.74444444444444,43.85388888888889],[-103.74444444444444,43.85388888888889],[-103.74444444444444,43.85388888888889],[-103.74444444444444,43.85388888888889],[-103.74444444444444,43.85388888888889],[-104.05388888888889,43.802499999999995],[-104.05194444444444,43.80222222222222],[-104.05194444444444,43.80222222222222],[-104.20916666666668,43.775277777777774],[-104.20916666666668,43.775277777777774],[-104.20916666666668,43.775277777777774],[-104.20916666666668,43.775277777777774],[-104.36138888888888,43.74861111111111],[-104.36138888888888,43.74861111111111],[-104.36138888888888,43.74861111111111],[-104.36138888888888,43.74861111111111],[-104.36138888888888,43.74861111111111],[-104.36138888888888,43.74861111111111],[-104.83305555555555,43.66555555555556],[-104.83305555555555,43.66555555555556],[-104.83,43.66638888888889],[-104.83,43.66638888888889],[-104.98861111111111,43.6375],[-104.98861111111111,43.6375],[-104.98861111111111,43.6375],[-105.14611111111111,43.60888888888889],[-105.14611111111111,43.60888888888889],[-105.14305555555556,43.60944444444445],[-105.14305555555556,43.60944444444445],[-105.14305555555556,43.60944444444445],[-105.14305555555556,43.60944444444445],[-105.14305555555556,43.60944444444445],[-105.33722222222222,43.57361111111111],[-105.33722222222222,43.57361111111111],[-105.33722222222222,43.57361111111111],[-105.46166666666667,43.55083333333333],[-105.46166666666667,43.55083333333333],[-105.49361111111111,43.54472222222222],[-105.49361111111111,43.54472222222222],[-105.62083333333332,43.52111111111111],[-105.62083333333332,43.52111111111111],[-105.62083333333332,43.52111111111111],[-105.62083333333332,43.52111111111111],[-105.65166666666667,43.515277777777776],[-105.65166666666667,43.515277777777776],[-105.65166666666667,43.515277777777776],[-105.97111111111111,43.455000000000005],[-106.13,43.42472222222222],[-106.13,43.42472222222222],[-106.13,43.42472222222222],[-106.13,43.42472222222222],[-106.28833333333333,43.39388888888889],[-106.41333333333334,43.36944444444445],[-106.41333333333334,43.36944444444445],[-106.41333333333334,43.36944444444445],[-106.41333333333334,43.36944444444445],[-106.60083333333333,43.33277777777778],[-106.60083333333333,43.33277777777778],[-106.7225,43.30888888888889],[-106.7225,43.30888888888889],[-106.7225,43.30888888888889],[-106.7225,43.30888888888889],[-106.75444444444445,43.302499999999995],[-106.75444444444445,43.302499999999995],[-107.18055555555556,43.216944444444444],[-107.18055555555556,43.216944444444444],[-107.18055555555556,43.216944444444444],[-107.18055555555556,43.216944444444444],[-107.18055555555556,43.216944444444444],[-107.21333333333334,43.21027777777778],[-107.21333333333334,43.21027777777778],[-107.21333333333334,43.21027777777778],[-107.33583333333333,43.18555555555555],[-107.33583333333333,43.18555555555555],[-107.66527777777779,43.117777777777775],[-107.66527777777779,43.117777777777775],[-107.66527777777779,43.117777777777775],[-107.66527777777779,43.117777777777775],[-107.66527777777779,43.117777777777775],[-107.66527777777779,43.117777777777775],[-107.66527777777779,43.117777777777775],[-107.66527777777779,43.117777777777775],[-108.87805555555555,42.858333333333334],[-108.87805555555555,42.858333333333334],[-108.87805555555555,42.858333333333334],[-108.87805555555555,42.858333333333334],[-108.87805555555555,42.858333333333334],[-108.87805555555555,42.858333333333334],[-108.87805555555555,42.858333333333334],[-109.02722222222222,42.82527777777778],[-109.02722222222222,42.82527777777778],[-109.35249999999999,42.75277777777778],[-109.35249999999999,42.75277777777778],[-109.35249999999999,42.75277777777778],[-109.50333333333333,42.718611111111116],[-109.50333333333333,42.718611111111116],[-109.50333333333333,42.718611111111116],[-109.50333333333333,42.718611111111116],[-109.50333333333333,42.718611111111116],[-109.50333333333333,42.718611111111116],[-109.50333333333333,42.718611111111116],[-109.95305555555557,42.61555555555556],[-109.95305555555557,42.61555555555556],[-109.95305555555557,42.61555555555556],[-109.95305555555557,42.61555555555556],[-109.95305555555557,42.61555555555556],[-110.24916666666667,42.536944444444444],[-110.24916666666667,42.536944444444444],[-110.24916666666667,42.536944444444444],[-110.24916666666667,42.536944444444444],[-110.24916666666667,42.536944444444444],[-110.53972222222222,42.4475],[-110.53972222222222,42.4475],[-110.53972222222222,42.4475],[-110.53972222222222,42.4475],[-110.53972222222222,42.4475],[-110.97527777777778,42.31194444444444],[-110.97527777777778,42.31194444444444],[-110.97527777777778,42.31194444444444],[-110.97527777777778,42.31194444444444],[-110.97527777777778,42.31194444444444],[-111.25166666666667,42.224722222222226],[-111.25166666666667,42.224722222222226],[-111.25166666666667,42.224722222222226],[-111.25166666666667,42.224722222222226],[-111.25166666666667,42.224722222222226],[-111.54555555555555,42.130833333333335],[-111.54555555555555,42.130833333333335],[-111.54555555555555,42.130833333333335],[-111.69111111111111,42.08416666666667],[-111.69111111111111,42.08416666666667],[-111.83583333333333,42.03722222222222],[-111.83583333333333,42.03722222222222],[-111.83583333333333,42.03722222222222],[-111.83583333333333,42.03722222222222],[-111.83583333333333,42.03722222222222],[-111.83583333333333,42.03722222222222],[-111.98111111111112,41.99027777777778],[-111.98111111111112,41.99027777777778],[-111.98111111111112,41.99027777777778],[-111.98111111111112,41.99027777777778],[-112.41222222222223,41.848333333333336],[-112.41222222222223,41.848333333333336],[-112.41222222222223,41.848333333333336],[-112.41222222222223,41.848333333333336],[-112.41222222222223,41.848333333333336],[-112.55444444444444,41.801111111111105],[-112.55444444444444,41.801111111111105],[-112.55444444444444,41.801111111111105],[-112.55444444444444,41.801111111111105],[-112.55444444444444,41.801111111111105],[-112.86472222222221,41.6975],[-112.86472222222221,41.6975],[-112.86472222222221,41.6975],[-112.86472222222221,41.6975],[-113.45527777777778,41.54333333333333],[-113.45527777777778,41.54333333333333],[-113.45527777777778,41.54333333333333],[-113.45527777777778,41.54333333333333],[-113.755,41.468333333333334],[-113.755,41.468333333333334],[-113.755,41.468333333333334],[-113.755,41.468333333333334],[-113.755,41.468333333333334],[-113.755,41.468333333333334],[-113.905,41.430277777777775],[-113.905,41.430277777777775],[-113.905,41.430277777777775],[-114.20333333333333,41.35388888888889],[-114.20333333333333,41.35388888888889],[-114.20333333333333,41.35388888888889],[-114.20333333333333,41.35388888888889],[-114.20333333333333,41.35388888888889],[-114.20333333333333,41.35388888888889],[-114.64222222222223,41.24],[-114.64222222222223,41.24],[-114.64222222222223,41.24],[-114.64222222222223,41.24],[-114.64222222222223,41.24],[-114.9025,41.17388888888889],[-114.9025,41.17388888888889],[-114.9025,41.17388888888889],[-114.9025,41.17388888888889],[-114.93027777777779,41.16444444444444],[-114.93027777777779,41.16444444444444],[-114.93027777777779,41.16444444444444],[-114.93027777777779,41.16444444444444],[-115.0775,41.125277777777775],[-115.0775,41.125277777777775],[-115.0775,41.125277777777775],[-115.36916666666666,41.04722222222222],[-115.36916666666666,41.04722222222222],[-115.36916666666666,41.04722222222222],[-115.51694444444445,41.007222222222225],[-115.51694444444445,41.007222222222225],[-115.51694444444445,41.007222222222225],[-115.51694444444445,41.007222222222225],[-115.51694444444445,41.007222222222225],[-115.51694444444445,41.007222222222225],[-115.51694444444445,41.007222222222225],[-116.21361111111112,40.816111111111105],[-116.21361111111112,40.816111111111105],[-116.21361111111112,40.816111111111105],[-116.21361111111112,40.816111111111105],[-116.24194444444444,40.8075],[-116.24194444444444,40.8075],[-116.35888888888888,40.775277777777774],[-116.35888888888888,40.775277777777774],[-116.35888888888888,40.775277777777774],[-116.3561111111111,40.775555555555556],[-116.3561111111111,40.775555555555556],[-116.50305555555556,40.735],[-116.50305555555556,40.735],[-116.52916666666667,40.727222222222224],[-116.52916666666667,40.727222222222224],[-116.52916666666667,40.727222222222224],[-116.52916666666667,40.727222222222224],[-116.67444444444445,40.68583333333333],[-116.7925,40.652499999999996],[-116.7925,40.652499999999996],[-116.7925,40.652499999999996],[-116.7925,40.652499999999996],[-116.81916666666666,40.64472222222222],[-116.81916666666666,40.64472222222222],[-116.96222222222222,40.603611111111114],[-116.96222222222222,40.603611111111114],[-116.96222222222222,40.603611111111114],[-116.96222222222222,40.603611111111114],[-117.50694444444444,40.44555555555555],[-117.50694444444444,40.44555555555555],[-117.50694444444444,40.44555555555555],[-117.64888888888889,40.403888888888886],[-117.64888888888889,40.403888888888886],[-117.64888888888889,40.403888888888886],[-117.64888888888889,40.403888888888886],[-117.64888888888889,40.403888888888886],[-117.64888888888889,40.403888888888886],[-117.81972222222223,40.35333333333333],[-117.81972222222223,40.35333333333333],[-117.81972222222223,40.35333333333333],[-117.81972222222223,40.35333333333333],[-117.84666666666666,40.34527777777778],[-117.84666666666666,40.34527777777778],[-117.84666666666666,40.34527777777778],[-118.1286111111111,40.26111111111111],[-118.1286111111111,40.26111111111111],[-118.1286111111111,40.26111111111111],[-118.1286111111111,40.26111111111111],[-118.1286111111111,40.26111111111111],[-118.3875,40.18333333333333],[-118.3875,40.18333333333333],[-118.52694444444444,40.14055555555556],[-118.52694444444444,40.14055555555556],[-118.52694444444444,40.14055555555556],[-118.52694444444444,40.14055555555556],[-118.69250000000001,40.090833333333336],[-118.69250000000001,40.090833333333336],[-118.69250000000001,40.090833333333336],[-118.69250000000001,40.090833333333336],[-118.69250000000001,40.090833333333336],[-118.94638888888889,40.01444444444444],[-118.94638888888889,40.01444444444444],[-118.9738888888889,40.00611111111111],[-118.9738888888889,40.00611111111111],[-118.9738888888889,40.00611111111111],[-119.08805555555556,39.971111111111114],[-119.08805555555556,39.971111111111114],[-119.25472222222223,39.92027777777778],[-119.25472222222223,39.92027777777778],[-119.25472222222223,39.92027777777778],[-119.25472222222223,39.92027777777778],[-119.25472222222223,39.92027777777778],[-119.25472222222223,39.92027777777778],[-119.39305555555556,39.87777777777778],[-119.39305555555556,39.87777777777778],[-119.39305555555556,39.87777777777778],[-119.39305555555556,39.87777777777778],[-119.50666666666666,39.84305555555556],[-119.50666666666666,39.84305555555556],[-120.06777777777778,39.7],[-120.06777777777778,39.7],[-120.06777777777778,39.7],[-120.06777777777778,39.7],[-120.06777777777778,39.7],[-120.06777777777778,39.7],[-120.06777777777778,39.7],[-120.46638888888889,39.67055555555555],[-120.46638888888889,39.67055555555555],[-120.46638888888889,39.67055555555555],[-120.46638888888889,39.67055555555555],[-120.59916666666666,39.660555555555554],[-120.59916666666666,39.660555555555554],[-120.59916666666666,39.660555555555554],[-120.72944444444444,39.65],[-120.72944444444444,39.65],[-120.72944444444444,39.65],[-120.72944444444444,39.65],[-120.99472222222222,39.62861111111111],[-120.99472222222222,39.62861111111111],[-120.99472222222222,39.62861111111111],[-121.39583333333334,39.599722222222226],[-121.39583333333334,39.599722222222226],[-121.39583333333334,39.599722222222226],[-121.39583333333334,39.599722222222226],[-121.39583333333334,39.599722222222226],[-121.4975,39.52444444444444],[-121.4975,39.52444444444444],[-121.60027777777778,39.47166666666667],[-121.86333333333333,39.47416666666667],[-121.86333333333333,39.47416666666667],[-121.86333333333333,39.47416666666667],[-121.99361111111111,39.475833333333334],[-121.99361111111111,39.475833333333334],[-121.99361111111111,39.475833333333334],[-122.12222222222222,39.47694444444445],[-122.12222222222222,39.47694444444445],[-122.12222222222222,39.47694444444445],[-122.12222222222222,39.47694444444445],[-122.60305555555556,38.785],[-122.60305555555556,38.785],[-122.60305555555556,38.785],[-122.60305555555556,38.785],[-122.60305555555556,38.785],[-122.60305555555556,38.785],[-122.70333333333333,38.44472222222222],[-122.70333333333333,38.44472222222222],[-122.70333333333333,38.44472222222222],[-122.73472222222222,38.337500000000006],[-122.73472222222222,38.337500000000006],[-122.73472222222222,38.337500000000006],[-122.73472222222222,38.337500000000006],[-122.76166666666667,38.231944444444444],[-122.73805555555556,38.12361111111111],[-122.73805555555556,38.12361111111111],[-122.68333333333334,37.93333333333333],[-122.68333333333334,37.93333333333333],[-122.68333333333334,37.93333333333333],[-122.68333333333334,37.93333333333333],[-122.67722222222223,37.91638888888889],[-122.6,37.833333333333336],[-122.6,37.833333333333336],[-122.6,37.833333333333336],[-122.6,37.833333333333336],[-122.52388888888889,37.75833333333333],[-122.31666666666666,37.516666666666666],[-122.31666666666666,37.516666666666666],[-122.31666666666666,37.516666666666666],[-122.3,37.45],[-122.3,37.45],[-122.3,37.45],[-122.3,37.45],[-122.24055555555556,37.407222222222224],[-122.16361111111112,37.39666666666667],[-122.16361111111112,37.39666666666667],[-122.16361111111112,37.39666666666667],[-122.16361111111112,37.39666666666667],[-122.06666666666666,37.45],[-122.06666666666666,37.45],[-122.09138888888889,37.49861111111111],[-122.09138888888889,37.49861111111111],[-122.1413888888889,37.52055555555555],[-122.18333333333334,37.53333333333333],[-122.1863888888889,37.53916666666667],[-122.21666666666667,37.55],[-122.21666666666667,37.55],[-122.21666666666667,37.55],[-122.23222222222222,37.558611111111105],[-122.26666666666667,37.56666666666667],[-122.31666666666666,37.6],[-122.36527777777778,37.61472222222223],[-122.36527777777778,37.61472222222223]],"type":"LineString"}
}
