{
  "id": 2014880865,
  "type": "Feature",
  "properties": {
    "geom:area": 0,
    "geom:bbox": "-123.085580,37.531900,-122.094860,38.478360",
    "geom:latitude": 37.90682931023025,
    "geom:longitude": -122.55286385763058,
    "src:alt_label": "swim-approach",
    "src:geom": "swim",
    "swim:elevations": [
      7559,
      7468,
      7426,
      7013,
      6875,
      6510,
      6393,
      6122,
      5860,
      5606,
      5422,
      5336,
      5061,
      4564,
      4402,
      4296,
      4055,
      3720,
      3490,
      3437,
      3383,
      3353,
      3335,
      3231,
      3174,
      3008,
      2783,
      2704,
      2544,
      2302,
      2223,
      2065,
      1941,
      1734,
      1475,
      1124,
      820,
      737,
      667,
      608,
      583,
      498,
      332,
      272,
      81,
      36
    ],
    "swim:geom": "approach",
    "swim:timestamps": [
      1772047966,
      1772047974,
      1772047980,
      1772048027,
      1772048042,
      1772048085,
      1772048098,
      1772048127,
      1772048157,
      1772048184,
      1772048216,
      1772048228,
      1772048256,
      1772048290,
      1772048306,
      1772048330,
      1772048364,
      1772048395,
      1772048426,
      1772048447,
      1772048464,
      1772048506,
      1772048518,
      1772048540,
      1772048574,
      1772048601,
      1772048634,
      1772048649,
      1772048668,
      1772048692,
      1772048698,
      1772048713,
      1772048728,
      1772048749,
      1772048773,
      1772048804,
      1772048837,
      1772048856,
      1772048881,
      1772048901,
      1772048910,
      1772048942,
      1772048990,
      1772049008,
      1772049050,
      1772049061
    ],
    "wof:geomhash": "06360740e703667f095f222bbf38b9bd",
    "wof:id": 2014880865,
    "wof:repo": "sfomuseum-data-flights-2026-02"
  },
  "bbox": [
    -123.08558,
    37.5319,
    -122.09486,
    38.47836
  ],
  "geometry": {"coordinates":[[-123.08558,38.47836],[-123.07258,38.46778],[-123.06031,38.45782],[-122.97658,38.39134],[-122.94996,38.37011],[-122.87334,38.30924],[-122.85071,38.29121],[-122.80017,38.25059],[-122.76324,38.2026],[-122.74701,38.15512],[-122.73074,38.09967],[-122.72504,38.07954],[-122.71235,38.03442],[-122.69667,37.98031],[-122.68965,37.95501],[-122.67827,37.9178],[-122.64436,37.87171],[-122.60213,37.83195],[-122.56088,37.79365],[-122.53338,37.76796],[-122.51175,37.74747],[-122.45101,37.71158],[-122.43067,37.7053],[-122.39495,37.69393],[-122.34277,37.677],[-122.30375,37.66425],[-122.25775,37.64934],[-122.23666,37.64232],[-122.21135,37.63348],[-122.18062,37.62244],[-122.17273,37.61964],[-122.15367,37.61305],[-122.13373,37.60626],[-122.10746,37.59519],[-122.09486,37.57226],[-122.10548,37.54238],[-122.14478,37.5319],[-122.16595,37.54],[-122.19186,37.55223],[-122.21102,37.56077],[-122.21915,37.56396],[-122.24997,37.57581],[-122.29587,37.58999],[-122.31235,37.5953],[-122.3473,37.60941],[-122.35581,37.61296]],"type":"LineString"}
}
