{
  "id": 2014903599,
  "type": "Feature",
  "properties": {
    "geom:area": 0,
    "geom:bbox": "-122.360278,37.636944,-77.071111,42.464167",
    "geom:latitude": 41.09902218491983,
    "geom:longitude": -99.9410127412782,
    "src:alt_label": "swim-path",
    "src:geom": "swim",
    "swim:altitudes": [
      "010",
      "010",
      "010",
      "035",
      "035",
      "035",
      "035",
      "228",
      "228",
      "228",
      "228",
      "228",
      "256",
      "256",
      "256",
      "315",
      "315",
      "315",
      "315",
      "327",
      "327",
      "327",
      "327",
      "330C",
      "330C",
      "330C",
      "330C",
      "330C",
      "330C",
      "330C",
      "330C",
      "330C",
      "330C",
      "330C",
      "330C",
      "330C",
      "330C",
      "330C",
      "330C",
      "330C",
      "330C",
      "330C",
      "330C",
      "330C",
      "330C",
      "330C",
      "330C",
      "330C",
      "330C",
      "330C",
      "330C",
      "330C",
      "330C",
      "330C",
      "330C",
      "330C",
      "330C",
      "330C",
      "330C",
      "330C",
      "330C",
      "330C",
      "330C",
      "330C",
      "330C",
      "330C",
      "330C",
      "330C",
      "330C",
      "330C",
      "330C",
      "330C",
      "330",
      "330",
      "330",
      "350C",
      "350C",
      "350C",
      "350C",
      "350C",
      "350C",
      "350C",
      "350C",
      "350C",
      "350C",
      "350C",
      "350C",
      "350C",
      "350C",
      "350C",
      "350C",
      "350C",
      "350C",
      "350C",
      "350C",
      "350C",
      "350C",
      "350C",
      "350C",
      "350C",
      "350C",
      "350C",
      "350C",
      "350C",
      "350C",
      "350C",
      "350C",
      "350C",
      "350C",
      "350C",
      "350C",
      "350C",
      "350C",
      "350C",
      "350C",
      "350C",
      "350C",
      "350C",
      "350C",
      "350C",
      "350C",
      "350C",
      "350",
      "350",
      "337",
      "337",
      "337",
      "328",
      "328",
      "328",
      "321",
      "321",
      "321",
      "310C",
      "310C",
      "310C",
      "310C",
      "310C",
      "310C",
      "310C",
      "310C",
      "310C",
      "310C",
      "310C",
      "310C",
      "310C",
      "310C",
      "310C",
      "310C",
      "310C",
      "310C",
      "310C",
      "310C",
      "310C",
      "310C",
      "310C",
      "310C",
      "310C",
      "310C",
      "310C",
      "310C",
      "310C",
      "310C",
      "310C",
      "310C",
      "310C",
      "310C",
      "317",
      "317",
      "317",
      "333",
      "333",
      "333",
      "350C",
      "350C",
      "350C",
      "350C",
      "350C",
      "350C",
      "350C",
      "350C",
      "350C",
      "350C",
      "350C",
      "350C",
      "350C",
      "350C",
      "350C",
      "350C",
      "350C",
      "350C",
      "350C",
      "350C",
      "350C",
      "350C",
      "350C",
      "350C",
      "350C",
      "350C",
      "350C",
      "350C",
      "350C",
      "350C",
      "350C",
      "350C",
      "350C",
      "350C",
      "350C",
      "350C",
      "350C",
      "350C",
      "350C",
      "350C",
      "350C",
      "350C",
      "350C",
      "350C",
      "339",
      "330C",
      "330C",
      "330C",
      "330C",
      "330C",
      "330C",
      "330C",
      "330C",
      "330C",
      "330C",
      "330C",
      "330C",
      "330C",
      "330C",
      "330C",
      "330C",
      "330C",
      "330C",
      "330C",
      "330C",
      "330C",
      "330C",
      "330C",
      "326",
      "326",
      "326",
      "316",
      "316",
      "316",
      "310C",
      "310C",
      "310C",
      "310C",
      "310C",
      "310C",
      "310C",
      "310C",
      "310C",
      "310C",
      "310C",
      "310C",
      "310C",
      "310C",
      "310C",
      "310C",
      "310C",
      "310C",
      "310C",
      "310C",
      "310C",
      "310C",
      "310C",
      "310C",
      "310C",
      "310C",
      "310C",
      "310C",
      "310C",
      "310C",
      "310C",
      "310C",
      "310C",
      "310C",
      "310C",
      "310C",
      "310C",
      "310C",
      "310C",
      "310C",
      "310C",
      "310C",
      "310C",
      "310C",
      "310C",
      "310C",
      "310C",
      "310C",
      "310C",
      "310C",
      "310C",
      "310C",
      "310C",
      "310C",
      "310C",
      "310C",
      "310C",
      "310C",
      "310C",
      "310C",
      "310C",
      "310C",
      "310C",
      "310C",
      "310C",
      "310C",
      "310C",
      "310C",
      "310C",
      "310C",
      "310C",
      "310C",
      "310C",
      "310C",
      "310C",
      "310C",
      "310C",
      "310C",
      "310C",
      "310C",
      "310C",
      "310C",
      "310C",
      "310C",
      "310C",
      "310C",
      "310C",
      "310C",
      "310C",
      "310C",
      "310C",
      "310C",
      "310C",
      "310C",
      "310C",
      "310C",
      "310C",
      "310C",
      "310C",
      "310C",
      "310C",
      "310C",
      "310C",
      "310",
      "310",
      "310",
      "257",
      "245",
      "204",
      "199",
      "169",
      "169",
      "170",
      "145",
      "120",
      "104",
      "104",
      "091",
      "046",
      "046",
      "046",
      "039",
      "025",
      "014",
      "010"
    ],
    "swim:geom": "path",
    "swim:speeds": [
      174,
      174,
      174,
      174,
      174,
      174,
      174,
      426,
      426,
      426,
      426,
      426,
      447,
      447,
      447,
      503,
      503,
      503,
      503,
      508,
      508,
      508,
      508,
      506,
      506,
      506,
      506,
      503,
      503,
      503,
      501,
      501,
      501,
      501,
      501,
      499,
      499,
      499,
      499,
      505,
      505,
      505,
      505,
      505,
      506,
      509,
      509,
      509,
      509,
      513,
      513,
      514,
      514,
      514,
      514,
      514,
      514,
      515,
      515,
      515,
      515,
      515,
      515,
      517,
      517,
      517,
      517,
      517,
      517,
      517,
      517,
      517,
      516,
      516,
      516,
      539,
      539,
      539,
      539,
      539,
      541,
      541,
      541,
      541,
      541,
      540,
      540,
      540,
      540,
      540,
      540,
      540,
      540,
      540,
      541,
      541,
      541,
      541,
      534,
      534,
      534,
      534,
      533,
      533,
      526,
      526,
      526,
      526,
      526,
      535,
      535,
      535,
      537,
      537,
      537,
      537,
      535,
      535,
      532,
      532,
      532,
      532,
      527,
      527,
      522,
      522,
      522,
      527,
      527,
      527,
      531,
      531,
      531,
      534,
      534,
      534,
      535,
      535,
      537,
      537,
      537,
      537,
      537,
      537,
      537,
      537,
      537,
      525,
      525,
      525,
      519,
      519,
      519,
      519,
      514,
      514,
      514,
      512,
      512,
      511,
      511,
      511,
      511,
      508,
      508,
      508,
      508,
      506,
      506,
      506,
      502,
      502,
      502,
      502,
      502,
      502,
      502,
      503,
      503,
      503,
      499,
      499,
      495,
      495,
      495,
      492,
      492,
      491,
      491,
      491,
      491,
      491,
      489,
      489,
      489,
      489,
      489,
      489,
      489,
      489,
      490,
      491,
      493,
      493,
      497,
      497,
      497,
      498,
      498,
      498,
      499,
      500,
      500,
      500,
      507,
      507,
      508,
      495,
      495,
      495,
      499,
      499,
      499,
      500,
      500,
      500,
      500,
      505,
      505,
      505,
      505,
      505,
      505,
      505,
      505,
      504,
      504,
      504,
      504,
      505,
      505,
      507,
      507,
      507,
      509,
      509,
      509,
      511,
      512,
      512,
      512,
      514,
      514,
      514,
      515,
      515,
      513,
      513,
      512,
      512,
      512,
      512,
      512,
      512,
      514,
      514,
      512,
      512,
      512,
      512,
      512,
      512,
      510,
      511,
      511,
      511,
      511,
      513,
      513,
      513,
      513,
      513,
      513,
      514,
      512,
      512,
      512,
      513,
      513,
      514,
      514,
      517,
      517,
      517,
      517,
      518,
      518,
      519,
      519,
      519,
      519,
      519,
      519,
      519,
      518,
      518,
      518,
      517,
      517,
      517,
      517,
      517,
      517,
      516,
      513,
      513,
      513,
      511,
      511,
      510,
      510,
      510,
      510,
      509,
      509,
      509,
      509,
      509,
      509,
      509,
      515,
      516,
      516,
      516,
      518,
      520,
      520,
      520,
      520,
      520,
      520,
      521,
      521,
      522,
      521,
      516,
      511,
      510,
      510,
      510,
      511,
      511,
      511,
      462,
      452,
      429,
      427,
      399,
      399,
      392,
      375,
      349,
      313,
      313,
      275,
      192,
      192,
      192,
      189,
      163,
      140,
      140
    ],
    "swim:timestamps": [
      1772229242,
      1772229242,
      1772229242,
      1772229302,
      1772229302,
      1772229302,
      1772229302,
      1772229903,
      1772229903,
      1772229903,
      1772229903,
      1772229903,
      1772230023,
      1772230023,
      1772230023,
      1772230384,
      1772230384,
      1772230384,
      1772230384,
      1772230446,
      1772230446,
      1772230446,
      1772230446,
      1772230564,
      1772230564,
      1772230564,
      1772230564,
      1772230684,
      1772230684,
      1772230684,
      1772230866,
      1772230866,
      1772230866,
      1772230866,
      1772230866,
      1772230925,
      1772230925,
      1772230925,
      1772230925,
      1772231165,
      1772231165,
      1772231165,
      1772231165,
      1772231165,
      1772231227,
      1772231345,
      1772231345,
      1772231345,
      1772231345,
      1772231585,
      1772231585,
      1772231648,
      1772231648,
      1772231706,
      1772231706,
      1772231706,
      1772231706,
      1772231768,
      1772231768,
      1772231768,
      1772231888,
      1772231888,
      1772231888,
      1772231948,
      1772231948,
      1772231948,
      1772231948,
      1772232128,
      1772232128,
      1772232128,
      1772232188,
      1772232188,
      1772232248,
      1772232248,
      1772232248,
      1772232489,
      1772232489,
      1772232489,
      1772232489,
      1772232489,
      1772232609,
      1772232609,
      1772232609,
      1772232609,
      1772232609,
      1772232789,
      1772232789,
      1772232789,
      1772232789,
      1772232969,
      1772232969,
      1772232969,
      1772232969,
      1772232969,
      1772233089,
      1772233089,
      1772233089,
      1772233089,
      1772233510,
      1772233510,
      1772233510,
      1772233510,
      1772233570,
      1772233570,
      1772233750,
      1772233750,
      1772233750,
      1772233810,
      1772233810,
      1772233870,
      1772233870,
      1772233870,
      1772233994,
      1772233994,
      1772233994,
      1772233994,
      1772234054,
      1772234054,
      1772234174,
      1772234174,
      1772234174,
      1772234174,
      1772234231,
      1772234231,
      1772234294,
      1772234294,
      1772234294,
      1772234354,
      1772234354,
      1772234354,
      1772234411,
      1772234411,
      1772234411,
      1772234474,
      1772234474,
      1772234474,
      1772234531,
      1772234531,
      1772234775,
      1772234775,
      1772234775,
      1772234775,
      1772234775,
      1772234895,
      1772234895,
      1772234895,
      1772234895,
      1772235132,
      1772235132,
      1772235132,
      1772235195,
      1772235195,
      1772235195,
      1772235195,
      1772235315,
      1772235315,
      1772235315,
      1772235376,
      1772235376,
      1772235496,
      1772235496,
      1772235496,
      1772235496,
      1772235676,
      1772235676,
      1772235676,
      1772235676,
      1772235796,
      1772235796,
      1772235796,
      1772235856,
      1772235856,
      1772235856,
      1772236096,
      1772236096,
      1772236096,
      1772236096,
      1772236229,
      1772236229,
      1772236229,
      1772236277,
      1772236277,
      1772236337,
      1772236337,
      1772236337,
      1772236397,
      1772236397,
      1772236409,
      1772236409,
      1772236469,
      1772236469,
      1772236469,
      1772236650,
      1772236650,
      1772236650,
      1772236650,
      1772236650,
      1772236830,
      1772236830,
      1772236830,
      1772236890,
      1772236950,
      1772236998,
      1772236998,
      1772237178,
      1772237178,
      1772237190,
      1772237238,
      1772237238,
      1772237238,
      1772237310,
      1772237371,
      1772237371,
      1772237371,
      1772237731,
      1772237731,
      1772237791,
      1772237911,
      1772237971,
      1772237971,
      1772238212,
      1772238212,
      1772238212,
      1772238332,
      1772238332,
      1772238332,
      1772238332,
      1772238572,
      1772238572,
      1772238572,
      1772238632,
      1772238752,
      1772238752,
      1772238752,
      1772238752,
      1772238873,
      1772238873,
      1772238873,
      1772238933,
      1772238993,
      1772238993,
      1772239113,
      1772239113,
      1772239122,
      1772239173,
      1772239173,
      1772239173,
      1772239353,
      1772239413,
      1772239413,
      1772239422,
      1772239533,
      1772239533,
      1772239533,
      1772239662,
      1772239662,
      1772239783,
      1772239783,
      1772239834,
      1772239843,
      1772239903,
      1772239954,
      1772239954,
      1772240014,
      1772240083,
      1772240083,
      1772240443,
      1772240443,
      1772240443,
      1772240443,
      1772240682,
      1772240682,
      1772240744,
      1772240862,
      1772240862,
      1772240862,
      1772240862,
      1772241283,
      1772241283,
      1772241283,
      1772241283,
      1772241343,
      1772241343,
      1772241445,
      1772241465,
      1772241465,
      1772241465,
      1772241525,
      1772241525,
      1772241565,
      1772241565,
      1772241705,
      1772241705,
      1772241705,
      1772241745,
      1772241765,
      1772241765,
      1772241866,
      1772241884,
      1772241884,
      1772241884,
      1772241884,
      1772241946,
      1772241946,
      1772242006,
      1772242066,
      1772242066,
      1772242106,
      1772242126,
      1772242126,
      1772242166,
      1772242166,
      1772242166,
      1772242226,
      1772242406,
      1772242406,
      1772242406,
      1772242467,
      1772242467,
      1772242545,
      1772242605,
      1772242605,
      1772242605,
      1772242665,
      1772242665,
      1772242665,
      1772242707,
      1772242725,
      1772242785,
      1772242785,
      1772242827,
      1772242845,
      1772242845,
      1772242845,
      1772242887,
      1772242933,
      1772242933,
      1772242947,
      1772242947,
      1772242966,
      1772242966,
      1772243007,
      1772243007,
      1772243068,
      1772243128,
      1772243248,
      1772243386,
      1772243428,
      1772243506,
      1772243506,
      1772243715,
      1772243729,
      1772243729,
      1772243909,
      1772243955,
      1772244076,
      1772244089,
      1772244196,
      1772244196,
      1772244217,
      1772244316,
      1772244436,
      1772244510,
      1772244510,
      1772244570,
      1772244816,
      1772244816,
      1772244816,
      1772244857,
      1772245037,
      1772245111,
      1772245157
    ],
    "wof:geomhash": "9029d3e828a2280fb9c867247a5bfb0a",
    "wof:id": 2014903599,
    "wof:repo": "sfomuseum-data-flights-2026-02"
  },
  "bbox": [
    -122.36027777777777,
    37.636944444444445,
    -77.07111111111111,
    42.46416666666667
  ],
  "geometry": {"coordinates":[[-122.36027777777777,37.636944444444445],[-122.36027777777777,37.636944444444445],[-122.36027777777777,37.636944444444445],[-122.31,37.665277777777774],[-122.31,37.665277777777774],[-122.31,37.665277777777774],[-122.31,37.665277777777774],[-121.42277777777778,38.31444444444444],[-121.42277777777778,38.31444444444444],[-121.42277777777778,38.31444444444444],[-121.42277777777778,38.31444444444444],[-121.42277777777778,38.31444444444444],[-121.18138888888889,38.46527777777778],[-121.18138888888889,38.46527777777778],[-121.18138888888889,38.46527777777778],[-120.37055555555555,38.96027777777778],[-120.37055555555555,38.96027777777778],[-120.37055555555555,38.96027777777778],[-120.37055555555555,38.96027777777778],[-120.21361111111112,39.052499999999995],[-120.21361111111112,39.052499999999995],[-120.21361111111112,39.052499999999995],[-120.21361111111112,39.052499999999995],[-119.92472222222223,39.22638888888889],[-119.92472222222223,39.22638888888889],[-119.92472222222223,39.22638888888889],[-119.92472222222223,39.22638888888889],[-119.63694444444445,39.39694444444444],[-119.63694444444445,39.39694444444444],[-119.63694444444445,39.39694444444444],[-119.20916666666668,39.64722222222222],[-119.20916666666668,39.64722222222222],[-119.20916666666668,39.64722222222222],[-119.20916666666668,39.64722222222222],[-119.20916666666668,39.64722222222222],[-119.06388888888888,39.731388888888894],[-119.06388888888888,39.731388888888894],[-119.06388888888888,39.731388888888894],[-119.06388888888888,39.731388888888894],[-118.4413888888889,40.029444444444444],[-118.4413888888889,40.029444444444444],[-118.4413888888889,40.029444444444444],[-118.4413888888889,40.029444444444444],[-118.4413888888889,40.029444444444444],[-118.28388888888888,40.09277777777778],[-117.94805555555556,40.22027777777778],[-117.94805555555556,40.22027777777778],[-117.94805555555556,40.22027777777778],[-117.94805555555556,40.22027777777778],[-117.25361111111111,40.42666666666666],[-117.25361111111111,40.42666666666666],[-117.08027777777778,40.4775],[-117.08027777777778,40.4775],[-116.93527777777778,40.519444444444446],[-116.93527777777778,40.519444444444446],[-116.93527777777778,40.519444444444446],[-116.93527777777778,40.519444444444446],[-116.72111111111111,40.58111111111111],[-116.72111111111111,40.58111111111111],[-116.72111111111111,40.58111111111111],[-116.3625,40.677499999999995],[-116.3625,40.677499999999995],[-116.3625,40.677499999999995],[-116.17722222222223,40.711111111111116],[-116.17722222222223,40.711111111111116],[-116.17722222222223,40.711111111111116],[-116.17722222222223,40.711111111111116],[-115.62638888888888,40.809444444444445],[-115.62638888888888,40.809444444444445],[-115.62638888888888,40.809444444444445],[-115.44027777777778,40.842222222222226],[-115.44027777777778,40.842222222222226],[-115.25805555555556,40.87388888888889],[-115.25805555555556,40.87388888888889],[-115.25805555555556,40.87388888888889],[-114.49416666666667,41.00277777777778],[-114.49416666666667,41.00277777777778],[-114.49416666666667,41.00277777777778],[-114.49416666666667,41.00277777777778],[-114.49416666666667,41.00277777777778],[-114.1363888888889,41.06111111111111],[-114.1363888888889,41.06111111111111],[-114.1363888888889,41.06111111111111],[-114.1363888888889,41.06111111111111],[-114.1363888888889,41.06111111111111],[-113.55333333333333,41.15416666666667],[-113.55333333333333,41.15416666666667],[-113.55333333333333,41.15416666666667],[-113.55333333333333,41.15416666666667],[-112.96972222222223,41.24333333333333],[-112.96972222222223,41.24333333333333],[-112.96972222222223,41.24333333333333],[-112.96972222222223,41.24333333333333],[-112.96972222222223,41.24333333333333],[-112.5761111111111,41.30222222222222],[-112.5761111111111,41.30222222222222],[-112.5761111111111,41.30222222222222],[-112.5761111111111,41.30222222222222],[-111.19888888888889,41.49583333333334],[-111.19888888888889,41.49583333333334],[-111.19888888888889,41.49583333333334],[-111.19888888888889,41.49583333333334],[-111.00694444444444,41.521388888888886],[-111.00694444444444,41.521388888888886],[-110.41388888888889,41.598333333333336],[-110.41388888888889,41.598333333333336],[-110.41388888888889,41.598333333333336],[-110.22166666666666,41.62305555555555],[-110.22166666666666,41.62305555555555],[-110.02305555555556,41.647777777777776],[-110.02305555555556,41.647777777777776],[-110.02305555555556,41.647777777777776],[-109.63055555555555,41.69499999999999],[-109.63055555555555,41.69499999999999],[-109.63055555555555,41.69499999999999],[-109.63055555555555,41.69499999999999],[-109.4325,41.71888888888889],[-109.4325,41.71888888888889],[-109.03583333333333,41.765277777777776],[-109.03583333333333,41.765277777777776],[-109.03583333333333,41.765277777777776],[-109.03583333333333,41.765277777777776],[-108.87916666666666,41.783055555555556],[-108.87916666666666,41.783055555555556],[-108.65222222222222,41.808611111111105],[-108.65222222222222,41.808611111111105],[-108.65222222222222,41.808611111111105],[-108.45444444444445,41.83027777777778],[-108.45444444444445,41.83027777777778],[-108.45444444444445,41.83027777777778],[-108.29694444444445,41.846944444444446],[-108.29694444444445,41.846944444444446],[-108.29694444444445,41.846944444444446],[-108.06,41.87166666666667],[-108.06,41.87166666666667],[-108.06,41.87166666666667],[-107.9,41.888888888888886],[-107.9,41.888888888888886],[-107.07,41.97277777777778],[-107.07,41.97277777777778],[-107.07,41.97277777777778],[-107.07,41.97277777777778],[-107.07,41.97277777777778],[-106.67027777777778,42.010555555555555],[-106.67027777777778,42.010555555555555],[-106.67027777777778,42.010555555555555],[-106.67027777777778,42.010555555555555],[-105.91916666666667,42.07777777777778],[-105.91916666666667,42.07777777777778],[-105.91916666666667,42.07777777777778],[-105.72916666666667,42.09388888888889],[-105.72916666666667,42.09388888888889],[-105.72916666666667,42.09388888888889],[-105.72916666666667,42.09388888888889],[-105.34944444444444,42.12555555555556],[-105.34944444444444,42.12555555555556],[-105.34944444444444,42.12555555555556],[-105.16027777777778,42.14083333333333],[-105.16027777777778,42.14083333333333],[-104.74472222222222,42.17305555555555],[-104.74472222222222,42.17305555555555],[-104.74472222222222,42.17305555555555],[-104.74472222222222,42.17305555555555],[-104.18361111111112,42.21416666666667],[-104.18361111111112,42.21416666666667],[-104.18361111111112,42.21416666666667],[-104.18361111111112,42.21416666666667],[-103.84805555555555,42.237500000000004],[-103.84805555555555,42.237500000000004],[-103.84805555555555,42.237500000000004],[-103.62666666666667,42.25222222222222],[-103.62666666666667,42.25222222222222],[-103.62666666666667,42.25222222222222],[-102.87666666666667,42.299166666666665],[-102.87666666666667,42.299166666666665],[-102.87666666666667,42.299166666666665],[-102.87666666666667,42.299166666666665],[-102.47111111111111,42.32361111111111],[-102.47111111111111,42.32361111111111],[-102.47111111111111,42.32361111111111],[-102.32,42.33083333333334],[-102.32,42.33083333333334],[-102.13722222222223,42.34055555555556],[-102.13722222222223,42.34055555555556],[-102.13722222222223,42.34055555555556],[-101.95416666666667,42.35027777777778],[-101.95416666666667,42.35027777777778],[-101.91777777777779,42.3525],[-101.91777777777779,42.3525],[-101.73444444444445,42.361666666666665],[-101.73444444444445,42.361666666666665],[-101.73444444444445,42.361666666666665],[-101.18694444444445,42.386944444444445],[-101.18694444444445,42.386944444444445],[-101.18694444444445,42.386944444444445],[-101.18694444444445,42.386944444444445],[-101.18694444444445,42.386944444444445],[-100.62944444444443,42.41027777777778],[-100.62944444444443,42.41027777777778],[-100.62944444444443,42.41027777777778],[-100.44583333333334,42.41722222222222],[-100.25888888888889,42.42444444444444],[-100.1363888888889,42.428888888888885],[-100.1363888888889,42.428888888888885],[-99.55138888888888,42.44777777777777],[-99.55138888888888,42.44777777777777],[-99.51416666666667,42.44888888888889],[-99.36277777777777,42.45333333333333],[-99.36277777777777,42.45333333333333],[-99.36277777777777,42.45333333333333],[-99.13527777777779,42.45944444444445],[-98.94638888888889,42.46416666666667],[-98.94638888888889,42.46416666666667],[-98.94638888888889,42.46416666666667],[-97.80666666666666,42.419999999999995],[-97.80666666666666,42.419999999999995],[-97.63472222222222,42.409166666666664],[-97.25694444444444,42.384166666666665],[-97.07083333333333,42.371944444444445],[-97.07083333333333,42.371944444444445],[-96.3261111111111,42.31888888888889],[-96.3261111111111,42.31888888888889],[-96.3261111111111,42.31888888888889],[-95.95111111111112,42.290277777777774],[-95.95111111111112,42.290277777777774],[-95.95111111111112,42.290277777777774],[-95.95111111111112,42.290277777777774],[-95.1975,42.22888888888889],[-95.1975,42.22888888888889],[-95.1975,42.22888888888889],[-95.00888888888889,42.21277777777778],[-94.63194444444444,42.17944444444444],[-94.63194444444444,42.17944444444444],[-94.63194444444444,42.17944444444444],[-94.63194444444444,42.17944444444444],[-94.25888888888889,42.14527777777778],[-94.25888888888889,42.14527777777778],[-94.25888888888889,42.14527777777778],[-94.07166666666666,42.12777777777778],[-93.88361111111112,42.11],[-93.88361111111112,42.11],[-93.50166666666667,42.072500000000005],[-93.50166666666667,42.072500000000005],[-93.50472222222223,42.07277777777778],[-93.31472222222222,42.05361111111111],[-93.31472222222222,42.05361111111111],[-93.31472222222222,42.05361111111111],[-92.75,41.99444444444445],[-92.55972222222222,41.97416666666667],[-92.55972222222222,41.97416666666667],[-92.52305555555556,41.97027777777778],[-92.1825,41.93277777777777],[-92.1825,41.93277777777777],[-92.1825,41.93277777777777],[-91.76805555555555,41.88527777777778],[-91.76805555555555,41.88527777777778],[-91.39472222222223,41.835],[-91.39472222222223,41.835],[-91.24527777777777,41.815],[-91.21000000000001,41.809999999999995],[-91.02472222222222,41.78472222222222],[-90.87416666666665,41.763333333333335],[-90.87416666666665,41.763333333333335],[-90.68694444444445,41.73777777777778],[-90.45277777777778,41.70638888888889],[-90.45277777777778,41.70638888888889],[-89.3111111111111,41.62583333333333],[-89.3111111111111,41.62583333333333],[-89.3111111111111,41.62583333333333],[-89.3111111111111,41.62583333333333],[-88.59666666666666,41.56916666666667],[-88.59666666666666,41.56916666666667],[-88.37222222222222,41.55083333333333],[-88.03611111111111,41.486666666666665],[-88.03611111111111,41.486666666666665],[-88.03611111111111,41.486666666666665],[-88.03611111111111,41.486666666666665],[-86.75666666666666,41.2],[-86.75666666666666,41.2],[-86.75666666666666,41.2],[-86.75666666666666,41.2],[-86.58666666666666,41.16083333333333],[-86.58666666666666,41.16083333333333],[-86.26694444444445,41.08638888888889],[-86.19250000000001,41.06888888888889],[-86.19250000000001,41.06888888888889],[-86.19250000000001,41.06888888888889],[-86.01277777777777,41.02611111111111],[-86.01277777777777,41.02611111111111],[-85.90916666666668,41.00138888888889],[-85.90916666666668,41.00138888888889],[-85.47194444444445,40.89611111111111],[-85.47194444444445,40.89611111111111],[-85.47194444444445,40.89611111111111],[-85.36861111111111,40.87083333333334],[-85.29305555555555,40.852222222222224],[-85.29305555555555,40.852222222222224],[-85.00555555555556,40.781666666666666],[-84.94361111111111,40.76638888888889],[-84.94361111111111,40.76638888888889],[-84.94361111111111,40.76638888888889],[-84.94361111111111,40.76638888888889],[-84.75361111111111,40.71888888888889],[-84.75361111111111,40.71888888888889],[-84.5736111111111,40.67333333333333],[-84.39861111111112,40.62916666666667],[-84.39861111111112,40.62916666666667],[-84.28333333333333,40.599722222222226],[-84.2175,40.58277777777778],[-84.2175,40.58277777777778],[-84.10194444444444,40.55333333333333],[-84.10194444444444,40.55333333333333],[-84.10194444444444,40.55333333333333],[-83.92305555555556,40.50694444444444],[-83.39083333333333,40.367222222222225],[-83.39083333333333,40.367222222222225],[-83.39083333333333,40.367222222222225],[-83.21611111111112,40.32083333333334],[-83.21611111111112,40.32083333333334],[-82.99166666666667,40.260555555555555],[-82.81555555555555,40.213055555555556],[-82.81555555555555,40.213055555555556],[-82.81555555555555,40.213055555555556],[-82.64194444444445,40.16555555555556],[-82.64194444444445,40.16555555555556],[-82.64194444444445,40.16555555555556],[-82.51666666666667,40.13027777777778],[-82.46805555555555,40.115833333333335],[-82.29388888888889,40.06361111111111],[-82.29388888888889,40.06361111111111],[-82.17027777777778,40.02777777777778],[-82.12055555555555,40.01555555555556],[-82.12055555555555,40.01555555555556],[-82.12055555555555,40.01555555555556],[-81.98944444444444,39.9825],[-81.87972222222221,39.955000000000005],[-81.87972222222221,39.955000000000005],[-81.81083333333333,39.93722222222222],[-81.81083333333333,39.93722222222222],[-81.75972222222222,39.92444444444444],[-81.75972222222222,39.92444444444444],[-81.63055555555555,39.89138888888889],[-81.63055555555555,39.89138888888889],[-81.45444444444445,39.84583333333334],[-81.27527777777777,39.79944444444444],[-80.92305555555556,39.706944444444446],[-80.55444444444444,39.60888888888889],[-80.42166666666667,39.57333333333334],[-80.2063888888889,39.515277777777776],[-80.2063888888889,39.515277777777776],[-79.60444444444444,39.349722222222226],[-79.53611111111111,39.330555555555556],[-79.53611111111111,39.330555555555556],[-79.04833333333333,39.23027777777778],[-78.95083333333334,39.22166666666667],[-78.62166666666666,39.189722222222215],[-78.58777777777777,39.186388888888885],[-78.33222222222221,39.15555555555555],[-78.33222222222221,39.15555555555555],[-78.28333333333333,39.15],[-78.07416666666666,39.09138888888889],[-77.83722222222222,39.03055555555555],[-77.715,38.99916666666667],[-77.715,38.99916666666667],[-77.61805555555554,38.97277777777778],[-77.31666666666666,39.05],[-77.31666666666666,39.05],[-77.31666666666666,39.05],[-77.28888888888889,39.03333333333333],[-77.14,38.95305555555556],[-77.1,38.916666666666664],[-77.07111111111111,38.9]],"type":"LineString"}
}
