{
  "id": 2014836855,
  "type": "Feature",
  "properties": {
    "geom:area": 0,
    "geom:bbox": "-177.430000,25.080000,178.300000,55.220000",
    "geom:latitude": 52.37959821553652,
    "geom:longitude": 1.9776565255483547,
    "src:alt_label": "swim-route",
    "src:geom": "swim",
    "swim:geom": "route",
    "wof:geomhash": "3165ffb0451350729f770e4c294efb00",
    "wof:id": 2014836855,
    "wof:repo": "sfomuseum-data-flights-2026-02"
  },
  "bbox": [
    -177.43,
    25.08,
    178.3,
    55.22
  ],
  "geometry": {"coordinates":[[[-122.38,37.62],[-122.5,37.67],[-122.5,37.67],[-122.5,37.68],[-122.59,37.73],[-122.59,37.73],[-122.63,37.75],[-122.69,37.79],[-122.7,37.79],[-122.74,37.81],[-122.76,37.82],[-122.79,37.87],[-122.91,38.01],[-123.15,38.3],[-123.16,38.3],[-123.3,38.48],[-123.42,38.61],[-123.48,38.68],[-123.59,38.82],[-123.64,38.87],[-123.69,38.92],[-123.75,39],[-124.51,40.22],[-124.75,40.59],[-124.88,40.78],[-126.18,42.72],[-126.64,43.41],[-126.66,43.44],[-126.66,43.44],[-126.68,43.45],[-127.41,43.98],[-130.5,46.01],[-132.13,47],[-132.18,47.03],[-140,51],[-142.53,51.88],[-150,54],[-151.64,54.22],[-156.3,54.72],[-156.69,54.75],[-156.73,54.76],[-156.9,54.78],[-160,55],[-163.88,55.17],[-166.79,55.22],[-170.88,55.17],[-173.52,55.03],[-177.43,54.72]],[[178.3,54.23],[169.34,53.63],[168.35,53.3],[163.7,51.61],[159.36,49.72],[159.35,49.71],[159.35,49.71],[158.39,49.23],[156.52,48.25],[155.62,47.75],[153,46.2],[149.76,44.06],[149.17,43.64],[148.6,43.23],[147.48,42.39],[146.86,41.92],[145,40.42],[143.79,39.85],[142.53,39.23],[140.92,38.14],[139.76,38.02],[139.11,37.95],[137.8,37.49],[135.01,36.44],[134.5,36.24],[133.09,35.53],[132.78,35.32],[130.72,33.91],[130.39,33.68],[129.93,33.38],[129.13,32.87],[129.02,32.8],[128.83,32.67],[128.83,32.67],[127.38,31.25],[126.46,30.03],[126.44,30],[124.72,27.62],[124,27.1],[123.03,26.36],[122.99,26.33],[122.92,26.27],[122.88,26.24],[122.7,26.1],[122.44,25.9],[122.22,25.73],[122.08,25.62],[121.95,25.54],[121.79,25.44],[121.6,25.32],[121.56,25.29],[121.44,25.22],[121.37,25.18],[121.29,25.13],[121.22,25.08]]],"type":"MultiLineString"}
}
