{
  "id": 2014779089,
  "type": "Feature",
  "properties": {
    "geom:area": 0,
    "geom:bbox": "-122.446111,25.658333,-80.267500,37.610833",
    "geom:latitude": 31.623639107177624,
    "geom:longitude": -101.88983587947905,
    "src:alt_label": "swim-path",
    "src:geom": "swim",
    "swim:altitudes": [
      "007",
      "117",
      "130",
      "149",
      "149",
      "164",
      "220",
      "220",
      "258",
      "283",
      "296",
      "296",
      "316",
      "316",
      "324",
      "339C",
      "339C",
      "340C",
      "340C",
      "340C",
      "340C",
      "340C",
      "340C",
      "340C",
      "340C",
      "340C",
      "340C",
      "340C",
      "340C",
      "340C",
      "340C",
      "340C",
      "340C",
      "340C",
      "340C",
      "340C",
      "340C",
      "340C",
      "340C",
      "340C",
      "340C",
      "340C",
      "340C",
      "340C",
      "340C",
      "340C",
      "340C",
      "340C",
      "340C",
      "340C",
      "340C",
      "340C",
      "340C",
      "340C",
      "340C",
      "340C",
      "340C",
      "340C",
      "340C",
      "340C",
      "340C",
      "340C",
      "340C",
      "340C",
      "340C",
      "340C",
      "340C",
      "340C",
      "340C",
      "340C",
      "340C",
      "340C",
      "340C",
      "340C",
      "340C",
      "340C",
      "340C",
      "340C",
      "340C",
      "340C",
      "340C",
      "340C",
      "340C",
      "340C",
      "340C",
      "340C",
      "340C",
      "340C",
      "340C",
      "340C",
      "340C",
      "340C",
      "340C",
      "340C",
      "340C",
      "340C",
      "340C",
      "341C",
      "341C",
      "340C",
      "340C",
      "340C",
      "340C",
      "340C",
      "340C",
      "340C",
      "340C",
      "340C",
      "340C",
      "340C",
      "340C",
      "340C",
      "340C",
      "340C",
      "340C",
      "340C",
      "341C",
      "340C",
      "340C",
      "341C",
      "341C",
      "340C",
      "340C",
      "340C",
      "341C",
      "340C",
      "340C",
      "340C",
      "340C",
      "340C",
      "340C",
      "340C",
      "340C",
      "340C",
      "340C",
      "340C",
      "340C",
      "340C",
      "340C",
      "340C",
      "340C",
      "340C",
      "340C",
      "340C",
      "340C",
      "340C",
      "340C",
      "340C",
      "340C",
      "340C",
      "340C",
      "340C",
      "340C",
      "340C",
      "340C",
      "340C",
      "340C",
      "340C",
      "340C",
      "340C",
      "340C",
      "340C",
      "340C",
      "340C",
      "340C",
      "340C",
      "340C",
      "340C",
      "340C",
      "340C",
      "340C",
      "340C",
      "340C",
      "340C",
      "340C",
      "340C",
      "340C",
      "340C",
      "340",
      "340",
      "340C",
      "340C",
      "340C",
      "340C",
      "340C",
      "340C",
      "340C",
      "340C",
      "340C",
      "340C",
      "340C",
      "340C",
      "340C",
      "340",
      "326",
      "210",
      "121",
      "110",
      "106",
      "100",
      "088",
      "077",
      "070",
      "038",
      "001"
    ],
    "swim:geom": "path",
    "swim:speeds": [
      167,
      353,
      396,
      399,
      399,
      409,
      434,
      434,
      434,
      426,
      419,
      419,
      413,
      413,
      410,
      400,
      400,
      399,
      399,
      400,
      400,
      397,
      399,
      399,
      399,
      399,
      399,
      399,
      399,
      397,
      397,
      396,
      399,
      391,
      396,
      396,
      394,
      394,
      394,
      394,
      394,
      395,
      391,
      390,
      390,
      388,
      386,
      385,
      387,
      386,
      386,
      386,
      385,
      385,
      384,
      383,
      383,
      382,
      380,
      379,
      379,
      379,
      379,
      380,
      380,
      379,
      379,
      380,
      380,
      380,
      380,
      380,
      379,
      379,
      379,
      379,
      378,
      377,
      376,
      376,
      376,
      376,
      374,
      377,
      378,
      376,
      375,
      375,
      375,
      375,
      375,
      376,
      379,
      379,
      379,
      379,
      381,
      381,
      382,
      382,
      382,
      383,
      383,
      382,
      382,
      377,
      373,
      370,
      370,
      370,
      370,
      371,
      371,
      369,
      368,
      370,
      382,
      378,
      377,
      379,
      379,
      377,
      374,
      392,
      438,
      439,
      439,
      446,
      444,
      443,
      444,
      444,
      443,
      443,
      446,
      451,
      451,
      447,
      444,
      456,
      443,
      439,
      441,
      445,
      448,
      452,
      451,
      456,
      450,
      442,
      438,
      440,
      438,
      439,
      439,
      439,
      439,
      433,
      432,
      437,
      440,
      440,
      423,
      423,
      425,
      425,
      411,
      408,
      405,
      404,
      403,
      403,
      402,
      407,
      410,
      409,
      410,
      408,
      410,
      408,
      409,
      409,
      409,
      414,
      413,
      413,
      412,
      413,
      414,
      417,
      417,
      416,
      418,
      419,
      428,
      345,
      297,
      243,
      241,
      244,
      238,
      241,
      236,
      196,
      127
    ],
    "swim:timestamps": [
      1771024913,
      1771025250,
      1771025314,
      1771025374,
      1771025374,
      1771025434,
      1771025674,
      1771025674,
      1771025855,
      1771025975,
      1771026035,
      1771026035,
      1771026155,
      1771026155,
      1771026215,
      1771026335,
      1771026335,
      1771026396,
      1771026456,
      1771026516,
      1771026516,
      1771026581,
      1771026641,
      1771026701,
      1771026755,
      1771026755,
      1771026821,
      1771026881,
      1771026881,
      1771026935,
      1771026997,
      1771027055,
      1771027062,
      1771027596,
      1771027903,
      1771028018,
      1771028199,
      1771028323,
      1771028379,
      1771028498,
      1771028678,
      1771029098,
      1771029405,
      1771029820,
      1771030060,
      1771030240,
      1771030421,
      1771030541,
      1771030841,
      1771031142,
      1771031202,
      1771031262,
      1771031322,
      1771031442,
      1771031562,
      1771031683,
      1771031743,
      1771031923,
      1771032223,
      1771032344,
      1771032404,
      1771032464,
      1771032644,
      1771032824,
      1771032944,
      1771033065,
      1771033125,
      1771033185,
      1771033245,
      1771033305,
      1771033365,
      1771033605,
      1771033846,
      1771033906,
      1771034086,
      1771034146,
      1771034206,
      1771034447,
      1771034687,
      1771034747,
      1771034807,
      1771034867,
      1771035048,
      1771035168,
      1771035288,
      1771035408,
      1771035468,
      1771035528,
      1771035589,
      1771035709,
      1771035733,
      1771035829,
      1771035853,
      1771035914,
      1771035974,
      1771036009,
      1771036034,
      1771036069,
      1771036094,
      1771036274,
      1771036310,
      1771036370,
      1771036406,
      1771036490,
      1771036550,
      1771036670,
      1771036730,
      1771036790,
      1771036839,
      1771036899,
      1771036911,
      1771036971,
      1771037213,
      1771037333,
      1771037453,
      1771037513,
      1771037826,
      1771037886,
      1771037958,
      1771038078,
      1771038139,
      1771038199,
      1771038259,
      1771038440,
      1771038560,
      1771038620,
      1771038800,
      1771039041,
      1771039101,
      1771039161,
      1771039218,
      1771039398,
      1771039519,
      1771039579,
      1771039639,
      1771039759,
      1771039819,
      1771039999,
      1771040120,
      1771040203,
      1771040240,
      1771040300,
      1771040420,
      1771040541,
      1771040563,
      1771040602,
      1771040624,
      1771040684,
      1771040722,
      1771040744,
      1771040864,
      1771040902,
      1771040962,
      1771041022,
      1771041044,
      1771041142,
      1771041164,
      1771041285,
      1771041383,
      1771041503,
      1771041563,
      1771041585,
      1771041683,
      1771041705,
      1771041804,
      1771041825,
      1771041946,
      1771042006,
      1771042126,
      1771042186,
      1771042306,
      1771042426,
      1771042607,
      1771042667,
      1771042787,
      1771042907,
      1771043027,
      1771043087,
      1771043267,
      1771043455,
      1771043508,
      1771043628,
      1771043746,
      1771044046,
      1771044286,
      1771044346,
      1771044466,
      1771044526,
      1771044586,
      1771044767,
      1771044887,
      1771045247,
      1771045307,
      1771045427,
      1771045487,
      1771045788,
      1771046088,
      1771046268,
      1771046328,
      1771046568,
      1771046631,
      1771046689,
      1771046749,
      1771047049,
      1771047349
    ],
    "wof:geomhash": "eb7c42bff7c31c5585852cb0d2fc5d3a",
    "wof:id": 2014779089,
    "wof:repo": "sfomuseum-data-flights-2026-02"
  },
  "bbox": [
    -122.44611111111111,
    25.65833333333333,
    -80.2675,
    37.61083333333333
  ],
  "geometry": {"coordinates":[[-80.2675,25.80138888888889],[-80.41166666666668,25.86777777777778],[-80.53166666666667,25.836666666666666],[-80.64222222222223,25.80777777777778],[-80.64222222222223,25.80777777777778],[-80.7611111111111,25.77638888888889],[-81.26833333333333,25.65833333333333],[-81.26833333333333,25.65833333333333],[-81.63055555555555,25.81527777777778],[-81.86722222222221,25.91888888888889],[-81.98194444444445,25.968888888888888],[-81.98194444444445,25.968888888888888],[-82.21055555555556,26.068055555555556],[-82.21055555555556,26.068055555555556],[-82.3236111111111,26.116944444444446],[-82.54916666666666,26.214166666666667],[-82.54916666666666,26.214166666666667],[-82.65972222222223,26.261666666666667],[-82.77194444444444,26.309722222222224],[-82.88388888888889,26.35777777777778],[-82.88388888888889,26.35777777777778],[-82.99638888888889,26.40583333333333],[-83.10805555555555,26.4525],[-83.22027777777778,26.5],[-83.33166666666666,26.547777777777778],[-83.33166666666666,26.547777777777778],[-83.44416666666667,26.595277777777778],[-83.55666666666666,26.641944444444444],[-83.55666666666666,26.641944444444444],[-83.66694444444445,26.689166666666665],[-83.78055555555555,26.73611111111111],[-83.89027777777778,26.783055555555556],[-83.89305555555556,26.785],[-84.88444444444445,27.190833333333334],[-85.46777777777778,27.425833333333333],[-85.67305555555556,27.508055555555554],[-86.00638888888889,27.640277777777776],[-86.2575,27.739166666666666],[-86.3461111111111,27.77361111111111],[-86.585,27.839166666666664],[-86.94083333333333,27.932222222222222],[-87.7761111111111,28.147222222222222],[-88.38305555555554,28.3],[-89.20138888888889,28.500555555555554],[-89.67777777777778,28.614722222222223],[-90.03194444444445,28.698611111111113],[-90.3875,28.781388888888888],[-90.62444444444444,28.83611111111111],[-91.21666666666667,28.970555555555553],[-91.80833333333334,29.105833333333333],[-91.92583333333334,29.134999999999998],[-92.04388888888889,29.164166666666667],[-92.16111111111111,29.192777777777778],[-92.39611111111111,29.25027777777778],[-92.6325,29.3075],[-92.86611111111111,29.363611111111112],[-92.98444444444445,29.391944444444444],[-93.33722222222222,29.475555555555555],[-93.92527777777778,29.6125],[-94.15944444444445,29.66611111111111],[-94.27527777777777,29.6925],[-94.3913888888889,29.718888888888888],[-94.74333333333334,29.798055555555557],[-95.0925,29.875555555555557],[-95.32416666666666,29.92638888888889],[-95.55833333333334,29.9775],[-95.67611111111111,30.002777777777776],[-95.79416666666667,30.028055555555554],[-95.93527777777778,30.058333333333334],[-96.04805555555555,30.08222222222222],[-96.16527777777779,30.107222222222223],[-96.63944444444445,30.20638888888889],[-97.11416666666666,30.303611111111113],[-97.23361111111112,30.32777777777778],[-97.58999999999999,30.399444444444445],[-97.71055555555556,30.423333333333336],[-97.82888888888888,30.446666666666665],[-98.30361111111111,30.539444444444445],[-98.7775,30.63],[-98.89527777777778,30.65222222222222],[-99.01416666666667,30.674722222222222],[-99.13138888888888,30.69638888888889],[-99.465,30.758055555555554],[-99.72722222222222,30.805833333333332],[-99.96555555555555,30.848888888888887],[-100.20222222222222,30.891111111111112],[-100.31972222222223,30.911944444444444],[-100.4375,30.9325],[-100.55638888888889,30.953333333333333],[-100.79388888888889,30.994722222222222],[-100.83472222222221,31.002777777777776],[-101.03,31.035],[-101.08,31.04361111111111],[-101.20166666666667,31.06416666666667],[-101.32166666666666,31.084444444444443],[-101.3938888888889,31.09638888888889],[-101.44250000000001,31.104444444444447],[-101.51611111111112,31.116944444444446],[-101.56527777777778,31.125],[-101.93027777777779,31.185],[-102.00166666666667,31.196666666666665],[-102.12444444444444,31.21638888888889],[-102.16027777777778,31.22222222222222],[-102.35305555555556,31.253333333333334],[-102.47583333333334,31.272777777777776],[-102.71472222222222,31.310555555555556],[-102.83388888888888,31.328888888888887],[-102.9525,31.34722222222222],[-103.04666666666667,31.361666666666668],[-103.16527777777779,31.379722222222224],[-103.18694444444445,31.383333333333333],[-103.28388888888888,31.398055555555555],[-103.80666666666666,31.47611111111111],[-104.0425,31.510833333333334],[-104.255,31.54138888888889],[-104.39833333333334,31.561944444444446],[-105.01694444444445,31.648611111111112],[-105.11472222222221,31.66222222222222],[-105.25888888888889,31.68166666666667],[-105.52555555555556,31.717499999999998],[-105.64750000000001,31.733611111111113],[-105.7775,31.750833333333333],[-105.89750000000001,31.766666666666666],[-106.2575,31.823055555555555],[-106.47805555555556,31.965833333333332],[-106.58027777777778,32.04333333333333],[-106.90722222222223,32.29055555555556],[-107.34027777777777,32.61388888888889],[-107.44888888888889,32.69472222222222],[-107.54972222222221,32.76916666666666],[-107.65944444444445,32.85027777777778],[-108.00027777777778,33.1],[-108.22111111111111,33.26111111111111],[-108.33166666666666,33.3425],[-108.44388888888889,33.42444444444444],[-108.67027777777778,33.58888888888889],[-108.78416666666666,33.671388888888885],[-109.13944444444445,33.92666666666666],[-109.36416666666666,34.08694444444445],[-109.50333333333333,34.19166666666666],[-109.58305555555555,34.23305555555556],[-109.69777777777779,34.309999999999995],[-109.92666666666668,34.46888888888889],[-110.15666666666667,34.62722222222222],[-110.21722222222222,34.67222222222222],[-110.27444444444444,34.70777777777778],[-110.33611111111111,34.751666666666665],[-110.455,34.83222222222223],[-110.51194444444444,34.87],[-110.56861111111111,34.909166666666664],[-110.79805555555555,35.062777777777775],[-110.86277777777777,35.095],[-110.99166666666667,35.15833333333333],[-111.13194444444444,35.227222222222224],[-111.18083333333334,35.25111111111111],[-111.37472222222222,35.345555555555556],[-111.43694444444445,35.37583333333333],[-111.68777777777778,35.496944444444445],[-111.89333333333335,35.578611111111115],[-112.18833333333333,35.598888888888894],[-112.33972222222222,35.60333333333333],[-112.40138888888889,35.60527777777778],[-112.63305555555554,35.61],[-112.69638888888889,35.61138888888889],[-112.92,35.61972222222222],[-112.98083333333334,35.621944444444445],[-113.26583333333333,35.632777777777775],[-113.39944444444446,35.63777777777778],[-113.67500000000001,35.64694444444444],[-113.81138888888889,35.65138888888889],[-114.08527777777778,35.65972222222222],[-114.36666666666666,35.66777777777777],[-114.77972222222222,35.67833333333333],[-114.93138888888889,35.681666666666665],[-115.21138888888889,35.687777777777775],[-115.48055555555555,35.69305555555555],[-115.76,35.6975],[-115.90111111111112,35.69972222222222],[-116.33222222222221,35.705000000000005],[-116.77194444444444,35.709722222222226],[-116.87388888888889,35.71],[-117.15111111111112,35.71138888888889],[-117.42416666666666,35.712500000000006],[-118.135,35.711666666666666],[-118.69833333333334,35.70805555555556],[-118.83805555555556,35.70666666666667],[-119.11805555555554,35.703611111111115],[-119.26,35.70194444444445],[-119.40138888888889,35.7],[-119.82805555555555,35.69305555555555],[-120.10944444444443,35.6875],[-120.92972222222222,35.90555555555555],[-121.05833333333334,35.95388888888889],[-121.31694444444445,36.05694444444444],[-121.42,36.14055555555556],[-121.78472222222221,36.60333333333333],[-122.12277777777777,36.86611111111111],[-122.36888888888888,36.9375],[-122.44611111111111,36.963055555555556],[-122.38777777777779,37.195277777777775],[-122.35,37.266666666666666],[-122.31916666666666,37.31666666666667],[-122.28611111111111,37.375277777777775],[-122.14,37.51916666666666],[-122.35638888888889,37.61083333333333]],"type":"LineString"}
}
