{
  "id": 2014890851,
  "type": "Feature",
  "properties": {
    "geom:area": 0,
    "geom:bbox": "-122.233333,37.493056,-74.251389,43.136944",
    "geom:latitude": 41.337230578425896,
    "geom:longitude": -98.04926027713108,
    "src:alt_label": "swim-path",
    "src:geom": "swim",
    "swim:altitudes": [
      "045",
      "045",
      "045",
      "045",
      "081",
      "081",
      "081",
      "081",
      "131",
      "131",
      "131",
      "153",
      "153",
      "153",
      "153",
      "159",
      "159",
      "159",
      "159",
      "160",
      "160",
      "160",
      "175",
      "175",
      "175",
      "175",
      "175",
      "242",
      "242",
      "242",
      "242",
      "242",
      "278",
      "278",
      "278",
      "308",
      "308",
      "308",
      "308",
      "314",
      "320C",
      "320C",
      "320C",
      "320C",
      "320C",
      "320C",
      "320C",
      "320C",
      "320C",
      "320C",
      "320C",
      "320C",
      "320C",
      "320C",
      "320C",
      "320C",
      "320C",
      "327",
      "327",
      "332",
      "332",
      "332",
      "332",
      "339",
      "339",
      "344",
      "344",
      "351",
      "351",
      "351",
      "360",
      "360",
      "360",
      "360",
      "360",
      "360",
      "360",
      "360",
      "360",
      "360",
      "360",
      "360",
      "360",
      "360",
      "360",
      "360",
      "360",
      "360",
      "360",
      "360",
      "360",
      "360",
      "360",
      "360",
      "360",
      "360",
      "360",
      "360",
      "360",
      "360",
      "360",
      "360",
      "360",
      "360",
      "364",
      "364",
      "364",
      "364",
      "364",
      "375",
      "375",
      "375",
      "375",
      "380C",
      "380C",
      "380C",
      "380C",
      "380C",
      "380C",
      "380C",
      "380C",
      "380C",
      "380C",
      "380C",
      "380C",
      "380C",
      "380C",
      "380C",
      "380C",
      "380C",
      "380C",
      "380C",
      "380C",
      "380C",
      "380C",
      "380C",
      "380C",
      "380C",
      "380C",
      "380C",
      "380C",
      "380C",
      "380C",
      "380C",
      "380C",
      "380C",
      "380C",
      "380C",
      "380C",
      "380C",
      "380C",
      "380C",
      "380C",
      "380C",
      "380C",
      "380C",
      "380C",
      "380C",
      "380C",
      "380C",
      "380C",
      "380C",
      "380C",
      "380C",
      "380C",
      "380C",
      "380C",
      "380C",
      "380C",
      "380C",
      "380C",
      "380C",
      "380C",
      "380C",
      "380C",
      "380C",
      "380C",
      "380C",
      "380C",
      "380C",
      "380C",
      "380C",
      "380C",
      "380C",
      "380C",
      "380C",
      "380C",
      "380C",
      "380C",
      "380C",
      "380C",
      "380C",
      "380C",
      "380C",
      "380C",
      "380C",
      "380C",
      "380C",
      "380C",
      "380C",
      "380C",
      "380C",
      "380C",
      "380C",
      "380C",
      "380C",
      "380C",
      "380C",
      "380C",
      "380C",
      "380C",
      "380C",
      "380C",
      "380C",
      "380C",
      "380C",
      "380C",
      "380C",
      "380C",
      "380C",
      "380C",
      "380C",
      "380C",
      "380C",
      "380C",
      "380C",
      "380C",
      "380C",
      "380C",
      "380C",
      "380C",
      "380C",
      "380C",
      "380C",
      "380C",
      "380C",
      "380C",
      "380C",
      "380C",
      "380C",
      "380C",
      "380C",
      "380C",
      "380C",
      "380C",
      "380C",
      "380C",
      "380C",
      "380C",
      "380C",
      "380C",
      "380C",
      "380C",
      "380C",
      "380C",
      "380C",
      "380C",
      "380C",
      "380C",
      "380C",
      "380C",
      "380C",
      "380C",
      "380C",
      "380C",
      "380C",
      "380C",
      "380C",
      "380C",
      "380C",
      "380C",
      "380C",
      "380C",
      "380C",
      "380C",
      "380C",
      "380C",
      "380C",
      "380C",
      "380C",
      "380C",
      "380C",
      "380C",
      "380C",
      "380C",
      "380C",
      "380C",
      "380C",
      "380C",
      "380C",
      "380C",
      "380C",
      "380C",
      "380C",
      "380C",
      "380C",
      "380C",
      "380C",
      "380C",
      "380C",
      "380C",
      "380C",
      "380C",
      "380C",
      "380C",
      "380C",
      "380C",
      "380C",
      "380C",
      "380C",
      "380C",
      "380C",
      "380C",
      "380C",
      "380C",
      "380C",
      "380C",
      "380C",
      "380C",
      "380C",
      "380C",
      "380C",
      "380C",
      "380C",
      "380C",
      "380C",
      "380C",
      "380C",
      "380C",
      "380C",
      "380C",
      "380C",
      "380C",
      "380C",
      "380C",
      "380C",
      "380C",
      "380C",
      "380C",
      "380C",
      "380C",
      "380C",
      "380C",
      "380C",
      "380C",
      "380C",
      "380C",
      "380C",
      "380C",
      "380C",
      "380C",
      "380C",
      "380C",
      "380C",
      "380C",
      "380C",
      "380C",
      "380C",
      "380C",
      "380C",
      "380C",
      "380C",
      "380C",
      "380C",
      "380C",
      "380C",
      "380C",
      "380C",
      "380C",
      "380C",
      "380C",
      "380C",
      "380C",
      "380C",
      "380C",
      "380C",
      "380C",
      "380C",
      "380C",
      "380C",
      "380C",
      "380C",
      "380C",
      "380C",
      "380C",
      "380C",
      "380C",
      "380C",
      "380C",
      "380C",
      "380C",
      "380C",
      "380C",
      "380C",
      "380C",
      "380C",
      "380C",
      "380C",
      "380C",
      "380C",
      "380C",
      "380C",
      "380C",
      "380C",
      "380C",
      "380C",
      "380C",
      "380C",
      "380C",
      "380C",
      "380C",
      "380C",
      "380C",
      "380C",
      "380C",
      "380C",
      "380C",
      "380C",
      "380C",
      "380C",
      "380C",
      "380C",
      "380C",
      "380C",
      "380C",
      "380C",
      "380C",
      "380C",
      "380C",
      "380C",
      "380C",
      "380C",
      "380C",
      "380C",
      "380C",
      "380C",
      "380C",
      "380C",
      "380C",
      "380C",
      "380C",
      "380C",
      "380C",
      "380C",
      "380C",
      "380C",
      "380C",
      "380C",
      "380C",
      "380C",
      "380C",
      "380C",
      "380C",
      "380C",
      "380C",
      "380C",
      "380C",
      "380C",
      "380C",
      "380C",
      "380C",
      "380C",
      "380C",
      "380C",
      "380C",
      "380C",
      "380C",
      "380C",
      "380C",
      "380C",
      "380C",
      "380C",
      "380C",
      "380C",
      "380C",
      "380C",
      "380C",
      "380C",
      "380C",
      "380C",
      "380C",
      "380C",
      "380C",
      "380C",
      "380C",
      "380C",
      "380C",
      "380C",
      "380C",
      "380C",
      "380C",
      "380C",
      "380C",
      "380C",
      "380C",
      "380C",
      "380C",
      "380C",
      "380C",
      "380C",
      "380C",
      "380C",
      "380C",
      "380C",
      "380C",
      "380C",
      "380C",
      "380C",
      "380C",
      "380C",
      "380C",
      "380C",
      "380C",
      "380C",
      "380C",
      "380C",
      "380C",
      "380C",
      "380C",
      "380C",
      "380C",
      "380C",
      "380C",
      "380C",
      "380C",
      "380C",
      "380C",
      "380C",
      "380C",
      "380C",
      "380C",
      "380C",
      "380C",
      "380C",
      "380C",
      "380C",
      "380C",
      "380C",
      "380C",
      "380C",
      "380C",
      "380C",
      "380C",
      "380C",
      "380C",
      "380C",
      "380C",
      "380C",
      "380C",
      "380C",
      "380C",
      "380C",
      "380C",
      "380C",
      "380C",
      "380C",
      "380C",
      "380C",
      "380C",
      "380C",
      "380C",
      "380C",
      "380C",
      "380C",
      "380C",
      "380C",
      "380C",
      "380C",
      "380C",
      "380C",
      "380C",
      "380C",
      "380C",
      "380C",
      "380C",
      "380C",
      "380C",
      "380C",
      "380C",
      "380C",
      "380C",
      "380C",
      "380C",
      "380C",
      "380C",
      "380C",
      "380C",
      "380C",
      "380C",
      "380C",
      "380C",
      "380",
      "380",
      "365",
      "365",
      "360C",
      "360C",
      "360C",
      "360C",
      "360C",
      "360C",
      "360C",
      "360C",
      "360C",
      "360C",
      "360C",
      "360C",
      "360C",
      "360C",
      "360C",
      "360C",
      "360C",
      "360C",
      "360C",
      "360C",
      "360C",
      "360C",
      "360",
      "360",
      "360",
      "360",
      "360",
      "360",
      "360",
      "360",
      "356",
      "356",
      "327",
      "327",
      "327",
      "272",
      "272",
      "272",
      "272",
      "272",
      "240",
      "240",
      "235",
      "235",
      "214",
      "194",
      "177",
      "176",
      "158",
      "158",
      "152",
      "152",
      "152",
      "137",
      "137",
      "106",
      "106",
      "106",
      "106",
      "105",
      "105",
      "060",
      "060",
      "060",
      "060",
      "036",
      "036",
      "026",
      "026",
      "026",
      "018",
      "018",
      "018"
    ],
    "swim:geom": "path",
    "swim:speeds": [
      232,
      232,
      232,
      232,
      252,
      252,
      252,
      252,
      286,
      286,
      286,
      337,
      337,
      337,
      337,
      351,
      351,
      351,
      351,
      336,
      336,
      336,
      341,
      341,
      341,
      341,
      341,
      386,
      386,
      386,
      386,
      386,
      410,
      410,
      410,
      415,
      415,
      415,
      415,
      420,
      416,
      416,
      416,
      413,
      413,
      414,
      414,
      414,
      414,
      416,
      416,
      416,
      416,
      418,
      418,
      418,
      418,
      422,
      422,
      422,
      422,
      422,
      422,
      423,
      423,
      423,
      423,
      424,
      424,
      424,
      426,
      426,
      426,
      427,
      427,
      427,
      427,
      428,
      429,
      429,
      429,
      430,
      430,
      430,
      430,
      432,
      432,
      432,
      432,
      432,
      433,
      433,
      433,
      434,
      433,
      433,
      433,
      430,
      430,
      428,
      428,
      428,
      428,
      428,
      426,
      426,
      426,
      426,
      426,
      434,
      434,
      434,
      434,
      435,
      435,
      435,
      435,
      435,
      435,
      434,
      434,
      434,
      434,
      434,
      434,
      434,
      434,
      434,
      434,
      434,
      434,
      435,
      435,
      435,
      435,
      435,
      435,
      435,
      435,
      435,
      435,
      435,
      435,
      435,
      435,
      435,
      435,
      435,
      434,
      434,
      433,
      433,
      433,
      433,
      433,
      433,
      431,
      431,
      431,
      431,
      431,
      431,
      431,
      431,
      431,
      432,
      432,
      432,
      432,
      432,
      432,
      432,
      434,
      434,
      434,
      432,
      432,
      432,
      432,
      432,
      432,
      433,
      433,
      433,
      433,
      434,
      434,
      434,
      434,
      435,
      435,
      435,
      435,
      435,
      435,
      435,
      435,
      436,
      436,
      436,
      436,
      436,
      436,
      436,
      436,
      436,
      436,
      436,
      436,
      435,
      435,
      436,
      436,
      436,
      436,
      436,
      436,
      436,
      435,
      435,
      433,
      433,
      433,
      432,
      432,
      432,
      432,
      431,
      431,
      431,
      431,
      431,
      427,
      427,
      427,
      427,
      427,
      425,
      425,
      417,
      417,
      417,
      415,
      415,
      415,
      415,
      415,
      415,
      415,
      415,
      415,
      415,
      414,
      414,
      414,
      414,
      414,
      417,
      417,
      417,
      417,
      417,
      417,
      420,
      420,
      420,
      420,
      423,
      423,
      423,
      423,
      424,
      424,
      424,
      425,
      425,
      425,
      426,
      427,
      427,
      428,
      428,
      428,
      430,
      430,
      430,
      430,
      430,
      431,
      431,
      431,
      431,
      431,
      431,
      431,
      427,
      427,
      427,
      426,
      426,
      426,
      426,
      426,
      426,
      431,
      431,
      431,
      431,
      431,
      431,
      434,
      434,
      434,
      434,
      434,
      435,
      435,
      435,
      435,
      435,
      435,
      436,
      436,
      436,
      437,
      437,
      437,
      437,
      437,
      437,
      437,
      438,
      438,
      438,
      438,
      438,
      441,
      441,
      438,
      432,
      432,
      433,
      429,
      429,
      428,
      428,
      428,
      429,
      429,
      429,
      429,
      430,
      431,
      431,
      429,
      430,
      430,
      426,
      426,
      432,
      432,
      430,
      430,
      428,
      428,
      429,
      429,
      426,
      426,
      426,
      426,
      426,
      426,
      426,
      426,
      427,
      427,
      427,
      427,
      427,
      443,
      443,
      443,
      443,
      443,
      442,
      442,
      441,
      442,
      442,
      442,
      442,
      443,
      443,
      442,
      442,
      442,
      443,
      443,
      439,
      439,
      432,
      432,
      432,
      422,
      422,
      424,
      424,
      424,
      425,
      425,
      425,
      425,
      427,
      427,
      427,
      419,
      419,
      419,
      426,
      426,
      426,
      409,
      409,
      409,
      409,
      409,
      404,
      404,
      404,
      404,
      404,
      404,
      404,
      398,
      398,
      398,
      398,
      388,
      388,
      388,
      388,
      388,
      387,
      387,
      387,
      389,
      389,
      389,
      389,
      393,
      393,
      393,
      394,
      394,
      394,
      394,
      394,
      394,
      394,
      394,
      391,
      391,
      391,
      391,
      390,
      390,
      390,
      389,
      388,
      388,
      388,
      388,
      388,
      388,
      388,
      388,
      389,
      389,
      389,
      389,
      398,
      398,
      398,
      398,
      398,
      398,
      400,
      400,
      400,
      403,
      403,
      403,
      403,
      403,
      403,
      403,
      400,
      399,
      399,
      399,
      399,
      399,
      397,
      397,
      397,
      396,
      396,
      396,
      396,
      396,
      393,
      393,
      393,
      392,
      392,
      392,
      393,
      393,
      393,
      393,
      394,
      394,
      394,
      394,
      394,
      395,
      395,
      395,
      395,
      395,
      398,
      398,
      398,
      398,
      398,
      397,
      397,
      397,
      397,
      398,
      398,
      390,
      390,
      390,
      380,
      380,
      382,
      382,
      382,
      380,
      378,
      378,
      378,
      381,
      381,
      381,
      381,
      381,
      381,
      382,
      382,
      382,
      383,
      383,
      383,
      383,
      383,
      383,
      383,
      382,
      382,
      382,
      382,
      382,
      383,
      383,
      383,
      383,
      383,
      383,
      383,
      383,
      383,
      383,
      383,
      383,
      383,
      383,
      383,
      383,
      383,
      383,
      384,
      384,
      388,
      388,
      388,
      390,
      390,
      391,
      391,
      391,
      391,
      391,
      391,
      391,
      391,
      391,
      391,
      395,
      395,
      395,
      395,
      397,
      397,
      397,
      398,
      398,
      398,
      398,
      398,
      398,
      398,
      398,
      398,
      398,
      395,
      395,
      395,
      394,
      394,
      394,
      394,
      394,
      366,
      366,
      360,
      360,
      355,
      340,
      341,
      335,
      339,
      339,
      341,
      341,
      341,
      340,
      340,
      302,
      302,
      302,
      302,
      285,
      285,
      234,
      234,
      234,
      234,
      209,
      209,
      200,
      200,
      200,
      173,
      173,
      173
    ],
    "swim:timestamps": [
      1772142853,
      1772142853,
      1772142853,
      1772142853,
      1772142913,
      1772142913,
      1772142913,
      1772142913,
      1772143153,
      1772143153,
      1772143153,
      1772143213,
      1772143213,
      1772143213,
      1772143213,
      1772143274,
      1772143274,
      1772143274,
      1772143274,
      1772143394,
      1772143394,
      1772143394,
      1772143454,
      1772143454,
      1772143454,
      1772143454,
      1772143454,
      1772143634,
      1772143634,
      1772143634,
      1772143634,
      1772143634,
      1772143754,
      1772143754,
      1772143754,
      1772143874,
      1772143874,
      1772143874,
      1772143874,
      1772143898,
      1772143958,
      1772143958,
      1772143958,
      1772143995,
      1772143995,
      1772144018,
      1772144078,
      1772144078,
      1772144078,
      1772144175,
      1772144175,
      1772144199,
      1772144199,
      1772144235,
      1772144235,
      1772144235,
      1772144235,
      1772144415,
      1772144415,
      1772144439,
      1772144439,
      1772144439,
      1772144439,
      1772144475,
      1772144475,
      1772144499,
      1772144499,
      1772144535,
      1772144535,
      1772144535,
      1772144656,
      1772144656,
      1772144679,
      1772144716,
      1772144716,
      1772144716,
      1772144716,
      1772144836,
      1772144860,
      1772144896,
      1772144896,
      1772144920,
      1772144920,
      1772144920,
      1772144956,
      1772144980,
      1772144980,
      1772144980,
      1772144980,
      1772144980,
      1772145040,
      1772145040,
      1772145040,
      1772145100,
      1772145160,
      1772145160,
      1772145160,
      1772145280,
      1772145280,
      1772145341,
      1772145341,
      1772145341,
      1772145341,
      1772145341,
      1772145461,
      1772145461,
      1772145461,
      1772145461,
      1772145461,
      1772145581,
      1772145581,
      1772145581,
      1772145581,
      1772145641,
      1772145641,
      1772145641,
      1772145701,
      1772145701,
      1772145701,
      1772145821,
      1772145821,
      1772145821,
      1772145821,
      1772145821,
      1772145881,
      1772145881,
      1772145881,
      1772145881,
      1772145881,
      1772145942,
      1772145942,
      1772146062,
      1772146062,
      1772146062,
      1772146062,
      1772146062,
      1772146062,
      1772146182,
      1772146242,
      1772146242,
      1772146242,
      1772146242,
      1772146242,
      1772146422,
      1772146422,
      1772146422,
      1772146422,
      1772146422,
      1772146543,
      1772146543,
      1772146603,
      1772146603,
      1772146603,
      1772146603,
      1772146603,
      1772146603,
      1772146802,
      1772146802,
      1772146802,
      1772146802,
      1772146802,
      1772146802,
      1772146858,
      1772146858,
      1772146858,
      1772146978,
      1772146978,
      1772147038,
      1772147038,
      1772147038,
      1772147038,
      1772147098,
      1772147163,
      1772147163,
      1772147163,
      1772147204,
      1772147204,
      1772147218,
      1772147264,
      1772147264,
      1772147264,
      1772147278,
      1772147278,
      1772147324,
      1772147324,
      1772147398,
      1772147398,
      1772147398,
      1772147398,
      1772147504,
      1772147504,
      1772147504,
      1772147504,
      1772147504,
      1772147579,
      1772147624,
      1772147624,
      1772147742,
      1772147742,
      1772147742,
      1772147742,
      1772147759,
      1772147759,
      1772147759,
      1772147759,
      1772147819,
      1772147862,
      1772147862,
      1772147862,
      1772147939,
      1772147939,
      1772147999,
      1772147999,
      1772147999,
      1772147999,
      1772148059,
      1772148059,
      1772148059,
      1772148180,
      1772148180,
      1772148240,
      1772148240,
      1772148240,
      1772148480,
      1772148480,
      1772148480,
      1772148480,
      1772148540,
      1772148540,
      1772148540,
      1772148540,
      1772148540,
      1772148720,
      1772148720,
      1772148720,
      1772148720,
      1772148720,
      1772148780,
      1772148780,
      1772148900,
      1772148900,
      1772148900,
      1772148961,
      1772148961,
      1772148961,
      1772148961,
      1772149081,
      1772149081,
      1772149081,
      1772149081,
      1772149141,
      1772149141,
      1772149321,
      1772149321,
      1772149321,
      1772149321,
      1772149321,
      1772149501,
      1772149501,
      1772149501,
      1772149501,
      1772149501,
      1772149501,
      1772149682,
      1772149682,
      1772149682,
      1772149682,
      1772149802,
      1772149802,
      1772149802,
      1772149802,
      1772149866,
      1772149874,
      1772149874,
      1772149926,
      1772149926,
      1772149926,
      1772149986,
      1772149994,
      1772149994,
      1772150047,
      1772150047,
      1772150047,
      1772150107,
      1772150107,
      1772150114,
      1772150114,
      1772150167,
      1772150234,
      1772150234,
      1772150234,
      1772150287,
      1772150287,
      1772150287,
      1772150287,
      1772150655,
      1772150655,
      1772150655,
      1772150715,
      1772150715,
      1772150715,
      1772150955,
      1772150955,
      1772150955,
      1772151196,
      1772151196,
      1772151196,
      1772151256,
      1772151256,
      1772151256,
      1772151376,
      1772151376,
      1772151376,
      1772151376,
      1772151376,
      1772151556,
      1772151556,
      1772151616,
      1772151616,
      1772151616,
      1772151616,
      1772151796,
      1772151796,
      1772151796,
      1772151856,
      1772151856,
      1772152037,
      1772152037,
      1772152037,
      1772152037,
      1772152037,
      1772152157,
      1772152157,
      1772152157,
      1772152157,
      1772152157,
      1772152287,
      1772152287,
      1772152347,
      1772152457,
      1772152457,
      1772152467,
      1772152577,
      1772152587,
      1772152637,
      1772152637,
      1772152637,
      1772152818,
      1772152827,
      1772152827,
      1772152878,
      1772152887,
      1772152998,
      1772152998,
      1772153068,
      1772153118,
      1772153118,
      1772153127,
      1772153127,
      1772153307,
      1772153307,
      1772153358,
      1772153368,
      1772153488,
      1772153488,
      1772153548,
      1772153548,
      1772153608,
      1772153608,
      1772153608,
      1772153729,
      1772153729,
      1772153729,
      1772153729,
      1772153729,
      1772153789,
      1772153789,
      1772153789,
      1772153789,
      1772153789,
      1772154029,
      1772154029,
      1772154029,
      1772154089,
      1772154089,
      1772154149,
      1772154149,
      1772154209,
      1772154269,
      1772154269,
      1772154269,
      1772154269,
      1772154329,
      1772154329,
      1772154389,
      1772154389,
      1772154389,
      1772154449,
      1772154449,
      1772154570,
      1772154570,
      1772154689,
      1772154689,
      1772154689,
      1772154750,
      1772154750,
      1772154810,
      1772154810,
      1772154810,
      1772154929,
      1772154929,
      1772154929,
      1772154929,
      1772154989,
      1772154989,
      1772154989,
      1772155171,
      1772155171,
      1772155171,
      1772155231,
      1772155231,
      1772155231,
      1772155410,
      1772155410,
      1772155410,
      1772155410,
      1772155410,
      1772155650,
      1772155650,
      1772155650,
      1772155650,
      1772155710,
      1772155710,
      1772155710,
      1772155831,
      1772155831,
      1772155831,
      1772155831,
      1772156011,
      1772156011,
      1772156011,
      1772156011,
      1772156011,
      1772156251,
      1772156251,
      1772156251,
      1772156311,
      1772156311,
      1772156311,
      1772156311,
      1772156491,
      1772156491,
      1772156491,
      1772156552,
      1772156552,
      1772156612,
      1772156612,
      1772156672,
      1772156672,
      1772156672,
      1772156672,
      1772156972,
      1772156972,
      1772156972,
      1772156972,
      1772157032,
      1772157032,
      1772157032,
      1772157152,
      1772157212,
      1772157212,
      1772157212,
      1772157272,
      1772157272,
      1772157333,
      1772157333,
      1772157333,
      1772157393,
      1772157393,
      1772157393,
      1772157393,
      1772157573,
      1772157573,
      1772157573,
      1772157633,
      1772157633,
      1772157633,
      1772157693,
      1772157693,
      1772157693,
      1772157813,
      1772157813,
      1772157813,
      1772157813,
      1772157873,
      1772157873,
      1772157873,
      1772157993,
      1772158054,
      1772158054,
      1772158054,
      1772158054,
      1772158054,
      1772158234,
      1772158234,
      1772158234,
      1772158294,
      1772158294,
      1772158294,
      1772158294,
      1772158294,
      1772158534,
      1772158534,
      1772158534,
      1772158594,
      1772158594,
      1772158594,
      1772158714,
      1772158714,
      1772158714,
      1772158714,
      1772158835,
      1772158835,
      1772158835,
      1772158835,
      1772158835,
      1772158955,
      1772158955,
      1772158955,
      1772158955,
      1772158955,
      1772159135,
      1772159135,
      1772159135,
      1772159135,
      1772159135,
      1772159315,
      1772159315,
      1772159315,
      1772159315,
      1772159413,
      1772159413,
      1772159435,
      1772159435,
      1772159435,
      1772159495,
      1772159495,
      1772159594,
      1772159594,
      1772159594,
      1772159654,
      1772159676,
      1772159676,
      1772159676,
      1772159796,
      1772159796,
      1772159856,
      1772159856,
      1772159856,
      1772159856,
      1772159954,
      1772159954,
      1772159954,
      1772160036,
      1772160036,
      1772160036,
      1772160074,
      1772160074,
      1772160074,
      1772160074,
      1772160156,
      1772160156,
      1772160194,
      1772160194,
      1772160194,
      1772160254,
      1772160254,
      1772160276,
      1772160276,
      1772160314,
      1772160337,
      1772160375,
      1772160375,
      1772160375,
      1772160397,
      1772160435,
      1772160435,
      1772160435,
      1772160457,
      1772160457,
      1772160495,
      1772160555,
      1772160555,
      1772160615,
      1772160615,
      1772160675,
      1772160675,
      1772160675,
      1772160757,
      1772160757,
      1772160795,
      1772160795,
      1772160795,
      1772160795,
      1772160877,
      1772160877,
      1772160937,
      1772160937,
      1772160937,
      1772160937,
      1772161095,
      1772161095,
      1772161095,
      1772161095,
      1772161216,
      1772161216,
      1772161216,
      1772161396,
      1772161396,
      1772161396,
      1772161456,
      1772161456,
      1772161636,
      1772161636,
      1772161636,
      1772161696,
      1772161696,
      1772161756,
      1772161756,
      1772161756,
      1772161898,
      1772161898,
      1772161898,
      1772161898,
      1772161898,
      1772161996,
      1772161996,
      1772162007,
      1772162007,
      1772162067,
      1772162127,
      1772162177,
      1772162187,
      1772162237,
      1772162237,
      1772162252,
      1772162252,
      1772162252,
      1772162297,
      1772162297,
      1772162417,
      1772162417,
      1772162417,
      1772162417,
      1772162427,
      1772162427,
      1772162657,
      1772162657,
      1772162657,
      1772162657,
      1772162777,
      1772162777,
      1772162838,
      1772162838,
      1772162838,
      1772162901,
      1772162901,
      1772162901
    ],
    "wof:geomhash": "2b71cdc1242ae3d66b9e13f6f29b965e",
    "wof:id": 2014890851,
    "wof:repo": "sfomuseum-data-flights-2026-02"
  },
  "bbox": [
    -122.23333333333333,
    37.49305555555556,
    -74.25138888888888,
    43.136944444444445
  ],
  "geometry": {"coordinates":[[-74.25138888888888,40.61944444444445],[-74.25138888888888,40.61944444444445],[-74.25138888888888,40.61944444444445],[-74.25138888888888,40.61944444444445],[-74.30194444444444,40.67805555555555],[-74.30194444444444,40.67805555555555],[-74.30194444444444,40.67805555555555],[-74.30194444444444,40.67805555555555],[-74.33583333333333,40.99527777777778],[-74.33583333333333,40.99527777777778],[-74.33583333333333,40.99527777777778],[-74.30111111111111,41.08083333333334],[-74.30111111111111,41.08083333333334],[-74.30111111111111,41.08083333333334],[-74.30111111111111,41.08083333333334],[-74.33222222222221,41.16916666666666],[-74.33222222222221,41.16916666666666],[-74.33222222222221,41.16916666666666],[-74.33222222222221,41.16916666666666],[-74.56361111111111,41.16694444444444],[-74.56361111111111,41.16694444444444],[-74.56361111111111,41.16694444444444],[-74.6913888888889,41.151944444444446],[-74.6913888888889,41.151944444444446],[-74.6913888888889,41.151944444444446],[-74.6913888888889,41.151944444444446],[-74.6913888888889,41.151944444444446],[-75.04583333333333,41.29472222222222],[-75.04583333333333,41.29472222222222],[-75.04583333333333,41.29472222222222],[-75.04583333333333,41.29472222222222],[-75.04583333333333,41.29472222222222],[-75.30722222222222,41.40333333333333],[-75.30722222222222,41.40333333333333],[-75.30722222222222,41.40333333333333],[-75.5825,41.504444444444445],[-75.5825,41.504444444444445],[-75.5825,41.504444444444445],[-75.5825,41.504444444444445],[-75.63,41.51833333333333],[-75.77527777777777,41.55972222222222],[-75.77527777777777,41.55972222222222],[-75.77527777777777,41.55972222222222],[-75.86749999999999,41.58583333333333],[-75.86749999999999,41.58583333333333],[-75.91722222222222,41.60027777777778],[-76.06194444444444,41.64111111111111],[-76.06194444444444,41.64111111111111],[-76.06194444444444,41.64111111111111],[-76.32305555555556,41.71416666666667],[-76.32305555555556,41.71416666666667],[-76.36999999999999,41.727222222222224],[-76.36999999999999,41.727222222222224],[-76.46722222222222,41.754444444444445],[-76.46722222222222,41.754444444444445],[-76.46722222222222,41.754444444444445],[-76.46722222222222,41.754444444444445],[-76.90083333333334,41.87388888888889],[-76.90083333333334,41.87388888888889],[-76.96138888888889,41.89055555555556],[-76.96138888888889,41.89055555555556],[-76.96138888888889,41.89055555555556],[-76.96138888888889,41.89055555555556],[-77.04888888888888,41.91416666666667],[-77.04888888888888,41.91416666666667],[-77.1125,41.93138888888889],[-77.1125,41.93138888888889],[-77.20111111111112,41.955000000000005],[-77.20111111111112,41.955000000000005],[-77.20111111111112,41.955000000000005],[-77.50055555555555,42.03583333333333],[-77.50055555555555,42.03583333333333],[-77.5625,42.05277777777778],[-77.6525,42.077222222222225],[-77.6525,42.077222222222225],[-77.6525,42.077222222222225],[-77.6525,42.077222222222225],[-77.95666666666666,42.15888888888889],[-78.01861111111111,42.17527777777777],[-78.10888888888888,42.19944444444444],[-78.10888888888888,42.19944444444444],[-78.17027777777778,42.21555555555556],[-78.17027777777778,42.21555555555556],[-78.17027777777778,42.21555555555556],[-78.26027777777777,42.239444444444445],[-78.32555555555555,42.25611111111111],[-78.32555555555555,42.25611111111111],[-78.32555555555555,42.25611111111111],[-78.32555555555555,42.25611111111111],[-78.32555555555555,42.25611111111111],[-78.45055555555555,42.286944444444444],[-78.45055555555555,42.286944444444444],[-78.45055555555555,42.286944444444444],[-78.60388888888889,42.32472222222223],[-78.75888888888889,42.36277777777778],[-78.75888888888889,42.36277777777778],[-78.75888888888889,42.36277777777778],[-79.07944444444443,42.441111111111105],[-79.07944444444443,42.441111111111105],[-79.21527777777779,42.47416666666667],[-79.21527777777779,42.47416666666667],[-79.21527777777779,42.47416666666667],[-79.21527777777779,42.47416666666667],[-79.21527777777779,42.47416666666667],[-79.5213888888889,42.54805555555556],[-79.5213888888889,42.54805555555556],[-79.5213888888889,42.54805555555556],[-79.5213888888889,42.54805555555556],[-79.5213888888889,42.54805555555556],[-79.83277777777778,42.61361111111111],[-79.83277777777778,42.61361111111111],[-79.83277777777778,42.61361111111111],[-79.83277777777778,42.61361111111111],[-79.9975,42.62111111111111],[-79.9975,42.62111111111111],[-79.9975,42.62111111111111],[-80.16361111111112,42.628055555555555],[-80.16361111111112,42.628055555555555],[-80.16361111111112,42.628055555555555],[-80.48972222222223,42.641666666666666],[-80.48972222222223,42.641666666666666],[-80.48972222222223,42.641666666666666],[-80.48972222222223,42.641666666666666],[-80.48972222222223,42.641666666666666],[-80.65361111111112,42.64722222222222],[-80.65361111111112,42.64722222222222],[-80.65361111111112,42.64722222222222],[-80.65361111111112,42.64722222222222],[-80.65361111111112,42.64722222222222],[-80.81555555555555,42.65277777777778],[-80.81555555555555,42.65277777777778],[-81.14222222222223,42.66305555555555],[-81.14222222222223,42.66305555555555],[-81.14222222222223,42.66305555555555],[-81.14222222222223,42.66305555555555],[-81.14222222222223,42.66305555555555],[-81.14222222222223,42.66305555555555],[-81.46861111111112,42.69],[-81.63055555555555,42.70861111111111],[-81.63055555555555,42.70861111111111],[-81.63055555555555,42.70861111111111],[-81.63055555555555,42.70861111111111],[-81.63055555555555,42.70861111111111],[-82.12555555555555,42.76361111111111],[-82.12555555555555,42.76361111111111],[-82.12555555555555,42.76361111111111],[-82.12555555555555,42.76361111111111],[-82.12555555555555,42.76361111111111],[-82.45194444444445,42.79888888888889],[-82.45194444444445,42.79888888888889],[-82.61194444444443,42.81666666666667],[-82.61194444444443,42.81666666666667],[-82.61194444444443,42.81666666666667],[-82.61194444444443,42.81666666666667],[-82.61194444444443,42.81666666666667],[-82.61194444444443,42.81666666666667],[-83.16555555555556,42.89138888888889],[-83.16555555555556,42.89138888888889],[-83.16555555555556,42.89138888888889],[-83.16555555555556,42.89138888888889],[-83.16555555555556,42.89138888888889],[-83.16555555555556,42.89138888888889],[-83.29444444444444,42.907777777777774],[-83.29444444444444,42.907777777777774],[-83.29444444444444,42.907777777777774],[-83.61888888888888,42.937777777777775],[-83.61888888888888,42.937777777777775],[-83.78166666666667,42.95166666666667],[-83.78166666666667,42.95166666666667],[-83.78166666666667,42.95166666666667],[-83.78166666666667,42.95166666666667],[-83.94416666666667,42.96555555555556],[-84.13694444444445,42.981388888888894],[-84.13694444444445,42.981388888888894],[-84.13694444444445,42.981388888888894],[-84.24916666666667,42.99055555555556],[-84.24916666666667,42.99055555555556],[-84.26972222222223,42.992222222222225],[-84.39916666666667,43.00277777777778],[-84.39916666666667,43.00277777777778],[-84.39916666666667,43.00277777777778],[-84.43388888888889,43.00555555555555],[-84.43388888888889,43.00555555555555],[-84.56055555555555,43.015277777777776],[-84.56055555555555,43.015277777777776],[-84.76305555555555,43.01638888888889],[-84.76305555555555,43.01638888888889],[-84.76305555555555,43.01638888888889],[-84.76305555555555,43.01638888888889],[-85.05611111111111,43.013888888888886],[-85.05611111111111,43.013888888888886],[-85.05611111111111,43.013888888888886],[-85.05611111111111,43.013888888888886],[-85.05611111111111,43.013888888888886],[-85.25472222222223,43.01166666666666],[-85.38527777777779,43.00972222222222],[-85.38527777777779,43.00972222222222],[-85.71777777777778,43.005],[-85.71777777777778,43.005],[-85.71777777777778,43.005],[-85.71777777777778,43.005],[-85.75222222222222,43.004444444444445],[-85.75222222222222,43.004444444444445],[-85.75222222222222,43.004444444444445],[-85.75222222222222,43.004444444444445],[-85.92,43.00138888888889],[-86.04666666666667,43.00277777777778],[-86.04666666666667,43.00277777777778],[-86.04666666666667,43.00277777777778],[-86.26055555555556,43.015],[-86.26055555555556,43.015],[-86.42527777777778,43.024166666666666],[-86.42527777777778,43.024166666666666],[-86.42527777777778,43.024166666666666],[-86.42527777777778,43.024166666666666],[-86.58944444444444,43.033055555555556],[-86.58944444444444,43.033055555555556],[-86.58944444444444,43.033055555555556],[-86.91861111111112,43.05027777777777],[-86.91861111111112,43.05027777777777],[-87.08305555555555,43.05833333333333],[-87.08305555555555,43.05833333333333],[-87.08305555555555,43.05833333333333],[-87.71861111111112,43.088055555555556],[-87.71861111111112,43.088055555555556],[-87.71861111111112,43.088055555555556],[-87.71861111111112,43.088055555555556],[-87.88277777777778,43.094722222222224],[-87.88277777777778,43.094722222222224],[-87.88277777777778,43.094722222222224],[-87.88277777777778,43.094722222222224],[-87.88277777777778,43.094722222222224],[-88.36555555555555,43.11416666666667],[-88.36555555555555,43.11416666666667],[-88.36555555555555,43.11416666666667],[-88.36555555555555,43.11416666666667],[-88.36555555555555,43.11416666666667],[-88.52722222222222,43.12083333333334],[-88.52722222222222,43.12083333333334],[-88.84416666666667,43.1325],[-88.84416666666667,43.1325],[-88.84416666666667,43.1325],[-89.00166666666667,43.136944444444445],[-89.00166666666667,43.136944444444445],[-89.00166666666667,43.136944444444445],[-89.00166666666667,43.136944444444445],[-89.3175,43.12916666666667],[-89.3175,43.12916666666667],[-89.3175,43.12916666666667],[-89.3175,43.12916666666667],[-89.47472222222223,43.12277777777778],[-89.47472222222223,43.12277777777778],[-89.9525,43.10388888888889],[-89.9525,43.10388888888889],[-89.9525,43.10388888888889],[-89.9525,43.10388888888889],[-89.9525,43.10388888888889],[-90.44722222222222,43.08222222222223],[-90.44722222222222,43.08222222222223],[-90.44722222222222,43.08222222222223],[-90.44722222222222,43.08222222222223],[-90.44722222222222,43.08222222222223],[-90.44722222222222,43.08222222222223],[-90.92472222222223,43.05916666666666],[-90.92472222222223,43.05916666666666],[-90.92472222222223,43.05916666666666],[-90.92472222222223,43.05916666666666],[-91.24194444444444,43.04277777777778],[-91.24194444444444,43.04277777777778],[-91.24194444444444,43.04277777777778],[-91.24194444444444,43.04277777777778],[-91.40194444444445,43.034166666666664],[-91.43527777777778,43.032222222222224],[-91.43527777777778,43.032222222222224],[-91.56138888888889,43.025277777777774],[-91.56138888888889,43.025277777777774],[-91.56138888888889,43.025277777777774],[-91.71944444444445,43.01638888888889],[-91.75194444444445,43.014722222222225],[-91.75194444444445,43.014722222222225],[-91.88027777777778,43.007222222222225],[-91.88027777777778,43.007222222222225],[-91.88027777777778,43.007222222222225],[-92.04055555555556,42.99777777777778],[-92.04055555555556,42.99777777777778],[-92.07583333333334,42.99583333333334],[-92.07583333333334,42.99583333333334],[-92.20527777777778,42.98972222222222],[-92.4,42.97944444444445],[-92.4,42.97944444444445],[-92.4,42.97944444444445],[-92.5286111111111,42.97222222222222],[-92.5286111111111,42.97222222222222],[-92.5286111111111,42.97222222222222],[-92.5286111111111,42.97222222222222],[-93.53138888888888,42.91305555555555],[-93.53138888888888,42.91305555555555],[-93.53138888888888,42.91305555555555],[-93.69305555555556,42.90277777777778],[-93.69305555555556,42.90277777777778],[-93.69305555555556,42.90277777777778],[-94.33277777777778,42.85944444444445],[-94.33277777777778,42.85944444444445],[-94.33277777777778,42.85944444444445],[-94.98527777777778,42.80888888888889],[-94.98527777777778,42.80888888888889],[-94.98527777777778,42.80888888888889],[-95.14805555555556,42.794444444444444],[-95.14805555555556,42.794444444444444],[-95.14805555555556,42.794444444444444],[-95.47222222222223,42.764722222222225],[-95.47222222222223,42.764722222222225],[-95.47222222222223,42.764722222222225],[-95.47222222222223,42.764722222222225],[-95.47222222222223,42.764722222222225],[-95.96361111111112,42.717777777777776],[-95.96361111111112,42.717777777777776],[-96.13694444444445,42.700833333333335],[-96.13694444444445,42.700833333333335],[-96.13694444444445,42.700833333333335],[-96.13694444444445,42.700833333333335],[-96.59166666666667,42.65472222222222],[-96.59166666666667,42.65472222222222],[-96.59166666666667,42.65472222222222],[-96.78777777777778,42.634166666666665],[-96.78777777777778,42.634166666666665],[-97.27416666666666,42.581944444444446],[-97.27416666666666,42.581944444444446],[-97.27416666666666,42.581944444444446],[-97.27416666666666,42.581944444444446],[-97.27416666666666,42.581944444444446],[-97.59888888888888,42.545833333333334],[-97.59888888888888,42.545833333333334],[-97.59888888888888,42.545833333333334],[-97.59888888888888,42.545833333333334],[-97.59888888888888,42.545833333333334],[-97.94055555555556,42.50694444444444],[-97.94055555555556,42.50694444444444],[-98.10472222222222,42.49472222222222],[-98.3963888888889,42.47944444444445],[-98.3963888888889,42.47944444444445],[-98.42805555555556,42.47777777777778],[-98.71527777777779,42.46222222222222],[-98.74638888888889,42.46027777777778],[-98.8761111111111,42.45305555555556],[-98.8761111111111,42.45305555555556],[-98.8761111111111,42.45305555555556],[-99.35444444444444,42.42444444444444],[-99.385,42.4225],[-99.385,42.4225],[-99.51666666666667,42.41416666666667],[-99.54472222222222,42.4125],[-99.83999999999999,42.39333333333333],[-99.83999999999999,42.39333333333333],[-100.03194444444445,42.376111111111115],[-100.15527777777778,42.35388888888889],[-100.15527777777778,42.35388888888889],[-100.20083333333334,42.343611111111116],[-100.20083333333334,42.343611111111116],[-100.6713888888889,42.256388888888885],[-100.6713888888889,42.256388888888885],[-100.78,42.23777777777778],[-100.8111111111111,42.23166666666667],[-101.12083333333332,42.172777777777775],[-101.12083333333332,42.172777777777775],[-101.28999999999999,42.1375],[-101.28999999999999,42.1375],[-101.42611111111111,42.11361111111111],[-101.42611111111111,42.11361111111111],[-101.42611111111111,42.11361111111111],[-101.7325,42.05333333333333],[-101.7325,42.05333333333333],[-101.7325,42.05333333333333],[-101.7325,42.05333333333333],[-101.7325,42.05333333333333],[-101.88666666666667,42.022777777777776],[-101.88666666666667,42.022777777777776],[-101.88666666666667,42.022777777777776],[-101.88666666666667,42.022777777777776],[-101.88666666666667,42.022777777777776],[-102.54722222222222,41.91111111111111],[-102.54722222222222,41.91111111111111],[-102.54722222222222,41.91111111111111],[-102.70861111111111,41.884166666666665],[-102.70861111111111,41.884166666666665],[-102.86722222222221,41.8575],[-102.86722222222221,41.8575],[-103.02805555555555,41.83027777777778],[-103.18861111111111,41.80305555555555],[-103.18861111111111,41.80305555555555],[-103.18861111111111,41.80305555555555],[-103.18861111111111,41.80305555555555],[-103.35194444444444,41.775],[-103.35194444444444,41.775],[-103.51277777777777,41.74611111111111],[-103.51277777777777,41.74611111111111],[-103.51277777777777,41.74611111111111],[-103.67305555555556,41.716944444444444],[-103.67305555555556,41.716944444444444],[-103.9888888888889,41.66277777777778],[-103.9888888888889,41.66277777777778],[-104.29861111111111,41.60666666666667],[-104.29861111111111,41.60666666666667],[-104.29861111111111,41.60666666666667],[-104.44777777777779,41.57972222222222],[-104.44777777777779,41.57972222222222],[-104.60111111111111,41.55138888888889],[-104.60111111111111,41.55138888888889],[-104.60111111111111,41.55138888888889],[-104.90305555555557,41.49444444444445],[-104.90305555555557,41.49444444444445],[-104.90305555555557,41.49444444444445],[-104.90305555555557,41.49444444444445],[-105.0586111111111,41.46527777777778],[-105.0586111111111,41.46527777777778],[-105.0586111111111,41.46527777777778],[-105.515,41.378055555555555],[-105.515,41.378055555555555],[-105.515,41.378055555555555],[-105.66722222222222,41.348333333333336],[-105.66722222222222,41.348333333333336],[-105.66722222222222,41.348333333333336],[-106.10138888888888,41.24333333333333],[-106.10138888888888,41.24333333333333],[-106.10138888888888,41.24333333333333],[-106.10138888888888,41.24333333333333],[-106.10138888888888,41.24333333333333],[-106.67666666666668,41.09777777777778],[-106.67666666666668,41.09777777777778],[-106.67666666666668,41.09777777777778],[-106.67666666666668,41.09777777777778],[-106.81694444444445,41.06055555555555],[-106.81694444444445,41.06055555555555],[-106.81694444444445,41.06055555555555],[-107.09333333333333,40.99],[-107.09333333333333,40.99],[-107.09333333333333,40.99],[-107.09333333333333,40.99],[-107.49722222222222,40.88388888888889],[-107.49722222222222,40.88388888888889],[-107.49722222222222,40.88388888888889],[-107.49722222222222,40.88388888888889],[-107.49722222222222,40.88388888888889],[-108.03194444444445,40.74055555555556],[-108.03194444444445,40.74055555555556],[-108.03194444444445,40.74055555555556],[-108.16666666666667,40.70416666666667],[-108.16666666666667,40.70416666666667],[-108.16666666666667,40.70416666666667],[-108.16666666666667,40.70416666666667],[-108.57388888888889,40.592222222222226],[-108.57388888888889,40.592222222222226],[-108.57388888888889,40.592222222222226],[-108.70583333333333,40.55583333333333],[-108.70583333333333,40.55583333333333],[-108.84138888888889,40.51777777777777],[-108.84138888888889,40.51777777777777],[-108.97583333333334,40.480000000000004],[-108.97583333333334,40.480000000000004],[-108.97583333333334,40.480000000000004],[-108.97583333333334,40.480000000000004],[-109.63972222222223,40.29111111111111],[-109.63972222222223,40.29111111111111],[-109.63972222222223,40.29111111111111],[-109.63972222222223,40.29111111111111],[-109.77027777777778,40.25333333333333],[-109.77027777777778,40.25333333333333],[-109.77027777777778,40.25333333333333],[-110.035,40.17611111111111],[-110.13833333333334,40.144999999999996],[-110.13833333333334,40.144999999999996],[-110.13833333333334,40.144999999999996],[-110.2936111111111,40.091944444444444],[-110.2936111111111,40.091944444444444],[-110.42,40.04861111111111],[-110.42,40.04861111111111],[-110.42,40.04861111111111],[-110.54777777777778,40.004444444444445],[-110.54777777777778,40.004444444444445],[-110.54777777777778,40.004444444444445],[-110.54777777777778,40.004444444444445],[-110.93972222222223,39.8675],[-110.93972222222223,39.8675],[-110.93972222222223,39.8675],[-111.07083333333333,39.82138888888889],[-111.07083333333333,39.82138888888889],[-111.07083333333333,39.82138888888889],[-111.20416666666667,39.774166666666666],[-111.20416666666667,39.774166666666666],[-111.20416666666667,39.774166666666666],[-111.4588888888889,39.683611111111105],[-111.4588888888889,39.683611111111105],[-111.4588888888889,39.683611111111105],[-111.4588888888889,39.683611111111105],[-111.62222222222222,39.63444444444444],[-111.62222222222222,39.63444444444444],[-111.62222222222222,39.63444444444444],[-111.89694444444446,39.56916666666667],[-112.03277777777778,39.53666666666666],[-112.03277777777778,39.53666666666666],[-112.03277777777778,39.53666666666666],[-112.03277777777778,39.53666666666666],[-112.03277777777778,39.53666666666666],[-112.44277777777778,39.4375],[-112.44277777777778,39.4375],[-112.44277777777778,39.4375],[-112.57888888888888,39.40416666666667],[-112.57888888888888,39.40416666666667],[-112.57888888888888,39.40416666666667],[-112.57888888888888,39.40416666666667],[-112.57888888888888,39.40416666666667],[-113.09416666666667,39.27444444444444],[-113.09416666666667,39.27444444444444],[-113.09416666666667,39.27444444444444],[-113.22722222222222,39.24055555555556],[-113.22722222222222,39.24055555555556],[-113.22722222222222,39.24055555555556],[-113.49416666666667,39.17194444444444],[-113.49416666666667,39.17194444444444],[-113.49416666666667,39.17194444444444],[-113.49416666666667,39.17194444444444],[-113.76,39.10277777777778],[-113.76,39.10277777777778],[-113.76,39.10277777777778],[-113.76,39.10277777777778],[-113.76,39.10277777777778],[-114.02583333333334,39.032777777777774],[-114.02583333333334,39.032777777777774],[-114.02583333333334,39.032777777777774],[-114.02583333333334,39.032777777777774],[-114.02583333333334,39.032777777777774],[-114.42777777777778,38.92583333333333],[-114.42777777777778,38.92583333333333],[-114.42777777777778,38.92583333333333],[-114.42777777777778,38.92583333333333],[-114.42777777777778,38.92583333333333],[-114.85499999999999,38.81027777777778],[-114.85499999999999,38.81027777777778],[-114.85499999999999,38.81027777777778],[-114.85499999999999,38.81027777777778],[-115.06805555555555,38.760555555555555],[-115.06805555555555,38.760555555555555],[-115.1236111111111,38.74916666666667],[-115.1236111111111,38.74916666666667],[-115.1236111111111,38.74916666666667],[-115.25333333333333,38.72166666666667],[-115.25333333333333,38.72166666666667],[-115.46333333333334,38.67777777777778],[-115.46333333333334,38.67777777777778],[-115.46333333333334,38.67777777777778],[-115.5936111111111,38.652499999999996],[-115.64194444444445,38.63638888888889],[-115.64194444444445,38.63638888888889],[-115.64194444444445,38.63638888888889],[-115.90111111111112,38.57888888888889],[-115.90111111111112,38.57888888888889],[-116.0325,38.54944444444444],[-116.0325,38.54944444444444],[-116.0325,38.54944444444444],[-116.0325,38.54944444444444],[-116.24305555555556,38.501666666666665],[-116.24305555555556,38.501666666666665],[-116.24305555555556,38.501666666666665],[-116.42472222222223,38.46027777777778],[-116.42472222222223,38.46027777777778],[-116.42472222222223,38.46027777777778],[-116.50444444444445,38.44194444444444],[-116.50444444444445,38.44194444444444],[-116.50444444444445,38.44194444444444],[-116.50444444444445,38.44194444444444],[-116.68388888888889,38.400555555555556],[-116.68388888888889,38.400555555555556],[-116.76333333333334,38.38194444444444],[-116.76333333333334,38.38194444444444],[-116.76333333333334,38.38194444444444],[-116.89333333333335,38.35166666666667],[-116.89333333333335,38.35166666666667],[-116.94305555555556,38.34],[-116.94305555555556,38.34],[-117.02083333333333,38.32194444444445],[-117.07222222222222,38.30972222222222],[-117.14361111111111,38.29277777777778],[-117.14361111111111,38.29277777777778],[-117.14361111111111,38.29277777777778],[-117.2,38.279444444444444],[-117.27305555555556,38.26222222222222],[-117.27305555555556,38.26222222222222],[-117.27305555555556,38.26222222222222],[-117.32555555555555,38.249722222222225],[-117.32555555555555,38.249722222222225],[-117.4025,38.231388888888894],[-117.53138888888888,38.20027777777778],[-117.53138888888888,38.20027777777778],[-117.66111111111111,38.16888888888889],[-117.66111111111111,38.16888888888889],[-117.79305555555555,38.136944444444445],[-117.79305555555555,38.136944444444445],[-117.79305555555555,38.136944444444445],[-117.97666666666667,38.092222222222226],[-117.97666666666667,38.092222222222226],[-118.05666666666666,38.072500000000005],[-118.05666666666666,38.072500000000005],[-118.05666666666666,38.072500000000005],[-118.05666666666666,38.072500000000005],[-118.23972222222223,38.02722222222222],[-118.23972222222223,38.02722222222222],[-118.36972222222222,37.995],[-118.36972222222222,37.995],[-118.36972222222222,37.995],[-118.36972222222222,37.995],[-118.72083333333333,37.91694444444444],[-118.72083333333333,37.91694444444444],[-118.72083333333333,37.91694444444444],[-118.72083333333333,37.91694444444444],[-118.99666666666667,37.884166666666665],[-118.99666666666667,37.884166666666665],[-118.99666666666667,37.884166666666665],[-119.41805555555555,37.830555555555556],[-119.41805555555555,37.830555555555556],[-119.41805555555555,37.830555555555556],[-119.55499999999999,37.81305555555555],[-119.55499999999999,37.81305555555555],[-119.96888888888888,37.75833333333333],[-119.96888888888888,37.75833333333333],[-119.96888888888888,37.75833333333333],[-120.10749999999999,37.73972222222222],[-120.10749999999999,37.73972222222222],[-120.24361111111111,37.721111111111114],[-120.24361111111111,37.721111111111114],[-120.24361111111111,37.721111111111114],[-120.56666666666666,37.68333333333333],[-120.56666666666666,37.68333333333333],[-120.56666666666666,37.68333333333333],[-120.56666666666666,37.68333333333333],[-120.56666666666666,37.68333333333333],[-120.78611111111111,37.654444444444444],[-120.78611111111111,37.654444444444444],[-120.81666666666666,37.65],[-120.81666666666666,37.65],[-120.93333333333334,37.63333333333333],[-121.05,37.61666666666667],[-121.14777777777779,37.608333333333334],[-121.16666666666667,37.6],[-121.26277777777777,37.59277777777778],[-121.26277777777777,37.59277777777778],[-121.3,37.583333333333336],[-121.3,37.583333333333336],[-121.3,37.583333333333336],[-121.38111111111111,37.57916666666667],[-121.38111111111111,37.57916666666667],[-121.60388888888889,37.55333333333333],[-121.60388888888889,37.55333333333333],[-121.60388888888889,37.55333333333333],[-121.60388888888889,37.55333333333333],[-121.61666666666666,37.55],[-121.61666666666666,37.55],[-121.95777777777778,37.49305555555556],[-121.95777777777778,37.49305555555556],[-121.95777777777778,37.49305555555556],[-121.95777777777778,37.49305555555556],[-122.10444444444444,37.5325],[-122.10444444444444,37.5325],[-122.17,37.55361111111111],[-122.17,37.55361111111111],[-122.17,37.55361111111111],[-122.23333333333333,37.56666666666667],[-122.23333333333333,37.56666666666667],[-122.23333333333333,37.56666666666667]],"type":"LineString"}
}
