{
  "id": 2014835555,
  "type": "Feature",
  "properties": {
    "geom:area": 0,
    "geom:bbox": "-122.073889,37.789722,-73.716667,41.701944",
    "geom:latitude": 39.29609831701926,
    "geom:longitude": -97.49712280850548,
    "src:alt_label": "swim-path",
    "src:geom": "swim",
    "swim:altitudes": [
      "107",
      "107",
      "107",
      "107",
      "107",
      "136",
      "136",
      "136",
      "136",
      "136",
      "187",
      "187",
      "247",
      "247",
      "247",
      "247",
      "257",
      "257",
      "257",
      "274",
      "274",
      "282",
      "282",
      "282",
      "290",
      "290",
      "290",
      "290",
      "316",
      "316",
      "316",
      "322",
      "322",
      "322",
      "336",
      "336",
      "336",
      "345",
      "345",
      "345",
      "345",
      "349C",
      "349C",
      "349C",
      "350C",
      "350C",
      "350C",
      "350C",
      "350C",
      "350C",
      "350C",
      "350C",
      "350C",
      "350C",
      "350C",
      "350C",
      "350C",
      "350C",
      "350C",
      "350C",
      "350C",
      "350C",
      "350C",
      "350C",
      "350C",
      "350C",
      "350C",
      "350C",
      "350C",
      "350C",
      "350C",
      "350C",
      "350C",
      "350C",
      "350C",
      "350C",
      "350C",
      "350C",
      "349C",
      "349C",
      "349C",
      "350C",
      "350C",
      "350C",
      "350C",
      "350C",
      "350C",
      "350C",
      "350C",
      "350C",
      "350C",
      "350C",
      "350C",
      "350C",
      "350C",
      "350C",
      "350C",
      "351C",
      "351C",
      "351C",
      "351C",
      "350C",
      "350C",
      "350C",
      "350C",
      "350C",
      "350C",
      "350C",
      "350C",
      "350C",
      "351C",
      "351C",
      "350C",
      "350C",
      "350C",
      "350C",
      "350C",
      "350C",
      "350C",
      "350C",
      "350C",
      "350C",
      "350C",
      "350C",
      "350C",
      "350C",
      "350C",
      "350C",
      "350C",
      "350C",
      "350C",
      "350C",
      "350C",
      "350C",
      "350C",
      "350C",
      "350C",
      "350C",
      "351C",
      "351C",
      "351C",
      "350C",
      "350C",
      "350C",
      "350C",
      "350C",
      "350C",
      "351C",
      "351C",
      "349C",
      "349C",
      "349C",
      "351C",
      "350C",
      "350C",
      "350C",
      "351C",
      "351C",
      "351C",
      "350C",
      "350C",
      "350C",
      "350C",
      "350C",
      "350C",
      "350C",
      "350C",
      "350C",
      "350C",
      "350C",
      "350C",
      "350C",
      "350C",
      "351C",
      "351C",
      "351C",
      "350C",
      "350C",
      "350C",
      "350C",
      "350C",
      "350C",
      "350C",
      "350C",
      "350C",
      "350C",
      "350C",
      "350C",
      "350C",
      "350C",
      "350C",
      "350C",
      "350C",
      "350C",
      "350C",
      "350C",
      "350C",
      "350C",
      "350C",
      "350C",
      "350C",
      "350C",
      "350C",
      "350C",
      "350C",
      "350C",
      "350C",
      "350C",
      "350C",
      "350C",
      "350C",
      "350C",
      "350C",
      "350C",
      "350C",
      "350C",
      "350C",
      "350C",
      "350C",
      "350C",
      "350C",
      "350C",
      "350C",
      "350C",
      "350C",
      "350C",
      "350C",
      "350C",
      "350C",
      "350C",
      "350C",
      "350C",
      "350C",
      "350C",
      "350C",
      "350C",
      "350C",
      "350C",
      "350C",
      "350C",
      "351C",
      "351C",
      "351C",
      "350C",
      "350C",
      "350C",
      "350C",
      "350C",
      "350C",
      "350C",
      "350C",
      "350C",
      "350C",
      "350C",
      "350C",
      "350C",
      "350C",
      "350C",
      "350C",
      "350C",
      "350C",
      "350C",
      "350C",
      "350C",
      "351C",
      "351C",
      "351C",
      "350C",
      "350C",
      "350C",
      "350C",
      "350C",
      "350C",
      "350C",
      "350C",
      "350C",
      "350C",
      "350C",
      "350C",
      "350C",
      "350C",
      "350C",
      "350C",
      "350C",
      "350C",
      "350C",
      "350C",
      "350C",
      "350C",
      "350C",
      "350C",
      "350C",
      "350C",
      "350C",
      "350C",
      "350C",
      "350C",
      "350C",
      "350C",
      "350C",
      "350C",
      "350C",
      "350C",
      "350C",
      "350C",
      "350C",
      "350C",
      "350C",
      "350C",
      "350C",
      "350C",
      "350C",
      "350C",
      "350C",
      "350C",
      "350C",
      "350C",
      "350C",
      "351C",
      "351C",
      "350C",
      "350C",
      "350C",
      "350C",
      "350C",
      "350C",
      "350C",
      "350C",
      "350C",
      "350C",
      "350C",
      "350C",
      "350C",
      "350C",
      "350C",
      "350C",
      "350C",
      "350C",
      "350C",
      "350C",
      "350C",
      "350C",
      "350C",
      "350C",
      "350C",
      "350C",
      "350C",
      "350C",
      "350C",
      "350C",
      "350C",
      "350C",
      "350C",
      "350C",
      "350C",
      "350C",
      "350C",
      "350C",
      "350",
      "350",
      "344",
      "344",
      "335",
      "326",
      "302",
      "259",
      "259",
      "236",
      "236",
      "218",
      "210C",
      "210C",
      "210",
      "210",
      "210",
      "210",
      "199",
      "194",
      "194",
      "191",
      "187",
      "177",
      "177",
      "163",
      "163",
      "163",
      "163",
      "102",
      "102",
      "102",
      "089",
      "089",
      "057",
      "033",
      "033",
      "025",
      "025",
      "025",
      "020",
      "014",
      "014",
      "008",
      "005",
      "005"
    ],
    "swim:geom": "path",
    "swim:speeds": [
      300,
      300,
      300,
      300,
      300,
      389,
      389,
      389,
      389,
      389,
      448,
      448,
      472,
      472,
      472,
      472,
      479,
      479,
      479,
      498,
      498,
      498,
      498,
      498,
      511,
      511,
      511,
      511,
      516,
      516,
      516,
      519,
      519,
      519,
      521,
      521,
      521,
      523,
      523,
      523,
      523,
      522,
      522,
      522,
      523,
      523,
      523,
      523,
      523,
      515,
      515,
      515,
      513,
      522,
      522,
      522,
      524,
      524,
      527,
      530,
      530,
      530,
      533,
      533,
      533,
      533,
      533,
      533,
      533,
      533,
      533,
      530,
      530,
      528,
      528,
      529,
      529,
      529,
      530,
      530,
      530,
      531,
      531,
      531,
      534,
      534,
      534,
      533,
      533,
      533,
      532,
      532,
      532,
      539,
      539,
      539,
      539,
      545,
      545,
      545,
      545,
      536,
      536,
      536,
      536,
      536,
      536,
      536,
      536,
      536,
      535,
      535,
      534,
      534,
      534,
      534,
      532,
      532,
      532,
      532,
      532,
      532,
      532,
      533,
      535,
      535,
      536,
      536,
      536,
      537,
      541,
      543,
      550,
      550,
      550,
      550,
      549,
      549,
      545,
      545,
      545,
      536,
      535,
      531,
      531,
      530,
      530,
      530,
      530,
      529,
      529,
      529,
      529,
      530,
      530,
      530,
      537,
      537,
      537,
      537,
      537,
      537,
      533,
      533,
      533,
      533,
      528,
      528,
      524,
      530,
      530,
      530,
      538,
      547,
      547,
      547,
      550,
      550,
      555,
      556,
      556,
      556,
      556,
      556,
      556,
      556,
      556,
      554,
      554,
      554,
      554,
      553,
      554,
      554,
      554,
      554,
      556,
      556,
      556,
      556,
      556,
      558,
      558,
      558,
      558,
      558,
      565,
      565,
      565,
      565,
      571,
      571,
      571,
      572,
      572,
      575,
      575,
      576,
      576,
      576,
      577,
      577,
      577,
      577,
      577,
      577,
      577,
      578,
      578,
      578,
      578,
      578,
      581,
      581,
      581,
      586,
      586,
      585,
      585,
      585,
      593,
      593,
      593,
      596,
      596,
      596,
      592,
      593,
      594,
      595,
      595,
      596,
      596,
      597,
      597,
      595,
      595,
      595,
      592,
      592,
      592,
      592,
      591,
      591,
      594,
      594,
      594,
      594,
      594,
      595,
      594,
      594,
      594,
      594,
      594,
      594,
      594,
      593,
      593,
      593,
      592,
      593,
      593,
      592,
      592,
      592,
      592,
      592,
      592,
      591,
      591,
      590,
      590,
      589,
      589,
      589,
      589,
      589,
      589,
      589,
      589,
      590,
      587,
      587,
      587,
      583,
      581,
      573,
      573,
      566,
      564,
      562,
      560,
      560,
      561,
      561,
      556,
      556,
      556,
      556,
      556,
      554,
      554,
      554,
      554,
      547,
      544,
      544,
      556,
      563,
      565,
      566,
      566,
      566,
      567,
      568,
      567,
      567,
      568,
      568,
      568,
      563,
      563,
      563,
      556,
      557,
      555,
      551,
      551,
      551,
      550,
      550,
      548,
      548,
      550,
      549,
      549,
      549,
      546,
      544,
      536,
      536,
      538,
      540,
      535,
      492,
      492,
      474,
      474,
      456,
      450,
      450,
      457,
      458,
      458,
      458,
      441,
      425,
      425,
      405,
      368,
      368,
      368,
      357,
      357,
      357,
      357,
      283,
      283,
      283,
      285,
      285,
      255,
      230,
      230,
      203,
      203,
      203,
      187,
      170,
      170,
      146,
      129,
      129
    ],
    "swim:timestamps": [
      1771534555,
      1771534555,
      1771534555,
      1771534555,
      1771534555,
      1771534675,
      1771534675,
      1771534675,
      1771534675,
      1771534675,
      1771534855,
      1771534855,
      1771535096,
      1771535096,
      1771535096,
      1771535096,
      1771535156,
      1771535156,
      1771535156,
      1771535276,
      1771535276,
      1771535344,
      1771535344,
      1771535344,
      1771535396,
      1771535396,
      1771535396,
      1771535396,
      1771535584,
      1771535584,
      1771535584,
      1771535636,
      1771535636,
      1771535636,
      1771535756,
      1771535756,
      1771535756,
      1771535824,
      1771535824,
      1771535824,
      1771535824,
      1771535884,
      1771535884,
      1771535884,
      1771536005,
      1771536005,
      1771536005,
      1771536005,
      1771536005,
      1771536065,
      1771536065,
      1771536065,
      1771536125,
      1771536185,
      1771536185,
      1771536185,
      1771536245,
      1771536245,
      1771536297,
      1771536365,
      1771536365,
      1771536365,
      1771536417,
      1771536417,
      1771536417,
      1771536477,
      1771536485,
      1771536485,
      1771536545,
      1771536545,
      1771536545,
      1771536605,
      1771536605,
      1771536658,
      1771536658,
      1771536846,
      1771536846,
      1771536846,
      1771536906,
      1771536906,
      1771536906,
      1771536966,
      1771536966,
      1771536966,
      1771537206,
      1771537206,
      1771537206,
      1771537266,
      1771537266,
      1771537266,
      1771537398,
      1771537398,
      1771537398,
      1771537639,
      1771537639,
      1771537639,
      1771537639,
      1771537726,
      1771537726,
      1771537726,
      1771537726,
      1771537939,
      1771537939,
      1771537939,
      1771537939,
      1771537999,
      1771537999,
      1771537999,
      1771538026,
      1771538026,
      1771538086,
      1771538086,
      1771538179,
      1771538179,
      1771538207,
      1771538207,
      1771538300,
      1771538300,
      1771538300,
      1771538300,
      1771538327,
      1771538327,
      1771538387,
      1771538420,
      1771538540,
      1771538540,
      1771538567,
      1771538600,
      1771538600,
      1771538627,
      1771538900,
      1771538961,
      1771539228,
      1771539228,
      1771539288,
      1771539288,
      1771539408,
      1771539408,
      1771539528,
      1771539528,
      1771539528,
      1771539588,
      1771539648,
      1771539829,
      1771539829,
      1771539949,
      1771539949,
      1771540069,
      1771540069,
      1771540129,
      1771540129,
      1771540129,
      1771540189,
      1771540249,
      1771540249,
      1771540249,
      1771540430,
      1771540430,
      1771540430,
      1771540476,
      1771540476,
      1771540476,
      1771540596,
      1771540596,
      1771540596,
      1771540596,
      1771540776,
      1771540776,
      1771540836,
      1771540896,
      1771540896,
      1771540896,
      1771541030,
      1771541077,
      1771541077,
      1771541077,
      1771541150,
      1771541150,
      1771541377,
      1771541391,
      1771541391,
      1771541391,
      1771541391,
      1771541437,
      1771541437,
      1771541437,
      1771541437,
      1771541691,
      1771541691,
      1771541691,
      1771541691,
      1771541855,
      1771541915,
      1771541915,
      1771541915,
      1771541915,
      1771542276,
      1771542336,
      1771542336,
      1771542336,
      1771542336,
      1771542576,
      1771542576,
      1771542576,
      1771542576,
      1771542576,
      1771542756,
      1771542756,
      1771542756,
      1771542756,
      1771542877,
      1771542877,
      1771542877,
      1771542937,
      1771542937,
      1771543057,
      1771543057,
      1771543117,
      1771543117,
      1771543117,
      1771543177,
      1771543237,
      1771543237,
      1771543237,
      1771543297,
      1771543297,
      1771543297,
      1771543444,
      1771543444,
      1771543444,
      1771543444,
      1771543444,
      1771543625,
      1771543625,
      1771543685,
      1771543778,
      1771543778,
      1771543805,
      1771543805,
      1771543805,
      1771543865,
      1771543865,
      1771543865,
      1771543925,
      1771543925,
      1771543925,
      1771543958,
      1771543985,
      1771544045,
      1771544078,
      1771544078,
      1771544105,
      1771544105,
      1771544259,
      1771544259,
      1771544346,
      1771544346,
      1771544346,
      1771544466,
      1771544466,
      1771544499,
      1771544499,
      1771544526,
      1771544526,
      1771544706,
      1771544706,
      1771544706,
      1771544739,
      1771544739,
      1771544766,
      1771544794,
      1771544794,
      1771544854,
      1771544854,
      1771544886,
      1771544886,
      1771544886,
      1771544914,
      1771544914,
      1771544914,
      1771545067,
      1771545094,
      1771545094,
      1771545100,
      1771545127,
      1771545154,
      1771545154,
      1771545154,
      1771545160,
      1771545247,
      1771545247,
      1771545287,
      1771545287,
      1771545347,
      1771545347,
      1771545347,
      1771545467,
      1771545467,
      1771545467,
      1771545467,
      1771545467,
      1771545667,
      1771545727,
      1771545727,
      1771545727,
      1771545848,
      1771545908,
      1771546028,
      1771546028,
      1771546124,
      1771546148,
      1771546184,
      1771546244,
      1771546244,
      1771546268,
      1771546268,
      1771546428,
      1771546428,
      1771546545,
      1771546545,
      1771546605,
      1771546665,
      1771546665,
      1771546665,
      1771546665,
      1771546845,
      1771546905,
      1771546905,
      1771547146,
      1771547206,
      1771547286,
      1771547346,
      1771547346,
      1771547346,
      1771547406,
      1771547506,
      1771547526,
      1771547526,
      1771547627,
      1771547646,
      1771547646,
      1771547807,
      1771547807,
      1771547807,
      1771547987,
      1771548007,
      1771548047,
      1771548127,
      1771548127,
      1771548127,
      1771548167,
      1771548167,
      1771548307,
      1771548307,
      1771548468,
      1771548528,
      1771548528,
      1771548528,
      1771548648,
      1771548728,
      1771548788,
      1771548788,
      1771548848,
      1771548908,
      1771548968,
      1771549088,
      1771549088,
      1771549148,
      1771549148,
      1771549208,
      1771549269,
      1771549269,
      1771549389,
      1771549426,
      1771549449,
      1771549449,
      1771549528,
      1771549569,
      1771549569,
      1771549588,
      1771549643,
      1771549689,
      1771549689,
      1771549749,
      1771549749,
      1771549749,
      1771549749,
      1771549949,
      1771549949,
      1771549949,
      1771549990,
      1771549990,
      1771550069,
      1771550170,
      1771550170,
      1771550230,
      1771550230,
      1771550230,
      1771550316,
      1771550370,
      1771550370,
      1771550410,
      1771550435,
      1771550435
    ],
    "wof:geomhash": "2ebed7c8c1cd0842db4d4c745072fbba",
    "wof:id": 2014835555,
    "wof:repo": "sfomuseum-data-flights-2026-02"
  },
  "bbox": [
    -122.07388888888889,
    37.78972222222222,
    -73.71666666666667,
    41.70194444444445
  ],
  "geometry": {"coordinates":[[-122.07388888888889,37.78972222222222],[-122.07388888888889,37.78972222222222],[-122.07388888888889,37.78972222222222],[-122.07388888888889,37.78972222222222],[-122.07388888888889,37.78972222222222],[-121.83416666666666,37.85805555555556],[-121.83416666666666,37.85805555555556],[-121.83416666666666,37.85805555555556],[-121.83416666666666,37.85805555555556],[-121.83416666666666,37.85805555555556],[-121.39583333333334,37.93833333333333],[-121.39583333333334,37.93833333333333],[-120.76444444444445,38.04333333333333],[-120.76444444444445,38.04333333333333],[-120.76444444444445,38.04333333333333],[-120.76444444444445,38.04333333333333],[-120.59944444444444,38.06861111111112],[-120.59944444444444,38.06861111111112],[-120.59944444444444,38.06861111111112],[-120.25805555555556,38.12],[-120.25805555555556,38.12],[-120.08583333333333,38.14416666666666],[-120.08583333333333,38.14416666666666],[-120.08583333333333,38.14416666666666],[-119.90444444444445,38.17166666666667],[-119.90444444444445,38.17166666666667],[-119.90444444444445,38.17166666666667],[-119.90444444444445,38.17166666666667],[-119.36972222222222,38.24777777777778],[-119.36972222222222,38.24777777777778],[-119.36972222222222,38.24777777777778],[-119.18944444444445,38.272777777777776],[-119.18944444444445,38.272777777777776],[-119.18944444444445,38.272777777777776],[-118.8236111111111,38.28527777777778],[-118.8236111111111,38.28527777777778],[-118.8236111111111,38.28527777777778],[-118.60416666666666,38.286944444444444],[-118.60416666666666,38.286944444444444],[-118.60416666666666,38.286944444444444],[-118.60416666666666,38.286944444444444],[-118.4625,38.288888888888884],[-118.4625,38.288888888888884],[-118.4625,38.288888888888884],[-118.08,38.29111111111111],[-118.08,38.29111111111111],[-118.08,38.29111111111111],[-118.08,38.29111111111111],[-118.08,38.29111111111111],[-117.89777777777779,38.29194444444444],[-117.89777777777779,38.29194444444444],[-117.89777777777779,38.29194444444444],[-117.71583333333334,38.29222222222222],[-117.53166666666667,38.29222222222222],[-117.53166666666667,38.29222222222222],[-117.53166666666667,38.29222222222222],[-117.34083333333332,38.29194444444444],[-117.34083333333332,38.29194444444444],[-117.1738888888889,38.291666666666664],[-116.95777777777778,38.29083333333333],[-116.95777777777778,38.29083333333333],[-116.95777777777778,38.29083333333333],[-116.80194444444444,38.28972222222222],[-116.80194444444444,38.28972222222222],[-116.80194444444444,38.28972222222222],[-116.61055555555555,38.28861111111111],[-116.57527777777777,38.288333333333334],[-116.57527777777777,38.288333333333334],[-116.38805555555557,38.28666666666666],[-116.38805555555557,38.28666666666666],[-116.38805555555557,38.28666666666666],[-116.20055555555555,38.28444444444444],[-116.20055555555555,38.28444444444444],[-116.05055555555555,38.282777777777774],[-116.05055555555555,38.282777777777774],[-115.45333333333333,38.27388888888889],[-115.45333333333333,38.27388888888889],[-115.45333333333333,38.27388888888889],[-115.25944444444444,38.27027777777778],[-115.25944444444444,38.27027777777778],[-115.25944444444444,38.27027777777778],[-115.07111111111111,38.26638888888889],[-115.07111111111111,38.26638888888889],[-115.07111111111111,38.26638888888889],[-114.31416666666667,38.246944444444445],[-114.31416666666667,38.246944444444445],[-114.31416666666667,38.246944444444445],[-114.1286111111111,38.234722222222224],[-114.1286111111111,38.234722222222224],[-114.1286111111111,38.234722222222224],[-113.71638888888889,38.20944444444445],[-113.71638888888889,38.20944444444445],[-113.71638888888889,38.20944444444445],[-112.95805555555556,38.159166666666664],[-112.95805555555556,38.159166666666664],[-112.95805555555556,38.159166666666664],[-112.95805555555556,38.159166666666664],[-112.68,38.13944444444444],[-112.68,38.13944444444444],[-112.68,38.13944444444444],[-112.68,38.13944444444444],[-112.0461111111111,38.092222222222226],[-112.0461111111111,38.092222222222226],[-112.0461111111111,38.092222222222226],[-112.0461111111111,38.092222222222226],[-111.85666666666665,38.0775],[-111.85666666666665,38.0775],[-111.85666666666665,38.0775],[-111.73972222222223,38.06805555555556],[-111.73972222222223,38.06805555555556],[-111.55333333333333,38.05277777777778],[-111.55333333333333,38.05277777777778],[-111.29694444444445,38.031666666666666],[-111.29694444444445,38.031666666666666],[-111.18277777777779,38.02194444444444],[-111.18277777777779,38.02194444444444],[-110.90277777777779,37.99777777777778],[-110.90277777777779,37.99777777777778],[-110.90277777777779,37.99777777777778],[-110.90277777777779,37.99777777777778],[-110.8086111111111,37.989444444444445],[-110.8086111111111,37.989444444444445],[-110.62527777777777,37.973055555555554],[-110.53083333333333,37.96472222222223],[-110.1575,37.93055555555555],[-110.1575,37.93055555555555],[-110.09583333333333,37.92472222222222],[-110.01027777777777,37.91611111111111],[-110.01027777777777,37.91611111111111],[-109.90527777777778,37.906666666666666],[-109.03166666666667,37.81944444444445],[-108.84222222222222,37.81583333333333],[-107.99944444444445,37.8775],[-107.99944444444445,37.8775],[-107.80722222222222,37.89083333333333],[-107.80722222222222,37.89083333333333],[-107.4225,37.916666666666664],[-107.4225,37.916666666666664],[-107.00777777777778,37.94277777777778],[-107.00777777777778,37.94277777777778],[-107.00777777777778,37.94277777777778],[-106.81861111111111,37.95416666666667],[-106.63194444444444,37.965],[-106.09444444444443,37.995],[-106.09444444444443,37.995],[-105.7238888888889,38.00333333333333],[-105.7238888888889,38.00333333333333],[-105.34972222222221,38.00666666666667],[-105.34972222222221,38.00666666666667],[-105.16416666666667,38.007777777777775],[-105.16416666666667,38.007777777777775],[-105.16416666666667,38.007777777777775],[-104.9775,38.00861111111111],[-104.79083333333332,38.00944444444445],[-104.79083333333332,38.00944444444445],[-104.79083333333332,38.00944444444445],[-104.2213888888889,38.00888888888889],[-104.2213888888889,38.00888888888889],[-104.2213888888889,38.00888888888889],[-104.06555555555555,38.005833333333335],[-104.06555555555555,38.005833333333335],[-104.06555555555555,38.005833333333335],[-103.69055555555556,38.006388888888885],[-103.69055555555556,38.006388888888885],[-103.69055555555556,38.006388888888885],[-103.69055555555556,38.006388888888885],[-103.13083333333333,38.001666666666665],[-103.13083333333333,38.001666666666665],[-102.94916666666667,37.99916666666667],[-102.76138888888889,37.99638888888889],[-102.76138888888889,37.99638888888889],[-102.76138888888889,37.99638888888889],[-102.3425,37.99],[-102.19611111111111,38.01444444444444],[-102.19611111111111,38.01444444444444],[-102.19611111111111,38.01444444444444],[-101.96638888888889,38.06055555555555],[-101.96638888888889,38.06055555555555],[-101.24277777777777,38.20416666666667],[-101.20111111111112,38.21222222222222],[-101.20111111111112,38.21222222222222],[-101.20111111111112,38.21222222222222],[-101.20111111111112,38.21222222222222],[-101.05,38.24194444444444],[-101.05,38.24194444444444],[-101.05,38.24194444444444],[-101.05,38.24194444444444],[-100.24527777777777,38.39416666666666],[-100.24527777777777,38.39416666666666],[-100.24527777777777,38.39416666666666],[-100.24527777777777,38.39416666666666],[-99.75111111111111,38.484722222222224],[-99.55805555555555,38.519999999999996],[-99.55805555555555,38.519999999999996],[-99.55805555555555,38.519999999999996],[-99.55805555555555,38.519999999999996],[-98.39805555555556,38.721111111111114],[-98.20555555555556,38.753055555555555],[-98.20555555555556,38.753055555555555],[-98.20555555555556,38.753055555555555],[-98.20555555555556,38.753055555555555],[-97.42416666666666,38.88027777777778],[-97.42416666666666,38.88027777777778],[-97.42416666666666,38.88027777777778],[-97.42416666666666,38.88027777777778],[-97.42416666666666,38.88027777777778],[-96.83194444444445,38.973055555555554],[-96.83194444444445,38.973055555555554],[-96.83194444444445,38.973055555555554],[-96.83194444444445,38.973055555555554],[-96.41388888888889,39.03666666666666],[-96.41388888888889,39.03666666666666],[-96.41388888888889,39.03666666666666],[-96.21416666666667,39.06638888888889],[-96.21416666666667,39.06638888888889],[-95.80944444444444,39.125277777777775],[-95.80944444444444,39.125277777777775],[-95.60777777777777,39.15416666666667],[-95.60777777777777,39.15416666666667],[-95.60777777777777,39.15416666666667],[-95.39250000000001,39.18472222222222],[-95.19638888888889,39.21194444444445],[-95.19638888888889,39.21194444444445],[-95.19638888888889,39.21194444444445],[-95.01777777777778,39.236666666666665],[-95.01777777777778,39.236666666666665],[-95.01777777777778,39.236666666666665],[-94.5,39.30694444444444],[-94.5,39.30694444444444],[-94.5,39.30694444444444],[-94.5,39.30694444444444],[-94.5,39.30694444444444],[-93.8863888888889,39.38666666666666],[-93.8863888888889,39.38666666666666],[-93.68055555555556,39.411944444444444],[-93.3475,39.45277777777778],[-93.3475,39.45277777777778],[-93.26638888888888,39.46388888888889],[-93.26638888888888,39.46388888888889],[-93.26638888888888,39.46388888888889],[-93.05472222222222,39.48777777777778],[-93.05472222222222,39.48777777777778],[-93.05472222222222,39.48777777777778],[-92.8461111111111,39.5125],[-92.8461111111111,39.5125],[-92.8461111111111,39.5125],[-92.72055555555556,39.527499999999996],[-92.63666666666667,39.53777777777778],[-92.42611111111111,39.56194444444444],[-92.3,39.57527777777778],[-92.3,39.57527777777778],[-92.21555555555555,39.58527777777778],[-92.21555555555555,39.58527777777778],[-91.665,39.64527777777778],[-91.665,39.64527777777778],[-91.36916666666666,39.67638888888889],[-91.36916666666666,39.67638888888889],[-91.36916666666666,39.67638888888889],[-90.95,39.71944444444445],[-90.95,39.71944444444445],[-90.8175,39.7325],[-90.8175,39.7325],[-90.7363888888889,39.74055555555556],[-90.7363888888889,39.74055555555556],[-90.1061111111111,39.80083333333333],[-90.1061111111111,39.80083333333333],[-90.1061111111111,39.80083333333333],[-89.97694444444444,39.812777777777775],[-89.97694444444444,39.812777777777775],[-89.89361111111111,39.82027777777778],[-89.79583333333333,39.82916666666667],[-89.79583333333333,39.82916666666667],[-89.58416666666666,39.84722222222222],[-89.58416666666666,39.84722222222222],[-89.42666666666668,39.856944444444444],[-89.42666666666668,39.856944444444444],[-89.42666666666668,39.856944444444444],[-89.36666666666666,39.86055555555556],[-89.36666666666666,39.86055555555556],[-89.36666666666666,39.86055555555556],[-88.79138888888889,39.89694444444444],[-88.73138888888889,39.900555555555556],[-88.73138888888889,39.900555555555556],[-88.70694444444445,39.901944444444446],[-88.57833333333333,39.90972222222222],[-88.5175,39.913333333333334],[-88.5175,39.913333333333334],[-88.5175,39.913333333333334],[-88.49472222222222,39.91444444444444],[-88.15722222222223,39.93388888888889],[-88.15722222222223,39.93388888888889],[-88.03027777777778,39.94083333333333],[-88.03027777777778,39.94083333333333],[-87.81583333333333,39.95194444444445],[-87.81583333333333,39.95194444444445],[-87.81583333333333,39.95194444444445],[-87.39250000000001,39.973333333333336],[-87.39250000000001,39.973333333333336],[-87.39250000000001,39.973333333333336],[-87.39250000000001,39.973333333333336],[-87.39250000000001,39.973333333333336],[-86.66805555555555,40.027499999999996],[-86.46638888888889,40.083333333333336],[-86.46638888888889,40.083333333333336],[-86.46638888888889,40.083333333333336],[-86.10833333333333,40.19194444444444],[-85.90972222222223,40.25194444444445],[-85.51694444444445,40.36888888888889],[-85.51694444444445,40.36888888888889],[-85.19888888888889,40.462500000000006],[-85.13472222222222,40.481388888888894],[-85.00583333333333,40.51888888888889],[-84.81666666666666,40.57333333333334],[-84.81666666666666,40.57333333333334],[-84.75527777777778,40.59111111111111],[-84.75527777777778,40.59111111111111],[-84.24222222222222,40.73722222222222],[-84.24222222222222,40.73722222222222],[-83.87444444444444,40.84027777777778],[-83.87444444444444,40.84027777777778],[-83.67027777777778,40.89666666666667],[-83.47611111111111,40.95],[-83.47611111111111,40.95],[-83.47611111111111,40.95],[-83.47611111111111,40.95],[-82.90972222222223,41.10277777777778],[-82.72027777777778,41.15333333333333],[-82.72027777777778,41.15333333333333],[-81.965,41.35444444444445],[-81.75666666666666,41.38361111111111],[-81.49111111111111,41.41972222222222],[-81.285,41.44694444444444],[-81.285,41.44694444444444],[-81.285,41.44694444444444],[-81.07777777777777,41.47527777777778],[-80.75194444444445,41.520833333333336],[-80.66388888888889,41.53194444444444],[-80.66388888888889,41.53194444444444],[-80.33805555555556,41.57472222222223],[-80.24916666666667,41.584722222222226],[-80.24916666666667,41.584722222222226],[-79.71111111111111,41.65277777777778],[-79.71111111111111,41.65277777777778],[-79.71111111111111,41.65277777777778],[-79.07777777777777,41.70194444444445],[-79,41.70166666666667],[-78.89055555555557,41.70111111111111],[-78.59194444444444,41.69916666666666],[-78.59194444444444,41.69916666666666],[-78.59194444444444,41.69916666666666],[-78.48333333333333,41.69833333333333],[-78.48333333333333,41.69833333333333],[-77.98666666666666,41.69305555555555],[-77.98666666666666,41.69305555555555],[-77.45805555555556,41.684999999999995],[-77.255,41.67944444444444],[-77.255,41.67944444444444],[-77.255,41.67944444444444],[-76.86666666666666,41.60111111111111],[-76.59861111111111,41.52777777777778],[-76.41222222222223,41.47638888888889],[-76.41222222222223,41.47638888888889],[-76.25583333333333,41.4325],[-76.06277777777777,41.37916666666667],[-75.865,41.322500000000005],[-75.53111111111112,41.219722222222224],[-75.53111111111112,41.219722222222224],[-75.37166666666666,41.166666666666664],[-75.37166666666666,41.166666666666664],[-75.19916666666667,41.10805555555556],[-75.05305555555556,41.05888888888889],[-75.05305555555556,41.05888888888889],[-74.735,40.98027777777778],[-74.61666666666666,40.96666666666667],[-74.56694444444445,40.96055555555556],[-74.56694444444445,40.96055555555556],[-74.33333333333333,40.93333333333333],[-74.24138888888889,40.921388888888885],[-74.24138888888889,40.921388888888885],[-74.18333333333334,40.916666666666664],[-74.06666666666666,40.88333333333333],[-73.9888888888889,40.842222222222226],[-73.9888888888889,40.842222222222226],[-73.8761111111111,40.786944444444444],[-73.8761111111111,40.786944444444444],[-73.8761111111111,40.786944444444444],[-73.8761111111111,40.786944444444444],[-73.71666666666667,40.53333333333333],[-73.71666666666667,40.53333333333333],[-73.71666666666667,40.53333333333333],[-73.72611111111111,40.50416666666667],[-73.72611111111111,40.50416666666667],[-73.76666666666667,40.4],[-73.88,40.39888888888889],[-73.88,40.39888888888889],[-73.87305555555555,40.45777777777778],[-73.87305555555555,40.45777777777778],[-73.87305555555555,40.45777777777778],[-73.85,40.53333333333333],[-73.81666666666666,40.56666666666667],[-73.81666666666666,40.56666666666667],[-73.79666666666667,40.591944444444444],[-73.78333333333333,40.6],[-73.78333333333333,40.6]],"type":"LineString"}
}
