{
  "id": 2014807223,
  "type": "Feature",
  "properties": {
    "geom:area": 0,
    "geom:bbox": "-178.770000,1.360000,180.000000,51.000000",
    "geom:latitude": 45.41015406534356,
    "geom:longitude": 8.107635323681578,
    "src:alt_label": "swim-route",
    "src:geom": "swim",
    "swim:geom": "route",
    "wof:geomhash": "3183db1be5f1b463c5eb9a42db3a414f",
    "wof:id": 2014807223,
    "wof:repo": "sfomuseum-data-flights-2026-02"
  },
  "bbox": [
    -178.77,
    1.36,
    180,
    51
  ],
  "geometry": {"coordinates":[[[103.99,1.36],[104.07,1.45],[104.13,1.51],[104.2,1.59],[104.27,1.67],[104.38,1.79],[104.6,2.04],[104.74,2.2],[104.91,2.38],[105.01,2.5],[105.02,2.5],[105.06,2.55],[105.15,2.65],[105.35,2.87],[105.63,3.17],[105.83,3.41],[106.05,3.64],[106.57,4.22],[107.6,5.36],[108.12,5.93],[109.17,7.08],[110.22,8.22],[112.31,11.1],[114.45,13.97],[116.42,15.76],[117.08,16.35],[122.55,21],[122.56,21.02],[124.22,23.35],[127.09,25.6],[127.8,26.16],[128.1,26.49],[129.01,27.44],[129.1,27.53],[130.23,28.36],[132.08,29.65],[132.08,29.65],[135,31.66],[135.32,31.87],[136.32,32.46],[137.33,33.04],[141.19,35.09],[145.67,37.2],[150,38.1],[160,42],[164.07,44.24],[164.07,44.24],[170,47],[180,49]],[[-178.77,49.17],[-177.54,49.33],[-176.3,49.48],[-175.37,49.57],[-175.05,49.61],[-173.8,49.73],[-170,50],[-163.8,50.73],[-161.9,50.88],[-160,51],[-158.08,50.88],[-157.88,50.86],[-155,50.62],[-153.7,50.48],[-152.46,50.33],[-151.98,50.27],[-150,50],[-149.77,49.95],[-148.69,49.67],[-146.98,49.22],[-145.48,48.79],[-141.78,47.63],[-140.37,47.13],[-140,47],[-139.15,46.63],[-138.92,46.54],[-137.73,46.01],[-135.7,45.06],[-134.94,44.73],[-127.22,40.73],[-127,40.63],[-127,40.62],[-126.72,40.49],[-124.73,39.51],[-124.67,39.48],[-124.23,39.25],[-124.18,39.22],[-124.1,39.18],[-123.83,39.04],[-123.76,39.01],[-123.75,39],[-123.53,38.83],[-123.49,38.8],[-123.14,38.52],[-123.13,38.52],[-123.03,38.43],[-122.98,38.39],[-122.87,38.3],[-122.85,38.29],[-122.84,38.28],[-122.77,38.22],[-122.75,38.17],[-122.75,38.16],[-122.72,38.06],[-122.69,37.95],[-122.67,37.9],[-122.67,37.9],[-122.65,37.87],[-122.62,37.85],[-122.59,37.82],[-122.58,37.81],[-122.51,37.74],[-122.5,37.73],[-122.44,37.68],[-122.37,37.62],[-122.38,37.62]]],"type":"MultiLineString"}
}
