{
  "id": 2014728441,
  "type": "Feature",
  "properties": {
    "geom:area": 0,
    "geom:bbox": "-122.365810,37.629190,-121.267910,38.411460",
    "geom:latitude": 38.03068536898824,
    "geom:longitude": -121.82585429195382,
    "src:alt_label": "swim-takeoff",
    "src:geom": "swim",
    "swim:elevations": [
      152,
      571,
      729,
      1122,
      1234,
      1539,
      2124,
      2467,
      2879,
      2986,
      3199,
      3238,
      3822,
      3890,
      4070,
      4345,
      4828,
      5142,
      5410,
      5789,
      5960,
      6299,
      6360,
      6716,
      6972,
      7168,
      7278,
      7499,
      7782,
      7992
    ],
    "swim:geom": "takeoff",
    "swim:timestamps": [
      1770367819,
      1770367850,
      1770367864,
      1770367901,
      1770367923,
      1770367962,
      1770368003,
      1770368027,
      1770368061,
      1770368071,
      1770368096,
      1770368101,
      1770368157,
      1770368163,
      1770368180,
      1770368201,
      1770368239,
      1770368267,
      1770368295,
      1770368337,
      1770368356,
      1770368395,
      1770368402,
      1770368448,
      1770368480,
      1770368502,
      1770368515,
      1770368542,
      1770368577,
      1770368600
    ],
    "wof:geomhash": "c99cbeffa7522bf03df319669dabc23e",
    "wof:id": 2014728441,
    "wof:repo": "sfomuseum-data-flights-2026-02"
  },
  "bbox": [
    -122.36581,
    37.62919,
    -121.26791,
    38.41146
  ],
  "geometry": {"coordinates":[[-122.36581,37.62919],[-122.34272,37.64649],[-122.33027,37.6532],[-122.29875,37.67184],[-122.27659,37.68479],[-122.22833,37.71038],[-122.18565,37.74965],[-122.16262,37.77503],[-122.12965,37.81156],[-122.11986,37.82229],[-122.09316,37.85172],[-122.08797,37.85745],[-122.00961,37.91951],[-122.00041,37.92579],[-121.97421,37.94363],[-121.94211,37.96556],[-121.88382,38.00513],[-121.83957,38.03475],[-121.79519,38.06449],[-121.72747,38.11022],[-121.69759,38.13039],[-121.6332,38.17349],[-121.62017,38.18218],[-121.54204,38.23456],[-121.4863,38.27182],[-121.4489,38.29681],[-121.42512,38.31269],[-121.37611,38.34518],[-121.31243,38.38436],[-121.26791,38.41146]],"type":"LineString"}
}
