{
  "id": 2014809179,
  "type": "Feature",
  "properties": {
    "geom:area": 0,
    "geom:bbox": "-122.580833,33.055000,-115.977222,37.633333",
    "geom:latitude": 35.35583312482234,
    "geom:longitude": -119.38487193320516,
    "src:alt_label": "swim-path",
    "src:geom": "swim",
    "swim:altitudes": [
      "005",
      "005",
      "005",
      "056",
      "056",
      "056",
      "056",
      "056",
      "078",
      "078",
      "078",
      "078",
      "098",
      "098",
      "118",
      "118",
      "118",
      "118",
      "170",
      "170",
      "170",
      "170",
      "190",
      "190",
      "210",
      "210",
      "210",
      "210",
      "226",
      "226",
      "226",
      "250",
      "250",
      "250",
      "271",
      "271",
      "271",
      "271",
      "271",
      "285",
      "285",
      "303",
      "303",
      "303",
      "309",
      "309",
      "316",
      "316",
      "316",
      "316",
      "316",
      "328",
      "328",
      "328",
      "328",
      "339",
      "339",
      "339",
      "339",
      "339",
      "350C",
      "350C",
      "350C",
      "350C",
      "350C",
      "350C",
      "350C",
      "350C",
      "350C",
      "350C",
      "350C",
      "350C",
      "350C",
      "350C",
      "350C",
      "350C",
      "350C",
      "350C",
      "350C",
      "350C",
      "350C",
      "350C",
      "350C",
      "350C",
      "350C",
      "350C",
      "350C",
      "350C",
      "350C",
      "350C",
      "350C",
      "350C",
      "350C",
      "350C",
      "350C",
      "350C",
      "350C",
      "350C",
      "350C",
      "350C",
      "350C",
      "350C",
      "350C",
      "350C",
      "350C",
      "350C",
      "350C",
      "350C",
      "350C",
      "350C",
      "350C",
      "350C",
      "350C",
      "350C",
      "350C",
      "350C",
      "350C",
      "350C",
      "350C",
      "350C",
      "350C",
      "350C",
      "350C",
      "350C",
      "350C",
      "350C",
      "350C",
      "350C",
      "350C",
      "350C",
      "350C",
      "350C",
      "350C",
      "350C",
      "350C",
      "350C",
      "350C",
      "350C",
      "350C",
      "350C",
      "350C",
      "350C",
      "350C",
      "350C",
      "350C",
      "350C",
      "350C",
      "350C",
      "350C",
      "350C",
      "350C",
      "350C",
      "350C"
    ],
    "swim:geom": "path",
    "swim:speeds": [
      180,
      180,
      180,
      266,
      266,
      266,
      266,
      266,
      285,
      285,
      285,
      285,
      297,
      297,
      306,
      306,
      306,
      306,
      353,
      353,
      353,
      353,
      358,
      358,
      368,
      368,
      368,
      368,
      369,
      369,
      369,
      395,
      395,
      395,
      392,
      392,
      392,
      392,
      392,
      389,
      389,
      404,
      404,
      404,
      410,
      410,
      426,
      426,
      426,
      426,
      426,
      450,
      450,
      450,
      450,
      448,
      448,
      448,
      448,
      448,
      454,
      454,
      454,
      454,
      454,
      454,
      450,
      450,
      450,
      450,
      450,
      447,
      447,
      447,
      447,
      435,
      435,
      435,
      435,
      435,
      435,
      434,
      434,
      434,
      434,
      435,
      435,
      438,
      438,
      438,
      438,
      438,
      438,
      437,
      437,
      434,
      434,
      434,
      434,
      431,
      431,
      431,
      431,
      431,
      431,
      429,
      429,
      429,
      429,
      429,
      431,
      431,
      431,
      431,
      431,
      437,
      437,
      438,
      438,
      438,
      438,
      438,
      464,
      464,
      464,
      466,
      466,
      466,
      466,
      466,
      480,
      480,
      480,
      480,
      480,
      482,
      482,
      482,
      482,
      483,
      483,
      483,
      483,
      483,
      483,
      483,
      482,
      482,
      482,
      482,
      482,
      482,
      482
    ],
    "swim:timestamps": [
      1771279204,
      1771279204,
      1771279204,
      1771279404,
      1771279404,
      1771279404,
      1771279404,
      1771279404,
      1771279464,
      1771279464,
      1771279464,
      1771279464,
      1771279524,
      1771279524,
      1771279584,
      1771279584,
      1771279584,
      1771279584,
      1771279764,
      1771279764,
      1771279764,
      1771279764,
      1771279823,
      1771279823,
      1771279885,
      1771279885,
      1771279885,
      1771279885,
      1771279945,
      1771279945,
      1771279945,
      1771280065,
      1771280065,
      1771280065,
      1771280125,
      1771280125,
      1771280125,
      1771280125,
      1771280125,
      1771280185,
      1771280185,
      1771280305,
      1771280305,
      1771280305,
      1771280364,
      1771280364,
      1771280425,
      1771280425,
      1771280425,
      1771280425,
      1771280425,
      1771280545,
      1771280545,
      1771280545,
      1771280545,
      1771280605,
      1771280605,
      1771280605,
      1771280605,
      1771280605,
      1771280906,
      1771280906,
      1771280906,
      1771280906,
      1771280906,
      1771280906,
      1771281146,
      1771281146,
      1771281146,
      1771281146,
      1771281146,
      1771281206,
      1771281206,
      1771281206,
      1771281206,
      1771281446,
      1771281446,
      1771281446,
      1771281446,
      1771281446,
      1771281446,
      1771281506,
      1771281506,
      1771281506,
      1771281506,
      1771281626,
      1771281626,
      1771281686,
      1771281746,
      1771281746,
      1771281746,
      1771281746,
      1771281746,
      1771281806,
      1771281806,
      1771281866,
      1771281866,
      1771281866,
      1771281866,
      1771281927,
      1771281927,
      1771281927,
      1771281927,
      1771281927,
      1771281987,
      1771282047,
      1771282047,
      1771282047,
      1771282047,
      1771282047,
      1771282167,
      1771282167,
      1771282167,
      1771282167,
      1771282167,
      1771282227,
      1771282227,
      1771282287,
      1771282287,
      1771282287,
      1771282287,
      1771282287,
      1771282347,
      1771282347,
      1771282347,
      1771282467,
      1771282467,
      1771282467,
      1771282467,
      1771282467,
      1771282708,
      1771282708,
      1771282708,
      1771282708,
      1771282708,
      1771282768,
      1771282768,
      1771282768,
      1771282768,
      1771282828,
      1771282828,
      1771282828,
      1771282828,
      1771282828,
      1771282828,
      1771282828,
      1771283008,
      1771283008,
      1771283008,
      1771283008,
      1771283008,
      1771283008,
      1771283008
    ],
    "wof:geomhash": "dc4cab252f6aceba48716eabfc81a1b2",
    "wof:id": 2014809179,
    "wof:repo": "sfomuseum-data-flights-2026-02"
  },
  "bbox": [
    -122.58083333333333,
    33.055,
    -115.97722222222222,
    37.63333333333333
  ],
  "geometry": {"coordinates":[[-122.4,37.63333333333333],[-122.4,37.63333333333333],[-122.4,37.63333333333333],[-122.58083333333333,37.58694444444445],[-122.58083333333333,37.58694444444445],[-122.58083333333333,37.58694444444445],[-122.58083333333333,37.58694444444445],[-122.58083333333333,37.58694444444445],[-122.57416666666666,37.50833333333333],[-122.57416666666666,37.50833333333333],[-122.57416666666666,37.50833333333333],[-122.57416666666666,37.50833333333333],[-122.52277777777778,37.445277777777775],[-122.52277777777778,37.445277777777775],[-122.42055555555557,37.425],[-122.42055555555557,37.425],[-122.42055555555557,37.425],[-122.42055555555557,37.425],[-122.13,37.29194444444444],[-122.13,37.29194444444444],[-122.13,37.29194444444444],[-122.13,37.29194444444444],[-122.03861111111111,37.226111111111116],[-122.03861111111111,37.226111111111116],[-121.93444444444445,37.16111111111111],[-121.93444444444445,37.16111111111111],[-121.93444444444445,37.16111111111111],[-121.93444444444445,37.16111111111111],[-121.83583333333333,37.09444444444445],[-121.83583333333333,37.09444444444445],[-121.83583333333333,37.09444444444445],[-121.62916666666666,36.95472222222222],[-121.62916666666666,36.95472222222222],[-121.62916666666666,36.95472222222222],[-121.525,36.88388888888889],[-121.525,36.88388888888889],[-121.525,36.88388888888889],[-121.525,36.88388888888889],[-121.525,36.88388888888889],[-121.42305555555556,36.81444444444444],[-121.42305555555556,36.81444444444444],[-121.20972222222223,36.66833333333333],[-121.20972222222223,36.66833333333333],[-121.20972222222223,36.66833333333333],[-121.10888888888888,36.595555555555556],[-121.10888888888888,36.595555555555556],[-120.9888888888889,36.51611111111111],[-120.9888888888889,36.51611111111111],[-120.9888888888889,36.51611111111111],[-120.9888888888889,36.51611111111111],[-120.9888888888889,36.51611111111111],[-120.7575,36.36083333333333],[-120.7575,36.36083333333333],[-120.7575,36.36083333333333],[-120.7575,36.36083333333333],[-120.635,36.27861111111111],[-120.635,36.27861111111111],[-120.635,36.27861111111111],[-120.635,36.27861111111111],[-120.635,36.27861111111111],[-120.04305555555555,35.876666666666665],[-120.04305555555555,35.876666666666665],[-120.04305555555555,35.876666666666665],[-120.04305555555555,35.876666666666665],[-120.04305555555555,35.876666666666665],[-120.04305555555555,35.876666666666665],[-119.57416666666666,35.54666666666667],[-119.57416666666666,35.54666666666667],[-119.57416666666666,35.54666666666667],[-119.57416666666666,35.54666666666667],[-119.57416666666666,35.54666666666667],[-119.46055555555556,35.46611111111111],[-119.46055555555556,35.46611111111111],[-119.46055555555556,35.46611111111111],[-119.46055555555556,35.46611111111111],[-119.03388888888888,35.1325],[-119.03388888888888,35.1325],[-119.03388888888888,35.1325],[-119.03388888888888,35.1325],[-119.03388888888888,35.1325],[-119.03388888888888,35.1325],[-118.92833333333334,35.049166666666665],[-118.92833333333334,35.049166666666665],[-118.92833333333334,35.049166666666665],[-118.92833333333334,35.049166666666665],[-118.71916666666667,34.8825],[-118.71916666666667,34.8825],[-118.60694444444444,34.79333333333333],[-118.50138888888888,34.70888888888889],[-118.50138888888888,34.70888888888889],[-118.50138888888888,34.70888888888889],[-118.50138888888888,34.70888888888889],[-118.50138888888888,34.70888888888889],[-118.39888888888889,34.62638888888889],[-118.39888888888889,34.62638888888889],[-118.29166666666667,34.53972222222222],[-118.29166666666667,34.53972222222222],[-118.29166666666667,34.53972222222222],[-118.29166666666667,34.53972222222222],[-118.18805555555556,34.45638888888889],[-118.18805555555556,34.45638888888889],[-118.18805555555556,34.45638888888889],[-118.18805555555556,34.45638888888889],[-118.18805555555556,34.45638888888889],[-118.08999999999999,34.37694444444445],[-117.98111111111112,34.28777777777778],[-117.98111111111112,34.28777777777778],[-117.98111111111112,34.28777777777778],[-117.98111111111112,34.28777777777778],[-117.98111111111112,34.28777777777778],[-117.77277777777778,34.11805555555556],[-117.77277777777778,34.11805555555556],[-117.77277777777778,34.11805555555556],[-117.77277777777778,34.11805555555556],[-117.77277777777778,34.11805555555556],[-117.66833333333334,34.032222222222224],[-117.66833333333334,34.032222222222224],[-117.56361111111111,33.94583333333333],[-117.56361111111111,33.94583333333333],[-117.56361111111111,33.94583333333333],[-117.56361111111111,33.94583333333333],[-117.56361111111111,33.94583333333333],[-117.43944444444445,33.86888888888889],[-117.43944444444445,33.86888888888889],[-117.43944444444445,33.86888888888889],[-117.17833333333334,33.726111111111116],[-117.17833333333334,33.726111111111116],[-117.17833333333334,33.726111111111116],[-117.17833333333334,33.726111111111116],[-117.17833333333334,33.726111111111116],[-116.64666666666668,33.43194444444444],[-116.64666666666668,33.43194444444444],[-116.64666666666668,33.43194444444444],[-116.64666666666668,33.43194444444444],[-116.64666666666668,33.43194444444444],[-116.51361111111112,33.35777777777778],[-116.51361111111112,33.35777777777778],[-116.51361111111112,33.35777777777778],[-116.51361111111112,33.35777777777778],[-116.37972222222221,33.282222222222224],[-116.37972222222221,33.282222222222224],[-116.37972222222221,33.282222222222224],[-116.37972222222221,33.282222222222224],[-116.37972222222221,33.282222222222224],[-116.37972222222221,33.282222222222224],[-116.37972222222221,33.282222222222224],[-115.97722222222222,33.055],[-115.97722222222222,33.055],[-115.97722222222222,33.055],[-115.97722222222222,33.055],[-115.97722222222222,33.055],[-115.97722222222222,33.055],[-115.97722222222222,33.055]],"type":"LineString"}
}
