{
  "id": 2014832321,
  "type": "Feature",
  "properties": {
    "geom:area": 0,
    "geom:bbox": "-122.342222,37.431111,-74.150000,40.801667",
    "geom:latitude": 39.1608450916765,
    "geom:longitude": -98.49504716244638,
    "src:alt_label": "swim-path",
    "src:geom": "swim",
    "swim:altitudes": [
      "004",
      "004",
      "004",
      "004",
      "020",
      "020",
      "025",
      "052",
      "052",
      "080",
      "080",
      "090",
      "090",
      "100",
      "100",
      "102",
      "102",
      "102",
      "114",
      "114",
      "114",
      "215",
      "215",
      "215",
      "215",
      "215",
      "235",
      "235",
      "256",
      "256",
      "256",
      "256",
      "256",
      "256",
      "274",
      "274",
      "293",
      "293",
      "293",
      "293",
      "293",
      "300C",
      "300C",
      "300C",
      "300C",
      "300C",
      "300C",
      "300C",
      "300C",
      "300C",
      "300C",
      "300C",
      "300C",
      "300C",
      "300C",
      "300C",
      "300C",
      "300C",
      "300C",
      "300C",
      "300C",
      "300C",
      "300C",
      "300C",
      "300C",
      "300C",
      "300C",
      "300C",
      "300C",
      "300C",
      "300C",
      "300C",
      "300C",
      "300C",
      "300C",
      "300C",
      "300C",
      "300C",
      "300C",
      "300C",
      "300C",
      "300C",
      "300C",
      "300C",
      "300C",
      "300C",
      "300C",
      "300C",
      "300C",
      "300C",
      "300C",
      "300C",
      "300C",
      "300C",
      "300C",
      "300C",
      "300C",
      "300C",
      "300C",
      "300C",
      "300C",
      "300C",
      "300C",
      "300C",
      "300C",
      "300C",
      "300C",
      "300C",
      "300C",
      "300C",
      "300C",
      "300C",
      "300C",
      "300C",
      "300C",
      "300C",
      "300C",
      "300C",
      "300C",
      "300C",
      "300C",
      "300C",
      "300C",
      "300C",
      "300C",
      "300C",
      "300C",
      "300C",
      "300C",
      "300C",
      "300C",
      "300C",
      "300C",
      "300C",
      "300C",
      "300C",
      "300C",
      "300C",
      "300C",
      "300C",
      "300C",
      "300C",
      "300C",
      "300C",
      "300C",
      "300C",
      "300C",
      "300C",
      "300C",
      "320C",
      "320C",
      "320C",
      "320C",
      "320C",
      "320C",
      "320C",
      "320C",
      "320C",
      "320C",
      "320C",
      "320C",
      "320C",
      "320C",
      "320C",
      "320C",
      "320C",
      "320C",
      "320C",
      "320C",
      "320C",
      "320C",
      "320C",
      "320C",
      "320C",
      "320C",
      "320C",
      "320C",
      "320C",
      "320C",
      "320C",
      "320C",
      "320C",
      "320C",
      "320C",
      "320C",
      "320C",
      "320C",
      "320C",
      "320C",
      "320C",
      "320C",
      "320C",
      "320C",
      "320C",
      "320C",
      "320C",
      "320C",
      "320C",
      "320C",
      "320C",
      "320C",
      "320C",
      "320C",
      "320C",
      "320C",
      "320C",
      "320C",
      "320C",
      "320C",
      "320C",
      "320C",
      "320C",
      "320C",
      "320C",
      "320C",
      "320C",
      "320C",
      "320C",
      "320C",
      "320C",
      "320C",
      "320C",
      "320C",
      "320C",
      "320C",
      "320C",
      "320C",
      "320C",
      "320C",
      "320C",
      "320C",
      "320C",
      "320C",
      "320C",
      "320C",
      "320C",
      "320C",
      "320C",
      "320C",
      "320C",
      "320C",
      "320C",
      "320C",
      "320C",
      "320C",
      "320C",
      "320C",
      "320C",
      "320C",
      "320C",
      "320C",
      "320C",
      "320C",
      "320C",
      "320C",
      "320C",
      "320C",
      "320C",
      "320C",
      "320C",
      "320C",
      "320C",
      "320C",
      "320C",
      "320C",
      "320C",
      "320C",
      "320C",
      "320C",
      "320C",
      "320C",
      "320C",
      "320C",
      "320C",
      "320C",
      "320C",
      "320C",
      "320C",
      "320C",
      "320C",
      "320C",
      "320C",
      "320C",
      "320C",
      "320C",
      "320C",
      "320C",
      "320C",
      "320C",
      "320C",
      "320C",
      "320C",
      "320C",
      "320C",
      "320C",
      "320C",
      "320C",
      "320C",
      "320C",
      "320C",
      "320C",
      "320C",
      "320C",
      "320C",
      "320C",
      "320C",
      "320C",
      "320C",
      "320C",
      "320C",
      "320C",
      "320C",
      "320C",
      "320C",
      "320C",
      "320C",
      "320C",
      "320C",
      "320C",
      "320C",
      "320C",
      "320C",
      "320C",
      "320C",
      "320C",
      "320C",
      "320C",
      "320C",
      "320C",
      "320C",
      "320C",
      "320C",
      "320C",
      "320C",
      "320C",
      "320C",
      "320C",
      "320C",
      "320C",
      "320C",
      "320C",
      "320C",
      "320C",
      "320C",
      "340C",
      "340C",
      "340C",
      "340C",
      "340C",
      "340C",
      "340C",
      "340C",
      "340C",
      "340C",
      "340C",
      "340C",
      "360C",
      "360C",
      "360C",
      "360C",
      "360C",
      "360C",
      "360C",
      "360C",
      "360C",
      "360C",
      "360C",
      "360C",
      "360C",
      "360C",
      "360C",
      "360C",
      "360C",
      "360C",
      "360C",
      "360C",
      "360C",
      "360C",
      "360C",
      "360C",
      "360C",
      "360C",
      "360C",
      "360C",
      "360C",
      "360C",
      "360C",
      "360C",
      "360C",
      "360C",
      "360C",
      "360C",
      "360C",
      "360C",
      "360C",
      "360C",
      "360C",
      "360C",
      "360C",
      "360C",
      "360C",
      "360C",
      "360C",
      "360C",
      "360C",
      "360C",
      "360C",
      "360C",
      "360C",
      "360C",
      "360C",
      "360C",
      "360C",
      "360C",
      "360C",
      "360C",
      "360C",
      "360C",
      "360C",
      "360C",
      "360C",
      "360C",
      "360C",
      "360C",
      "360C",
      "360C",
      "360C",
      "360C",
      "360C",
      "360C",
      "360C",
      "360C",
      "360C",
      "360C",
      "360C",
      "360C",
      "360C",
      "360C",
      "360C",
      "360C",
      "360C",
      "360C",
      "360C",
      "360C",
      "360C",
      "360C",
      "360C",
      "360C",
      "360C",
      "360C",
      "360C",
      "360C",
      "360C",
      "360C",
      "360C",
      "360C",
      "360C",
      "360C",
      "360C",
      "360C",
      "360C",
      "360C",
      "360C",
      "360C",
      "360C",
      "360C",
      "360C",
      "360C",
      "360C",
      "360C",
      "360C",
      "360C",
      "360C",
      "360C",
      "360C",
      "360C",
      "360C",
      "360C",
      "360C",
      "360C",
      "360C",
      "360C",
      "360C",
      "360C",
      "360C",
      "360C",
      "360C",
      "360C",
      "360C",
      "360C",
      "360C",
      "360C",
      "360C",
      "360C",
      "360C",
      "360C",
      "360C",
      "360C",
      "360C",
      "360C",
      "360C",
      "360C",
      "360C",
      "360C",
      "360C",
      "360C",
      "360C",
      "360C",
      "360C",
      "360C",
      "360C",
      "360C",
      "360C",
      "360C",
      "360C",
      "360C",
      "360C",
      "360C",
      "360C",
      "360C",
      "360C",
      "360C",
      "360C",
      "360C",
      "360C",
      "360C",
      "360C",
      "360C",
      "360C",
      "360C",
      "360C",
      "360C",
      "360C",
      "360C",
      "360C",
      "360C",
      "360C",
      "360C",
      "360C",
      "360C",
      "360C",
      "360C",
      "360C",
      "360C",
      "360C",
      "360C",
      "360C",
      "360C",
      "360C",
      "360C",
      "360C",
      "360C",
      "360C",
      "360C",
      "360C",
      "360C",
      "360C",
      "360C",
      "360C",
      "360C",
      "360C",
      "360C",
      "360C",
      "360C",
      "360C",
      "360C",
      "360C",
      "360C",
      "360C",
      "360C",
      "360C",
      "360C",
      "360C",
      "360C",
      "360C",
      "360C",
      "360C",
      "360C",
      "360C",
      "360C",
      "360C",
      "360C",
      "360C",
      "360C",
      "360C",
      "360C",
      "360C",
      "360C",
      "360C",
      "360C",
      "360C",
      "360C",
      "360C",
      "360C",
      "360C",
      "360C",
      "360C",
      "360C",
      "360C",
      "360C",
      "360C",
      "360C",
      "360C",
      "360C",
      "360C",
      "360C",
      "360C",
      "360C",
      "360C",
      "360C",
      "360C",
      "360C",
      "360C",
      "360C",
      "360C",
      "360C",
      "360C",
      "360C",
      "360C",
      "360C",
      "360C",
      "360C",
      "360C",
      "360C",
      "360C",
      "360C",
      "360C",
      "360C",
      "360C",
      "360C",
      "360C",
      "360C",
      "360C",
      "360C",
      "360C",
      "360C",
      "360C",
      "360C",
      "360C",
      "360C",
      "360C",
      "360C",
      "360C",
      "360C",
      "360C",
      "360C",
      "360C",
      "360C",
      "360C",
      "360C",
      "360C",
      "360C",
      "360C",
      "360C",
      "360C",
      "360C",
      "360C",
      "360C",
      "360C",
      "360C",
      "360C",
      "360C",
      "360C",
      "360C",
      "360C",
      "360C",
      "360C",
      "360C",
      "360C",
      "360C",
      "360C",
      "360C",
      "360C",
      "360C",
      "360C",
      "360C",
      "360C",
      "360C",
      "360C",
      "360C",
      "360C",
      "360C",
      "360C",
      "360C",
      "360C",
      "360C",
      "360C",
      "360C",
      "360C",
      "360C",
      "360C",
      "360C",
      "360C",
      "360C",
      "360C",
      "360C",
      "360C",
      "360C",
      "360C",
      "360C",
      "360C",
      "360C",
      "360C",
      "360C",
      "360C",
      "360C",
      "360C",
      "360C",
      "360C",
      "360C",
      "360C",
      "360C",
      "360C",
      "360C",
      "360C",
      "360C",
      "360C",
      "360C",
      "360C",
      "360C",
      "360C",
      "360C",
      "360C",
      "360C",
      "360C",
      "360",
      "360",
      "360",
      "342",
      "342",
      "309",
      "300C",
      "300C",
      "300C",
      "300C",
      "300C",
      "300C",
      "274",
      "274",
      "274",
      "254",
      "242",
      "242",
      "218",
      "218",
      "218",
      "193",
      "193",
      "193",
      "157",
      "157",
      "157",
      "157",
      "157",
      "157",
      "122",
      "122",
      "110",
      "110",
      "110",
      "107",
      "101",
      "101",
      "100",
      "100",
      "090",
      "090",
      "090",
      "078",
      "078",
      "072",
      "072",
      "070",
      "070",
      "071",
      "061",
      "061",
      "061",
      "050",
      "050",
      "050",
      "044",
      "044",
      "044",
      "027",
      "027",
      "013",
      "013",
      "010",
      "010",
      "004",
      "004",
      "004"
    ],
    "swim:geom": "path",
    "swim:speeds": [
      174,
      174,
      174,
      174,
      222,
      222,
      225,
      246,
      246,
      260,
      260,
      256,
      256,
      257,
      257,
      267,
      267,
      267,
      331,
      331,
      331,
      366,
      366,
      366,
      366,
      366,
      370,
      370,
      371,
      371,
      371,
      371,
      371,
      371,
      375,
      375,
      381,
      381,
      381,
      381,
      381,
      387,
      387,
      387,
      388,
      388,
      388,
      388,
      388,
      389,
      389,
      389,
      389,
      389,
      388,
      388,
      385,
      383,
      383,
      383,
      383,
      383,
      383,
      381,
      381,
      381,
      378,
      377,
      377,
      377,
      377,
      376,
      376,
      376,
      376,
      376,
      376,
      376,
      375,
      375,
      375,
      375,
      375,
      375,
      375,
      377,
      377,
      373,
      373,
      372,
      370,
      370,
      370,
      370,
      370,
      370,
      372,
      372,
      372,
      372,
      372,
      372,
      372,
      373,
      373,
      374,
      374,
      374,
      374,
      372,
      371,
      371,
      371,
      372,
      372,
      372,
      373,
      373,
      373,
      373,
      373,
      373,
      373,
      372,
      372,
      372,
      372,
      372,
      372,
      370,
      370,
      371,
      371,
      371,
      371,
      371,
      371,
      373,
      373,
      374,
      374,
      374,
      374,
      378,
      378,
      378,
      378,
      378,
      378,
      381,
      381,
      377,
      379,
      379,
      381,
      381,
      378,
      382,
      382,
      382,
      379,
      379,
      388,
      388,
      388,
      388,
      390,
      390,
      390,
      387,
      390,
      390,
      389,
      389,
      389,
      390,
      390,
      391,
      391,
      391,
      391,
      392,
      392,
      392,
      392,
      392,
      400,
      404,
      404,
      404,
      404,
      405,
      405,
      405,
      405,
      408,
      409,
      409,
      409,
      410,
      410,
      410,
      410,
      412,
      412,
      412,
      412,
      411,
      411,
      411,
      411,
      410,
      410,
      410,
      410,
      408,
      408,
      408,
      407,
      405,
      405,
      405,
      405,
      405,
      405,
      396,
      396,
      393,
      393,
      393,
      393,
      390,
      390,
      390,
      390,
      390,
      390,
      390,
      390,
      390,
      390,
      390,
      391,
      391,
      396,
      396,
      396,
      396,
      396,
      396,
      397,
      397,
      397,
      397,
      397,
      397,
      397,
      397,
      395,
      395,
      395,
      395,
      395,
      395,
      395,
      400,
      400,
      400,
      400,
      400,
      404,
      404,
      404,
      404,
      403,
      403,
      403,
      389,
      389,
      389,
      389,
      389,
      389,
      389,
      386,
      386,
      386,
      386,
      386,
      386,
      386,
      384,
      384,
      384,
      384,
      384,
      380,
      380,
      380,
      380,
      380,
      380,
      380,
      376,
      376,
      376,
      376,
      376,
      379,
      379,
      379,
      383,
      383,
      383,
      383,
      383,
      385,
      385,
      385,
      387,
      387,
      387,
      387,
      387,
      389,
      389,
      389,
      389,
      389,
      389,
      391,
      391,
      391,
      391,
      391,
      391,
      391,
      391,
      391,
      390,
      390,
      390,
      390,
      390,
      378,
      378,
      378,
      378,
      378,
      377,
      377,
      377,
      377,
      377,
      377,
      377,
      388,
      388,
      388,
      388,
      388,
      388,
      388,
      394,
      394,
      394,
      394,
      397,
      397,
      397,
      398,
      398,
      398,
      400,
      400,
      400,
      400,
      401,
      401,
      401,
      401,
      405,
      405,
      405,
      405,
      405,
      405,
      405,
      406,
      406,
      406,
      406,
      406,
      406,
      406,
      406,
      408,
      408,
      408,
      409,
      409,
      409,
      409,
      409,
      409,
      409,
      409,
      409,
      410,
      410,
      410,
      410,
      410,
      410,
      410,
      410,
      410,
      410,
      410,
      410,
      411,
      411,
      411,
      411,
      411,
      411,
      411,
      412,
      412,
      412,
      414,
      414,
      414,
      414,
      416,
      416,
      416,
      417,
      417,
      417,
      417,
      413,
      413,
      413,
      413,
      413,
      413,
      413,
      413,
      413,
      413,
      413,
      413,
      413,
      413,
      411,
      411,
      409,
      409,
      409,
      409,
      407,
      407,
      407,
      407,
      407,
      407,
      403,
      403,
      403,
      403,
      402,
      402,
      402,
      402,
      397,
      397,
      397,
      397,
      397,
      397,
      397,
      404,
      404,
      404,
      404,
      404,
      404,
      406,
      406,
      404,
      404,
      404,
      404,
      405,
      405,
      405,
      405,
      413,
      413,
      410,
      410,
      410,
      414,
      414,
      414,
      414,
      415,
      415,
      415,
      415,
      415,
      415,
      415,
      412,
      412,
      412,
      414,
      414,
      414,
      414,
      410,
      410,
      413,
      413,
      413,
      413,
      413,
      413,
      413,
      413,
      413,
      413,
      409,
      409,
      409,
      409,
      409,
      409,
      409,
      409,
      409,
      409,
      409,
      409,
      409,
      409,
      409,
      408,
      408,
      408,
      412,
      412,
      412,
      412,
      412,
      412,
      415,
      415,
      415,
      415,
      415,
      415,
      416,
      416,
      416,
      416,
      417,
      417,
      417,
      417,
      417,
      421,
      421,
      421,
      421,
      422,
      422,
      422,
      422,
      422,
      422,
      424,
      424,
      424,
      424,
      425,
      425,
      425,
      425,
      425,
      423,
      423,
      423,
      422,
      422,
      422,
      422,
      422,
      422,
      422,
      422,
      423,
      423,
      423,
      423,
      423,
      423,
      423,
      423,
      420,
      420,
      420,
      422,
      422,
      423,
      423,
      423,
      423,
      423,
      424,
      424,
      424,
      424,
      424,
      423,
      423,
      419,
      419,
      419,
      419,
      419,
      419,
      420,
      420,
      420,
      420,
      420,
      420,
      420,
      420,
      420,
      420,
      417,
      417,
      417,
      416,
      416,
      416,
      416,
      416,
      416,
      416,
      416,
      415,
      415,
      415,
      415,
      415,
      415,
      415,
      417,
      417,
      417,
      418,
      418,
      418,
      419,
      419,
      419,
      419,
      419,
      391,
      391,
      391,
      391,
      387,
      387,
      387,
      387,
      387,
      388,
      388,
      388,
      388,
      388,
      388,
      388,
      390,
      390,
      390,
      390,
      390,
      390,
      390,
      389,
      389,
      389,
      389,
      389,
      389,
      389,
      386,
      386,
      386,
      386,
      386,
      386,
      389,
      389,
      389,
      389,
      389,
      390,
      390,
      390,
      390,
      390,
      390,
      390,
      390,
      399,
      399,
      399,
      399,
      400,
      400,
      400,
      354,
      354,
      349,
      325,
      325,
      325,
      325,
      325,
      325,
      353,
      353,
      353,
      350,
      340,
      340,
      288,
      288,
      288,
      256,
      256,
      256,
      262,
      262,
      262,
      262,
      262,
      262,
      263,
      263,
      248,
      248,
      248,
      249,
      244,
      244,
      247,
      247,
      301,
      301,
      301,
      267,
      267,
      247,
      247,
      209,
      209,
      197,
      192,
      192,
      192,
      185,
      185,
      185,
      167,
      167,
      167,
      154,
      154,
      131,
      131,
      126,
      126,
      125,
      125,
      125
    ],
    "swim:timestamps": [
      1771510392,
      1771510392,
      1771510392,
      1771510392,
      1771510447,
      1771510447,
      1771510462,
      1771510522,
      1771510522,
      1771510567,
      1771510567,
      1771510582,
      1771510582,
      1771510626,
      1771510626,
      1771510643,
      1771510643,
      1771510643,
      1771510692,
      1771510692,
      1771510692,
      1771510943,
      1771510943,
      1771510943,
      1771510943,
      1771510943,
      1771511003,
      1771511003,
      1771511063,
      1771511063,
      1771511063,
      1771511063,
      1771511063,
      1771511063,
      1771511123,
      1771511123,
      1771511183,
      1771511183,
      1771511183,
      1771511183,
      1771511183,
      1771511424,
      1771511424,
      1771511424,
      1771511544,
      1771511552,
      1771511552,
      1771511552,
      1771511552,
      1771511612,
      1771511612,
      1771511612,
      1771511612,
      1771511612,
      1771511672,
      1771511672,
      1771511784,
      1771511844,
      1771511844,
      1771511844,
      1771511852,
      1771511852,
      1771511852,
      1771511904,
      1771511912,
      1771511912,
      1771512025,
      1771512085,
      1771512085,
      1771512093,
      1771512093,
      1771512145,
      1771512145,
      1771512145,
      1771512153,
      1771512153,
      1771512205,
      1771512205,
      1771512325,
      1771512325,
      1771512325,
      1771512453,
      1771512453,
      1771512573,
      1771512633,
      1771512653,
      1771512653,
      1771512814,
      1771512814,
      1771512890,
      1771512994,
      1771512994,
      1771512994,
      1771513054,
      1771513054,
      1771513114,
      1771513311,
      1771513355,
      1771513355,
      1771513355,
      1771513415,
      1771513415,
      1771513415,
      1771513431,
      1771513475,
      1771513535,
      1771513535,
      1771513535,
      1771513535,
      1771513731,
      1771513791,
      1771513791,
      1771513835,
      1771513851,
      1771513851,
      1771513851,
      1771514016,
      1771514032,
      1771514032,
      1771514032,
      1771514092,
      1771514092,
      1771514092,
      1771514256,
      1771514256,
      1771514256,
      1771514256,
      1771514256,
      1771514256,
      1771514436,
      1771514436,
      1771514497,
      1771514497,
      1771514497,
      1771514497,
      1771514497,
      1771514557,
      1771514633,
      1771514633,
      1771514677,
      1771514677,
      1771514677,
      1771514677,
      1771514813,
      1771514813,
      1771514813,
      1771514813,
      1771514813,
      1771514813,
      1771514933,
      1771514933,
      1771515036,
      1771515053,
      1771515053,
      1771515113,
      1771515113,
      1771515156,
      1771515173,
      1771515173,
      1771515173,
      1771515216,
      1771515216,
      1771515414,
      1771515414,
      1771515414,
      1771515414,
      1771515534,
      1771515534,
      1771515534,
      1771515576,
      1771515594,
      1771515594,
      1771515637,
      1771515637,
      1771515637,
      1771515757,
      1771515757,
      1771515834,
      1771515954,
      1771515954,
      1771515954,
      1771516015,
      1771516015,
      1771516015,
      1771516015,
      1771516015,
      1771516255,
      1771516315,
      1771516315,
      1771516315,
      1771516315,
      1771516358,
      1771516358,
      1771516358,
      1771516358,
      1771516418,
      1771516435,
      1771516435,
      1771516435,
      1771516495,
      1771516538,
      1771516538,
      1771516538,
      1771516555,
      1771516555,
      1771516615,
      1771516615,
      1771516676,
      1771516676,
      1771516676,
      1771516676,
      1771516718,
      1771516736,
      1771516736,
      1771516736,
      1771516778,
      1771516778,
      1771516778,
      1771516796,
      1771516856,
      1771516856,
      1771516856,
      1771516856,
      1771516856,
      1771516856,
      1771516976,
      1771516976,
      1771517019,
      1771517019,
      1771517019,
      1771517036,
      1771517216,
      1771517216,
      1771517216,
      1771517216,
      1771517259,
      1771517259,
      1771517259,
      1771517319,
      1771517319,
      1771517319,
      1771517319,
      1771517379,
      1771517379,
      1771517560,
      1771517560,
      1771517560,
      1771517560,
      1771517560,
      1771517560,
      1771517620,
      1771517680,
      1771517680,
      1771517680,
      1771517740,
      1771517740,
      1771517740,
      1771517740,
      1771517992,
      1771517992,
      1771517992,
      1771517992,
      1771517992,
      1771517992,
      1771517992,
      1771518293,
      1771518293,
      1771518293,
      1771518293,
      1771518293,
      1771518413,
      1771518413,
      1771518413,
      1771518413,
      1771518473,
      1771518473,
      1771518473,
      1771518713,
      1771518713,
      1771518713,
      1771518713,
      1771518713,
      1771518713,
      1771518713,
      1771518834,
      1771518834,
      1771518834,
      1771518834,
      1771518834,
      1771518834,
      1771518834,
      1771518954,
      1771518954,
      1771518954,
      1771518954,
      1771518954,
      1771519134,
      1771519134,
      1771519134,
      1771519134,
      1771519134,
      1771519134,
      1771519134,
      1771519314,
      1771519314,
      1771519374,
      1771519374,
      1771519374,
      1771519495,
      1771519495,
      1771519495,
      1771519555,
      1771519555,
      1771519555,
      1771519555,
      1771519555,
      1771519615,
      1771519615,
      1771519615,
      1771519675,
      1771519675,
      1771519675,
      1771519675,
      1771519675,
      1771519855,
      1771519855,
      1771519855,
      1771519915,
      1771519915,
      1771519915,
      1771520035,
      1771520035,
      1771520096,
      1771520096,
      1771520096,
      1771520096,
      1771520096,
      1771520096,
      1771520096,
      1771520336,
      1771520336,
      1771520336,
      1771520336,
      1771520336,
      1771520456,
      1771520456,
      1771520456,
      1771520456,
      1771520456,
      1771520636,
      1771520636,
      1771520636,
      1771520636,
      1771520636,
      1771520636,
      1771520636,
      1771520880,
      1771520880,
      1771520880,
      1771520880,
      1771520880,
      1771520880,
      1771520880,
      1771520997,
      1771520997,
      1771520997,
      1771520997,
      1771521057,
      1771521057,
      1771521057,
      1771521117,
      1771521117,
      1771521117,
      1771521177,
      1771521177,
      1771521177,
      1771521177,
      1771521237,
      1771521237,
      1771521237,
      1771521237,
      1771521357,
      1771521357,
      1771521357,
      1771521357,
      1771521357,
      1771521420,
      1771521420,
      1771521478,
      1771521478,
      1771521478,
      1771521478,
      1771521478,
      1771521538,
      1771521538,
      1771521538,
      1771521601,
      1771521601,
      1771521601,
      1771521718,
      1771521718,
      1771521718,
      1771521718,
      1771521778,
      1771521778,
      1771521778,
      1771521778,
      1771521778,
      1771521838,
      1771521838,
      1771521838,
      1771521838,
      1771521838,
      1771521901,
      1771521901,
      1771521901,
      1771521961,
      1771521961,
      1771521961,
      1771521961,
      1771522262,
      1771522262,
      1771522262,
      1771522262,
      1771522262,
      1771522262,
      1771522262,
      1771522382,
      1771522382,
      1771522382,
      1771522442,
      1771522442,
      1771522442,
      1771522442,
      1771522502,
      1771522502,
      1771522502,
      1771522562,
      1771522562,
      1771522562,
      1771522562,
      1771522814,
      1771522814,
      1771522814,
      1771522814,
      1771522814,
      1771522814,
      1771522814,
      1771522995,
      1771522995,
      1771522995,
      1771522995,
      1771522995,
      1771522995,
      1771522995,
      1771523175,
      1771523175,
      1771523415,
      1771523415,
      1771523415,
      1771523415,
      1771523655,
      1771523655,
      1771523655,
      1771523655,
      1771523655,
      1771523655,
      1771523776,
      1771523776,
      1771523776,
      1771523776,
      1771523836,
      1771523836,
      1771523836,
      1771523836,
      1771523880,
      1771523880,
      1771523880,
      1771523941,
      1771523941,
      1771523941,
      1771523941,
      1771524136,
      1771524136,
      1771524136,
      1771524136,
      1771524136,
      1771524136,
      1771524196,
      1771524196,
      1771524301,
      1771524301,
      1771524301,
      1771524301,
      1771524316,
      1771524316,
      1771524361,
      1771524361,
      1771524376,
      1771524376,
      1771524421,
      1771524421,
      1771524421,
      1771524481,
      1771524481,
      1771524481,
      1771524481,
      1771524497,
      1771524497,
      1771524541,
      1771524541,
      1771524541,
      1771524541,
      1771524541,
      1771524617,
      1771524617,
      1771524617,
      1771524661,
      1771524661,
      1771524661,
      1771524661,
      1771524737,
      1771524737,
      1771524794,
      1771524794,
      1771524794,
      1771524854,
      1771524854,
      1771524854,
      1771524854,
      1771524914,
      1771524914,
      1771524914,
      1771525094,
      1771525094,
      1771525094,
      1771525094,
      1771525154,
      1771525154,
      1771525154,
      1771525214,
      1771525214,
      1771525214,
      1771525214,
      1771525214,
      1771525274,
      1771525274,
      1771525274,
      1771525334,
      1771525334,
      1771525334,
      1771525455,
      1771525455,
      1771525455,
      1771525455,
      1771525455,
      1771525455,
      1771525575,
      1771525575,
      1771525575,
      1771525575,
      1771525575,
      1771525575,
      1771525755,
      1771525755,
      1771525755,
      1771525755,
      1771525815,
      1771525815,
      1771525815,
      1771525815,
      1771525815,
      1771525935,
      1771525935,
      1771525935,
      1771525935,
      1771525995,
      1771525995,
      1771525995,
      1771525995,
      1771525995,
      1771525995,
      1771526115,
      1771526115,
      1771526115,
      1771526115,
      1771526176,
      1771526176,
      1771526176,
      1771526176,
      1771526176,
      1771526356,
      1771526356,
      1771526356,
      1771526416,
      1771526416,
      1771526416,
      1771526416,
      1771526476,
      1771526476,
      1771526476,
      1771526476,
      1771526596,
      1771526596,
      1771526596,
      1771526656,
      1771526656,
      1771526656,
      1771526656,
      1771526656,
      1771526716,
      1771526716,
      1771526716,
      1771526896,
      1771526896,
      1771526957,
      1771527017,
      1771527017,
      1771527017,
      1771527017,
      1771527077,
      1771527077,
      1771527077,
      1771527077,
      1771527077,
      1771527197,
      1771527197,
      1771527317,
      1771527317,
      1771527317,
      1771527317,
      1771527317,
      1771527317,
      1771527497,
      1771527497,
      1771527497,
      1771527497,
      1771527497,
      1771527617,
      1771527617,
      1771527617,
      1771527617,
      1771527617,
      1771527738,
      1771527738,
      1771527738,
      1771527810,
      1771527810,
      1771527810,
      1771527810,
      1771527810,
      1771527930,
      1771527930,
      1771527930,
      1771528050,
      1771528050,
      1771528050,
      1771528050,
      1771528050,
      1771528050,
      1771528050,
      1771528230,
      1771528230,
      1771528230,
      1771528290,
      1771528290,
      1771528290,
      1771528350,
      1771528350,
      1771528350,
      1771528350,
      1771528350,
      1771528531,
      1771528531,
      1771528531,
      1771528531,
      1771528591,
      1771528591,
      1771528591,
      1771528651,
      1771528651,
      1771528771,
      1771528771,
      1771528771,
      1771528771,
      1771528771,
      1771528771,
      1771528771,
      1771529071,
      1771529071,
      1771529071,
      1771529071,
      1771529071,
      1771529071,
      1771529071,
      1771529192,
      1771529192,
      1771529192,
      1771529192,
      1771529192,
      1771529252,
      1771529252,
      1771529372,
      1771529372,
      1771529372,
      1771529372,
      1771529432,
      1771529432,
      1771529497,
      1771529497,
      1771529497,
      1771529497,
      1771529497,
      1771529557,
      1771529557,
      1771529557,
      1771529617,
      1771529617,
      1771529677,
      1771529677,
      1771529677,
      1771529797,
      1771529797,
      1771529797,
      1771529797,
      1771529857,
      1771529857,
      1771529857,
      1771529977,
      1771529977,
      1771530098,
      1771530218,
      1771530218,
      1771530218,
      1771530218,
      1771530218,
      1771530218,
      1771530482,
      1771530482,
      1771530482,
      1771530542,
      1771530578,
      1771530578,
      1771530662,
      1771530662,
      1771530662,
      1771530781,
      1771530781,
      1771530781,
      1771530902,
      1771530902,
      1771530902,
      1771530902,
      1771530902,
      1771530902,
      1771531059,
      1771531059,
      1771531142,
      1771531142,
      1771531142,
      1771531239,
      1771531262,
      1771531262,
      1771531322,
      1771531322,
      1771531479,
      1771531479,
      1771531479,
      1771531621,
      1771531621,
      1771531660,
      1771531660,
      1771531720,
      1771531720,
      1771531742,
      1771531802,
      1771531802,
      1771531802,
      1771531900,
      1771531900,
      1771531900,
      1771531960,
      1771531960,
      1771531960,
      1771532080,
      1771532080,
      1771532162,
      1771532162,
      1771532200,
      1771532200,
      1771532260,
      1771532260,
      1771532260
    ],
    "wof:geomhash": "a8ac41c62573b1c07f7553c9b9050f68",
    "wof:id": 2014832321,
    "wof:repo": "sfomuseum-data-flights-2026-02"
  },
  "bbox": [
    -122.34222222222222,
    37.43111111111111,
    -74.15,
    40.80166666666666
  ],
  "geometry": {"coordinates":[[-74.16666666666667,40.7],[-74.16666666666667,40.7],[-74.16666666666667,40.7],[-74.16666666666667,40.7],[-74.15,40.75],[-74.15,40.75],[-74.16083333333334,40.75472222222222],[-74.22527777777778,40.778055555555554],[-74.22527777777778,40.778055555555554],[-74.3,40.78333333333333],[-74.3,40.78333333333333],[-74.33111111111111,40.78388888888889],[-74.33111111111111,40.78388888888889],[-74.4,40.78333333333333],[-74.4,40.78333333333333],[-74.42583333333334,40.78861111111111],[-74.42583333333334,40.78861111111111],[-74.42583333333334,40.78861111111111],[-74.51666666666667,40.78333333333333],[-74.51666666666667,40.78333333333333],[-74.51666666666667,40.78333333333333],[-75.05416666666666,40.80166666666666],[-75.05416666666666,40.80166666666666],[-75.05416666666666,40.80166666666666],[-75.05416666666666,40.80166666666666],[-75.05416666666666,40.80166666666666],[-75.17277777777778,40.79611111111111],[-75.17277777777778,40.79611111111111],[-75.30583333333333,40.776666666666664],[-75.30583333333333,40.776666666666664],[-75.30583333333333,40.776666666666664],[-75.30583333333333,40.776666666666664],[-75.30583333333333,40.776666666666664],[-75.30583333333333,40.776666666666664],[-75.43777777777778,40.745],[-75.43777777777778,40.745],[-75.58472222222221,40.69],[-75.58472222222221,40.69],[-75.58472222222221,40.69],[-75.58472222222221,40.69],[-75.58472222222221,40.69],[-76.07194444444444,40.505833333333335],[-76.07194444444444,40.505833333333335],[-76.07194444444444,40.505833333333335],[-76.3461111111111,40.400277777777774],[-76.3475,40.39944444444444],[-76.3475,40.39944444444444],[-76.3475,40.39944444444444],[-76.3475,40.39944444444444],[-76.48055555555555,40.34861111111111],[-76.48055555555555,40.34861111111111],[-76.48055555555555,40.34861111111111],[-76.48055555555555,40.34861111111111],[-76.48055555555555,40.34861111111111],[-76.60777777777777,40.31944444444445],[-76.60777777777777,40.31944444444445],[-76.86972222222222,40.2925],[-76.99972222222222,40.27916666666667],[-76.99972222222222,40.27916666666667],[-76.99972222222222,40.27916666666667],[-77.02083333333333,40.276944444444446],[-77.02083333333333,40.276944444444446],[-77.02083333333333,40.276944444444446],[-77.13666666666667,40.264722222222225],[-77.15611111111112,40.26277777777778],[-77.15611111111112,40.26277777777778],[-77.41583333333334,40.23527777777778],[-77.54916666666666,40.221111111111114],[-77.54916666666666,40.221111111111114],[-77.56055555555555,40.219722222222224],[-77.56055555555555,40.219722222222224],[-77.68583333333333,40.20611111111111],[-77.68583333333333,40.20611111111111],[-77.68583333333333,40.20611111111111],[-77.69638888888889,40.205000000000005],[-77.69638888888889,40.205000000000005],[-77.81944444444444,40.19138888888889],[-77.81944444444444,40.19138888888889],[-78.0886111111111,40.163888888888884],[-78.0886111111111,40.163888888888884],[-78.0886111111111,40.163888888888884],[-78.39083333333333,40.163333333333334],[-78.39083333333333,40.163333333333334],[-78.66472222222222,40.16138888888889],[-78.80111111111111,40.16],[-78.835,40.15972222222222],[-78.835,40.15972222222222],[-79.18,40.155833333333334],[-79.18,40.155833333333334],[-79.36305555555555,40.15333333333333],[-79.58361111111111,40.149166666666666],[-79.58361111111111,40.149166666666666],[-79.58361111111111,40.149166666666666],[-79.71805555555555,40.146388888888886],[-79.71805555555555,40.146388888888886],[-79.85194444444444,40.14361111111111],[-80.30388888888889,40.132777777777775],[-80.39555555555556,40.13027777777778],[-80.39555555555556,40.13027777777778],[-80.39555555555556,40.13027777777778],[-80.53083333333333,40.12638888888889],[-80.53083333333333,40.12638888888889],[-80.53083333333333,40.12638888888889],[-80.58416666666666,40.125],[-80.66722222222222,40.12277777777778],[-80.80083333333333,40.118611111111115],[-80.80083333333333,40.118611111111115],[-80.80083333333333,40.118611111111115],[-80.80083333333333,40.118611111111115],[-81.26166666666667,40.103611111111114],[-81.39666666666668,40.098888888888894],[-81.39666666666668,40.098888888888894],[-81.47611111111111,40.096111111111114],[-81.53166666666667,40.094166666666666],[-81.53166666666667,40.094166666666666],[-81.53166666666667,40.094166666666666],[-81.89111111111112,40.08027777777778],[-81.93861111111111,40.078611111111115],[-81.93861111111111,40.078611111111115],[-81.93861111111111,40.078611111111115],[-82.07416666666666,40.073055555555555],[-82.07416666666666,40.073055555555555],[-82.07416666666666,40.073055555555555],[-82.42916666666667,40.05777777777777],[-82.42916666666667,40.05777777777777],[-82.42916666666667,40.05777777777777],[-82.42916666666667,40.05777777777777],[-82.42916666666667,40.05777777777777],[-82.42916666666667,40.05777777777777],[-82.8286111111111,40.03916666666667],[-82.8286111111111,40.03916666666667],[-82.96388888888889,40.0325],[-82.96388888888889,40.0325],[-82.96388888888889,40.0325],[-82.96388888888889,40.0325],[-82.96388888888889,40.0325],[-83.09638888888888,40.02611111111111],[-83.2775,40.016666666666666],[-83.2775,40.016666666666666],[-83.36277777777777,40.01222222222222],[-83.36277777777777,40.01222222222222],[-83.36277777777777,40.01222222222222],[-83.36277777777777,40.01222222222222],[-83.68777777777778,39.99472222222222],[-83.68777777777778,39.99472222222222],[-83.68777777777778,39.99472222222222],[-83.68777777777778,39.99472222222222],[-83.68777777777778,39.99472222222222],[-83.68777777777778,39.99472222222222],[-83.9625,39.97916666666667],[-83.9625,39.97916666666667],[-84.19638888888889,39.965],[-84.23361111111112,39.963055555555556],[-84.23361111111112,39.963055555555556],[-84.3711111111111,39.95472222222222],[-84.3711111111111,39.95472222222222],[-84.47361111111111,39.94888888888889],[-84.50805555555556,39.94638888888888],[-84.50805555555556,39.94638888888888],[-84.50805555555556,39.94638888888888],[-84.6125,39.94027777777777],[-84.6125,39.94027777777777],[-85.05972222222222,39.91027777777778],[-85.05972222222222,39.91027777777778],[-85.05972222222222,39.91027777777778],[-85.05972222222222,39.91027777777778],[-85.34916666666666,39.89055555555556],[-85.34916666666666,39.89055555555556],[-85.34916666666666,39.89055555555556],[-85.45583333333333,39.88361111111111],[-85.49027777777778,39.88055555555555],[-85.49027777777778,39.88055555555555],[-85.5975,39.873333333333335],[-85.5975,39.873333333333335],[-85.5975,39.873333333333335],[-85.87944444444443,39.85333333333333],[-85.87944444444443,39.85333333333333],[-86.06222222222222,39.83833333333334],[-86.34166666666667,39.816944444444445],[-86.34166666666667,39.816944444444445],[-86.34166666666667,39.816944444444445],[-86.48111111111112,39.81722222222223],[-86.48111111111112,39.81722222222223],[-86.48111111111112,39.81722222222223],[-86.48111111111112,39.81722222222223],[-86.48111111111112,39.81722222222223],[-87.05583333333333,39.8275],[-87.20305555555557,39.830000000000005],[-87.20305555555557,39.830000000000005],[-87.20305555555557,39.830000000000005],[-87.20305555555557,39.830000000000005],[-87.3125,39.831388888888895],[-87.3125,39.831388888888895],[-87.3125,39.831388888888895],[-87.3125,39.831388888888895],[-87.45972222222223,39.833333333333336],[-87.50166666666667,39.83388888888889],[-87.50166666666667,39.83388888888889],[-87.50166666666667,39.83388888888889],[-87.64861111111112,39.83555555555556],[-87.75805555555556,39.836666666666666],[-87.75805555555556,39.836666666666666],[-87.75805555555556,39.836666666666666],[-87.79777777777778,39.83722222222222],[-87.79777777777778,39.83722222222222],[-87.94805555555556,39.83833333333334],[-87.94805555555556,39.83833333333334],[-88.09444444444443,39.839444444444446],[-88.09444444444443,39.839444444444446],[-88.09444444444443,39.839444444444446],[-88.09444444444443,39.839444444444446],[-88.205,39.84027777777778],[-88.23944444444444,39.84027777777778],[-88.23944444444444,39.84027777777778],[-88.23944444444444,39.84027777777778],[-88.34972222222221,39.84111111111111],[-88.34972222222221,39.84111111111111],[-88.34972222222221,39.84111111111111],[-88.37472222222222,39.84111111111111],[-88.52055555555556,39.84166666666667],[-88.52055555555556,39.84166666666667],[-88.52055555555556,39.84166666666667],[-88.52055555555556,39.84166666666667],[-88.52055555555556,39.84166666666667],[-88.52055555555556,39.84166666666667],[-88.80555555555556,39.8425],[-88.80555555555556,39.8425],[-88.92,39.8425],[-88.92,39.8425],[-88.92,39.8425],[-88.94694444444445,39.842222222222226],[-89.36749999999999,39.84138888888889],[-89.36749999999999,39.84138888888889],[-89.36749999999999,39.84138888888889],[-89.36749999999999,39.84138888888889],[-89.48138888888889,39.840833333333336],[-89.48138888888889,39.840833333333336],[-89.48138888888889,39.840833333333336],[-89.62194444444444,39.84],[-89.62194444444444,39.84],[-89.62194444444444,39.84],[-89.62194444444444,39.84],[-89.76194444444444,39.83222222222223],[-89.76194444444444,39.83222222222223],[-90.18805555555556,39.79416666666666],[-90.18805555555556,39.79416666666666],[-90.18805555555556,39.79416666666666],[-90.18805555555556,39.79416666666666],[-90.18805555555556,39.79416666666666],[-90.18805555555556,39.79416666666666],[-90.33027777777778,39.78111111111111],[-90.46972222222223,39.768055555555556],[-90.46972222222223,39.768055555555556],[-90.46972222222223,39.768055555555556],[-90.61333333333333,39.754444444444445],[-90.61333333333333,39.754444444444445],[-90.61333333333333,39.754444444444445],[-90.61333333333333,39.754444444444445],[-91.17444444444445,39.69944444444444],[-91.17444444444445,39.69944444444444],[-91.17444444444445,39.69944444444444],[-91.17444444444445,39.69944444444444],[-91.17444444444445,39.69944444444444],[-91.17444444444445,39.69944444444444],[-91.17444444444445,39.69944444444444],[-91.91472222222222,39.62305555555555],[-91.91472222222222,39.62305555555555],[-91.91472222222222,39.62305555555555],[-91.91472222222222,39.62305555555555],[-91.91472222222222,39.62305555555555],[-92.20416666666667,39.59166666666667],[-92.20416666666667,39.59166666666667],[-92.20416666666667,39.59166666666667],[-92.20416666666667,39.59166666666667],[-92.34888888888888,39.575833333333335],[-92.34888888888888,39.575833333333335],[-92.34888888888888,39.575833333333335],[-92.90972222222223,39.51222222222222],[-92.90972222222223,39.51222222222222],[-92.90972222222223,39.51222222222222],[-92.90972222222223,39.51222222222222],[-92.90972222222223,39.51222222222222],[-92.90972222222223,39.51222222222222],[-92.90972222222223,39.51222222222222],[-93.18444444444445,39.480000000000004],[-93.18444444444445,39.480000000000004],[-93.18444444444445,39.480000000000004],[-93.18444444444445,39.480000000000004],[-93.18444444444445,39.480000000000004],[-93.18444444444445,39.480000000000004],[-93.18444444444445,39.480000000000004],[-93.45777777777778,39.447222222222216],[-93.45777777777778,39.447222222222216],[-93.45777777777778,39.447222222222216],[-93.45777777777778,39.447222222222216],[-93.45777777777778,39.447222222222216],[-93.86749999999999,39.39694444444444],[-93.86749999999999,39.39694444444444],[-93.86749999999999,39.39694444444444],[-93.86749999999999,39.39694444444444],[-93.86749999999999,39.39694444444444],[-93.86749999999999,39.39694444444444],[-93.86749999999999,39.39694444444444],[-94.26722222222222,39.34638888888889],[-94.26722222222222,39.34638888888889],[-94.4,39.32944444444445],[-94.4,39.32944444444445],[-94.4,39.32944444444445],[-94.66833333333334,39.294444444444444],[-94.66833333333334,39.294444444444444],[-94.66833333333334,39.294444444444444],[-94.80611111111111,39.28638888888889],[-94.80611111111111,39.28638888888889],[-94.80611111111111,39.28638888888889],[-94.80611111111111,39.28638888888889],[-94.80611111111111,39.28638888888889],[-94.94527777777778,39.288888888888884],[-94.94527777777778,39.288888888888884],[-94.94527777777778,39.288888888888884],[-95.08277777777778,39.29111111111111],[-95.08277777777778,39.29111111111111],[-95.08277777777778,39.29111111111111],[-95.08277777777778,39.29111111111111],[-95.08277777777778,39.29111111111111],[-95.48916666666666,39.29694444444444],[-95.48916666666666,39.29694444444444],[-95.48916666666666,39.29694444444444],[-95.62833333333333,39.29861111111111],[-95.62833333333333,39.29861111111111],[-95.62833333333333,39.29861111111111],[-95.90777777777778,39.30138888888889],[-95.90777777777778,39.30138888888889],[-96.04777777777778,39.302499999999995],[-96.04777777777778,39.302499999999995],[-96.04777777777778,39.302499999999995],[-96.04777777777778,39.302499999999995],[-96.04777777777778,39.302499999999995],[-96.04777777777778,39.302499999999995],[-96.04777777777778,39.302499999999995],[-96.60833333333333,39.305277777777775],[-96.60833333333333,39.305277777777775],[-96.60833333333333,39.305277777777775],[-96.60833333333333,39.305277777777775],[-96.60833333333333,39.305277777777775],[-96.88166666666666,39.30583333333333],[-96.88166666666666,39.30583333333333],[-96.88166666666666,39.30583333333333],[-96.88166666666666,39.30583333333333],[-96.88166666666666,39.30583333333333],[-97.28527777777778,39.305],[-97.28527777777778,39.305],[-97.28527777777778,39.305],[-97.28527777777778,39.305],[-97.28527777777778,39.305],[-97.28527777777778,39.305],[-97.28527777777778,39.305],[-97.84083333333332,39.301944444444445],[-97.84083333333332,39.301944444444445],[-97.84083333333332,39.301944444444445],[-97.84083333333332,39.301944444444445],[-97.84083333333332,39.301944444444445],[-97.84083333333332,39.301944444444445],[-97.84083333333332,39.301944444444445],[-98.11749999999999,39.29944444444444],[-98.11749999999999,39.29944444444444],[-98.11749999999999,39.29944444444444],[-98.11749999999999,39.29944444444444],[-98.26555555555555,39.297777777777775],[-98.26555555555555,39.297777777777775],[-98.26555555555555,39.297777777777775],[-98.40972222222223,39.29611111111111],[-98.40972222222223,39.29611111111111],[-98.40972222222223,39.29611111111111],[-98.55416666666666,39.29416666666666],[-98.55416666666666,39.29416666666666],[-98.55416666666666,39.29416666666666],[-98.55416666666666,39.29416666666666],[-98.69333333333334,39.29222222222222],[-98.69333333333334,39.29222222222222],[-98.69333333333334,39.29222222222222],[-98.69333333333334,39.29222222222222],[-98.99472222222222,39.28722222222222],[-98.99472222222222,39.28722222222222],[-98.99472222222222,39.28722222222222],[-98.99472222222222,39.28722222222222],[-98.99472222222222,39.28722222222222],[-99.14472222222223,39.28444444444444],[-99.14472222222223,39.28444444444444],[-99.28555555555555,39.281666666666666],[-99.28555555555555,39.281666666666666],[-99.28555555555555,39.281666666666666],[-99.28555555555555,39.281666666666666],[-99.28555555555555,39.281666666666666],[-99.43055555555556,39.27861111111111],[-99.43055555555556,39.27861111111111],[-99.43055555555556,39.27861111111111],[-99.58305555555555,39.275277777777774],[-99.58305555555555,39.275277777777774],[-99.58305555555555,39.275277777777774],[-99.86999999999999,39.26833333333333],[-99.86999999999999,39.26833333333333],[-99.86999999999999,39.26833333333333],[-99.86999999999999,39.26833333333333],[-100.01611111111112,39.26444444444444],[-100.01611111111112,39.26444444444444],[-100.01611111111112,39.26444444444444],[-100.01611111111112,39.26444444444444],[-100.01611111111112,39.26444444444444],[-100.16194444444444,39.260555555555555],[-100.16194444444444,39.260555555555555],[-100.16194444444444,39.260555555555555],[-100.16194444444444,39.260555555555555],[-100.16194444444444,39.260555555555555],[-100.31777777777778,39.25055555555556],[-100.31777777777778,39.25055555555556],[-100.31777777777778,39.25055555555556],[-100.46416666666667,39.237500000000004],[-100.46416666666667,39.237500000000004],[-100.46416666666667,39.237500000000004],[-100.46416666666667,39.237500000000004],[-101.19694444444445,39.16916666666666],[-101.19694444444445,39.16916666666666],[-101.19694444444445,39.16916666666666],[-101.19694444444445,39.16916666666666],[-101.19694444444445,39.16916666666666],[-101.19694444444445,39.16916666666666],[-101.19694444444445,39.16916666666666],[-101.48833333333333,39.14055555555556],[-101.48833333333333,39.14055555555556],[-101.48833333333333,39.14055555555556],[-101.6363888888889,39.12583333333333],[-101.6363888888889,39.12583333333333],[-101.6363888888889,39.12583333333333],[-101.6363888888889,39.12583333333333],[-101.7936111111111,39.11],[-101.7936111111111,39.11],[-101.7936111111111,39.11],[-101.93972222222223,39.095],[-101.93972222222223,39.095],[-101.93972222222223,39.095],[-101.93972222222223,39.095],[-102.55055555555555,39.030277777777776],[-102.55055555555555,39.030277777777776],[-102.55055555555555,39.030277777777776],[-102.55055555555555,39.030277777777776],[-102.55055555555555,39.030277777777776],[-102.55055555555555,39.030277777777776],[-102.55055555555555,39.030277777777776],[-102.99194444444444,38.981388888888894],[-102.99194444444444,38.981388888888894],[-102.99194444444444,38.981388888888894],[-102.99194444444444,38.981388888888894],[-102.99194444444444,38.981388888888894],[-102.99194444444444,38.981388888888894],[-102.99194444444444,38.981388888888894],[-103.42833333333334,38.93138888888889],[-103.42833333333334,38.93138888888889],[-104.00777777777778,38.862500000000004],[-104.00777777777778,38.862500000000004],[-104.00777777777778,38.862500000000004],[-104.00777777777778,38.862500000000004],[-104.58305555555555,38.79111111111111],[-104.58305555555555,38.79111111111111],[-104.58305555555555,38.79111111111111],[-104.58305555555555,38.79111111111111],[-104.58305555555555,38.79111111111111],[-104.58305555555555,38.79111111111111],[-104.865,38.755],[-104.865,38.755],[-104.865,38.755],[-104.865,38.755],[-105.0075,38.73638888888889],[-105.0075,38.73638888888889],[-105.0075,38.73638888888889],[-105.0075,38.73638888888889],[-105.11277777777777,38.72166666666667],[-105.11277777777777,38.72166666666667],[-105.11277777777777,38.72166666666667],[-105.25361111111111,38.7025],[-105.25361111111111,38.7025],[-105.25361111111111,38.7025],[-105.25361111111111,38.7025],[-105.71083333333334,38.64222222222222],[-105.71083333333334,38.64222222222222],[-105.71083333333334,38.64222222222222],[-105.71083333333334,38.64222222222222],[-105.71083333333334,38.64222222222222],[-105.71083333333334,38.64222222222222],[-105.85388888888889,38.6225],[-105.85388888888889,38.6225],[-106.10277777777777,38.58583333333333],[-106.10277777777777,38.58583333333333],[-106.10277777777777,38.58583333333333],[-106.10277777777777,38.58583333333333],[-106.11555555555555,38.58583333333333],[-106.11555555555555,38.58583333333333],[-106.24666666666667,38.56583333333333],[-106.24666666666667,38.56583333333333],[-106.275,38.56333333333333],[-106.275,38.56333333333333],[-106.39194444444445,38.545833333333334],[-106.39194444444445,38.545833333333334],[-106.39194444444445,38.545833333333334],[-106.53916666666666,38.52333333333333],[-106.53916666666666,38.52333333333333],[-106.53916666666666,38.52333333333333],[-106.53916666666666,38.52333333333333],[-106.56777777777778,38.52166666666667],[-106.56777777777778,38.52166666666667],[-106.68361111111112,38.50222222222222],[-106.68361111111112,38.50222222222222],[-106.68361111111112,38.50222222222222],[-106.68361111111112,38.50222222222222],[-106.68361111111112,38.50222222222222],[-106.85555555555555,38.47944444444445],[-106.85555555555555,38.47944444444445],[-106.85555555555555,38.47944444444445],[-106.96805555555555,38.45944444444445],[-106.96805555555555,38.45944444444445],[-106.96805555555555,38.45944444444445],[-106.96805555555555,38.45944444444445],[-107.14277777777778,38.45277777777778],[-107.14277777777778,38.45277777777778],[-107.25611111111111,38.453611111111115],[-107.25611111111111,38.453611111111115],[-107.25611111111111,38.453611111111115],[-107.43222222222222,38.4525],[-107.43222222222222,38.4525],[-107.43222222222222,38.4525],[-107.43222222222222,38.4525],[-107.57833333333333,38.453611111111115],[-107.57833333333333,38.453611111111115],[-107.57833333333333,38.453611111111115],[-108.01055555555556,38.4525],[-108.01055555555556,38.4525],[-108.01055555555556,38.4525],[-108.01055555555556,38.4525],[-108.1563888888889,38.4525],[-108.1563888888889,38.4525],[-108.1563888888889,38.4525],[-108.30083333333333,38.4525],[-108.30083333333333,38.4525],[-108.30083333333333,38.4525],[-108.30083333333333,38.4525],[-108.30083333333333,38.4525],[-108.44611111111111,38.45194444444445],[-108.44611111111111,38.45194444444445],[-108.44611111111111,38.45194444444445],[-108.58972222222222,38.45027777777778],[-108.58972222222222,38.45027777777778],[-108.58972222222222,38.45027777777778],[-108.88277777777778,38.448611111111106],[-108.88277777777778,38.448611111111106],[-108.88277777777778,38.448611111111106],[-108.88277777777778,38.448611111111106],[-108.88277777777778,38.448611111111106],[-108.88277777777778,38.448611111111106],[-109.17805555555556,38.445277777777775],[-109.17805555555556,38.445277777777775],[-109.17805555555556,38.445277777777775],[-109.17805555555556,38.445277777777775],[-109.17805555555556,38.445277777777775],[-109.17805555555556,38.445277777777775],[-109.62277777777777,38.439166666666665],[-109.62277777777777,38.439166666666665],[-109.62277777777777,38.439166666666665],[-109.62277777777777,38.439166666666665],[-109.76944444444445,38.43666666666666],[-109.76944444444445,38.43666666666666],[-109.76944444444445,38.43666666666666],[-109.76944444444445,38.43666666666666],[-109.76944444444445,38.43666666666666],[-110.06888888888888,38.43111111111111],[-110.06888888888888,38.43111111111111],[-110.06888888888888,38.43111111111111],[-110.06888888888888,38.43111111111111],[-110.21833333333333,38.428888888888885],[-110.21833333333333,38.428888888888885],[-110.21833333333333,38.428888888888885],[-110.21833333333333,38.428888888888885],[-110.21833333333333,38.428888888888885],[-110.21833333333333,38.428888888888885],[-110.52,38.42472222222222],[-110.52,38.42472222222222],[-110.52,38.42472222222222],[-110.52,38.42472222222222],[-110.66916666666667,38.4225],[-110.66916666666667,38.4225],[-110.66916666666667,38.4225],[-110.66916666666667,38.4225],[-110.66916666666667,38.4225],[-111.09972222222221,38.41444444444444],[-111.09972222222221,38.41444444444444],[-111.09972222222221,38.41444444444444],[-111.24888888888889,38.41138888888889],[-111.24888888888889,38.41138888888889],[-111.24888888888889,38.41138888888889],[-111.24888888888889,38.41138888888889],[-111.39722222222223,38.408055555555556],[-111.39722222222223,38.408055555555556],[-111.39722222222223,38.408055555555556],[-111.39722222222223,38.408055555555556],[-111.69722222222222,38.401111111111106],[-111.69722222222222,38.401111111111106],[-111.69722222222222,38.401111111111106],[-111.84583333333333,38.39722222222222],[-111.84583333333333,38.39722222222222],[-111.84583333333333,38.39722222222222],[-111.84583333333333,38.39722222222222],[-111.84583333333333,38.39722222222222],[-111.99166666666667,38.393055555555556],[-111.99166666666667,38.393055555555556],[-111.99166666666667,38.393055555555556],[-112.4375,38.38],[-112.4375,38.38],[-112.58583333333333,38.375277777777775],[-112.73361111111112,38.37027777777778],[-112.73361111111112,38.37027777777778],[-112.73361111111112,38.37027777777778],[-112.73361111111112,38.37027777777778],[-112.88333333333334,38.365],[-112.88333333333334,38.365],[-112.88333333333334,38.365],[-112.88333333333334,38.365],[-112.88333333333334,38.365],[-113.18083333333334,38.35888888888889],[-113.18083333333334,38.35888888888889],[-113.50555555555556,38.355555555555554],[-113.50555555555556,38.355555555555554],[-113.50555555555556,38.355555555555554],[-113.50555555555556,38.355555555555554],[-113.50555555555556,38.355555555555554],[-113.50555555555556,38.355555555555554],[-113.94833333333334,38.35055555555556],[-113.94833333333334,38.35055555555556],[-113.94833333333334,38.35055555555556],[-113.94833333333334,38.35055555555556],[-113.94833333333334,38.35055555555556],[-114.245,38.35138888888889],[-114.245,38.35138888888889],[-114.245,38.35138888888889],[-114.245,38.35138888888889],[-114.245,38.35138888888889],[-114.53694444444444,38.35111111111111],[-114.53694444444444,38.35111111111111],[-114.53694444444444,38.35111111111111],[-114.68444444444445,38.35055555555556],[-114.68444444444445,38.35055555555556],[-114.68444444444445,38.35055555555556],[-114.68444444444445,38.35055555555556],[-114.68444444444445,38.35055555555556],[-115.00694444444444,38.34916666666667],[-115.00694444444444,38.34916666666667],[-115.00694444444444,38.34916666666667],[-115.29833333333333,38.346944444444446],[-115.29833333333333,38.346944444444446],[-115.29833333333333,38.346944444444446],[-115.29833333333333,38.346944444444446],[-115.29833333333333,38.346944444444446],[-115.29833333333333,38.346944444444446],[-115.29833333333333,38.346944444444446],[-115.73361111111112,38.342222222222226],[-115.73361111111112,38.342222222222226],[-115.73361111111112,38.342222222222226],[-115.88416666666667,38.34027777777778],[-115.88416666666667,38.34027777777778],[-115.88416666666667,38.34027777777778],[-116.03194444444445,38.33833333333334],[-116.03194444444445,38.33833333333334],[-116.03194444444445,38.33833333333334],[-116.03194444444445,38.33833333333334],[-116.03194444444445,38.33833333333334],[-116.46138888888889,38.30472222222222],[-116.46138888888889,38.30472222222222],[-116.46138888888889,38.30472222222222],[-116.46138888888889,38.30472222222222],[-116.59333333333333,38.27472222222222],[-116.59333333333333,38.27472222222222],[-116.59333333333333,38.27472222222222],[-116.72500000000001,38.245],[-116.72500000000001,38.245],[-116.98777777777778,38.184999999999995],[-116.98777777777778,38.184999999999995],[-116.98777777777778,38.184999999999995],[-116.98777777777778,38.184999999999995],[-116.98777777777778,38.184999999999995],[-116.98777777777778,38.184999999999995],[-116.98777777777778,38.184999999999995],[-117.6363888888889,38.03444444444444],[-117.6363888888889,38.03444444444444],[-117.6363888888889,38.03444444444444],[-117.6363888888889,38.03444444444444],[-117.6363888888889,38.03444444444444],[-117.6363888888889,38.03444444444444],[-117.6363888888889,38.03444444444444],[-117.90666666666667,37.99527777777778],[-117.90666666666667,37.99527777777778],[-117.90666666666667,37.99527777777778],[-117.90666666666667,37.99527777777778],[-117.90666666666667,37.99527777777778],[-118.04166666666667,37.981388888888894],[-118.04166666666667,37.981388888888894],[-118.31027777777777,37.95194444444445],[-118.31027777777777,37.95194444444445],[-118.31027777777777,37.95194444444445],[-118.31027777777777,37.95194444444445],[-118.44472222222223,37.93694444444444],[-118.44472222222223,37.93694444444444],[-118.61027777777777,37.918055555555554],[-118.61027777777777,37.918055555555554],[-118.61027777777777,37.918055555555554],[-118.61027777777777,37.918055555555554],[-118.61027777777777,37.918055555555554],[-118.74555555555555,37.902499999999996],[-118.74555555555555,37.902499999999996],[-118.74555555555555,37.902499999999996],[-118.88138888888888,37.88666666666666],[-118.88138888888888,37.88666666666666],[-119.01777777777778,37.87083333333334],[-119.01777777777778,37.87083333333334],[-119.01777777777778,37.87083333333334],[-119.28277777777778,37.839444444444446],[-119.28277777777778,37.839444444444446],[-119.28277777777778,37.839444444444446],[-119.28277777777778,37.839444444444446],[-119.42416666666666,37.823888888888895],[-119.42416666666666,37.823888888888895],[-119.42416666666666,37.823888888888895],[-119.68305555555555,37.869166666666665],[-119.68305555555555,37.869166666666665],[-119.87888888888888,37.75888888888889],[-120.04972222222221,37.63722222222222],[-120.04972222222221,37.63722222222222],[-120.04972222222221,37.63722222222222],[-120.04972222222221,37.63722222222222],[-120.04972222222221,37.63722222222222],[-120.04972222222221,37.63722222222222],[-120.6,37.68333333333333],[-120.6,37.68333333333333],[-120.6,37.68333333333333],[-120.71666666666667,37.666666666666664],[-120.78027777777778,37.655],[-120.78027777777778,37.655],[-120.93333333333334,37.63333333333333],[-120.93333333333334,37.63333333333333],[-120.93333333333334,37.63333333333333],[-121.11666666666666,37.61666666666667],[-121.11666666666666,37.61666666666667],[-121.11666666666666,37.61666666666667],[-121.28333333333333,37.583333333333336],[-121.28333333333333,37.583333333333336],[-121.28333333333333,37.583333333333336],[-121.28333333333333,37.583333333333336],[-121.28333333333333,37.583333333333336],[-121.28333333333333,37.583333333333336],[-121.51388888888889,37.56361111111111],[-121.51388888888889,37.56361111111111],[-121.65,37.56666666666667],[-121.65,37.56666666666667],[-121.65,37.56666666666667],[-121.73361111111112,37.636944444444445],[-121.78333333333333,37.65],[-121.78333333333333,37.65],[-121.86666666666666,37.666666666666664],[-121.86666666666666,37.666666666666664],[-122.03444444444445,37.59583333333334],[-122.03444444444445,37.59583333333334],[-122.03444444444445,37.59583333333334],[-121.83333333333333,37.5],[-121.83333333333333,37.5],[-121.83138888888888,37.467777777777776],[-121.83138888888888,37.467777777777776],[-121.88333333333334,37.43111111111111],[-121.88333333333334,37.43111111111111],[-121.91666666666667,37.43333333333333],[-121.98333333333333,37.45],[-121.98333333333333,37.45],[-121.98333333333333,37.45],[-122.06444444444445,37.49027777777778],[-122.06444444444445,37.49027777777778],[-122.06444444444445,37.49027777777778],[-122.11944444444444,37.513333333333335],[-122.11944444444444,37.513333333333335],[-122.11944444444444,37.513333333333335],[-122.21416666666667,37.55333333333333],[-122.21416666666667,37.55333333333333],[-122.28333333333333,37.583333333333336],[-122.28333333333333,37.583333333333336],[-122.30388888888889,37.59111111111111],[-122.30388888888889,37.59111111111111],[-122.34222222222222,37.60722222222223],[-122.34222222222222,37.60722222222223],[-122.34222222222222,37.60722222222223]],"type":"LineString"}
}
