{
  "id": 2014840563,
  "type": "Feature",
  "properties": {
    "geom:area": 0,
    "geom:bbox": "-122.380000,37.490000,-74.170000,44.620000",
    "geom:latitude": 41.892810007626345,
    "geom:longitude": -97.85822027079939,
    "src:alt_label": "swim-route",
    "src:geom": "swim",
    "swim:geom": "route",
    "wof:geomhash": "1bcd163aaaaec7fd66b45c41304fe876",
    "wof:id": 2014840563,
    "wof:repo": "sfomuseum-data-flights-2026-02"
  },
  "bbox": [
    -122.38,
    37.49,
    -74.17,
    44.62
  ],
  "geometry": {"coordinates":[[-74.17,40.69],[-74.2,40.82],[-74.22,40.89],[-74.23,40.91],[-74.23,40.94],[-74.24,40.96],[-74.25,40.98],[-74.25,41.01],[-74.26,41.06],[-74.27,41.08],[-74.28,41.1],[-74.28,41.13],[-74.29,41.15],[-74.29,41.17],[-74.3,41.18],[-74.31,41.22],[-74.32,41.25],[-74.33,41.32],[-74.34,41.34],[-74.35,41.34],[-74.37,41.36],[-74.42,41.38],[-74.46,41.4],[-74.51,41.42],[-74.55,41.44],[-74.6,41.46],[-74.66,41.49],[-74.79,41.55],[-74.88,41.59],[-74.95,41.62],[-74.9,41.47],[-75.59,41.86],[-75.7,41.92],[-76.02,42.1],[-76.14,42.16],[-76.3,42.21],[-76.65,42.32],[-76.88,42.4],[-77.03,42.44],[-77.26,42.51],[-77.46,42.57],[-77.74,42.66],[-77.92,42.71],[-78.72,42.93],[-78.74,42.93],[-79.04,43.03],[-79.66,43.23],[-79.77,43.27],[-80.04,43.35],[-81.82,43.87],[-82,43.92],[-82.2,43.98],[-82.2,43.98],[-82.2,43.98],[-83.23,44.28],[-83.44,44.34],[-83.99,44.49],[-84,44.5],[-86,44.5],[-87.18,44.56],[-87.77,44.58],[-88.64,44.62],[-88.89,44.61],[-89.1,44.62],[-89.26,44.62],[-89.96,44.52],[-91.13,44.38],[-92.45,44.2],[-92.51,44.2],[-93.68,44.01],[-93.9,43.98],[-96.67,43.51],[-97.11,43.44],[-97.32,43.39],[-97.93,43.27],[-98.55,43.15],[-98.85,43.09],[-99.07,43.05],[-99.53,42.96],[-99.77,42.9],[-100.39,42.76],[-101.01,42.63],[-101.32,42.56],[-102.24,42.34],[-102.83,42.2],[-103.78,41.97],[-104.6,41.75],[-105.08,41.62],[-106.51,41.22],[-106.77,41.14],[-107.57,40.91],[-107.83,40.83],[-108.27,40.71],[-109.13,40.43],[-109.62,40.28],[-112.51,39.3],[-113.32,39.12],[-114.17,38.91],[-114.74,38.78],[-117.27,38.12],[-117.27,38.12],[-117.77,38],[-118.76,37.9],[-119.1,37.86],[-119.62,37.8],[-119.9,37.76],[-119.99,37.75],[-120.07,37.74],[-120.4,37.7],[-120.42,37.7],[-120.49,37.69],[-120.69,37.67],[-120.75,37.66],[-120.78,37.66],[-120.83,37.65],[-120.96,37.63],[-121,37.63],[-121.08,37.62],[-121.18,37.6],[-121.26,37.59],[-121.39,37.58],[-121.41,37.58],[-121.6,37.55],[-121.61,37.55],[-121.62,37.55],[-121.69,37.53],[-121.8,37.51],[-121.81,37.51],[-121.88,37.49],[-122.08,37.54],[-122.09,37.55],[-122.18,37.57],[-122.28,37.59],[-122.33,37.61],[-122.36,37.61],[-122.38,37.62]],"type":"LineString"}
}
