{
  "id": 2014798117,
  "type": "Feature",
  "properties": {
    "date:cessation_lower": "2026-02-15",
    "date:cessation_upper": "2026-02-15",
    "date:inception_lower": "2026-02-15",
    "date:inception_upper": "2026-02-15",
    "edtf:cessation": "2026-02-15T01:44:32-08:00",
    "edtf:inception": "2026-02-15T15:57:00Z",
    "flysfo:actual_timestamp": -1,
    "flysfo:airline": "UA",
    "flysfo:base_airline": "",
    "flysfo:base_flight_number": "4464",
    "flysfo:date": "2026-02-15",
    "flysfo:estimated_timestamp": 1771177860,
    "flysfo:event": "A",
    "flysfo:flight_number": "UA1372",
    "flysfo:gate": "E2",
    "flysfo:journey": "PHX-SFO",
    "flysfo:scheduled_timestamp": 1771176060,
    "flysfo:timestamp": 1771177860,
    "geom:area": 0,
    "geom:bbox": "-122.370943,33.432684,-112.017392,37.617990",
    "geom:latitude": 35.525337,
    "geom:longitude": -117.19416749999999,
    "iata:airline": "UA",
    "iata:base_airline": "",
    "icao:aircraft": "B739",
    "icao:airline": "UAL",
    "icao:base_airline": "ACA",
    "lbl:latitude": 37.618678,
    "lbl:longitude": -122.385955,
    "sfomuseum:aircraft_id": 1377564285,
    "sfomuseum:airline_id": 1159285413,
    "sfomuseum:arrival_id": 102527513,
    "sfomuseum:base_flight_id": "20260215-A-ACA-4464",
    "sfomuseum:departure_id": 102526751,
    "sfomuseum:flight_id": "20260215-A-UAL-1372",
    "sfomuseum:flight_number": [
      "UAL1372",
      "UA1372"
    ],
    "sfomuseum:placetype": "flight",
    "src:geom": "flysfo",
    "src:geom_alt": [
      "swim-route",
      "swim-path",
      "swim-approach"
    ],
    "swim:tail_number": "N62884",
    "wof:belongsto": [
      1947304067,
      102527513,
      1947304451,
      102191575,
      85633793,
      102087579,
      85922583,
      554784711,
      85688637,
      1947304481,
      1947304447,
      102085387
    ],
    "wof:concordances": {
      "swim:flight_ref": "139440248",
      "swim:gufi": "KA515451mX"
    },
    "wof:country": "US",
    "wof:created": 1771258066,
    "wof:geomhash": "c9fdc5df38b6a105de4fe30ae6ada830",
    "wof:hierarchy": [
      {
        "building_id": 1947304067,
        "campus_id": 102527513,
        "concourse_id": 1947304451,
        "continent_id": 102191575,
        "country_id": 85633793,
        "county_id": 102087579,
        "custom_id": 2014798117,
        "flight_id": 2014798117,
        "locality_id": 85922583,
        "postalcode_id": 554784711,
        "region_id": 85688637,
        "venue_id": 1947304481,
        "wing_id": 1947304447
      },
      {
        "building_id": 1947304067,
        "campus_id": 102527513,
        "concourse_id": 1947304451,
        "continent_id": 102191575,
        "country_id": 85633793,
        "county_id": 102085387,
        "custom_id": 2014798117,
        "flight_id": 2014798117,
        "region_id": 85688637,
        "venue_id": 1947304481,
        "wing_id": 1947304447
      }
    ],
    "wof:id": 2014798117,
    "wof:involves": [
      1159285413,
      1947304481,
      1159283597,
      1377564285,
      102527513,
      102526751
    ],
    "wof:lastmodified": 1771258694,
    "wof:name": "UA1372 (PHX-SFO)",
    "wof:parent_id": 1947304481,
    "wof:placetype": "custom",
    "wof:placetype_alt": [
      "flight"
    ],
    "wof:repo": "sfomuseum-data-flights-2026-02",
    "wof:superseded_by": [],
    "wof:supersedes": []
  },
  "bbox": [
    -122.370943,
    33.432684,
    -112.017392,
    37.61799
  ],
  "geometry": {"coordinates":[[-112.017392,33.432684],[-122.370943,37.61799]],"type":"MultiPoint"}
}
