{
  "id": 2014798117,
  "type": "Feature",
  "properties": {
    "geom:area": 0,
    "geom:bbox": "-122.459444,33.366667,-111.850000,37.850000",
    "geom:latitude": 34.979909515073196,
    "geom:longitude": -117.65528733254513,
    "src:alt_label": "swim-path",
    "src:geom": "swim",
    "swim:altitudes": [
      "018",
      "070",
      "070",
      "088",
      "088",
      "088",
      "143",
      "143",
      "143",
      "143",
      "177",
      "177",
      "211",
      "211",
      "213",
      "227",
      "227",
      "255",
      "258",
      "258",
      "275",
      "275",
      "285",
      "285",
      "285",
      "287",
      "287",
      "287",
      "299",
      "299",
      "317",
      "346",
      "346",
      "360C",
      "360C",
      "360C",
      "360C",
      "360C",
      "360C",
      "360C",
      "360C",
      "360C",
      "360C",
      "360C",
      "360C",
      "360C",
      "360C",
      "360C",
      "360C",
      "360C",
      "360C",
      "360C",
      "360C",
      "360C",
      "360C",
      "360C",
      "360C",
      "360C",
      "360C",
      "360C",
      "360C",
      "360C",
      "360C",
      "360C",
      "360C",
      "360C",
      "360C",
      "360C",
      "360C",
      "360C",
      "360C",
      "360C",
      "360C",
      "360C",
      "360C",
      "360C",
      "360C",
      "360C",
      "360C",
      "360C",
      "360C",
      "360C",
      "360C",
      "360C",
      "360C",
      "360C",
      "360C",
      "360C",
      "360C",
      "360C",
      "360C",
      "360",
      "360",
      "360",
      "360",
      "360",
      "360",
      "360C",
      "360C",
      "360C",
      "360C",
      "360C",
      "360C",
      "360C",
      "360C",
      "360C",
      "360C",
      "360C",
      "360C",
      "360C",
      "360C",
      "360C",
      "360C",
      "360C",
      "360C",
      "360C",
      "360C",
      "360C",
      "360C",
      "360C",
      "360C",
      "360C",
      "360C",
      "360C",
      "360C",
      "360C",
      "360C",
      "360C",
      "360C",
      "360C",
      "360C",
      "360C",
      "360C",
      "360C",
      "360C",
      "360C",
      "360C",
      "360C",
      "360C",
      "360C",
      "360C",
      "360C",
      "360C",
      "360C",
      "360C",
      "360C",
      "360C",
      "360C",
      "360C",
      "360C",
      "360C",
      "360C",
      "360C",
      "360C",
      "360C",
      "360C",
      "360C",
      "360C",
      "360C",
      "360C",
      "360C",
      "360C",
      "357",
      "357",
      "357",
      "357",
      "337",
      "337",
      "337",
      "337",
      "337",
      "337",
      "337",
      "318",
      "318",
      "318",
      "293",
      "293",
      "293",
      "293",
      "249",
      "249",
      "249",
      "249",
      "228",
      "228",
      "220",
      "220",
      "201",
      "201",
      "201",
      "201",
      "190",
      "189",
      "189",
      "189",
      "189",
      "189",
      "169",
      "158",
      "158",
      "158",
      "150",
      "150",
      "120",
      "120",
      "120",
      "120",
      "110",
      "110",
      "110",
      "110",
      "110",
      "110",
      "106",
      "106",
      "106",
      "100",
      "100",
      "100",
      "095",
      "095",
      "088",
      "088",
      "078",
      "078",
      "078",
      "069",
      "069",
      "069",
      "069",
      "069",
      "060",
      "060",
      "054",
      "054",
      "054",
      "033",
      "033",
      "031",
      "031",
      "031",
      "032",
      "032",
      "032",
      "027",
      "027",
      "021",
      "021",
      "017",
      "017",
      "012",
      "012",
      "012",
      "008",
      "008",
      "004",
      "004",
      "004"
    ],
    "swim:geom": "path",
    "swim:speeds": [
      169,
      231,
      231,
      231,
      231,
      231,
      287,
      287,
      287,
      287,
      302,
      302,
      324,
      324,
      358,
      390,
      390,
      422,
      417,
      417,
      427,
      427,
      428,
      428,
      428,
      432,
      432,
      432,
      438,
      438,
      439,
      421,
      421,
      410,
      410,
      410,
      410,
      409,
      409,
      406,
      406,
      406,
      405,
      405,
      405,
      405,
      406,
      406,
      406,
      406,
      405,
      405,
      403,
      403,
      403,
      403,
      403,
      401,
      401,
      401,
      401,
      401,
      401,
      401,
      401,
      401,
      401,
      401,
      401,
      401,
      402,
      402,
      402,
      402,
      402,
      402,
      402,
      397,
      397,
      397,
      397,
      397,
      397,
      399,
      399,
      399,
      399,
      399,
      398,
      398,
      398,
      405,
      405,
      405,
      405,
      405,
      405,
      405,
      405,
      405,
      405,
      405,
      405,
      405,
      405,
      405,
      405,
      405,
      408,
      408,
      408,
      408,
      408,
      409,
      409,
      408,
      408,
      408,
      408,
      408,
      409,
      409,
      409,
      407,
      407,
      407,
      406,
      406,
      406,
      406,
      406,
      406,
      406,
      406,
      406,
      406,
      406,
      406,
      403,
      403,
      402,
      402,
      402,
      402,
      402,
      391,
      391,
      391,
      391,
      391,
      394,
      394,
      394,
      394,
      394,
      394,
      394,
      416,
      416,
      416,
      416,
      416,
      416,
      416,
      416,
      416,
      419,
      419,
      419,
      419,
      419,
      419,
      419,
      414,
      414,
      414,
      412,
      412,
      412,
      412,
      405,
      405,
      405,
      405,
      415,
      415,
      414,
      414,
      400,
      400,
      400,
      400,
      396,
      370,
      370,
      370,
      370,
      370,
      366,
      364,
      364,
      364,
      358,
      358,
      355,
      355,
      355,
      355,
      326,
      326,
      326,
      326,
      323,
      321,
      313,
      313,
      313,
      310,
      310,
      310,
      296,
      296,
      298,
      298,
      293,
      293,
      293,
      260,
      260,
      260,
      260,
      260,
      226,
      226,
      223,
      223,
      223,
      168,
      168,
      171,
      171,
      171,
      162,
      162,
      162,
      166,
      166,
      168,
      168,
      170,
      170,
      170,
      170,
      170,
      147,
      147,
      147,
      147,
      147
    ],
    "swim:timestamps": [
      1771171031,
      1771171156,
      1771171156,
      1771171182,
      1771171182,
      1771171182,
      1771171307,
      1771171307,
      1771171307,
      1771171307,
      1771171397,
      1771171397,
      1771171509,
      1771171509,
      1771171517,
      1771171577,
      1771171577,
      1771171689,
      1771171697,
      1771171697,
      1771171757,
      1771171757,
      1771171809,
      1771171809,
      1771171809,
      1771171817,
      1771171817,
      1771171817,
      1771171878,
      1771171878,
      1771171938,
      1771172058,
      1771172058,
      1771172118,
      1771172118,
      1771172118,
      1771172118,
      1771172178,
      1771172178,
      1771172298,
      1771172298,
      1771172298,
      1771172350,
      1771172350,
      1771172350,
      1771172350,
      1771172470,
      1771172478,
      1771172478,
      1771172478,
      1771172531,
      1771172531,
      1771172591,
      1771172591,
      1771172591,
      1771172591,
      1771172591,
      1771172771,
      1771172771,
      1771172771,
      1771172831,
      1771172831,
      1771172831,
      1771172831,
      1771172891,
      1771172891,
      1771172891,
      1771172891,
      1771172951,
      1771172951,
      1771173011,
      1771173011,
      1771173011,
      1771173011,
      1771173011,
      1771173011,
      1771173011,
      1771173252,
      1771173252,
      1771173252,
      1771173252,
      1771173252,
      1771173252,
      1771173432,
      1771173432,
      1771173432,
      1771173432,
      1771173432,
      1771173612,
      1771173612,
      1771173612,
      1771173722,
      1771173722,
      1771173722,
      1771173722,
      1771173722,
      1771173722,
      1771173853,
      1771173853,
      1771173853,
      1771173853,
      1771173853,
      1771174033,
      1771174033,
      1771174033,
      1771174033,
      1771174033,
      1771174033,
      1771174213,
      1771174213,
      1771174213,
      1771174213,
      1771174213,
      1771174273,
      1771174273,
      1771174320,
      1771174320,
      1771174380,
      1771174380,
      1771174380,
      1771174393,
      1771174393,
      1771174393,
      1771174454,
      1771174454,
      1771174454,
      1771174500,
      1771174500,
      1771174500,
      1771174500,
      1771174574,
      1771174574,
      1771174574,
      1771174694,
      1771174694,
      1771174694,
      1771174694,
      1771174694,
      1771174753,
      1771174753,
      1771174814,
      1771174814,
      1771174814,
      1771174814,
      1771174814,
      1771174933,
      1771174933,
      1771175053,
      1771175053,
      1771175053,
      1771175113,
      1771175113,
      1771175113,
      1771175113,
      1771175113,
      1771175113,
      1771175113,
      1771175415,
      1771175415,
      1771175415,
      1771175415,
      1771175415,
      1771175473,
      1771175473,
      1771175473,
      1771175473,
      1771175593,
      1771175593,
      1771175593,
      1771175593,
      1771175593,
      1771175593,
      1771175593,
      1771175714,
      1771175714,
      1771175714,
      1771175834,
      1771175834,
      1771175834,
      1771175834,
      1771175954,
      1771175954,
      1771175954,
      1771175954,
      1771176014,
      1771176014,
      1771176037,
      1771176037,
      1771176097,
      1771176097,
      1771176097,
      1771176097,
      1771176134,
      1771176157,
      1771176157,
      1771176157,
      1771176157,
      1771176157,
      1771176217,
      1771176254,
      1771176254,
      1771176254,
      1771176277,
      1771176277,
      1771176374,
      1771176374,
      1771176374,
      1771176374,
      1771176458,
      1771176458,
      1771176458,
      1771176458,
      1771176494,
      1771176555,
      1771176577,
      1771176577,
      1771176577,
      1771176615,
      1771176615,
      1771176615,
      1771176637,
      1771176637,
      1771176675,
      1771176675,
      1771176735,
      1771176735,
      1771176735,
      1771176795,
      1771176795,
      1771176795,
      1771176795,
      1771176795,
      1771176937,
      1771176937,
      1771176997,
      1771176997,
      1771176997,
      1771177117,
      1771177117,
      1771177155,
      1771177155,
      1771177155,
      1771177215,
      1771177215,
      1771177215,
      1771177297,
      1771177297,
      1771177335,
      1771177335,
      1771177357,
      1771177357,
      1771177395,
      1771177395,
      1771177395,
      1771177417,
      1771177417,
      1771177456,
      1771177456,
      1771177456
    ],
    "wof:geomhash": "277bf3c3d43f2dc261e1b72c294fa4b7",
    "wof:id": 2014798117,
    "wof:repo": "sfomuseum-data-flights-2026-02"
  },
  "bbox": [
    -122.45944444444444,
    33.36666666666667,
    -111.85,
    37.85
  ],
  "geometry": {"coordinates":[[-111.98333333333333,33.43333333333333],[-111.8625,33.422777777777775],[-111.8625,33.422777777777775],[-111.85,33.38333333333333],[-111.85,33.38333333333333],[-111.85,33.38333333333333],[-112,33.36666666666667],[-112,33.36666666666667],[-112,33.36666666666667],[-112,33.36666666666667],[-112.13305555555554,33.38111111111111],[-112.13305555555554,33.38111111111111],[-112.33194444444445,33.409166666666664],[-112.33194444444445,33.409166666666664],[-112.3475,33.4125],[-112.47305555555556,33.43138888888889],[-112.47305555555556,33.43138888888889],[-112.72916666666667,33.450833333333335],[-112.75694444444444,33.45111111111111],[-112.75694444444444,33.45111111111111],[-112.8963888888889,33.469722222222224],[-112.8963888888889,33.469722222222224],[-113.00861111111111,33.49055555555556],[-113.00861111111111,33.49055555555556],[-113.00861111111111,33.49055555555556],[-113.035,33.495555555555555],[-113.035,33.495555555555555],[-113.035,33.495555555555555],[-113.17694444444444,33.5225],[-113.17694444444444,33.5225],[-113.3175,33.54888888888889],[-113.59138888888889,33.59916666666667],[-113.59138888888889,33.59916666666667],[-113.71666666666667,33.6225],[-113.71666666666667,33.6225],[-113.71666666666667,33.6225],[-113.71666666666667,33.6225],[-113.85027777777778,33.64722222222222],[-113.85027777777778,33.64722222222222],[-114.11444444444444,33.69555555555555],[-114.11444444444444,33.69555555555555],[-114.11444444444444,33.69555555555555],[-114.23027777777779,33.71888888888889],[-114.23027777777779,33.71888888888889],[-114.23027777777779,33.71888888888889],[-114.23027777777779,33.71888888888889],[-114.48944444444444,33.785],[-114.50583333333333,33.78916666666667],[-114.50583333333333,33.78916666666667],[-114.50583333333333,33.78916666666667],[-114.61833333333333,33.8175],[-114.61833333333333,33.8175],[-114.745,33.849444444444444],[-114.745,33.849444444444444],[-114.745,33.849444444444444],[-114.745,33.849444444444444],[-114.745,33.849444444444444],[-115.12777777777777,33.945277777777775],[-115.12777777777777,33.945277777777775],[-115.12777777777777,33.945277777777775],[-115.25666666666666,33.97694444444445],[-115.25666666666666,33.97694444444445],[-115.25666666666666,33.97694444444445],[-115.25666666666666,33.97694444444445],[-115.38555555555556,34.00861111111111],[-115.38555555555556,34.00861111111111],[-115.38555555555556,34.00861111111111],[-115.38555555555556,34.00861111111111],[-115.51444444444445,34.040277777777774],[-115.51444444444445,34.040277777777774],[-115.64333333333335,34.07166666666667],[-115.64333333333335,34.07166666666667],[-115.64333333333335,34.07166666666667],[-115.64333333333335,34.07166666666667],[-115.64333333333335,34.07166666666667],[-115.64333333333335,34.07166666666667],[-115.64333333333335,34.07166666666667],[-116.1613888888889,34.19583333333333],[-116.1613888888889,34.19583333333333],[-116.1613888888889,34.19583333333333],[-116.1613888888889,34.19583333333333],[-116.1613888888889,34.19583333333333],[-116.1613888888889,34.19583333333333],[-116.54888888888888,34.2875],[-116.54888888888888,34.2875],[-116.54888888888888,34.2875],[-116.54888888888888,34.2875],[-116.54888888888888,34.2875],[-116.93555555555555,34.37777777777778],[-116.93555555555555,34.37777777777778],[-116.93555555555555,34.37777777777778],[-117.18055555555556,34.44833333333333],[-117.18055555555556,34.44833333333333],[-117.18055555555556,34.44833333333333],[-117.18055555555556,34.44833333333333],[-117.18055555555556,34.44833333333333],[-117.18055555555556,34.44833333333333],[-117.43277777777779,34.551111111111105],[-117.43277777777779,34.551111111111105],[-117.43277777777779,34.551111111111105],[-117.43277777777779,34.551111111111105],[-117.43277777777779,34.551111111111105],[-117.8025,34.70055555555556],[-117.8025,34.70055555555556],[-117.8025,34.70055555555556],[-117.8025,34.70055555555556],[-117.8025,34.70055555555556],[-117.8025,34.70055555555556],[-118.17777777777778,34.85055555555556],[-118.17777777777778,34.85055555555556],[-118.17777777777778,34.85055555555556],[-118.17777777777778,34.85055555555556],[-118.17777777777778,34.85055555555556],[-118.30444444444444,34.900277777777774],[-118.30444444444444,34.900277777777774],[-118.3913888888889,34.93555555555555],[-118.3913888888889,34.93555555555555],[-118.52027777777778,34.98583333333333],[-118.52027777777778,34.98583333333333],[-118.52027777777778,34.98583333333333],[-118.54305555555555,34.99472222222222],[-118.54305555555555,34.99472222222222],[-118.54305555555555,34.99472222222222],[-118.66722222222222,35.04361111111111],[-118.66722222222222,35.04361111111111],[-118.66722222222222,35.04361111111111],[-118.76916666666666,35.083333333333336],[-118.76916666666666,35.083333333333336],[-118.76916666666666,35.083333333333336],[-118.76916666666666,35.083333333333336],[-118.91388888888889,35.13972222222222],[-118.91388888888889,35.13972222222222],[-118.91388888888889,35.13972222222222],[-119.16250000000001,35.23583333333333],[-119.16250000000001,35.23583333333333],[-119.16250000000001,35.23583333333333],[-119.16250000000001,35.23583333333333],[-119.16250000000001,35.23583333333333],[-119.28861111111111,35.28444444444444],[-119.28861111111111,35.28444444444444],[-119.40861111111111,35.33027777777778],[-119.40861111111111,35.33027777777778],[-119.40861111111111,35.33027777777778],[-119.40861111111111,35.33027777777778],[-119.40861111111111,35.33027777777778],[-119.65444444444445,35.42361111111111],[-119.65444444444445,35.42361111111111],[-119.89500000000001,35.514722222222225],[-119.89500000000001,35.514722222222225],[-119.89500000000001,35.514722222222225],[-120.01694444444445,35.56055555555555],[-120.01694444444445,35.56055555555555],[-120.01694444444445,35.56055555555555],[-120.01694444444445,35.56055555555555],[-120.01694444444445,35.56055555555555],[-120.01694444444445,35.56055555555555],[-120.01694444444445,35.56055555555555],[-120.63083333333333,35.83916666666667],[-120.63083333333333,35.83916666666667],[-120.63083333333333,35.83916666666667],[-120.63083333333333,35.83916666666667],[-120.63083333333333,35.83916666666667],[-120.74472222222222,35.91],[-120.74472222222222,35.91],[-120.74472222222222,35.91],[-120.74472222222222,35.91],[-120.97333333333333,36.05166666666666],[-120.97333333333333,36.05166666666666],[-120.97333333333333,36.05166666666666],[-120.97333333333333,36.05166666666666],[-120.97333333333333,36.05166666666666],[-120.97333333333333,36.05166666666666],[-120.97333333333333,36.05166666666666],[-121.19916666666667,36.19083333333333],[-121.19916666666667,36.19083333333333],[-121.19916666666667,36.19083333333333],[-121.42527777777778,36.32916666666667],[-121.42527777777778,36.32916666666667],[-121.42527777777778,36.32916666666667],[-121.42527777777778,36.32916666666667],[-121.64750000000001,36.46416666666667],[-121.64750000000001,36.46416666666667],[-121.64750000000001,36.46416666666667],[-121.64750000000001,36.46416666666667],[-121.74111111111111,36.54861111111111],[-121.74111111111111,36.54861111111111],[-121.76666666666667,36.583333333333336],[-121.76666666666667,36.583333333333336],[-121.85,36.68333333333333],[-121.85,36.68333333333333],[-121.85,36.68333333333333],[-121.85,36.68333333333333],[-121.89055555555557,36.736111111111114],[-121.93333333333334,36.766666666666666],[-121.93333333333334,36.766666666666666],[-121.93333333333334,36.766666666666666],[-121.93333333333334,36.766666666666666],[-121.93333333333334,36.766666666666666],[-122,36.85],[-122.05444444444444,36.89388888888889],[-122.05444444444444,36.89388888888889],[-122.05444444444444,36.89388888888889],[-122.08333333333333,36.93333333333333],[-122.08333333333333,36.93333333333333],[-122.21277777777777,37.04416666666666],[-122.21277777777777,37.04416666666666],[-122.21277777777777,37.04416666666666],[-122.21277777777777,37.04416666666666],[-122.3,37.15],[-122.3,37.15],[-122.3,37.15],[-122.3,37.15],[-122.32138888888889,37.20277777777778],[-122.35055555555554,37.28777777777778],[-122.36666666666666,37.31666666666667],[-122.36666666666666,37.31666666666667],[-122.36666666666666,37.31666666666667],[-122.37944444444443,37.37166666666667],[-122.37944444444443,37.37166666666667],[-122.37944444444443,37.37166666666667],[-122.38333333333334,37.4],[-122.38333333333334,37.4],[-122.40694444444445,37.45138888888889],[-122.40694444444445,37.45138888888889],[-122.43388888888889,37.530277777777776],[-122.43388888888889,37.530277777777776],[-122.43388888888889,37.530277777777776],[-122.45944444444444,37.6025],[-122.45944444444444,37.6025],[-122.45944444444444,37.6025],[-122.45944444444444,37.6025],[-122.45944444444444,37.6025],[-122.43333333333334,37.75],[-122.43333333333334,37.75],[-122.4,37.8],[-122.4,37.8],[-122.4,37.8],[-122.3,37.85],[-122.3,37.85],[-122.26944444444445,37.846944444444446],[-122.26944444444445,37.846944444444446],[-122.26944444444445,37.846944444444446],[-122.25694444444444,37.805],[-122.25694444444444,37.805],[-122.25694444444444,37.805],[-122.28333333333333,37.75],[-122.28333333333333,37.75],[-122.30527777777777,37.721944444444446],[-122.30527777777777,37.721944444444446],[-122.31666666666666,37.7],[-122.31666666666666,37.7],[-122.33277777777778,37.67916666666667],[-122.33277777777778,37.67916666666667],[-122.33277777777778,37.67916666666667],[-122.35,37.666666666666664],[-122.35,37.666666666666664],[-122.35694444444444,37.64277777777778],[-122.35694444444444,37.64277777777778],[-122.35694444444444,37.64277777777778]],"type":"LineString"}
}
