{
  "id": 2014825417,
  "type": "Feature",
  "properties": {
    "geom:area": 0,
    "geom:bbox": "-121.522222,25.794167,-80.314722,36.997500",
    "geom:latitude": 31.19726636149678,
    "geom:longitude": -101.05021993999439,
    "src:alt_label": "swim-path",
    "src:geom": "swim",
    "swim:altitudes": [
      "201",
      "310C",
      "310C",
      "310C",
      "310",
      "310C",
      "310C",
      "310C",
      "310C",
      "311C",
      "310C",
      "310C",
      "310C",
      "310C",
      "310C",
      "310C",
      "310C",
      "310C",
      "310C",
      "310C",
      "310C",
      "310C",
      "310C",
      "310C",
      "310C",
      "310C",
      "310C",
      "310C",
      "310C",
      "310C",
      "310C",
      "310C",
      "310C",
      "310C",
      "310C",
      "310C",
      "310C",
      "310C",
      "310C",
      "310C",
      "310C",
      "310C",
      "310C",
      "310C",
      "310",
      "310",
      "310",
      "310",
      "330",
      "340",
      "345",
      "345",
      "350C",
      "350C",
      "350C",
      "350C",
      "350C",
      "350C",
      "350C",
      "350C",
      "350C",
      "350C",
      "350C",
      "350C",
      "349C",
      "350C",
      "350C",
      "350C",
      "350C",
      "350C",
      "350C",
      "350C",
      "350C",
      "350C",
      "350C",
      "350C",
      "350C",
      "350C",
      "350C",
      "350C",
      "350C",
      "350C",
      "350C",
      "350C",
      "350C",
      "350C",
      "350C",
      "350C",
      "350C",
      "350C",
      "350C",
      "350C",
      "350C",
      "345",
      "345",
      "339",
      "330C",
      "330C",
      "330C",
      "330C",
      "330C",
      "330C",
      "330C",
      "330C",
      "330C",
      "330C",
      "330C",
      "330C",
      "330C",
      "330C",
      "330C",
      "330C",
      "330C",
      "330C",
      "330C",
      "330C",
      "330C",
      "330C",
      "330",
      "334",
      "344",
      "349C",
      "350C",
      "350C",
      "350C",
      "350C",
      "350C",
      "350C",
      "350C",
      "350C",
      "350C",
      "350C",
      "350C",
      "350C",
      "350C",
      "350C",
      "350C",
      "350C",
      "350C",
      "350C",
      "350C",
      "350C",
      "350C",
      "350C",
      "350C",
      "350C",
      "350C",
      "350C",
      "350C",
      "350C",
      "350C",
      "350C",
      "350C",
      "350C",
      "350C",
      "350C",
      "350C",
      "350C",
      "350C",
      "350C",
      "350C",
      "350C",
      "350C",
      "350C",
      "350C",
      "350C",
      "350C",
      "350C",
      "350C",
      "350C",
      "350C",
      "350C",
      "350C",
      "350C",
      "350C",
      "350C",
      "350C",
      "350C",
      "350C",
      "350C",
      "350C",
      "350C",
      "350C",
      "350C",
      "350C",
      "350C",
      "350C",
      "350C",
      "350C",
      "350C",
      "350C",
      "350C",
      "350C",
      "350C",
      "350C",
      "350C",
      "350",
      "336",
      "336",
      "326",
      "317",
      "308",
      "308",
      "254",
      "197",
      "143",
      "131",
      "122",
      "122",
      "083",
      "083",
      "068",
      "051",
      "032",
      "030",
      "027",
      "024",
      "014",
      "014",
      "003",
      "003"
    ],
    "swim:geom": "path",
    "swim:speeds": [
      440,
      520,
      515,
      528,
      527,
      525,
      526,
      529,
      529,
      532,
      528,
      534,
      534,
      535,
      533,
      533,
      537,
      533,
      532,
      532,
      545,
      549,
      552,
      550,
      551,
      551,
      549,
      550,
      550,
      549,
      549,
      549,
      549,
      548,
      547,
      547,
      546,
      546,
      546,
      547,
      545,
      545,
      545,
      544,
      543,
      543,
      544,
      544,
      571,
      579,
      582,
      582,
      593,
      593,
      598,
      599,
      599,
      594,
      588,
      590,
      590,
      590,
      591,
      593,
      591,
      593,
      592,
      593,
      592,
      593,
      592,
      592,
      593,
      593,
      593,
      584,
      581,
      577,
      577,
      580,
      580,
      581,
      580,
      580,
      580,
      580,
      579,
      579,
      579,
      578,
      579,
      576,
      577,
      576,
      576,
      575,
      573,
      573,
      572,
      573,
      570,
      564,
      560,
      557,
      557,
      559,
      560,
      560,
      560,
      567,
      565,
      566,
      566,
      566,
      566,
      566,
      561,
      560,
      553,
      555,
      563,
      566,
      557,
      557,
      557,
      552,
      550,
      548,
      546,
      546,
      546,
      536,
      536,
      530,
      524,
      524,
      522,
      522,
      522,
      519,
      517,
      516,
      516,
      515,
      515,
      515,
      515,
      514,
      513,
      513,
      513,
      512,
      513,
      512,
      512,
      512,
      512,
      511,
      512,
      512,
      513,
      513,
      512,
      513,
      513,
      513,
      514,
      514,
      512,
      509,
      507,
      506,
      505,
      505,
      504,
      504,
      504,
      504,
      505,
      505,
      507,
      508,
      510,
      510,
      511,
      505,
      505,
      505,
      504,
      504,
      504,
      502,
      500,
      499,
      498,
      498,
      496,
      488,
      488,
      486,
      485,
      486,
      486,
      464,
      405,
      365,
      359,
      361,
      361,
      301,
      301,
      298,
      292,
      275,
      236,
      187,
      189,
      170,
      170,
      143,
      143
    ],
    "swim:timestamps": [
      1771487521,
      1771488062,
      1771488182,
      1771488542,
      1771488740,
      1771489022,
      1771489082,
      1771489143,
      1771489143,
      1771489203,
      1771489383,
      1771489563,
      1771489563,
      1771489683,
      1771489863,
      1771489863,
      1771489882,
      1771489923,
      1771489983,
      1771490000,
      1771490060,
      1771490103,
      1771490120,
      1771490163,
      1771490180,
      1771490180,
      1771490223,
      1771490240,
      1771490240,
      1771490300,
      1771490463,
      1771490480,
      1771490523,
      1771490601,
      1771490643,
      1771490643,
      1771490764,
      1771490782,
      1771490840,
      1771490901,
      1771491082,
      1771491082,
      1771491082,
      1771491200,
      1771491380,
      1771491380,
      1771491441,
      1771491441,
      1771491861,
      1771491981,
      1771492041,
      1771492041,
      1771492161,
      1771492161,
      1771492281,
      1771492341,
      1771492341,
      1771492461,
      1771492701,
      1771492761,
      1771492941,
      1771492941,
      1771493002,
      1771493062,
      1771493087,
      1771493181,
      1771493206,
      1771493241,
      1771493269,
      1771493301,
      1771493386,
      1771493386,
      1771493423,
      1771493484,
      1771493507,
      1771493541,
      1771493566,
      1771493721,
      1771493721,
      1771493746,
      1771493782,
      1771493842,
      1771493867,
      1771493927,
      1771493927,
      1771493986,
      1771494023,
      1771494082,
      1771494107,
      1771494144,
      1771494166,
      1771494325,
      1771494347,
      1771494409,
      1771494409,
      1771494443,
      1771494527,
      1771494527,
      1771494587,
      1771494707,
      1771494767,
      1771494827,
      1771494947,
      1771495067,
      1771495067,
      1771495188,
      1771495248,
      1771495248,
      1771495307,
      1771495728,
      1771495847,
      1771496028,
      1771496089,
      1771496269,
      1771496331,
      1771496331,
      1771496568,
      1771496630,
      1771496750,
      1771496808,
      1771496929,
      1771496988,
      1771497108,
      1771497108,
      1771497169,
      1771497349,
      1771497409,
      1771497470,
      1771497529,
      1771497529,
      1771497529,
      1771497709,
      1771497709,
      1771498192,
      1771498309,
      1771498309,
      1771498369,
      1771498431,
      1771498431,
      1771498552,
      1771498791,
      1771498851,
      1771498897,
      1771498910,
      1771498910,
      1771498971,
      1771499030,
      1771499077,
      1771499090,
      1771499150,
      1771499197,
      1771499270,
      1771499317,
      1771499390,
      1771499450,
      1771499497,
      1771499557,
      1771499570,
      1771499630,
      1771499630,
      1771499690,
      1771499690,
      1771499797,
      1771499857,
      1771499857,
      1771499871,
      1771499932,
      1771499977,
      1771500053,
      1771500091,
      1771500158,
      1771500211,
      1771500271,
      1771500278,
      1771500331,
      1771500338,
      1771500391,
      1771500398,
      1771500451,
      1771500458,
      1771500518,
      1771500578,
      1771500638,
      1771500638,
      1771500691,
      1771500812,
      1771500812,
      1771500872,
      1771500932,
      1771500932,
      1771500938,
      1771500992,
      1771501112,
      1771501172,
      1771501232,
      1771501299,
      1771501353,
      1771501473,
      1771501473,
      1771501533,
      1771501593,
      1771501653,
      1771501653,
      1771501833,
      1771502014,
      1771502194,
      1771502220,
      1771502254,
      1771502254,
      1771502434,
      1771502434,
      1771502494,
      1771502555,
      1771502615,
      1771502652,
      1771502713,
      1771502735,
      1771502822,
      1771502822,
      1771502915,
      1771502915
    ],
    "wof:geomhash": "aaa107aa07462c1eb6b20ead94aa82e8",
    "wof:id": 2014825417,
    "wof:repo": "sfomuseum-data-flights-2026-02"
  },
  "bbox": [
    -121.52222222222223,
    25.79416666666667,
    -80.31472222222222,
    36.9975
  ],
  "geometry": {"coordinates":[[-121.52222222222223,36.9975],[-120.40972222222223,36.12583333333333],[-120.1363888888889,35.94027777777777],[-119.25305555555556,35.47222222222222],[-118.70833333333334,35.25805555555556],[-117.98027777777779,34.965833333333336],[-117.82305555555556,34.901944444444446],[-117.66555555555556,34.83777777777778],[-117.66555555555556,34.83777777777778],[-117.505,34.771388888888886],[-116.99805555555555,34.56166666666666],[-116.52222222222223,34.36138888888889],[-116.52222222222223,34.36138888888889],[-116.20222222222222,34.225],[-115.74416666666667,34.028055555555554],[-115.74416666666667,34.028055555555554],[-115.6975,34.00694444444444],[-115.58527777777778,33.95888888888889],[-115.42861111111111,33.89055555555556],[-115.36972222222222,33.865],[-115.20138888888889,33.81638888888889],[-115.08333333333333,33.796388888888885],[-115.01916666666666,33.785555555555554],[-114.9025,33.765277777777776],[-114.83999999999999,33.75472222222222],[-114.83999999999999,33.75472222222222],[-114.72444444444444,33.734722222222224],[-114.66166666666668,33.72361111111111],[-114.66166666666668,33.72361111111111],[-114.48194444444445,33.69222222222222],[-114.00805555555556,33.60805555555556],[-113.96888888888888,33.60111111111111],[-113.83,33.57611111111112],[-113.5886111111111,33.532222222222224],[-113.4738888888889,33.51111111111111],[-113.4738888888889,33.51111111111111],[-113.12527777777777,33.44638888888888],[-113.05805555555555,33.433611111111105],[-112.87916666666666,33.4],[-112.69916666666667,33.36555555555556],[-112.17083333333333,33.263333333333335],[-112.17083333333333,33.263333333333335],[-112.17083333333333,33.263333333333335],[-111.82249999999999,33.19444444444444],[-111.30333333333333,33.09],[-111.30333333333333,33.09],[-111.12972222222221,33.05444444444444],[-111.12972222222221,33.05444444444444],[-109.88916666666667,32.79333333333333],[-109.52222222222223,32.71333333333334],[-109.33972222222222,32.672777777777775],[-109.33972222222222,32.672777777777775],[-108.92972222222222,32.581388888888895],[-108.92972222222222,32.581388888888895],[-108.54916666666666,32.495],[-108.36,32.45194444444445],[-108.36,32.45194444444445],[-108.00833333333334,32.37027777777778],[-107.23833333333333,32.18805555555555],[-107.0475,32.14194444444444],[-106.49472222222222,32.00694444444444],[-106.49472222222222,32.00694444444444],[-106.30833333333334,31.962777777777777],[-106.11361111111111,31.94],[-106.07222222222222,31.924722222222222],[-105.72666666666667,31.909166666666664],[-105.68,31.905277777777776],[-105.53388888888888,31.89361111111111],[-105.49138888888889,31.890555555555554],[-105.37972222222221,31.880833333333335],[-105.10305555555556,31.8575],[-105.10305555555556,31.8575],[-104.99361111111111,31.848055555555554],[-104.79916666666666,31.83111111111111],[-104.7225,31.823888888888888],[-104.61027777777777,31.814444444444444],[-104.52916666666667,31.807222222222222],[-104.04694444444445,31.763055555555557],[-104.04694444444445,31.763055555555557],[-103.96833333333333,31.755555555555556],[-103.85916666666667,31.74527777777778],[-103.66777777777779,31.72694444444444],[-103.59722222222221,31.72111111111111],[-103.41027777777778,31.7025],[-103.41027777777778,31.7025],[-103.21777777777778,31.6825],[-103.10166666666666,31.671111111111113],[-102.91611111111112,31.651944444444442],[-102.84277777777777,31.644444444444446],[-102.72805555555556,31.6325],[-102.65333333333334,31.62472222222222],[-102.16361111111112,31.572499999999998],[-102.08888888888889,31.56416666666667],[-101.90027777777779,31.54361111111111],[-101.90027777777779,31.54361111111111],[-101.78861111111111,31.53111111111111],[-101.53166666666667,31.502222222222223],[-101.53166666666667,31.502222222222223],[-101.34527777777777,31.480833333333333],[-100.97611111111111,31.43777777777778],[-100.7875,31.415277777777778],[-100.60444444444444,31.393055555555556],[-100.24388888888889,31.338055555555556],[-99.88944444444445,31.275277777777777],[-99.88944444444445,31.275277777777777],[-99.53555555555555,31.211388888888887],[-99.35777777777777,31.179166666666667],[-99.35777777777777,31.179166666666667],[-99.17722222222223,31.145],[-97.9413888888889,30.906666666666666],[-97.58777777777777,30.835833333333333],[-97.06861111111111,30.730277777777776],[-96.89277777777778,30.69388888888889],[-96.36027777777777,30.5825],[-96.18527777777778,30.54527777777778],[-96.18527777777778,30.54527777777778],[-95.47166666666666,30.390833333333333],[-95.29305555555555,30.351666666666667],[-94.94972222222222,30.275277777777777],[-94.77777777777777,30.236666666666668],[-94.42333333333333,30.15611111111111],[-94.2475,30.115833333333335],[-93.9038888888889,30.03611111111111],[-93.9038888888889,30.03611111111111],[-93.735,29.996666666666666],[-93.22638888888889,29.87638888888889],[-93.05888888888889,29.836388888888887],[-92.89166666666668,29.796111111111113],[-92.72277777777778,29.755],[-92.72277777777778,29.755],[-92.72277777777778,29.755],[-92.22944444444444,29.634166666666665],[-92.22944444444444,29.634166666666665],[-90.91944444444445,29.302500000000002],[-90.60333333333332,29.220277777777778],[-90.60333333333332,29.220277777777778],[-90.44555555555556,29.17888888888889],[-90.28611111111111,29.136666666666667],[-90.28611111111111,29.136666666666667],[-89.97333333333333,29.053611111111113],[-89.34972222222221,28.885277777777777],[-89.19472222222223,28.842777777777776],[-89.06888888888888,28.808333333333334],[-89.04027777777777,28.800555555555555],[-89.04027777777777,28.800555555555555],[-88.88333333333334,28.756944444444443],[-88.73055555555555,28.71472222222222],[-88.60527777777777,28.679722222222225],[-88.57472222222222,28.67138888888889],[-88.42222222222223,28.628611111111113],[-88.29805555555555,28.59361111111111],[-88.11277777777777,28.54138888888889],[-87.98972222222223,28.50638888888889],[-87.80444444444444,28.453333333333333],[-87.65222222222222,28.40972222222222],[-87.53138888888888,28.37472222222222],[-87.3786111111111,28.330555555555556],[-87.34694444444445,28.32138888888889],[-87.19166666666668,28.27611111111111],[-87.19166666666668,28.27611111111111],[-87.03916666666666,28.231666666666666],[-87.03916666666666,28.231666666666666],[-86.76638888888888,28.15138888888889],[-86.61388888888888,28.10611111111111],[-86.61388888888888,28.10611111111111],[-86.5825,28.096944444444443],[-86.42888888888889,28.051111111111112],[-86.30749999999999,28.014722222222222],[-86.12444444444444,27.96],[-86.02694444444444,27.93027777777778],[-85.85777777777777,27.879166666666666],[-85.72666666666667,27.839166666666664],[-85.57833333333333,27.79277777777778],[-85.55916666666667,27.78527777777778],[-85.43472222222222,27.73638888888889],[-85.41638888888889,27.729166666666664],[-85.29055555555556,27.679722222222225],[-85.2725,27.672777777777778],[-85.12777777777777,27.615555555555556],[-85.12777777777777,27.615555555555556],[-84.9825,27.558055555555555],[-84.83611111111111,27.5],[-84.69027777777778,27.441944444444445],[-84.69027777777778,27.441944444444445],[-84.54472222222222,27.38361111111111],[-84.25777777777778,27.268055555555556],[-84.25777777777778,27.268055555555556],[-84.11583333333333,27.210833333333333],[-83.97361111111111,27.153055555555554],[-83.97361111111111,27.153055555555554],[-83.97361111111111,27.153055555555554],[-83.8325,27.095555555555553],[-83.54944444444445,26.97972222222222],[-83.40944444444445,26.921944444444446],[-83.27055555555556,26.864722222222223],[-83.13111111111111,26.806944444444444],[-82.99194444444444,26.749166666666667],[-82.7175,26.634444444444444],[-82.7175,26.634444444444444],[-82.58166666666666,26.57777777777778],[-82.44777777777779,26.52111111111111],[-82.31027777777777,26.463055555555556],[-82.31027777777777,26.463055555555556],[-81.91305555555556,26.29416666666667],[-81.54805555555555,26.13611111111111],[-81.23361111111112,25.999166666666667],[-81.18027777777779,25.975555555555555],[-81.13138888888888,25.96333333333333],[-81.13138888888888,25.96333333333333],[-80.84666666666666,25.888055555555557],[-80.84666666666666,25.888055555555557],[-80.75916666666667,25.865000000000002],[-80.6725,25.841944444444444],[-80.58944444444444,25.82],[-80.53861111111111,25.805],[-80.48,25.79416666666667],[-80.46194444444444,25.79638888888889],[-80.38083333333333,25.798333333333336],[-80.38083333333333,25.798333333333336],[-80.31472222222222,25.802500000000002],[-80.31472222222222,25.802500000000002]],"type":"LineString"}
}
