{
  "id": 2014762263,
  "type": "Feature",
  "properties": {
    "geom:area": 0,
    "geom:bbox": "-122.367070,37.628050,-121.682060,37.820930",
    "geom:latitude": 37.77955251832846,
    "geom:longitude": -122.05666477254739,
    "src:alt_label": "swim-approach",
    "src:geom": "swim",
    "swim:elevations": [
      2786,
      2751,
      2558,
      2463,
      2404,
      2363,
      2170,
      2134,
      2134,
      1804,
      1713,
      1543,
      1508,
      1287,
      1190,
      1005,
      914,
      914,
      914,
      914,
      829,
      657,
      541,
      363,
      250,
      224,
      88,
      0
    ],
    "swim:geom": "approach",
    "swim:timestamps": [
      1770829228,
      1770829241,
      1770829284,
      1770829306,
      1770829316,
      1770829328,
      1770829370,
      1770829400,
      1770829410,
      1770829464,
      1770829476,
      1770829497,
      1770829500,
      1770829531,
      1770829572,
      1770829611,
      1770829644,
      1770829652,
      1770829669,
      1770829698,
      1770829721,
      1770829753,
      1770829779,
      1770829825,
      1770829855,
      1770829863,
      1770829899,
      1770829920
    ],
    "wof:geomhash": "5f53a5c5c66af8d2f7aec72a39305c2d",
    "wof:id": 2014762263,
    "wof:repo": "sfomuseum-data-flights-2026-02"
  },
  "bbox": [
    -122.36707,
    37.62805,
    -121.68206,
    37.82093
  ],
  "geometry": {"coordinates":[[-121.68206,37.76598],[-121.70324,37.76988],[-121.77043,37.78192],[-121.80281,37.78771],[-121.81908,37.7906],[-121.83713,37.79389],[-121.89976,37.80505],[-121.9426,37.81279],[-121.95639,37.8148],[-122.02858,37.8187],[-122.04415,37.81961],[-122.07109,37.82093],[-122.07492,37.82081],[-122.11434,37.8176],[-122.16474,37.81401],[-122.21039,37.8112],[-122.24354,37.79991],[-122.25146,37.79552],[-122.26231,37.78434],[-122.27699,37.76303],[-122.28796,37.74643],[-122.30258,37.72443],[-122.31475,37.70628],[-122.33303,37.67863],[-122.34374,37.66262],[-122.34655,37.65836],[-122.35941,37.63904],[-122.36707,37.62805]],"type":"LineString"}
}
