{
  "id": 2014819559,
  "type": "Feature",
  "properties": {
    "geom:area": 0,
    "geom:bbox": "-122.500000,29.976667,-95.116111,38.355556",
    "geom:latitude": 35.98828021482235,
    "geom:longitude": -107.99994062491389,
    "src:alt_label": "swim-path",
    "src:geom": "swim",
    "swim:altitudes": [
      "050",
      "050",
      "050",
      "120",
      "120",
      "120",
      "120",
      "186",
      "208",
      "208",
      "208",
      "249",
      "249",
      "249",
      "260",
      "260",
      "287",
      "287",
      "287",
      "290C",
      "290C",
      "290C",
      "290C",
      "290C",
      "290C",
      "290C",
      "290C",
      "290C",
      "290C",
      "290C",
      "290C",
      "290",
      "290",
      "290",
      "290",
      "290",
      "292",
      "292",
      "303",
      "303",
      "303",
      "310C",
      "310C",
      "310C",
      "310C",
      "310C",
      "310C",
      "310C",
      "310C",
      "310C",
      "310C",
      "310",
      "310",
      "292C",
      "292C",
      "290C",
      "290C",
      "290C",
      "290C",
      "290C",
      "290C",
      "290C",
      "290C",
      "290C",
      "290C",
      "290C",
      "290C",
      "290C",
      "290C",
      "290C",
      "290C",
      "290C",
      "290C",
      "290C",
      "290C",
      "290C",
      "290C",
      "290C",
      "290C",
      "290C",
      "290C",
      "290C",
      "290C",
      "290C",
      "290C",
      "290C",
      "290C",
      "290C",
      "290C",
      "290C",
      "290C",
      "290C",
      "290C",
      "290C",
      "290C",
      "290C",
      "290C",
      "290C",
      "290C",
      "290C",
      "290C",
      "290C",
      "290C",
      "290C",
      "290C",
      "290C",
      "290C",
      "290C",
      "290C",
      "290C",
      "290C",
      "290C",
      "290C",
      "290C",
      "290C",
      "290C",
      "290C",
      "290C",
      "290C",
      "290C",
      "290C",
      "290C",
      "290C",
      "290C",
      "290C",
      "290C",
      "290C",
      "290C",
      "290C",
      "293",
      "293",
      "293",
      "293",
      "293",
      "293",
      "305",
      "305",
      "345",
      "345",
      "347",
      "347",
      "350C",
      "350C",
      "350C",
      "350C",
      "350C",
      "350C",
      "350C",
      "350C",
      "350C",
      "350C",
      "350C",
      "350C",
      "350C",
      "350C",
      "350C",
      "350C",
      "350",
      "350",
      "350",
      "350",
      "335",
      "335",
      "307",
      "307",
      "301",
      "301",
      "290C",
      "290C",
      "290C",
      "290C",
      "290C",
      "290C",
      "290C",
      "290C",
      "290C",
      "290C",
      "290C",
      "290C",
      "290C",
      "290C",
      "290C",
      "290C",
      "290C",
      "290C",
      "290C",
      "290C",
      "290C",
      "290C",
      "290C",
      "290C",
      "290C",
      "290C",
      "290C",
      "290C",
      "290C",
      "290C",
      "290C",
      "290C",
      "290C",
      "290C",
      "290C",
      "290C",
      "290C",
      "290C",
      "290C",
      "290C",
      "290C",
      "290C",
      "290C",
      "290C",
      "290C",
      "290C",
      "290",
      "290",
      "285",
      "285",
      "281",
      "281",
      "265",
      "265",
      "265",
      "261",
      "255",
      "251",
      "245",
      "245",
      "245",
      "240",
      "224",
      "224",
      "224",
      "218",
      "214",
      "208",
      "198",
      "181",
      "181",
      "177",
      "159",
      "159",
      "153",
      "146",
      "114",
      "114",
      "106",
      "106",
      "106",
      "103",
      "077",
      "065",
      "065",
      "065",
      "065",
      "065",
      "055",
      "044",
      "045",
      "045",
      "045",
      "045",
      "020",
      "020",
      "020",
      "004",
      "004"
    ],
    "swim:geom": "path",
    "swim:speeds": [
      244,
      244,
      244,
      339,
      339,
      339,
      339,
      408,
      415,
      415,
      415,
      425,
      425,
      425,
      450,
      450,
      483,
      483,
      483,
      494,
      494,
      494,
      494,
      496,
      496,
      496,
      500,
      509,
      511,
      511,
      511,
      510,
      510,
      510,
      510,
      510,
      515,
      515,
      530,
      530,
      530,
      523,
      523,
      523,
      523,
      523,
      519,
      519,
      519,
      519,
      519,
      514,
      514,
      504,
      504,
      507,
      507,
      505,
      505,
      505,
      505,
      504,
      504,
      505,
      500,
      500,
      500,
      491,
      491,
      492,
      492,
      492,
      491,
      491,
      491,
      491,
      491,
      493,
      493,
      493,
      493,
      493,
      489,
      489,
      490,
      490,
      490,
      494,
      494,
      494,
      493,
      493,
      493,
      493,
      493,
      490,
      490,
      490,
      489,
      489,
      488,
      488,
      488,
      488,
      488,
      491,
      490,
      490,
      490,
      489,
      494,
      494,
      494,
      494,
      494,
      500,
      501,
      501,
      501,
      499,
      500,
      500,
      499,
      499,
      501,
      506,
      507,
      507,
      507,
      521,
      521,
      521,
      521,
      521,
      521,
      538,
      538,
      595,
      595,
      596,
      596,
      592,
      592,
      588,
      588,
      588,
      582,
      589,
      591,
      591,
      591,
      591,
      589,
      586,
      586,
      586,
      586,
      527,
      527,
      526,
      526,
      523,
      523,
      502,
      502,
      497,
      497,
      485,
      485,
      485,
      485,
      486,
      486,
      484,
      484,
      477,
      477,
      476,
      478,
      479,
      479,
      479,
      478,
      478,
      478,
      474,
      474,
      474,
      475,
      475,
      474,
      474,
      474,
      474,
      472,
      472,
      472,
      472,
      480,
      480,
      480,
      466,
      465,
      464,
      470,
      470,
      471,
      471,
      471,
      471,
      472,
      472,
      472,
      473,
      473,
      467,
      467,
      459,
      459,
      451,
      451,
      451,
      446,
      437,
      431,
      426,
      426,
      426,
      416,
      415,
      415,
      415,
      412,
      410,
      409,
      395,
      383,
      383,
      385,
      378,
      378,
      380,
      376,
      362,
      362,
      359,
      359,
      359,
      339,
      314,
      291,
      291,
      297,
      297,
      297,
      256,
      243,
      250,
      250,
      250,
      250,
      201,
      201,
      201,
      153,
      153
    ],
    "swim:timestamps": [
      1771374817,
      1771374817,
      1771374817,
      1771374968,
      1771374968,
      1771374968,
      1771374968,
      1771375148,
      1771375209,
      1771375209,
      1771375209,
      1771375329,
      1771375329,
      1771375329,
      1771375389,
      1771375389,
      1771375509,
      1771375509,
      1771375509,
      1771375689,
      1771375689,
      1771375689,
      1771375689,
      1771375866,
      1771375866,
      1771375866,
      1771375929,
      1771376047,
      1771376109,
      1771376109,
      1771376109,
      1771376407,
      1771376407,
      1771376407,
      1771376407,
      1771376407,
      1771376530,
      1771376530,
      1771376587,
      1771376587,
      1771376587,
      1771376948,
      1771376948,
      1771376948,
      1771376948,
      1771376948,
      1771377188,
      1771377188,
      1771377188,
      1771377188,
      1771377188,
      1771377248,
      1771377248,
      1771377368,
      1771377368,
      1771377428,
      1771377428,
      1771377489,
      1771377489,
      1771377489,
      1771377489,
      1771377609,
      1771377609,
      1771377669,
      1771377729,
      1771377729,
      1771377729,
      1771377789,
      1771377789,
      1771377909,
      1771377909,
      1771377909,
      1771377969,
      1771377969,
      1771377969,
      1771377969,
      1771377969,
      1771378149,
      1771378149,
      1771378149,
      1771378149,
      1771378149,
      1771378270,
      1771378270,
      1771378330,
      1771378330,
      1771378330,
      1771378570,
      1771378570,
      1771378570,
      1771378690,
      1771378690,
      1771378690,
      1771378690,
      1771378690,
      1771378930,
      1771378930,
      1771378930,
      1771378991,
      1771378991,
      1771379111,
      1771379111,
      1771379111,
      1771379111,
      1771379111,
      1771379231,
      1771379351,
      1771379351,
      1771379351,
      1771379536,
      1771379716,
      1771379716,
      1771379716,
      1771379716,
      1771379716,
      1771379897,
      1771379957,
      1771379957,
      1771379957,
      1771379969,
      1771380017,
      1771380017,
      1771380029,
      1771380029,
      1771380077,
      1771380210,
      1771380270,
      1771380270,
      1771380270,
      1771380377,
      1771380377,
      1771380377,
      1771380377,
      1771380390,
      1771380390,
      1771380450,
      1771380450,
      1771380738,
      1771380738,
      1771380750,
      1771380750,
      1771380858,
      1771380858,
      1771380918,
      1771380918,
      1771380931,
      1771381051,
      1771381111,
      1771381171,
      1771381171,
      1771381171,
      1771381171,
      1771381291,
      1771381351,
      1771381351,
      1771381351,
      1771381351,
      1771381589,
      1771381589,
      1771381649,
      1771381649,
      1771381769,
      1771381769,
      1771381912,
      1771381912,
      1771381949,
      1771381949,
      1771382130,
      1771382130,
      1771382153,
      1771382213,
      1771382250,
      1771382250,
      1771382370,
      1771382370,
      1771382550,
      1771382550,
      1771382754,
      1771382814,
      1771382874,
      1771382874,
      1771382874,
      1771382971,
      1771382971,
      1771382971,
      1771383294,
      1771383294,
      1771383355,
      1771383415,
      1771383415,
      1771383715,
      1771383715,
      1771383715,
      1771383715,
      1771383835,
      1771383895,
      1771383895,
      1771383895,
      1771383990,
      1771383990,
      1771383990,
      1771384136,
      1771384170,
      1771384230,
      1771384316,
      1771384316,
      1771384376,
      1771384436,
      1771384470,
      1771384530,
      1771384616,
      1771384616,
      1771384676,
      1771384736,
      1771384736,
      1771384771,
      1771384771,
      1771384797,
      1771384797,
      1771384891,
      1771384891,
      1771384891,
      1771384917,
      1771384951,
      1771384977,
      1771385011,
      1771385011,
      1771385011,
      1771385053,
      1771385157,
      1771385157,
      1771385157,
      1771385191,
      1771385217,
      1771385251,
      1771385291,
      1771385345,
      1771385345,
      1771385372,
      1771385414,
      1771385414,
      1771385432,
      1771385457,
      1771385552,
      1771385552,
      1771385578,
      1771385578,
      1771385578,
      1771385600,
      1771385729,
      1771385783,
      1771385783,
      1771385792,
      1771385792,
      1771385792,
      1771385849,
      1771385903,
      1771385912,
      1771385912,
      1771385912,
      1771385912,
      1771386153,
      1771386153,
      1771386210,
      1771386333,
      1771386333
    ],
    "wof:geomhash": "1904c72228b3da7c26cf0f258ead20f2",
    "wof:id": 2014819559,
    "wof:repo": "sfomuseum-data-flights-2026-02"
  },
  "bbox": [
    -122.5,
    29.976666666666667,
    -95.11611111111111,
    38.355555555555554
  ],
  "geometry": {"coordinates":[[-122.5,37.68333333333333],[-122.5,37.68333333333333],[-122.5,37.68333333333333],[-122.34472222222222,37.766666666666666],[-122.34472222222222,37.766666666666666],[-122.34472222222222,37.766666666666666],[-122.34472222222222,37.766666666666666],[-121.95138888888889,37.83444444444444],[-121.80805555555555,37.861111111111114],[-121.80805555555555,37.861111111111114],[-121.80805555555555,37.861111111111114],[-121.5175,37.915277777777774],[-121.5175,37.915277777777774],[-121.5175,37.915277777777774],[-121.36527777777778,37.94333333333333],[-121.36527777777778,37.94333333333333],[-121.03944444444444,38.00194444444445],[-121.03944444444444,38.00194444444445],[-121.03944444444444,38.00194444444445],[-120.53,38.07888888888889],[-120.53,38.07888888888889],[-120.53,38.07888888888889],[-120.53,38.07888888888889],[-120.03333333333333,38.15138888888889],[-120.03333333333333,38.15138888888889],[-120.03333333333333,38.15138888888889],[-119.83944444444444,38.18083333333333],[-119.47305555555556,38.23277777777778],[-119.29722222222222,38.255833333333335],[-119.29722222222222,38.255833333333335],[-119.29722222222222,38.255833333333335],[-118.40472222222223,38.29694444444444],[-118.40472222222223,38.29694444444444],[-118.40472222222223,38.29694444444444],[-118.40472222222223,38.29694444444444],[-118.40472222222223,38.29694444444444],[-118.02722222222222,38.3125],[-118.02722222222222,38.3125],[-117.87972222222221,38.318333333333335],[-117.87972222222221,38.318333333333335],[-117.87972222222221,38.318333333333335],[-116.75222222222222,38.355555555555554],[-116.75222222222222,38.355555555555554],[-116.75222222222222,38.355555555555554],[-116.75222222222222,38.355555555555554],[-116.75222222222222,38.355555555555554],[-116.01694444444445,38.331388888888895],[-116.01694444444445,38.331388888888895],[-116.01694444444445,38.331388888888895],[-116.01694444444445,38.331388888888895],[-116.01694444444445,38.331388888888895],[-115.83527777777778,38.32333333333334],[-115.83527777777778,38.32333333333334],[-115.47888888888889,38.306666666666665],[-115.47888888888889,38.306666666666665],[-115.29916666666666,38.29833333333333],[-115.29916666666666,38.29833333333333],[-115.11527777777778,38.28916666666667],[-115.11527777777778,38.28916666666667],[-115.11527777777778,38.28916666666667],[-115.11527777777778,38.28916666666667],[-114.76361111111112,38.27055555555555],[-114.76361111111112,38.27055555555555],[-114.5825,38.26083333333333],[-114.40916666666668,38.25055555555556],[-114.40916666666668,38.25055555555556],[-114.40916666666668,38.25055555555556],[-114.23944444444444,38.222500000000004],[-114.23944444444444,38.222500000000004],[-113.90027777777779,38.16222222222222],[-113.90027777777779,38.16222222222222],[-113.90027777777779,38.16222222222222],[-113.73138888888889,38.13138888888889],[-113.73138888888889,38.13138888888889],[-113.73138888888889,38.13138888888889],[-113.73138888888889,38.13138888888889],[-113.73138888888889,38.13138888888889],[-113.22361111111111,38.03805555555555],[-113.22361111111111,38.03805555555555],[-113.22361111111111,38.03805555555555],[-113.22361111111111,38.03805555555555],[-113.22361111111111,38.03805555555555],[-112.88555555555556,37.97416666666667],[-112.88555555555556,37.97416666666667],[-112.71722222222222,37.94194444444444],[-112.71722222222222,37.94194444444444],[-112.71722222222222,37.94194444444444],[-112.03916666666666,37.809999999999995],[-112.03916666666666,37.809999999999995],[-112.03916666666666,37.809999999999995],[-111.70222222222222,37.74277777777778],[-111.70222222222222,37.74277777777778],[-111.70222222222222,37.74277777777778],[-111.70222222222222,37.74277777777778],[-111.70222222222222,37.74277777777778],[-111.03472222222221,37.60611111111111],[-111.03472222222221,37.60611111111111],[-111.03472222222221,37.60611111111111],[-110.86916666666666,37.57166666666667],[-110.86916666666666,37.57166666666667],[-110.54027777777777,37.50222222222222],[-110.54027777777777,37.50222222222222],[-110.54027777777777,37.50222222222222],[-110.54027777777777,37.50222222222222],[-110.54027777777777,37.50222222222222],[-110.20972222222223,37.431666666666665],[-109.88,37.359722222222224],[-109.88,37.359722222222224],[-109.88,37.359722222222224],[-109.38166666666666,37.249722222222225],[-108.88444444444445,37.136944444444445],[-108.88444444444445,37.136944444444445],[-108.88444444444445,37.136944444444445],[-108.88444444444445,37.136944444444445],[-108.88444444444445,37.136944444444445],[-108.38,37.02055555555555],[-108.21277777777777,36.981388888888894],[-108.21277777777777,36.981388888888894],[-108.21277777777777,36.981388888888894],[-108.19277777777778,36.97666666666667],[-108.04777777777778,36.94222222222222],[-108.04777777777778,36.94222222222222],[-108.0461111111111,36.94194444444444],[-108.0461111111111,36.94194444444444],[-107.88,36.90222222222222],[-107.5411111111111,36.82083333333334],[-107.37416666666665,36.78055555555555],[-107.37416666666665,36.78055555555555],[-107.37416666666665,36.78055555555555],[-107.03222222222222,36.696666666666665],[-107.03222222222222,36.696666666666665],[-107.03222222222222,36.696666666666665],[-107.03222222222222,36.696666666666665],[-107.03388888888888,36.697222222222216],[-107.03388888888888,36.697222222222216],[-106.85527777777777,36.653055555555554],[-106.85527777777777,36.653055555555554],[-105.91611111111112,36.415],[-105.91611111111112,36.415],[-105.88222222222221,36.406388888888884],[-105.88222222222221,36.406388888888884],[-105.51388888888889,36.31027777777778],[-105.51388888888889,36.31027777777778],[-105.36138888888888,36.26972222222222],[-105.36138888888888,36.26972222222222],[-105.3111111111111,36.256388888888885],[-104.93027777777779,36.15555555555555],[-104.735,36.117777777777775],[-104.51833333333333,36.086666666666666],[-104.51833333333333,36.086666666666666],[-104.51833333333333,36.086666666666666],[-104.51833333333333,36.086666666666666],[-104.11833333333333,36.02972222222222],[-103.92194444444445,36.00194444444445],[-103.92194444444445,36.00194444444445],[-103.92194444444445,36.00194444444445],[-103.92194444444445,36.00194444444445],[-103.21277777777777,35.83694444444445],[-103.21277777777777,35.83694444444445],[-103.06277777777777,35.75333333333333],[-103.06277777777777,35.75333333333333],[-102.76888888888888,35.59027777777778],[-102.76888888888888,35.59027777777778],[-102.43305555555555,35.400277777777774],[-102.43305555555555,35.400277777777774],[-102.34861111111111,35.35277777777778],[-102.34861111111111,35.35277777777778],[-101.94055555555556,35.11972222222222],[-101.94055555555556,35.11972222222222],[-101.86749999999999,35.07777777777778],[-101.73388888888888,35.00083333333333],[-101.65277777777779,34.95388888888889],[-101.65277777777779,34.95388888888889],[-101.38805555555557,34.8],[-101.38805555555557,34.8],[-100.9961111111111,34.57],[-100.9961111111111,34.57],[-100.56944444444444,34.316944444444445],[-100.43722222222223,34.238055555555555],[-100.30638888888889,34.159444444444446],[-100.30638888888889,34.159444444444446],[-100.30638888888889,34.159444444444446],[-100.09944444444444,34.03472222222222],[-100.09944444444444,34.03472222222222],[-100.09944444444444,34.03472222222222],[-99.40694444444445,33.61194444444445],[-99.40694444444445,33.61194444444445],[-99.28055555555555,33.53388888888889],[-99.1525,33.45444444444445],[-99.1525,33.45444444444445],[-98.51888888888888,33.05777777777777],[-98.51888888888888,33.05777777777777],[-98.51888888888888,33.05777777777777],[-98.51888888888888,33.05777777777777],[-98.25694444444444,32.89194444444444],[-98.13194444444444,32.81222222222222],[-98.13194444444444,32.81222222222222],[-98.13194444444444,32.81222222222222],[-97.95444444444445,32.69277777777778],[-97.95444444444445,32.69277777777778],[-97.95444444444445,32.69277777777778],[-97.67611111111111,32.469166666666666],[-97.61916666666666,32.425],[-97.50916666666667,32.33444444444444],[-97.3436111111111,32.20027777777778],[-97.3436111111111,32.20027777777778],[-97.23166666666667,32.109722222222224],[-97.1211111111111,32.019444444444446],[-97.06305555555555,31.971944444444443],[-96.95194444444445,31.88111111111111],[-96.79583333333333,31.752777777777776],[-96.79583333333333,31.752777777777776],[-96.68388888888889,31.660277777777775],[-96.57194444444444,31.567777777777778],[-96.57194444444444,31.567777777777778],[-96.51277777777777,31.510555555555555],[-96.51277777777777,31.510555555555555],[-96.48194444444445,31.46638888888889],[-96.48194444444445,31.46638888888889],[-96.37305555555555,31.289166666666667],[-96.37305555555555,31.289166666666667],[-96.37305555555555,31.289166666666667],[-96.34555555555555,31.24388888888889],[-96.30638888888889,31.179722222222225],[-96.28055555555555,31.13722222222222],[-96.24222222222222,31.073888888888888],[-96.24222222222222,31.073888888888888],[-96.24222222222222,31.073888888888888],[-96.19222222222223,30.991111111111113],[-96.08638888888889,30.828333333333333],[-96.08638888888889,30.828333333333333],[-96.08638888888889,30.828333333333333],[-96.04888888888888,30.76972222222222],[-96.02277777777778,30.728888888888886],[-95.98305555555555,30.666944444444447],[-95.93833333333333,30.598333333333333],[-95.88527777777779,30.511666666666667],[-95.88527777777779,30.511666666666667],[-95.86916666666666,30.49138888888889],[-95.80138888888888,30.420555555555556],[-95.80138888888888,30.420555555555556],[-95.77694444444444,30.39638888888889],[-95.75055555555555,30.369444444444444],[-95.62555555555555,30.240000000000002],[-95.62555555555555,30.240000000000002],[-95.59833333333333,30.211666666666666],[-95.59833333333333,30.211666666666666],[-95.59833333333333,30.211666666666666],[-95.56638888888888,30.177222222222223],[-95.39527777777778,30.092499999999998],[-95.30611111111111,30.092777777777776],[-95.30611111111111,30.092777777777776],[-95.31083333333333,30.092777777777776],[-95.31083333333333,30.092777777777776],[-95.31083333333333,30.092777777777776],[-95.21194444444444,30.092499999999998],[-95.13694444444445,30.091666666666665],[-95.14361111111111,30.093055555555555],[-95.14361111111111,30.093055555555555],[-95.14361111111111,30.093055555555555],[-95.14361111111111,30.093055555555555],[-95.11611111111111,29.99361111111111],[-95.11611111111111,29.99361111111111],[-95.1875,29.976666666666667],[-95.28416666666666,29.977777777777778],[-95.28416666666666,29.977777777777778]],"type":"LineString"}
}
