{
  "id": 2014764931,
  "type": "Feature",
  "properties": {
    "geom:area": 0,
    "geom:bbox": "-122.366980,37.627730,-121.270030,37.854250",
    "geom:latitude": 37.768212571775244,
    "geom:longitude": -121.86194143890054,
    "src:alt_label": "swim-approach",
    "src:geom": "swim",
    "swim:elevations": [
      4082,
      3835,
      3770,
      3746,
      3601,
      3327,
      3102,
      3048,
      3048,
      3048,
      2935,
      2742,
      2743,
      2712,
      2713,
      2713,
      2681,
      2574,
      2487,
      2167,
      1957,
      1853,
      1704,
      1578,
      1560,
      1523,
      1444,
      1201,
      1021,
      915,
      852,
      775,
      762,
      669,
      527,
      409,
      303,
      153,
      25,
      0
    ],
    "swim:geom": "approach",
    "swim:timestamps": [
      1770844281,
      1770844308,
      1770844317,
      1770844320,
      1770844335,
      1770844370,
      1770844400,
      1770844438,
      1770844463,
      1770844494,
      1770844512,
      1770844554,
      1770844570,
      1770844615,
      1770844645,
      1770844666,
      1770844705,
      1770844733,
      1770844745,
      1770844794,
      1770844828,
      1770844843,
      1770844867,
      1770844888,
      1770844891,
      1770844903,
      1770844924,
      1770844966,
      1770845007,
      1770845032,
      1770845046,
      1770845064,
      1770845070,
      1770845088,
      1770845118,
      1770845149,
      1770845175,
      1770845215,
      1770845247,
      1770845250
    ],
    "wof:geomhash": "a4622c7462467fa8beb1f61590aa279a",
    "wof:id": 2014764931,
    "wof:repo": "sfomuseum-data-flights-2026-02"
  },
  "bbox": [
    -122.36698,
    37.62773,
    -121.27003,
    37.85425
  ],
  "geometry": {"coordinates":[[-121.27003,37.69105],[-121.31869,37.69986],[-121.33478,37.70283],[-121.34016,37.70382],[-121.36681,37.70878],[-121.42803,37.72001],[-121.48106,37.7295],[-121.54415,37.74106],[-121.58393,37.74845],[-121.63436,37.75758],[-121.66352,37.76285],[-121.731,37.77508],[-121.75687,37.77973],[-121.82718,37.79239],[-121.87059,37.80028],[-121.8993,37.80536],[-121.95491,37.81525],[-121.9935,37.82209],[-122.01031,37.8251],[-122.07789,37.83717],[-122.12355,37.84529],[-122.14361,37.84877],[-122.17526,37.85425],[-122.20116,37.85117],[-122.20427,37.84969],[-122.21623,37.84364],[-122.23046,37.82973],[-122.25159,37.80187],[-122.26868,37.77538],[-122.27899,37.75995],[-122.28482,37.75116],[-122.29261,37.73959],[-122.29523,37.73576],[-122.30298,37.72402],[-122.31573,37.70472],[-122.32855,37.68552],[-122.33818,37.671],[-122.35357,37.64804],[-122.36572,37.62949],[-122.36698,37.62773]],"type":"LineString"}
}
