{
  "id": 2014877551,
  "type": "Feature",
  "properties": {
    "geom:area": 0,
    "geom:bbox": "-122.380000,37.490000,-75.240000,42.850000",
    "geom:latitude": 41.25090188113069,
    "geom:longitude": -98.85295014607468,
    "src:alt_label": "swim-route",
    "src:geom": "swim",
    "swim:geom": "route",
    "wof:geomhash": "6d93fad4cb3f555645a7e87777c7e9ac",
    "wof:id": 2014877551,
    "wof:repo": "sfomuseum-data-flights-2026-02"
  },
  "bbox": [
    -122.38,
    37.49,
    -75.24,
    42.85
  ],
  "geometry": {"coordinates":[[-75.24,39.87],[-75.29,39.93],[-75.32,39.96],[-75.35,39.99],[-75.37,40.02],[-75.4,40.04],[-75.42,40.07],[-75.45,40.1],[-75.46,40.11],[-75.48,40.13],[-75.5,40.15],[-75.5,40.16],[-75.55,40.21],[-75.56,40.22],[-75.57,40.23],[-75.7,40.32],[-75.71,40.32],[-75.73,40.34],[-75.8,40.38],[-75.88,40.43],[-75.89,40.44],[-76.37,40.52],[-76.52,40.54],[-76.6,40.55],[-76.62,40.56],[-76.72,40.59],[-77.28,40.73],[-77.31,40.74],[-77.47,40.78],[-77.78,40.86],[-77.99,40.92],[-78.08,40.93],[-78.29,40.95],[-78.43,40.97],[-78.76,41.01],[-80.16,41.17],[-80.42,41.19],[-80.88,41.24],[-81.58,41.31],[-82.03,41.35],[-82.4,41.43],[-82.77,41.54],[-83.08,41.61],[-83.89,41.81],[-84.05,41.86],[-85,42.16],[-85.08,42.2],[-85.09,42.19],[-85.97,42.39],[-86.98,42.62],[-87,42.62],[-87.36,42.66],[-87.52,42.66],[-89.09,42.74],[-91.63,42.82],[-92.44,42.83],[-92.97,42.85],[-93.8,42.85],[-94.21,42.85],[-94.81,42.85],[-96.23,42.83],[-96.84,42.81],[-96.89,42.82],[-97.96,42.79],[-98.49,42.77],[-99.14,42.74],[-99.62,42.72],[-99.74,42.71],[-100.35,42.67],[-101.14,42.6],[-101.58,42.56],[-102.3,42.49],[-103.3,42.38],[-103.94,42.31],[-104.64,42.22],[-105.93,42.05],[-107.35,41.85],[-107.37,41.85],[-107.8,41.78],[-107.82,41.78],[-108.48,41.68],[-108.73,41.64],[-109,41.59],[-109.02,41.59],[-109.86,41.08],[-109.87,41.08],[-110,41],[-110.92,40.6],[-111.37,40.39],[-111.93,40.14],[-112.24,39.95],[-112.51,39.77],[-113.06,39.64],[-113.47,39.55],[-114.18,39.38],[-117.29,38.59],[-117.58,38.51],[-118.45,38.27],[-118.8,38.17],[-119.14,38.07],[-119.19,38.06],[-119.44,37.99],[-119.76,37.89],[-119.85,37.86],[-119.95,37.84],[-120.04,37.81],[-120.31,37.73],[-120.4,37.7],[-120.4,37.7],[-120.57,37.68],[-120.69,37.67],[-120.75,37.66],[-120.79,37.65],[-120.8,37.65],[-120.96,37.63],[-121,37.63],[-121.01,37.63],[-121.07,37.62],[-121.17,37.61],[-121.26,37.59],[-121.39,37.58],[-121.41,37.58],[-121.6,37.55],[-121.61,37.55],[-121.62,37.55],[-121.72,37.53],[-121.8,37.51],[-121.88,37.49],[-121.89,37.49],[-122.01,37.53],[-122.08,37.54],[-122.18,37.57],[-122.18,37.57],[-122.28,37.59],[-122.33,37.61],[-122.36,37.61],[-122.38,37.62]],"type":"LineString"}
}
