{
  "id": 2014805729,
  "type": "Feature",
  "properties": {
    "geom:area": 0,
    "geom:bbox": "-123.793333,37.400000,-122.083333,45.606389",
    "geom:latitude": 41.220840421511305,
    "geom:longitude": -123.13553735048116,
    "src:alt_label": "swim-path",
    "src:geom": "swim",
    "swim:altitudes": [
      "007",
      "018",
      "018",
      "018",
      "098",
      "098",
      "098",
      "098",
      "098",
      "118",
      "118",
      "118",
      "118",
      "118",
      "118",
      "170",
      "170",
      "170",
      "170",
      "249",
      "249",
      "249",
      "249",
      "249",
      "249",
      "249",
      "276",
      "276",
      "276",
      "276",
      "276",
      "291",
      "291",
      "304",
      "304",
      "304",
      "304",
      "304",
      "330C",
      "330C",
      "330C",
      "330C",
      "330C",
      "330C",
      "330C",
      "330C",
      "330C",
      "330C",
      "330C",
      "330",
      "330",
      "330",
      "338",
      "346",
      "346",
      "346",
      "350C",
      "350C",
      "350C",
      "350C",
      "350C",
      "350C",
      "350C",
      "350C",
      "350C",
      "350C",
      "350C",
      "350C",
      "350C",
      "350C",
      "350C",
      "350C",
      "350C",
      "350C",
      "350C",
      "350C",
      "350C",
      "350C",
      "350C",
      "350C",
      "350C",
      "350C",
      "350C",
      "350C",
      "350C",
      "350C",
      "350C",
      "350C",
      "350C",
      "350C",
      "350C",
      "350C",
      "350C",
      "350C",
      "350C",
      "350C",
      "350C",
      "350C",
      "350C",
      "350C",
      "350C",
      "350C",
      "350C",
      "350C",
      "350C",
      "350C",
      "350C",
      "350C",
      "350C",
      "350C",
      "350C",
      "350C",
      "350C",
      "350C",
      "350C",
      "350C",
      "350C",
      "350C",
      "350C",
      "350C",
      "350C",
      "350C",
      "350C",
      "350C",
      "350C",
      "350C",
      "350C",
      "350C",
      "350C",
      "350C",
      "350C",
      "350C",
      "350",
      "350",
      "350",
      "350",
      "350",
      "350",
      "319",
      "319",
      "319",
      "299",
      "299",
      "299",
      "275",
      "275",
      "275",
      "224",
      "224",
      "200",
      "200",
      "200",
      "200",
      "200",
      "163",
      "163",
      "163",
      "163",
      "146",
      "146",
      "140",
      "140",
      "117",
      "117",
      "117",
      "117",
      "117",
      "112",
      "110C",
      "110C",
      "110",
      "105",
      "097",
      "088",
      "080",
      "080",
      "080",
      "061",
      "061",
      "061",
      "061",
      "053",
      "053",
      "053",
      "053",
      "037",
      "037",
      "037",
      "033",
      "033",
      "033",
      "030",
      "030",
      "030",
      "030",
      "030",
      "011",
      "011",
      "011",
      "003",
      "003",
      "003",
      "110",
      "110",
      "110"
    ],
    "swim:geom": "path",
    "swim:speeds": [
      186,
      194,
      194,
      194,
      262,
      262,
      262,
      262,
      262,
      291,
      291,
      291,
      291,
      291,
      291,
      334,
      334,
      334,
      334,
      337,
      337,
      337,
      337,
      337,
      337,
      337,
      361,
      361,
      361,
      361,
      361,
      366,
      366,
      370,
      370,
      370,
      370,
      370,
      415,
      415,
      415,
      415,
      415,
      415,
      415,
      416,
      416,
      416,
      416,
      415,
      415,
      415,
      416,
      423,
      423,
      423,
      430,
      430,
      430,
      430,
      431,
      431,
      431,
      431,
      431,
      431,
      431,
      421,
      421,
      421,
      421,
      421,
      421,
      421,
      421,
      421,
      421,
      421,
      421,
      420,
      420,
      420,
      420,
      420,
      420,
      420,
      420,
      420,
      419,
      419,
      419,
      419,
      420,
      420,
      420,
      420,
      420,
      419,
      419,
      419,
      419,
      419,
      419,
      398,
      398,
      398,
      387,
      387,
      387,
      387,
      387,
      387,
      385,
      385,
      385,
      385,
      386,
      386,
      386,
      388,
      388,
      393,
      393,
      421,
      422,
      422,
      422,
      422,
      422,
      422,
      422,
      422,
      423,
      423,
      423,
      423,
      423,
      423,
      431,
      431,
      431,
      423,
      423,
      423,
      417,
      417,
      417,
      383,
      383,
      366,
      366,
      366,
      366,
      366,
      343,
      343,
      343,
      343,
      333,
      333,
      327,
      327,
      293,
      293,
      293,
      293,
      293,
      272,
      267,
      267,
      265,
      265,
      266,
      259,
      256,
      256,
      256,
      231,
      231,
      231,
      231,
      206,
      206,
      206,
      206,
      178,
      178,
      178,
      169,
      169,
      169,
      171,
      171,
      171,
      171,
      171,
      139,
      139,
      139,
      146,
      146,
      146,
      145,
      145,
      145
    ],
    "swim:timestamps": [
      1771283519,
      1771283543,
      1771283543,
      1771283543,
      1771283704,
      1771283704,
      1771283704,
      1771283704,
      1771283704,
      1771283764,
      1771283764,
      1771283764,
      1771283764,
      1771283764,
      1771283764,
      1771283884,
      1771283884,
      1771283884,
      1771283884,
      1771284064,
      1771284064,
      1771284064,
      1771284064,
      1771284064,
      1771284064,
      1771284064,
      1771284184,
      1771284184,
      1771284184,
      1771284184,
      1771284184,
      1771284244,
      1771284244,
      1771284304,
      1771284304,
      1771284304,
      1771284304,
      1771284304,
      1771284545,
      1771284545,
      1771284545,
      1771284545,
      1771284545,
      1771284545,
      1771284545,
      1771284725,
      1771284725,
      1771284725,
      1771284725,
      1771284785,
      1771284785,
      1771284785,
      1771284845,
      1771284905,
      1771284905,
      1771284905,
      1771284965,
      1771284965,
      1771284965,
      1771284965,
      1771285025,
      1771285025,
      1771285025,
      1771285085,
      1771285085,
      1771285085,
      1771285085,
      1771285325,
      1771285325,
      1771285387,
      1771285387,
      1771285387,
      1771285387,
      1771285387,
      1771285447,
      1771285447,
      1771285447,
      1771285447,
      1771285447,
      1771285505,
      1771285505,
      1771285505,
      1771285505,
      1771285505,
      1771285627,
      1771285627,
      1771285627,
      1771285627,
      1771285686,
      1771285686,
      1771285686,
      1771285686,
      1771285807,
      1771285807,
      1771285807,
      1771285807,
      1771285807,
      1771286046,
      1771286046,
      1771286046,
      1771286046,
      1771286046,
      1771286046,
      1771286286,
      1771286286,
      1771286286,
      1771286348,
      1771286348,
      1771286348,
      1771286348,
      1771286348,
      1771286348,
      1771286406,
      1771286466,
      1771286466,
      1771286490,
      1771286588,
      1771286588,
      1771286588,
      1771286648,
      1771286648,
      1771286695,
      1771286695,
      1771286935,
      1771287008,
      1771287008,
      1771287055,
      1771287055,
      1771287055,
      1771287055,
      1771287055,
      1771287055,
      1771287369,
      1771287369,
      1771287429,
      1771287429,
      1771287429,
      1771287429,
      1771287549,
      1771287549,
      1771287549,
      1771287609,
      1771287609,
      1771287609,
      1771287669,
      1771287669,
      1771287669,
      1771287809,
      1771287809,
      1771287881,
      1771287881,
      1771287881,
      1771287881,
      1771287881,
      1771287995,
      1771287995,
      1771287995,
      1771287995,
      1771288055,
      1771288055,
      1771288090,
      1771288090,
      1771288187,
      1771288187,
      1771288187,
      1771288187,
      1771288187,
      1771288229,
      1771288330,
      1771288330,
      1771288361,
      1771288390,
      1771288421,
      1771288475,
      1771288535,
      1771288535,
      1771288535,
      1771288655,
      1771288655,
      1771288655,
      1771288655,
      1771288715,
      1771288715,
      1771288715,
      1771288715,
      1771288810,
      1771288810,
      1771288810,
      1771288835,
      1771288835,
      1771288835,
      1771288870,
      1771288870,
      1771288870,
      1771288870,
      1771288870,
      1771289009,
      1771289009,
      1771289009,
      1771289069,
      1771289069,
      1771289069,
      1771289111,
      1771289111,
      1771289111
    ],
    "wof:geomhash": "8099e738826722d96d04bf6870619060",
    "wof:id": 2014805729,
    "wof:repo": "sfomuseum-data-flights-2026-02"
  },
  "bbox": [
    -123.79333333333334,
    37.4,
    -122.08333333333333,
    45.60638888888889
  ],
  "geometry": {"coordinates":[[-122.62222222222222,45.594722222222224],[-122.64833333333334,45.60638888888889],[-122.64833333333334,45.60638888888889],[-122.64833333333334,45.60638888888889],[-122.81444444444445,45.55166666666666],[-122.81444444444445,45.55166666666666],[-122.81444444444445,45.55166666666666],[-122.81444444444445,45.55166666666666],[-122.81444444444445,45.55166666666666],[-122.84833333333333,45.47916666666667],[-122.84833333333333,45.47916666666667],[-122.84833333333333,45.47916666666667],[-122.84833333333333,45.47916666666667],[-122.84833333333333,45.47916666666667],[-122.84833333333333,45.47916666666667],[-122.92833333333334,45.30722222222222],[-122.92833333333334,45.30722222222222],[-122.92833333333334,45.30722222222222],[-122.92833333333334,45.30722222222222],[-123.06,45.04111111111111],[-123.06,45.04111111111111],[-123.06,45.04111111111111],[-123.06,45.04111111111111],[-123.06,45.04111111111111],[-123.06,45.04111111111111],[-123.06,45.04111111111111],[-123.15416666666667,44.8525],[-123.15416666666667,44.8525],[-123.15416666666667,44.8525],[-123.15416666666667,44.8525],[-123.15416666666667,44.8525],[-123.20277777777778,44.755],[-123.20277777777778,44.755],[-123.25083333333333,44.6575],[-123.25083333333333,44.6575],[-123.25083333333333,44.6575],[-123.25083333333333,44.6575],[-123.25083333333333,44.6575],[-123.31805555555555,44.23361111111111],[-123.31805555555555,44.23361111111111],[-123.31805555555555,44.23361111111111],[-123.31805555555555,44.23361111111111],[-123.31805555555555,44.23361111111111],[-123.31805555555555,44.23361111111111],[-123.31805555555555,44.23361111111111],[-123.30388888888889,43.88305555555556],[-123.30388888888889,43.88305555555556],[-123.30388888888889,43.88305555555556],[-123.30388888888889,43.88305555555556],[-123.29972222222221,43.76638888888889],[-123.29972222222221,43.76638888888889],[-123.29972222222221,43.76638888888889],[-123.295,43.651111111111106],[-123.29055555555556,43.53333333333333],[-123.29055555555556,43.53333333333333],[-123.29055555555556,43.53333333333333],[-123.28583333333333,43.41166666666666],[-123.28583333333333,43.41166666666666],[-123.28583333333333,43.41166666666666],[-123.28583333333333,43.41166666666666],[-123.28138888888888,43.29194444444444],[-123.28138888888888,43.29194444444444],[-123.28138888888888,43.29194444444444],[-123.27638888888889,43.17111111111111],[-123.27638888888889,43.17111111111111],[-123.27638888888889,43.17111111111111],[-123.27638888888889,43.17111111111111],[-123.25833333333334,42.69166666666666],[-123.25833333333334,42.69166666666666],[-123.25305555555556,42.573055555555555],[-123.25305555555556,42.573055555555555],[-123.25305555555556,42.573055555555555],[-123.25305555555556,42.573055555555555],[-123.25305555555556,42.573055555555555],[-123.2475,42.4575],[-123.2475,42.4575],[-123.2475,42.4575],[-123.2475,42.4575],[-123.2475,42.4575],[-123.245,42.34027777777778],[-123.245,42.34027777777778],[-123.245,42.34027777777778],[-123.245,42.34027777777778],[-123.245,42.34027777777778],[-123.23694444444445,42.11027777777778],[-123.23694444444445,42.11027777777778],[-123.23694444444445,42.11027777777778],[-123.23694444444445,42.11027777777778],[-123.23222222222222,41.99333333333333],[-123.23222222222222,41.99333333333333],[-123.23222222222222,41.99333333333333],[-123.23222222222222,41.99333333333333],[-123.22416666666666,41.76],[-123.22416666666666,41.76],[-123.22416666666666,41.76],[-123.22416666666666,41.76],[-123.22416666666666,41.76],[-123.20777777777778,41.30222222222222],[-123.20777777777778,41.30222222222222],[-123.20777777777778,41.30222222222222],[-123.20777777777778,41.30222222222222],[-123.20777777777778,41.30222222222222],[-123.20777777777778,41.30222222222222],[-123.19666666666667,40.84388888888889],[-123.19666666666667,40.84388888888889],[-123.19666666666667,40.84388888888889],[-123.2375,40.72888888888889],[-123.2375,40.72888888888889],[-123.2375,40.72888888888889],[-123.2375,40.72888888888889],[-123.2375,40.72888888888889],[-123.2375,40.72888888888889],[-123.32222222222222,40.663333333333334],[-123.42055555555557,40.58583333333333],[-123.42055555555557,40.58583333333333],[-123.45916666666668,40.555277777777775],[-123.61472222222221,40.43111111111111],[-123.61472222222221,40.43111111111111],[-123.61472222222221,40.43111111111111],[-123.71305555555556,40.350833333333334],[-123.71305555555556,40.350833333333334],[-123.75888888888889,40.26972222222222],[-123.75888888888889,40.26972222222222],[-123.79333333333334,39.84583333333334],[-123.71222222222222,39.719166666666666],[-123.71222222222222,39.719166666666666],[-123.66000000000001,39.638333333333335],[-123.66000000000001,39.638333333333335],[-123.66000000000001,39.638333333333335],[-123.66000000000001,39.638333333333335],[-123.66000000000001,39.638333333333335],[-123.66000000000001,39.638333333333335],[-123.30027777777778,39.07611111111112],[-123.30027777777778,39.07611111111112],[-123.23416666666667,38.97166666666667],[-123.23416666666667,38.97166666666667],[-123.23416666666667,38.97166666666667],[-123.23416666666667,38.97166666666667],[-123.1,38.7575],[-123.1,38.7575],[-123.1,38.7575],[-123.03388888888888,38.653055555555554],[-123.03388888888888,38.653055555555554],[-123.03388888888888,38.653055555555554],[-122.96944444444445,38.549166666666665],[-122.96944444444445,38.549166666666665],[-122.96944444444445,38.549166666666665],[-122.81666666666666,38.31666666666667],[-122.81666666666666,38.31666666666667],[-122.76666666666667,38.2],[-122.76666666666667,38.2],[-122.76666666666667,38.2],[-122.76666666666667,38.2],[-122.76666666666667,38.2],[-122.7,38.016666666666666],[-122.7,38.016666666666666],[-122.7,38.016666666666666],[-122.7,38.016666666666666],[-122.68333333333334,37.93333333333333],[-122.68333333333334,37.93333333333333],[-122.6588888888889,37.88666666666666],[-122.6588888888889,37.88666666666666],[-122.55,37.78333333333333],[-122.55,37.78333333333333],[-122.55,37.78333333333333],[-122.55,37.78333333333333],[-122.55,37.78333333333333],[-122.5,37.733333333333334],[-122.405,37.646388888888886],[-122.405,37.646388888888886],[-122.36666666666666,37.61666666666667],[-122.35,37.58694444444445],[-122.33333333333333,37.53333333333333],[-122.3,37.483333333333334],[-122.25,37.416666666666664],[-122.25,37.416666666666664],[-122.25,37.416666666666664],[-122.11666666666666,37.4],[-122.11666666666666,37.4],[-122.11666666666666,37.4],[-122.11666666666666,37.4],[-122.08333333333333,37.45],[-122.08333333333333,37.45],[-122.08333333333333,37.45],[-122.08333333333333,37.45],[-122.12333333333332,37.511944444444445],[-122.12333333333332,37.511944444444445],[-122.12333333333332,37.511944444444445],[-122.15,37.516666666666666],[-122.15,37.516666666666666],[-122.15,37.516666666666666],[-122.17472222222223,37.53444444444444],[-122.17472222222223,37.53444444444444],[-122.17472222222223,37.53444444444444],[-122.17472222222223,37.53444444444444],[-122.17472222222223,37.53444444444444],[-122.3,37.583333333333336],[-122.3,37.583333333333336],[-122.3,37.583333333333336],[-122.35,37.6],[-122.35,37.6],[-122.35,37.6],[-122.36722222222221,37.61527777777778],[-122.36722222222221,37.61527777777778],[-122.36722222222221,37.61527777777778]],"type":"LineString"}
}
