{
  "id": 2014804559,
  "type": "Feature",
  "properties": {
    "geom:area": 0,
    "geom:bbox": "-122.380000,35.170000,-80.950000,38.330000",
    "geom:latitude": 36.984719168606304,
    "geom:longitude": -101.6628884933377,
    "src:alt_label": "swim-route",
    "src:geom": "swim",
    "swim:geom": "route",
    "wof:geomhash": "aacf7afd4f4d3a5ead73520ac71490b1",
    "wof:id": 2014804559,
    "wof:repo": "sfomuseum-data-flights-2026-02"
  },
  "bbox": [
    -122.38,
    35.17,
    -80.95,
    38.33
  ],
  "geometry": {"coordinates":[[-80.95,35.21],[-81.13,35.2],[-81.18,35.2],[-81.33,35.19],[-81.35,35.19],[-81.53,35.19],[-81.57,35.19],[-81.59,35.19],[-81.63,35.19],[-82.21,35.17],[-82.52,35.25],[-83.25,35.41],[-83.26,35.42],[-83.38,35.44],[-83.71,35.52],[-84.54,35.7],[-85.27,35.85],[-85.33,35.87],[-85.87,35.98],[-86.68,36.14],[-87.47,36.14],[-88.56,36.14],[-89.02,36.14],[-89.14,36.14],[-89.44,36.14],[-90.09,36.13],[-90.27,36.12],[-90.38,36.12],[-90.52,36.12],[-90.95,36.11],[-91.54,36.13],[-93.1,36.21],[-94.12,36.25],[-94.79,36.34],[-95.33,36.42],[-97.74,36.72],[-98.56,36.81],[-99.93,36.95],[-100.97,37.04],[-101.86,37.12],[-102.27,37.15],[-103.43,37.22],[-104.49,37.29],[-105.52,37.34],[-105.82,37.35],[-106.24,37.41],[-106.3,37.42],[-107.53,37.58],[-109,37.76],[-109.09,37.77],[-110.63,37.93],[-110.68,37.94],[-111.13,37.98],[-111.38,38.01],[-112.38,38.1],[-113.32,38.17],[-114.02,38.22],[-114.39,38.25],[-114.41,38.25],[-114.96,38.33],[-115.05,38.33],[-115.72,38.33],[-116.14,38.33],[-116.33,38.33],[-116.42,38.31],[-117.08,38.17],[-117.27,38.14],[-119.11,37.89],[-119.62,37.82],[-119.73,37.8],[-119.83,37.79],[-119.93,37.77],[-120.02,37.76],[-120.31,37.71],[-120.4,37.7],[-120.4,37.7],[-120.57,37.68],[-120.69,37.67],[-120.75,37.66],[-120.79,37.65],[-120.8,37.65],[-120.96,37.63],[-121,37.63],[-121.01,37.63],[-121.07,37.62],[-121.17,37.61],[-121.26,37.59],[-121.39,37.58],[-121.41,37.58],[-121.6,37.55],[-121.61,37.55],[-121.62,37.55],[-121.72,37.53],[-121.8,37.51],[-121.88,37.49],[-121.89,37.49],[-122.01,37.53],[-122.08,37.54],[-122.18,37.57],[-122.18,37.57],[-122.28,37.59],[-122.33,37.61],[-122.36,37.61],[-122.38,37.62]],"type":"LineString"}
}
