{
  "id": 2014905093,
  "type": "Feature",
  "properties": {
    "geom:area": 0,
    "geom:bbox": "-126.910833,37.261667,-122.080833,38.443889",
    "geom:latitude": 37.76699656406702,
    "geom:longitude": -124.335556977135,
    "src:alt_label": "swim-path",
    "src:geom": "swim",
    "swim:altitudes": [
      "350C",
      "350C",
      "350C",
      "350C",
      "350C",
      "350C",
      "350",
      "350",
      "341C",
      "330",
      "330",
      "315C",
      "310C",
      "310",
      "310",
      "310",
      "310C",
      "310C",
      "310",
      "310",
      "310",
      "310",
      "310",
      "254",
      "254",
      "254",
      "233",
      "195",
      "195",
      "174",
      "174",
      "140",
      "140",
      "140",
      "119",
      "119",
      "100",
      "100C",
      "100",
      "100C",
      "100C",
      "098",
      "090",
      "090",
      "090",
      "090",
      "085",
      "080",
      "080",
      "077",
      "065",
      "065",
      "065",
      "061",
      "046",
      "042",
      "042",
      "040",
      "040",
      "031",
      "026",
      "026",
      "012",
      "012",
      "008",
      "004",
      "100"
    ],
    "swim:geom": "path",
    "swim:speeds": [
      555,
      555,
      555,
      546,
      546,
      547,
      550,
      550,
      540,
      547,
      547,
      550,
      540,
      542,
      542,
      542,
      540,
      540,
      542,
      542,
      542,
      542,
      542,
      522,
      522,
      522,
      510,
      475,
      475,
      430,
      430,
      396,
      396,
      396,
      381,
      381,
      343,
      319,
      293,
      274,
      274,
      261,
      253,
      253,
      254,
      254,
      255,
      252,
      252,
      250,
      250,
      250,
      250,
      249,
      236,
      226,
      226,
      226,
      219,
      202,
      195,
      195,
      176,
      176,
      160,
      162,
      130
    ],
    "swim:timestamps": [
      1772297336,
      1772297336,
      1772297336,
      1772297456,
      1772297456,
      1772297516,
      1772297544,
      1772297544,
      1772297604,
      1772297636,
      1772297636,
      1772297664,
      1772297724,
      1772297756,
      1772297756,
      1772297756,
      1772297784,
      1772297784,
      1772297876,
      1772297876,
      1772297996,
      1772297996,
      1772297996,
      1772298237,
      1772298237,
      1772298237,
      1772298297,
      1772298417,
      1772298417,
      1772298477,
      1772298477,
      1772298597,
      1772298597,
      1772298597,
      1772298657,
      1772298657,
      1772298745,
      1772298777,
      1772298805,
      1772298837,
      1772298837,
      1772298865,
      1772298925,
      1772298925,
      1772298985,
      1772298985,
      1772299078,
      1772299105,
      1772299105,
      1772299165,
      1772299225,
      1772299225,
      1772299225,
      1772299258,
      1772299378,
      1772299405,
      1772299405,
      1772299438,
      1772299498,
      1772299558,
      1772299585,
      1772299585,
      1772299678,
      1772299678,
      1772299705,
      1772299738,
      1772299798
    ],
    "wof:geomhash": "01629f3277e81e48916f3b7f2dc1cafe",
    "wof:id": 2014905093,
    "wof:repo": "sfomuseum-data-flights-2026-02"
  },
  "bbox": [
    -126.91083333333334,
    37.26166666666666,
    -122.08083333333333,
    38.443888888888885
  ],
  "geometry": {"coordinates":[[-126.91083333333334,38.443888888888885],[-126.91083333333334,38.443888888888885],[-126.91083333333334,38.443888888888885],[-126.545,38.352222222222224],[-126.545,38.352222222222224],[-126.36166666666666,38.30166666666666],[-126.25,38.266666666666666],[-126.25,38.266666666666666],[-126.06666666666666,38.21666666666667],[-125.99638888888889,38.19888888888889],[-125.99638888888889,38.19888888888889],[-125.88333333333334,38.166666666666664],[-125.71666666666667,38.11666666666667],[-125.64027777777778,38.09722222222222],[-125.64027777777778,38.09722222222222],[-125.64027777777778,38.09722222222222],[-125.53333333333333,38.06666666666667],[-125.53333333333333,38.06666666666667],[-125.27916666666667,37.99277777777778],[-125.27916666666667,37.99277777777778],[-124.92500000000001,37.88916666666667],[-124.92500000000001,37.88916666666667],[-124.92500000000001,37.88916666666667],[-124.22500000000001,37.68],[-124.22500000000001,37.68],[-124.22500000000001,37.68],[-124.05972222222222,37.62972222222222],[-123.74277777777777,37.5325],[-123.74277777777777,37.5325],[-123.59916666666666,37.48833333333334],[-123.59916666666666,37.48833333333334],[-123.33722222222222,37.406666666666666],[-123.33722222222222,37.406666666666666],[-123.33722222222222,37.406666666666666],[-123.18861111111111,37.36027777777778],[-123.18861111111111,37.36027777777778],[-123.01666666666667,37.3],[-122.965,37.29],[-122.91666666666667,37.28333333333333],[-122.87277777777777,37.26166666666666],[-122.87277777777777,37.26166666666666],[-122.83333333333333,37.266666666666666],[-122.75,37.28333333333333],[-122.75,37.28333333333333],[-122.66666666666667,37.3],[-122.66666666666667,37.3],[-122.53083333333333,37.335],[-122.48333333333333,37.35],[-122.48333333333333,37.35],[-122.4,37.36666666666667],[-122.31666666666666,37.38333333333333],[-122.31666666666666,37.38333333333333],[-122.31666666666666,37.38333333333333],[-122.28027777777778,37.39222222222222],[-122.11805555555554,37.393055555555556],[-122.1,37.416666666666664],[-122.1,37.416666666666664],[-122.08083333333333,37.4475],[-122.11027777777777,37.50388888888889],[-122.17027777777778,37.5325],[-122.2,37.55],[-122.2,37.55],[-122.28555555555555,37.58111111111111],[-122.28555555555555,37.58111111111111],[-122.31666666666666,37.583333333333336],[-122.33444444444444,37.60166666666667],[-122.37527777777777,37.61888888888889]],"type":"LineString"}
}
