{
  "id": 2014852465,
  "type": "Feature",
  "properties": {
    "geom:area": 0,
    "geom:bbox": "-123.530000,37.620000,-122.110000,49.190000",
    "geom:latitude": 43.83452799871108,
    "geom:longitude": -122.34827408116347,
    "src:alt_label": "swim-route",
    "src:geom": "swim",
    "swim:geom": "route",
    "wof:geomhash": "861da020bad1fb561d0afb32932e31ab",
    "wof:id": 2014852465,
    "wof:repo": "sfomuseum-data-flights-2026-02"
  },
  "bbox": [
    -123.53,
    37.62,
    -122.11,
    49.19
  ],
  "geometry": {"coordinates":[[-122.38,37.62],[-122.33,37.71],[-122.33,37.72],[-122.29,37.78],[-122.29,37.78],[-122.28,37.81],[-122.26,37.86],[-122.25,37.87],[-122.18,38.01],[-122.13,38.1],[-122.13,38.16],[-122.12,38.18],[-122.12,38.23],[-122.12,38.3],[-122.11,38.34],[-122.12,38.43],[-122.13,38.52],[-122.13,38.64],[-122.14,38.7],[-122.14,38.72],[-122.15,38.88],[-122.16,38.95],[-122.16,39.02],[-122.17,39.1],[-122.18,39.36],[-122.24,40.1],[-122.24,41.28],[-122.25,43.64],[-122.27,46],[-122.28,47.56],[-122.28,47.62],[-122.28,47.84],[-122.28,47.89],[-122.28,47.92],[-122.32,48.06],[-122.32,48.08],[-122.44,48.47],[-122.46,48.54],[-122.51,48.71],[-122.51,48.71],[-122.63,48.79],[-122.67,48.81],[-122.79,48.89],[-122.91,48.97],[-122.97,49],[-123.06,49.06],[-123.19,49.1],[-123.26,49.1],[-123.27,49.1],[-123.51,49.13],[-123.53,49.13],[-123.47,49.14],[-123.43,49.15],[-123.31,49.17],[-123.18,49.19]],"type":"LineString"}
}
