{
  "id": 2014890859,
  "type": "Feature",
  "properties": {
    "geom:area": 0,
    "geom:bbox": "-122.380000,29.820000,-95.340000,37.620000",
    "geom:latitude": 32.7838531147775,
    "geom:longitude": -109.33052713022022,
    "src:alt_label": "swim-route",
    "src:geom": "swim",
    "swim:geom": "route",
    "wof:geomhash": "e1d50ac25460c5361442dedf87408bb4",
    "wof:id": 2014890859,
    "wof:repo": "sfomuseum-data-flights-2026-02"
  },
  "bbox": [
    -122.38,
    29.82,
    -95.34,
    37.62
  ],
  "geometry": {"coordinates":[[-95.34,29.98],[-95.43,29.91],[-95.49,29.85],[-95.51,29.85],[-95.56,29.82],[-95.58,29.83],[-95.61,29.85],[-95.72,29.9],[-95.89,29.99],[-96.06,30.07],[-96.12,30.08],[-96.24,30.1],[-96.26,30.1],[-96.51,30.14],[-96.7,30.17],[-96.79,30.18],[-96.97,30.21],[-97.05,30.22],[-97.08,30.22],[-97.12,30.23],[-97.73,30.32],[-98.03,30.38],[-98.34,30.45],[-99.37,30.55],[-99.82,30.6],[-100.29,30.7],[-102.2,31.09],[-102.7,31.19],[-103.71,31.37],[-104.21,31.46],[-105.22,31.64],[-105.73,31.73],[-106.23,31.81],[-106.28,31.82],[-107.24,32],[-108.2,32.17],[-109.77,32.44],[-110.18,32.58],[-110.59,32.72],[-111.04,32.87],[-111.48,33.02],[-112.38,33.31],[-112.82,33.45],[-113.51,33.58],[-113.87,33.65],[-114,33.67],[-114.54,33.77],[-115.03,33.8],[-115.46,33.82],[-116.12,34.04],[-116.67,34.21],[-117.21,34.38],[-117.59,34.49],[-117.96,34.6],[-118.06,34.63],[-118.99,35.13],[-119.36,35.32],[-119.98,35.65],[-120.34,35.68],[-120.34,35.68],[-120.76,35.84],[-121.17,36],[-121.23,36.02],[-121.29,36.04],[-121.36,36.07],[-121.43,36.15],[-121.47,36.2],[-121.63,36.4],[-121.66,36.44],[-121.7,36.5],[-121.76,36.57],[-121.8,36.62],[-121.8,36.63],[-121.82,36.65],[-121.86,36.7],[-121.88,36.72],[-121.89,36.74],[-121.94,36.91],[-121.95,36.95],[-121.97,36.99],[-122,37.07],[-122.08,37.27],[-122.08,37.28],[-122.1,37.32],[-122.1,37.33],[-122.12,37.37],[-122.17,37.43],[-122.24,37.49],[-122.31,37.56],[-122.36,37.6],[-122.37,37.61],[-122.38,37.62]],"type":"LineString"}
}
