{
  "id": 2014858817,
  "type": "Feature",
  "properties": {
    "geom:area": 0,
    "geom:bbox": "-122.420070,37.284140,-121.248530,37.711030",
    "geom:latitude": 37.47729064540765,
    "geom:longitude": -121.91898667024759,
    "src:alt_label": "swim-takeoff",
    "src:geom": "swim",
    "swim:elevations": [
      122,
      234,
      519,
      779,
      1358,
      1681,
      2336,
      2773,
      3213,
      3366,
      3559,
      3845,
      4312,
      4382,
      4439,
      5133,
      5452,
      5874,
      6154,
      6630,
      6845,
      7091,
      7597,
      7802,
      8203,
      8479,
      8647
    ],
    "swim:geom": "takeoff",
    "swim:timestamps": [
      1771797778,
      1771797787,
      1771797828,
      1771797855,
      1771797892,
      1771797915,
      1771797957,
      1771797985,
      1771798018,
      1771798039,
      1771798062,
      1771798084,
      1771798133,
      1771798142,
      1771798148,
      1771798193,
      1771798216,
      1771798257,
      1771798277,
      1771798316,
      1771798337,
      1771798360,
      1771798406,
      1771798424,
      1771798463,
      1771798490,
      1771798507
    ],
    "wof:geomhash": "31338576a879faadd42159c16e21a39e",
    "wof:id": 2014858817,
    "wof:repo": "sfomuseum-data-flights-2026-02"
  },
  "bbox": [
    -122.42007,
    37.28414,
    -121.24853,
    37.71103
  ],
  "geometry": {"coordinates":[[-122.37192,37.625],[-122.36739,37.63163],[-122.36314,37.66309],[-122.36244,37.6892],[-122.39362,37.71103],[-122.41691,37.70167],[-122.42007,37.66413],[-122.4131,37.63714],[-122.40375,37.60534],[-122.38526,37.58532],[-122.34381,37.57467],[-122.30126,37.56652],[-122.19967,37.541],[-122.17946,37.53565],[-122.16576,37.53189],[-122.06066,37.50402],[-122.00536,37.4893],[-121.90475,37.46234],[-121.85525,37.44911],[-121.75663,37.42257],[-121.70247,37.40797],[-121.64276,37.39182],[-121.51889,37.35804],[-121.47079,37.34505],[-121.36589,37.31623],[-121.2928,37.2964],[-121.24853,37.28414]],"type":"LineString"}
}
