{
  "id": 2014798523,
  "type": "Feature",
  "properties": {
    "geom:area": 0,
    "geom:bbox": "-122.333611,35.890000,-115.281111,37.853611",
    "geom:latitude": 37.14760002870071,
    "geom:longitude": -118.71678427382527,
    "src:alt_label": "swim-path",
    "src:geom": "swim",
    "swim:altitudes": [
      "074",
      "074",
      "074",
      "074",
      "122",
      "122",
      "122",
      "193",
      "193",
      "193",
      "193",
      "255",
      "255",
      "255",
      "272",
      "272",
      "280",
      "280",
      "280",
      "280",
      "298",
      "298",
      "306",
      "306",
      "306",
      "323",
      "323",
      "323",
      "323",
      "352",
      "356",
      "356",
      "360C",
      "360C",
      "360C",
      "360C",
      "360C",
      "360C",
      "360",
      "360",
      "366",
      "366",
      "366",
      "368",
      "368",
      "368",
      "380C",
      "380C",
      "380C",
      "380C",
      "380C",
      "380C",
      "380C",
      "380C",
      "380C",
      "380C",
      "380C",
      "380C",
      "380C",
      "380C",
      "380C",
      "380C",
      "380C",
      "380C",
      "380C",
      "380C",
      "380C",
      "380C",
      "380C",
      "380C",
      "380C",
      "380C",
      "380C",
      "380C",
      "380C",
      "380C",
      "380C",
      "380C",
      "380C",
      "380C",
      "380C",
      "380C",
      "380C",
      "380C",
      "380",
      "380",
      "380",
      "373",
      "373",
      "373",
      "362",
      "353",
      "353",
      "353",
      "353",
      "324",
      "324",
      "324",
      "324",
      "281",
      "281",
      "275",
      "275",
      "275",
      "247",
      "231",
      "231",
      "226",
      "226",
      "226",
      "217",
      "217",
      "217",
      "174",
      "158",
      "158",
      "158",
      "158",
      "158",
      "153",
      "141",
      "123",
      "111",
      "111",
      "111",
      "111",
      "111",
      "100",
      "100",
      "100",
      "100",
      "095",
      "095",
      "091",
      "091",
      "091",
      "084",
      "084",
      "084",
      "073",
      "070C",
      "070C",
      "070C",
      "070C",
      "050",
      "050",
      "050",
      "050",
      "050",
      "048",
      "048",
      "048",
      "040",
      "040",
      "014",
      "014",
      "014",
      "012",
      "012"
    ],
    "swim:geom": "path",
    "swim:speeds": [
      259,
      259,
      259,
      259,
      270,
      270,
      270,
      358,
      358,
      358,
      358,
      427,
      427,
      427,
      434,
      434,
      443,
      443,
      443,
      443,
      446,
      446,
      450,
      450,
      450,
      444,
      444,
      444,
      444,
      443,
      446,
      446,
      463,
      463,
      463,
      463,
      463,
      465,
      466,
      466,
      404,
      404,
      404,
      387,
      387,
      387,
      380,
      380,
      380,
      381,
      381,
      382,
      381,
      381,
      380,
      380,
      379,
      379,
      379,
      379,
      379,
      379,
      380,
      380,
      382,
      382,
      382,
      374,
      373,
      373,
      373,
      372,
      372,
      372,
      372,
      373,
      373,
      372,
      372,
      372,
      365,
      365,
      364,
      364,
      363,
      363,
      363,
      364,
      364,
      364,
      371,
      375,
      375,
      375,
      375,
      376,
      376,
      376,
      376,
      385,
      385,
      344,
      344,
      344,
      329,
      322,
      322,
      323,
      323,
      323,
      307,
      307,
      307,
      307,
      310,
      310,
      310,
      310,
      310,
      308,
      313,
      303,
      296,
      296,
      296,
      296,
      296,
      259,
      259,
      259,
      244,
      239,
      239,
      241,
      241,
      241,
      240,
      240,
      240,
      238,
      237,
      237,
      237,
      237,
      224,
      224,
      224,
      225,
      225,
      182,
      182,
      182,
      164,
      164,
      144,
      144,
      144,
      147,
      147
    ],
    "swim:timestamps": [
      1771190293,
      1771190293,
      1771190293,
      1771190293,
      1771190413,
      1771190413,
      1771190413,
      1771190593,
      1771190593,
      1771190593,
      1771190593,
      1771190834,
      1771190834,
      1771190834,
      1771190894,
      1771190894,
      1771190954,
      1771190954,
      1771190954,
      1771190954,
      1771191014,
      1771191014,
      1771191057,
      1771191057,
      1771191057,
      1771191117,
      1771191117,
      1771191117,
      1771191117,
      1771191237,
      1771191254,
      1771191254,
      1771191297,
      1771191297,
      1771191297,
      1771191314,
      1771191314,
      1771191357,
      1771191374,
      1771191374,
      1771191417,
      1771191417,
      1771191417,
      1771191434,
      1771191434,
      1771191434,
      1771191598,
      1771191598,
      1771191598,
      1771191658,
      1771191658,
      1771191675,
      1771191735,
      1771191735,
      1771191778,
      1771191778,
      1771191795,
      1771191795,
      1771191795,
      1771191838,
      1771191838,
      1771191898,
      1771191915,
      1771191915,
      1771191975,
      1771191975,
      1771191975,
      1771192018,
      1771192035,
      1771192035,
      1771192035,
      1771192095,
      1771192095,
      1771192095,
      1771192095,
      1771192138,
      1771192138,
      1771192258,
      1771192258,
      1771192258,
      1771192336,
      1771192336,
      1771192379,
      1771192379,
      1771192439,
      1771192439,
      1771192439,
      1771192499,
      1771192499,
      1771192499,
      1771192559,
      1771192619,
      1771192619,
      1771192619,
      1771192619,
      1771192799,
      1771192799,
      1771192799,
      1771192799,
      1771192919,
      1771192919,
      1771192959,
      1771192959,
      1771192959,
      1771193039,
      1771193084,
      1771193084,
      1771193099,
      1771193099,
      1771193099,
      1771193139,
      1771193139,
      1771193139,
      1771193264,
      1771193319,
      1771193319,
      1771193319,
      1771193319,
      1771193319,
      1771193340,
      1771193384,
      1771193460,
      1771193504,
      1771193504,
      1771193504,
      1771193504,
      1771193504,
      1771193570,
      1771193570,
      1771193570,
      1771193640,
      1771193684,
      1771193684,
      1771193700,
      1771193700,
      1771193700,
      1771193760,
      1771193760,
      1771193760,
      1771193820,
      1771193880,
      1771193880,
      1771193880,
      1771193880,
      1771194044,
      1771194044,
      1771194044,
      1771194061,
      1771194061,
      1771194104,
      1771194104,
      1771194104,
      1771194164,
      1771194164,
      1771194344,
      1771194344,
      1771194344,
      1771194361,
      1771194361
    ],
    "wof:geomhash": "10e6bab5371f714b24cbc34a0079f3da",
    "wof:id": 2014798523,
    "wof:repo": "sfomuseum-data-flights-2026-02"
  },
  "bbox": [
    -122.33361111111111,
    35.89,
    -115.28111111111112,
    37.853611111111114
  ],
  "geometry": {"coordinates":[[-115.28111111111112,36.01694444444444],[-115.28111111111112,36.01694444444444],[-115.28111111111112,36.01694444444444],[-115.28111111111112,36.01694444444444],[-115.3736111111111,35.89],[-115.3736111111111,35.89],[-115.3736111111111,35.89],[-115.66694444444445,35.915277777777774],[-115.66694444444445,35.915277777777774],[-115.66694444444445,35.915277777777774],[-115.66694444444445,35.915277777777774],[-116.10555555555555,36.18055555555555],[-116.10555555555555,36.18055555555555],[-116.10555555555555,36.18055555555555],[-116.24833333333333,36.266666666666666],[-116.24833333333333,36.266666666666666],[-116.34527777777777,36.32472222222223],[-116.34527777777777,36.32472222222223],[-116.34527777777777,36.32472222222223],[-116.34527777777777,36.32472222222223],[-116.49361111111111,36.413888888888884],[-116.49361111111111,36.413888888888884],[-116.57166666666666,36.46055555555556],[-116.57166666666666,36.46055555555556],[-116.57166666666666,36.46055555555556],[-116.69611111111111,36.53444444444444],[-116.69611111111111,36.53444444444444],[-116.69611111111111,36.53444444444444],[-116.69611111111111,36.53444444444444],[-116.91194444444444,36.708333333333336],[-116.94444444444444,36.742222222222225],[-116.94444444444444,36.742222222222225],[-116.99555555555555,36.815555555555555],[-116.99555555555555,36.815555555555555],[-116.99555555555555,36.815555555555555],[-117.00805555555556,36.834722222222226],[-117.00805555555556,36.834722222222226],[-117.07138888888889,36.93222222222222],[-117.08666666666666,36.955555555555556],[-117.08666666666666,36.955555555555556],[-117.16888888888889,37.02222222222222],[-117.16888888888889,37.02222222222222],[-117.16888888888889,37.02222222222222],[-117.19444444444444,37.02833333333333],[-117.19444444444444,37.02833333333333],[-117.19444444444444,37.02833333333333],[-117.54972222222221,37.10944444444445],[-117.54972222222221,37.10944444444445],[-117.54972222222221,37.10944444444445],[-117.68,37.13805555555555],[-117.68,37.13805555555555],[-117.70444444444445,37.14333333333333],[-117.83444444444444,37.17194444444444],[-117.83444444444444,37.17194444444444],[-117.93611111111112,37.193888888888885],[-117.93611111111112,37.193888888888885],[-117.96111111111111,37.19916666666666],[-117.96111111111111,37.19916666666666],[-117.96111111111111,37.19916666666666],[-118.06444444444445,37.22138888888889],[-118.06444444444445,37.22138888888889],[-118.19111111111111,37.24888888888889],[-118.2175,37.254444444444445],[-118.2175,37.254444444444445],[-118.34638888888888,37.282222222222224],[-118.34638888888888,37.282222222222224],[-118.34638888888888,37.282222222222224],[-118.44722222222222,37.30305555555555],[-118.47194444444445,37.30833333333333],[-118.47194444444445,37.30833333333333],[-118.47194444444445,37.30833333333333],[-118.59888888888888,37.33527777777778],[-118.59888888888888,37.33527777777778],[-118.59888888888888,37.33527777777778],[-118.59888888888888,37.33527777777778],[-118.69944444444445,37.35638888888889],[-118.69944444444445,37.35638888888889],[-118.94250000000001,37.407222222222224],[-118.94250000000001,37.407222222222224],[-118.94250000000001,37.407222222222224],[-119.09972222222221,37.43944444444444],[-119.09972222222221,37.43944444444444],[-119.18694444444445,37.45722222222223],[-119.18694444444445,37.45722222222223],[-119.30749999999999,37.48166666666667],[-119.30749999999999,37.48166666666667],[-119.30749999999999,37.48166666666667],[-119.43083333333334,37.50694444444444],[-119.43083333333334,37.50694444444444],[-119.43083333333334,37.50694444444444],[-119.56833333333333,37.534166666666664],[-119.69583333333334,37.56027777777778],[-119.69583333333334,37.56027777777778],[-119.69583333333334,37.56027777777778],[-119.69583333333334,37.56027777777778],[-120.08083333333333,37.63638888888889],[-120.08083333333333,37.63638888888889],[-120.08083333333333,37.63638888888889],[-120.08083333333333,37.63638888888889],[-120.34472222222222,37.6875],[-120.34472222222222,37.6875],[-120.43333333333334,37.7],[-120.43333333333334,37.7],[-120.43333333333334,37.7],[-120.58194444444445,37.67861111111111],[-120.66666666666667,37.666666666666664],[-120.66666666666667,37.666666666666664],[-120.69361111111111,37.665277777777774],[-120.69361111111111,37.665277777777774],[-120.69361111111111,37.665277777777774],[-120.76666666666667,37.65],[-120.76666666666667,37.65],[-120.76666666666667,37.65],[-120.98333333333333,37.63333333333333],[-121.08333333333333,37.65],[-121.08333333333333,37.65],[-121.08333333333333,37.65],[-121.08333333333333,37.65],[-121.08333333333333,37.65],[-121.12333333333332,37.663888888888884],[-121.2,37.68333333333333],[-121.33277777777778,37.70277777777778],[-121.41666666666667,37.71666666666667],[-121.41666666666667,37.71666666666667],[-121.41666666666667,37.71666666666667],[-121.41666666666667,37.71666666666667],[-121.41666666666667,37.71666666666667],[-121.51666666666667,37.733333333333334],[-121.51666666666667,37.733333333333334],[-121.51666666666667,37.733333333333334],[-121.61138888888888,37.753055555555555],[-121.66666666666667,37.766666666666666],[-121.66666666666667,37.766666666666666],[-121.69277777777778,37.768055555555556],[-121.69277777777778,37.768055555555556],[-121.69277777777778,37.768055555555556],[-121.77472222222222,37.783055555555556],[-121.77472222222222,37.783055555555556],[-121.77472222222222,37.783055555555556],[-121.85499999999999,37.79722222222222],[-121.93555555555555,37.81166666666666],[-121.93555555555555,37.81166666666666],[-121.93555555555555,37.81166666666666],[-121.93555555555555,37.81166666666666],[-122.15,37.85],[-122.15,37.85],[-122.15,37.85],[-122.1725,37.853611111111114],[-122.1725,37.853611111111114],[-122.21666666666667,37.85],[-122.21666666666667,37.85],[-122.21666666666667,37.85],[-122.25,37.8],[-122.25,37.8],[-122.33333333333333,37.68333333333333],[-122.33333333333333,37.68333333333333],[-122.33333333333333,37.68333333333333],[-122.33361111111111,37.67805555555555],[-122.33361111111111,37.67805555555555]],"type":"LineString"}
}
