{
  "id": 2014789807,
  "type": "Feature",
  "properties": {
    "geom:area": 0,
    "geom:bbox": "-122.333333,35.906944,-115.268611,37.655278",
    "geom:latitude": 37.17299026383572,
    "geom:longitude": -118.63447568351208,
    "src:alt_label": "swim-path",
    "src:geom": "swim",
    "swim:altitudes": [
      "064",
      "153",
      "216",
      "216",
      "288",
      "360C",
      "360C",
      "360C",
      "360C",
      "360C",
      "360C",
      "360C",
      "360C",
      "360C",
      "360C",
      "360C",
      "360C",
      "360C",
      "360C",
      "360C",
      "360",
      "252",
      "252",
      "230",
      "141",
      "141",
      "085",
      "085",
      "055",
      "046",
      "004",
      "004"
    ],
    "swim:geom": "path",
    "swim:speeds": [
      250,
      328,
      348,
      348,
      415,
      412,
      412,
      413,
      417,
      438,
      423,
      421,
      407,
      368,
      389,
      389,
      386,
      378,
      378,
      374,
      374,
      350,
      350,
      343,
      317,
      317,
      227,
      227,
      240,
      231,
      138,
      138
    ],
    "swim:timestamps": [
      1771124182,
      1771124355,
      1771124475,
      1771124475,
      1771124656,
      1771124956,
      1771124956,
      1771125150,
      1771125196,
      1771125256,
      1771125451,
      1771125497,
      1771125557,
      1771125751,
      1771125991,
      1771126038,
      1771126098,
      1771126472,
      1771126472,
      1771126592,
      1771126652,
      1771127190,
      1771127190,
      1771127252,
      1771127493,
      1771127493,
      1771127733,
      1771127733,
      1771127910,
      1771127970,
      1771128210,
      1771128210
    ],
    "wof:geomhash": "4657d36b9c674e95e93146cb91e1ffc0",
    "wof:id": 2014789807,
    "wof:repo": "sfomuseum-data-flights-2026-02"
  },
  "bbox": [
    -122.33333333333333,
    35.90694444444444,
    -115.26861111111111,
    37.655277777777776
  ],
  "geometry": {"coordinates":[[-115.26861111111111,36.04944444444444],[-115.45861111111111,35.91833333333333],[-115.69166666666668,35.90694444444444],[-115.69166666666668,35.90694444444444],[-116.04833333333333,35.98444444444444],[-116.54666666666667,36.39055555555556],[-116.54666666666667,36.39055555555556],[-116.85472222222222,36.65833333333333],[-116.93361111111112,36.72944444444445],[-117.00722222222223,36.83305555555556],[-117.2275,37.17194444444444],[-117.28138888888888,37.25416666666667],[-117.36305555555555,37.347500000000004],[-117.71722222222222,37.510555555555555],[-118.25416666666666,37.55305555555555],[-118.35499999999999,37.56083333333333],[-118.48611111111111,37.57083333333334],[-119.30305555555556,37.62916666666667],[-119.30305555555556,37.62916666666667],[-119.56361111111111,37.64666666666667],[-119.69277777777778,37.655277777777776],[-120.85,37.65],[-120.85,37.65],[-120.95277777777778,37.634166666666665],[-121.39277777777778,37.57805555555556],[-121.39277777777778,37.57805555555556],[-121.775,37.514722222222225],[-121.775,37.514722222222225],[-122.01666666666667,37.5],[-122.1,37.53333333333333],[-122.33333333333333,37.6],[-122.33333333333333,37.6]],"type":"LineString"}
}
