{
  "id": 2014789807,
  "type": "Feature",
  "properties": {
    "geom:area": 0,
    "geom:bbox": "-122.359180,37.492520,-121.242290,37.614170",
    "geom:latitude": 37.54710952571849,
    "geom:longitude": -121.80570154757747,
    "src:alt_label": "swim-approach",
    "src:geom": "swim",
    "swim:elevations": [
      5259,
      5078,
      4600,
      4354,
      4114,
      3588,
      3292,
      3196,
      3182,
      3009,
      2978,
      2858,
      2779,
      2406,
      2313,
      2145,
      1946,
      1829,
      1676,
      1522,
      1427,
      1219,
      1006,
      993,
      830,
      690,
      515,
      409,
      268,
      154,
      11,
      0
    ],
    "swim:geom": "approach",
    "swim:timestamps": [
      1771098597,
      1771098612,
      1771098653,
      1771098675,
      1771098696,
      1771098743,
      1771098770,
      1771098807,
      1771098810,
      1771098864,
      1771098873,
      1771098895,
      1771098900,
      1771098952,
      1771098969,
      1771098996,
      1771099045,
      1771099077,
      1771099108,
      1771099135,
      1771099165,
      1771099192,
      1771099227,
      1771099231,
      1771099256,
      1771099280,
      1771099315,
      1771099339,
      1771099372,
      1771099399,
      1771099438,
      1771099441
    ],
    "wof:geomhash": "31180101711c3d79631b29dd97e97e4b",
    "wof:id": 2014789807,
    "wof:repo": "sfomuseum-data-flights-2026-02"
  },
  "bbox": [
    -122.35918,
    37.49252,
    -121.24229,
    37.61417
  ],
  "geometry": {"coordinates":[[-121.24229,37.59551],[-121.26939,37.59183],[-121.34328,37.58347],[-121.38271,37.57916],[-121.42038,37.57483],[-121.50433,37.56501],[-121.55444,37.55902],[-121.61843,37.55156],[-121.62331,37.5508],[-121.7019,37.5324],[-121.7141,37.52944],[-121.74242,37.52272],[-121.74966,37.52096],[-121.81249,37.50578],[-121.83366,37.50082],[-121.86678,37.49302],[-121.9316,37.49252],[-121.97418,37.49318],[-122.01357,37.50205],[-122.04856,37.51374],[-122.08614,37.52646],[-122.12056,37.53764],[-122.16354,37.55155],[-122.16798,37.553],[-122.19798,37.5627],[-122.22419,37.57142],[-122.25884,37.58221],[-122.28133,37.58872],[-122.30837,37.59681],[-122.32855,37.60276],[-122.35704,37.61339],[-122.35918,37.61417]],"type":"LineString"}
}
