{
  "id": 2014815909,
  "type": "Feature",
  "properties": {
    "geom:area": 0,
    "geom:bbox": "-127.433889,37.316667,-122.083333,38.686667",
    "geom:latitude": 37.844556212338055,
    "geom:longitude": -124.65027370564927,
    "src:alt_label": "swim-path",
    "src:geom": "swim",
    "swim:altitudes": [
      "360",
      "360",
      "360",
      "360",
      "",
      "360C",
      "",
      "360C",
      "350C",
      "270",
      "234",
      "217",
      "183",
      "166",
      "149",
      "132",
      "116",
      "100",
      "100",
      "100",
      "096",
      "093",
      "090",
      "085",
      "083",
      "078",
      "072",
      "050",
      "040",
      "040",
      "037",
      "030",
      "027",
      "021",
      "006"
    ],
    "swim:geom": "path",
    "swim:speeds": [
      604,
      605,
      606,
      607,
      610,
      611,
      610,
      611,
      610,
      574,
      546,
      529,
      498,
      495,
      467,
      448,
      420,
      395,
      388,
      377,
      305,
      306,
      304,
      305,
      305,
      299,
      288,
      272,
      186,
      186,
      178,
      171,
      173,
      152,
      142
    ],
    "swim:timestamps": [
      1771427860,
      1771427920,
      1771427980,
      1771428040,
      1771428120,
      1771428280,
      1771428360,
      1771428400,
      1771428480,
      1771428700,
      1771428820,
      1771428880,
      1771429001,
      1771429061,
      1771429121,
      1771429181,
      1771429241,
      1771429328,
      1771429394,
      1771429449,
      1771429508,
      1771429541,
      1771429574,
      1771429640,
      1771429661,
      1771429694,
      1771429721,
      1771429781,
      1771429874,
      1771429901,
      1771429940,
      1771429994,
      1771430022,
      1771430054,
      1771430174
    ],
    "wof:geomhash": "e6ed2e874c7236edd58c18940affa29a",
    "wof:id": 2014815909,
    "wof:repo": "sfomuseum-data-flights-2026-02"
  },
  "bbox": [
    -127.43388888888889,
    37.31666666666667,
    -122.08333333333333,
    38.68666666666666
  ],
  "geometry": {"coordinates":[[-127.43388888888889,38.68666666666666],[-127.25361111111111,38.59138888888889],[-127.07694444444444,38.4975],[-126.88361111111112,38.421388888888885],[-126.6,38.333333333333336],[-126.06333333333333,38.19333333333333],[-125.78333333333333,38.11666666666667],[-125.65722222222223,38.08083333333334],[-125.38333333333334,38],[-124.67083333333333,37.79972222222222],[-124.30527777777777,37.69277777777778],[-124.13388888888889,37.64222222222222],[-123.80166666666666,37.54388888888889],[-123.64027777777778,37.49444444444445],[-123.48527777777778,37.44833333333333],[-123.34138888888889,37.40472222222222],[-123.20361111111112,37.36222222222222],[-122.98333333333333,37.31666666666667],[-122.83333333333333,37.333333333333336],[-122.71666666666667,37.35],[-122.6,37.35],[-122.54444444444444,37.36333333333334],[-122.48333333333333,37.36666666666667],[-122.36666666666666,37.38333333333333],[-122.33583333333333,37.38638888888889],[-122.28333333333333,37.4],[-122.23416666666667,37.401944444444446],[-122.14361111111111,37.424166666666665],[-122.08333333333333,37.483333333333334],[-122.10555555555555,37.50694444444444],[-122.15,37.516666666666666],[-122.18333333333334,37.55],[-122.21277777777777,37.55277777777778],[-122.23333333333333,37.56666666666667],[-122.33333333333333,37.6]],"type":"LineString"}
}
