{
  "id": 2014781813,
  "type": "Feature",
  "properties": {
    "geom:area": 0,
    "geom:bbox": "-122.356944,37.416667,-104.842222,39.857222",
    "geom:latitude": 38.72624047009832,
    "geom:longitude": -113.6490501938292,
    "src:alt_label": "swim-path",
    "src:geom": "swim",
    "swim:altitudes": [
      "078",
      "124",
      "208",
      "343",
      "360C",
      "377",
      "380C",
      "380C",
      "380C",
      "380C",
      "380C",
      "380C",
      "380C",
      "380C",
      "380C",
      "380C",
      "380C",
      "380C",
      "380C",
      "380C",
      "380C",
      "380C",
      "380C",
      "380C",
      "380C",
      "380C",
      "380C",
      "380C",
      "380C",
      "380C",
      "380C",
      "380C",
      "380C",
      "380C",
      "380C",
      "380C",
      "365",
      "349",
      "349",
      "340",
      "340",
      "321C",
      "320C",
      "310",
      "263",
      "223",
      "219",
      "170",
      "170",
      "116",
      "110",
      "090",
      "077",
      "070",
      "070",
      "050",
      "001"
    ],
    "swim:geom": "path",
    "swim:speeds": [
      263,
      311,
      365,
      351,
      381,
      397,
      402,
      400,
      401,
      404,
      409,
      413,
      413,
      420,
      420,
      424,
      427,
      428,
      428,
      433,
      436,
      442,
      436,
      436,
      435,
      428,
      428,
      424,
      419,
      419,
      420,
      421,
      421,
      421,
      421,
      421,
      425,
      438,
      438,
      417,
      417,
      428,
      431,
      437,
      431,
      389,
      382,
      331,
      331,
      258,
      240,
      256,
      257,
      229,
      229,
      176,
      143
    ],
    "swim:timestamps": [
      1770995293,
      1770995413,
      1770995654,
      1770996131,
      1770996491,
      1770996792,
      1770996972,
      1770997152,
      1770997392,
      1770997513,
      1770997873,
      1770998113,
      1770998173,
      1770998654,
      1770998654,
      1770998834,
      1770998955,
      1770999015,
      1770999015,
      1770999195,
      1770999255,
      1770999435,
      1770999736,
      1770999736,
      1770999796,
      1770999916,
      1770999916,
      1771000096,
      1771000378,
      1771000396,
      1771000438,
      1771000559,
      1771000709,
      1771000799,
      1771000829,
      1771000829,
      1771001039,
      1771001220,
      1771001220,
      1771001472,
      1771001472,
      1771001592,
      1771001652,
      1771001772,
      1771001893,
      1771002013,
      1771002026,
      1771002193,
      1771002193,
      1771002446,
      1771002506,
      1771002686,
      1771002746,
      1771002806,
      1771002806,
      1771002986,
      1771003335
    ],
    "wof:geomhash": "f64bc07d6c7b33f7e7ee24cfd5753e18",
    "wof:id": 2014781813,
    "wof:repo": "sfomuseum-data-flights-2026-02"
  },
  "bbox": [
    -122.35694444444444,
    37.416666666666664,
    -104.84222222222222,
    39.85722222222223
  ],
  "geometry": {"coordinates":[[-104.84222222222222,39.841944444444444],[-105.05194444444444,39.84638888888889],[-105.54722222222222,39.85722222222223],[-106.56305555555555,39.785],[-107.36916666666666,39.693888888888885],[-108.06416666666667,39.613055555555555],[-108.49444444444444,39.559999999999995],[-108.92861111111111,39.505],[-109.49583333333334,39.43],[-109.78388888888888,39.39111111111111],[-110.6463888888889,39.27333333333333],[-111.2275,39.19138888888889],[-111.37944444444443,39.16888888888889],[-112.5475,38.99277777777778],[-112.5475,38.99277777777778],[-112.99083333333333,38.9225],[-113.2786111111111,38.845555555555556],[-113.41944444444445,38.79972222222222],[-113.41944444444445,38.79972222222222],[-113.84305555555555,38.66138888888889],[-113.98777777777778,38.61333333333334],[-114.43527777777778,38.515],[-115.20222222222222,38.4175],[-115.20222222222222,38.4175],[-115.325,38.401666666666664],[-115.6538888888889,38.35805555555556],[-115.6538888888889,38.35805555555556],[-116.09638888888888,38.2975],[-116.79527777777777,38.198611111111106],[-116.82388888888889,38.19444444444444],[-116.94305555555556,38.17722222222222],[-117.22444444444444,38.135555555555555],[-117.59777777777778,38.07944444444445],[-117.80194444444444,38.04805555555556],[-117.88916666666667,38.03472222222222],[-117.88916666666667,38.03472222222222],[-118.38777777777779,37.95638888888889],[-118.84388888888888,37.88611111111111],[-118.84388888888888,37.88611111111111],[-119.46027777777778,37.81527777777777],[-119.46027777777778,37.81527777777777],[-119.75722222222223,37.77972222222222],[-119.90777777777778,37.76111111111111],[-120.21027777777778,37.723888888888894],[-120.51666666666667,37.68583333333333],[-120.79916666666666,37.65277777777778],[-120.83333333333333,37.65],[-121.15694444444445,37.606944444444444],[-121.15694444444445,37.606944444444444],[-121.58333333333333,37.55],[-121.66666666666667,37.55],[-121.78333333333333,37.483333333333334],[-121.81666666666666,37.416666666666664],[-121.88333333333334,37.416666666666664],[-121.88333333333334,37.416666666666664],[-122.08333333333333,37.5],[-122.35694444444444,37.61333333333334]],"type":"LineString"}
}
