{
  "id": 2014750225,
  "type": "Feature",
  "properties": {
    "geom:area": 0,
    "geom:bbox": "-122.361070,37.491860,-121.268340,37.614610",
    "geom:latitude": 37.54599672185346,
    "geom:longitude": -121.81966352589708,
    "src:alt_label": "swim-approach",
    "src:geom": "swim",
    "swim:elevations": [
      5498,
      5238,
      4925,
      4610,
      4420,
      4348,
      4091,
      3817,
      3674,
      3571,
      3133,
      2969,
      2585,
      2299,
      2132,
      2070,
      1919,
      1800,
      1736,
      1584,
      1447,
      1235,
      1069,
      904,
      765,
      670,
      520,
      488,
      285,
      187,
      92,
      0
    ],
    "swim:geom": "approach",
    "swim:timestamps": [
      1770669433,
      1770669463,
      1770669494,
      1770669536,
      1770669559,
      1770669568,
      1770669596,
      1770669621,
      1770669649,
      1770669672,
      1770669717,
      1770669730,
      1770669764,
      1770669800,
      1770669830,
      1770669848,
      1770669885,
      1770669912,
      1770669926,
      1770669949,
      1770669971,
      1770670005,
      1770670034,
      1770670066,
      1770670090,
      1770670107,
      1770670138,
      1770670151,
      1770670195,
      1770670217,
      1770670241,
      1770670261
    ],
    "wof:geomhash": "3793d88dc988403f9b08a6c342a15fec",
    "wof:id": 2014750225,
    "wof:repo": "sfomuseum-data-flights-2026-02"
  },
  "bbox": [
    -122.36107,
    37.49186,
    -121.26834,
    37.61461
  ],
  "geometry": {"coordinates":[[-121.26834,37.59229],[-121.32447,37.58565],[-121.38167,37.57908],[-121.45497,37.57051],[-121.49306,37.56602],[-121.50895,37.56419],[-121.55417,37.55918],[-121.5974,37.55409],[-121.64115,37.54677],[-121.67439,37.53876],[-121.73297,37.52488],[-121.75063,37.52067],[-121.79387,37.51039],[-121.84019,37.4993],[-121.88024,37.49186],[-121.9043,37.49187],[-121.95476,37.49303],[-121.99114,37.49594],[-122.00828,37.50112],[-122.0377,37.51058],[-122.06697,37.51986],[-122.11008,37.5344],[-122.14593,37.54597],[-122.18229,37.55761],[-122.20898,37.56612],[-122.22701,37.57178],[-122.25706,37.5813],[-122.26853,37.58458],[-122.30857,37.59407],[-122.32688,37.60091],[-122.34555,37.60856],[-122.36107,37.61461]],"type":"LineString"}
}
