{
  "id": 2014871439,
  "type": "Feature",
  "properties": {
    "geom:area": 0,
    "geom:bbox": "-123.211667,37.450000,-122.122222,47.600556",
    "geom:latitude": 42.56184434517729,
    "geom:longitude": -122.96093028891227,
    "src:alt_label": "swim-path",
    "src:geom": "swim",
    "swim:altitudes": [
      "011",
      "011",
      "011",
      "029",
      "029",
      "029",
      "029",
      "045",
      "058",
      "058",
      "058",
      "058",
      "086",
      "086",
      "094",
      "094",
      "094",
      "130",
      "130",
      "130",
      "210",
      "210",
      "226",
      "226",
      "226",
      "235",
      "235",
      "235",
      "235",
      "235",
      "235",
      "260",
      "260",
      "260",
      "260",
      "260",
      "260",
      "260",
      "293",
      "293",
      "293",
      "293",
      "293",
      "293",
      "314",
      "314",
      "314",
      "314",
      "314",
      "350C",
      "350C",
      "350C",
      "350C",
      "350C",
      "350C",
      "350C",
      "350C",
      "350C",
      "350C",
      "350C",
      "350C",
      "350C",
      "350C",
      "350C",
      "350C",
      "350C",
      "350C",
      "350C",
      "350C",
      "350C",
      "350C",
      "350C",
      "350C",
      "350C",
      "350C",
      "350C",
      "350C",
      "350C",
      "350C",
      "350C",
      "350C",
      "350C",
      "350C",
      "350C",
      "350C",
      "350C",
      "350C",
      "350C",
      "350C",
      "350C",
      "350C",
      "350C",
      "350C",
      "350C",
      "350C",
      "350C",
      "350C",
      "350C",
      "350C",
      "350C",
      "350C",
      "350C",
      "350C",
      "350C",
      "350C",
      "350C",
      "350C",
      "350C",
      "350C",
      "350C",
      "350C",
      "350C",
      "350C",
      "350C",
      "350C",
      "350C",
      "350C",
      "350C",
      "350C",
      "350C",
      "350C",
      "350C",
      "350C",
      "350C",
      "350C",
      "350C",
      "350C",
      "350C",
      "350C",
      "350C",
      "350C",
      "350C",
      "350C",
      "350C",
      "350C",
      "350C",
      "350C",
      "350C",
      "350C",
      "350C",
      "350C",
      "350C",
      "350C",
      "350C",
      "350C",
      "350C",
      "350C",
      "350C",
      "350C",
      "350C",
      "350C",
      "350C",
      "350C",
      "350C",
      "350C",
      "350C",
      "350C",
      "350C",
      "350C",
      "350C",
      "350C",
      "350C",
      "350C",
      "350C",
      "350C",
      "350C",
      "350C",
      "350C",
      "350C",
      "350C",
      "350C",
      "350C",
      "350C",
      "350C",
      "350C",
      "350",
      "350",
      "350",
      "350",
      "349",
      "349",
      "330",
      "330",
      "330",
      "330",
      "330",
      "146",
      "146",
      "146",
      "129",
      "129",
      "129",
      "129",
      "110",
      "110",
      "110",
      "110",
      "110",
      "110",
      "096",
      "096",
      "082",
      "082",
      "054",
      "054",
      "054",
      "054",
      "037",
      "037",
      "037",
      "037",
      "037",
      "037",
      "023",
      "014",
      "014",
      "014",
      "014",
      "014",
      "014",
      "007"
    ],
    "swim:geom": "path",
    "swim:speeds": [
      135,
      135,
      135,
      160,
      160,
      160,
      160,
      234,
      264,
      264,
      264,
      264,
      270,
      270,
      264,
      264,
      264,
      300,
      300,
      300,
      314,
      314,
      304,
      304,
      304,
      308,
      308,
      308,
      308,
      308,
      308,
      369,
      369,
      369,
      369,
      369,
      369,
      369,
      380,
      380,
      380,
      380,
      380,
      380,
      392,
      392,
      392,
      392,
      392,
      377,
      392,
      392,
      392,
      392,
      381,
      381,
      381,
      378,
      378,
      378,
      378,
      379,
      379,
      379,
      376,
      376,
      376,
      376,
      376,
      376,
      376,
      379,
      379,
      379,
      379,
      379,
      379,
      379,
      381,
      381,
      381,
      381,
      383,
      383,
      384,
      384,
      384,
      384,
      384,
      384,
      389,
      389,
      389,
      389,
      389,
      389,
      393,
      393,
      393,
      393,
      393,
      399,
      398,
      398,
      398,
      398,
      398,
      398,
      399,
      399,
      399,
      399,
      402,
      402,
      402,
      402,
      402,
      405,
      407,
      407,
      407,
      407,
      407,
      407,
      408,
      408,
      408,
      407,
      407,
      410,
      410,
      410,
      411,
      411,
      411,
      410,
      410,
      410,
      410,
      410,
      410,
      410,
      410,
      410,
      401,
      401,
      403,
      403,
      404,
      404,
      404,
      405,
      405,
      405,
      404,
      404,
      404,
      404,
      406,
      407,
      407,
      407,
      407,
      407,
      407,
      407,
      406,
      406,
      406,
      406,
      406,
      406,
      406,
      406,
      406,
      406,
      406,
      406,
      406,
      408,
      408,
      415,
      415,
      415,
      415,
      415,
      350,
      350,
      350,
      352,
      352,
      352,
      352,
      301,
      301,
      301,
      301,
      301,
      252,
      239,
      239,
      229,
      229,
      237,
      237,
      237,
      237,
      189,
      189,
      189,
      189,
      189,
      189,
      168,
      156,
      156,
      156,
      156,
      156,
      156,
      138
    ],
    "swim:timestamps": [
      1771948381,
      1771948381,
      1771948381,
      1771948435,
      1771948435,
      1771948435,
      1771948435,
      1771948495,
      1771948536,
      1771948536,
      1771948536,
      1771948536,
      1771948596,
      1771948596,
      1771948609,
      1771948609,
      1771948609,
      1771948716,
      1771948716,
      1771948716,
      1771948957,
      1771948957,
      1771949017,
      1771949017,
      1771949017,
      1771949077,
      1771949077,
      1771949077,
      1771949077,
      1771949077,
      1771949077,
      1771949257,
      1771949257,
      1771949257,
      1771949257,
      1771949257,
      1771949257,
      1771949257,
      1771949437,
      1771949437,
      1771949437,
      1771949437,
      1771949437,
      1771949437,
      1771949557,
      1771949557,
      1771949557,
      1771949557,
      1771949557,
      1771949737,
      1771949797,
      1771949797,
      1771949797,
      1771949797,
      1771949857,
      1771949857,
      1771949857,
      1771949917,
      1771949917,
      1771949917,
      1771949917,
      1771950038,
      1771950038,
      1771950038,
      1771950158,
      1771950158,
      1771950158,
      1771950158,
      1771950158,
      1771950158,
      1771950158,
      1771950338,
      1771950338,
      1771950338,
      1771950338,
      1771950338,
      1771950398,
      1771950398,
      1771950518,
      1771950518,
      1771950518,
      1771950518,
      1771950578,
      1771950578,
      1771950638,
      1771950638,
      1771950638,
      1771950638,
      1771950638,
      1771950638,
      1771950938,
      1771950938,
      1771950938,
      1771950938,
      1771950938,
      1771950938,
      1771951179,
      1771951179,
      1771951179,
      1771951179,
      1771951179,
      1771951351,
      1771951359,
      1771951359,
      1771951359,
      1771951359,
      1771951359,
      1771951359,
      1771951411,
      1771951411,
      1771951411,
      1771951411,
      1771951532,
      1771951532,
      1771951532,
      1771951532,
      1771951532,
      1771951592,
      1771951599,
      1771951652,
      1771951652,
      1771951652,
      1771951652,
      1771951652,
      1771951712,
      1771951712,
      1771951719,
      1771951839,
      1771951839,
      1771951959,
      1771951959,
      1771951959,
      1771952012,
      1771952012,
      1771952012,
      1771952019,
      1771952019,
      1771952019,
      1771952072,
      1771952072,
      1771952072,
      1771952072,
      1771952072,
      1771952072,
      1771952493,
      1771952493,
      1771952560,
      1771952560,
      1771952613,
      1771952613,
      1771952620,
      1771952680,
      1771952680,
      1771952680,
      1771952733,
      1771952733,
      1771952733,
      1771952733,
      1771952920,
      1771952973,
      1771952973,
      1771952973,
      1771953040,
      1771953040,
      1771953040,
      1771953100,
      1771953153,
      1771953161,
      1771953161,
      1771953161,
      1771953213,
      1771953213,
      1771953213,
      1771953213,
      1771953213,
      1771953394,
      1771953394,
      1771953394,
      1771953394,
      1771953514,
      1771953514,
      1771953574,
      1771953574,
      1771953574,
      1771953574,
      1771953574,
      1771954174,
      1771954174,
      1771954174,
      1771954235,
      1771954235,
      1771954235,
      1771954235,
      1771954340,
      1771954340,
      1771954340,
      1771954340,
      1771954340,
      1771954394,
      1771954475,
      1771954475,
      1771954525,
      1771954525,
      1771954640,
      1771954640,
      1771954640,
      1771954640,
      1771954775,
      1771954775,
      1771954775,
      1771954775,
      1771954775,
      1771954775,
      1771954886,
      1771954955,
      1771954955,
      1771954955,
      1771954955,
      1771954955,
      1771954955,
      1771955015
    ],
    "wof:geomhash": "69e2ba1a941b6b2619a24040aa5521a9",
    "wof:id": 2014871439,
    "wof:repo": "sfomuseum-data-flights-2026-02"
  },
  "bbox": [
    -123.21166666666667,
    37.45,
    -122.12222222222222,
    47.60055555555556
  ],
  "geometry": {"coordinates":[[-122.30749999999999,47.452222222222225],[-122.30749999999999,47.452222222222225],[-122.30749999999999,47.452222222222225],[-122.30749999999999,47.48777777777778],[-122.30749999999999,47.48777777777778],[-122.30749999999999,47.48777777777778],[-122.30749999999999,47.48777777777778],[-122.31222222222222,47.54472222222222],[-122.34138888888889,47.586111111111116],[-122.34138888888889,47.586111111111116],[-122.34138888888889,47.586111111111116],[-122.34138888888889,47.586111111111116],[-122.43777777777778,47.60055555555556],[-122.43777777777778,47.60055555555556],[-122.46472222222222,47.58972222222222],[-122.46472222222222,47.58972222222222],[-122.46472222222222,47.58972222222222],[-122.61638888888888,47.499722222222225],[-122.61638888888888,47.499722222222225],[-122.61638888888888,47.499722222222225],[-122.99888888888889,47.26888888888889],[-122.99888888888889,47.26888888888889],[-123.08166666666666,47.20583333333334],[-123.08166666666666,47.20583333333334],[-123.08166666666666,47.20583333333334],[-123.15,47.14388888888889],[-123.15,47.14388888888889],[-123.15,47.14388888888889],[-123.15,47.14388888888889],[-123.15,47.14388888888889],[-123.15,47.14388888888889],[-123.21166666666667,46.86388888888889],[-123.21166666666667,46.86388888888889],[-123.21166666666667,46.86388888888889],[-123.21166666666667,46.86388888888889],[-123.21166666666667,46.86388888888889],[-123.21166666666667,46.86388888888889],[-123.21166666666667,46.86388888888889],[-123.20111111111112,46.54611111111111],[-123.20111111111112,46.54611111111111],[-123.20111111111112,46.54611111111111],[-123.20111111111112,46.54611111111111],[-123.20111111111112,46.54611111111111],[-123.20111111111112,46.54611111111111],[-123.19361111111111,46.32083333333334],[-123.19361111111111,46.32083333333334],[-123.19361111111111,46.32083333333334],[-123.19361111111111,46.32083333333334],[-123.19361111111111,46.32083333333334],[-123.18333333333334,46.001666666666665],[-123.17972222222222,45.89194444444444],[-123.17972222222222,45.89194444444444],[-123.17972222222222,45.89194444444444],[-123.17972222222222,45.89194444444444],[-123.1763888888889,45.7875],[-123.1763888888889,45.7875],[-123.1763888888889,45.7875],[-123.17305555555556,45.681666666666665],[-123.17305555555556,45.681666666666665],[-123.17305555555556,45.681666666666665],[-123.17305555555556,45.681666666666665],[-123.16611111111112,45.470555555555556],[-123.16611111111112,45.470555555555556],[-123.16611111111112,45.470555555555556],[-123.15972222222223,45.261944444444445],[-123.15972222222223,45.261944444444445],[-123.15972222222223,45.261944444444445],[-123.15972222222223,45.261944444444445],[-123.15972222222223,45.261944444444445],[-123.15972222222223,45.261944444444445],[-123.15972222222223,45.261944444444445],[-123.14972222222222,44.942499999999995],[-123.14972222222222,44.942499999999995],[-123.14972222222222,44.942499999999995],[-123.14972222222222,44.942499999999995],[-123.14972222222222,44.942499999999995],[-123.14694444444446,44.85777777777778],[-123.14694444444446,44.85777777777778],[-123.14027777777778,44.643055555555556],[-123.14027777777778,44.643055555555556],[-123.14027777777778,44.643055555555556],[-123.14027777777778,44.643055555555556],[-123.13694444444445,44.535555555555554],[-123.13694444444445,44.535555555555554],[-123.13333333333334,44.42944444444444],[-123.13333333333334,44.42944444444444],[-123.13333333333334,44.42944444444444],[-123.13333333333334,44.42944444444444],[-123.13333333333334,44.42944444444444],[-123.13333333333334,44.42944444444444],[-123.11388888888888,43.88194444444444],[-123.11388888888888,43.88194444444444],[-123.11388888888888,43.88194444444444],[-123.11388888888888,43.88194444444444],[-123.11388888888888,43.88194444444444],[-123.11388888888888,43.88194444444444],[-123.09861111111111,43.446666666666665],[-123.09861111111111,43.446666666666665],[-123.09861111111111,43.446666666666665],[-123.09861111111111,43.446666666666665],[-123.09861111111111,43.446666666666665],[-123.08638888888889,43.13444444444444],[-123.08722222222222,43.112500000000004],[-123.08722222222222,43.112500000000004],[-123.08722222222222,43.112500000000004],[-123.08722222222222,43.112500000000004],[-123.08722222222222,43.112500000000004],[-123.08722222222222,43.112500000000004],[-123.08361111111111,43.022777777777776],[-123.08361111111111,43.022777777777776],[-123.08361111111111,43.022777777777776],[-123.08361111111111,43.022777777777776],[-123.07638888888889,42.79861111111111],[-123.07638888888889,42.79861111111111],[-123.07638888888889,42.79861111111111],[-123.07638888888889,42.79861111111111],[-123.07638888888889,42.79861111111111],[-123.07027777777778,42.68583333333333],[-123.07194444444444,42.66305555555555],[-123.06861111111111,42.57222222222222],[-123.06861111111111,42.57222222222222],[-123.06861111111111,42.57222222222222],[-123.06861111111111,42.57222222222222],[-123.06861111111111,42.57222222222222],[-123.06416666666667,42.45861111111111],[-123.06416666666667,42.45861111111111],[-123.06444444444445,42.43666666666666],[-123.05694444444444,42.212500000000006],[-123.05694444444444,42.212500000000006],[-123.04972222222221,41.985],[-123.04972222222221,41.985],[-123.04972222222221,41.985],[-123.0461111111111,41.87027777777778],[-123.0461111111111,41.87027777777778],[-123.0461111111111,41.87027777777778],[-123.0461111111111,41.87111111111111],[-123.0461111111111,41.87111111111111],[-123.0461111111111,41.87111111111111],[-123.0425,41.756388888888885],[-123.0425,41.756388888888885],[-123.0425,41.756388888888885],[-123.0425,41.756388888888885],[-123.0425,41.756388888888885],[-123.0425,41.756388888888885],[-123.01861111111111,40.98833333333334],[-123.01861111111111,40.98833333333334],[-123.01472222222222,40.8525],[-123.01472222222222,40.8525],[-123.01194444444444,40.760555555555555],[-123.01194444444444,40.760555555555555],[-123.0111111111111,40.734722222222224],[-123.00777777777778,40.62138888888889],[-123.00777777777778,40.62138888888889],[-123.00777777777778,40.62138888888889],[-123.00527777777778,40.53333333333333],[-123.00527777777778,40.53333333333333],[-123.00527777777778,40.53333333333333],[-123.00527777777778,40.53333333333333],[-122.99444444444444,40.17527777777777],[-122.99194444444444,40.08416666666667],[-122.99194444444444,40.08416666666667],[-122.99194444444444,40.08416666666667],[-122.98777777777778,39.94638888888888],[-122.98777777777778,39.94638888888888],[-122.98777777777778,39.94638888888888],[-122.98472222222222,39.835],[-122.98194444444445,39.74666666666667],[-122.98138888888889,39.72138888888889],[-122.98138888888889,39.72138888888889],[-122.98138888888889,39.72138888888889],[-122.97888888888889,39.63388888888889],[-122.97888888888889,39.63388888888889],[-122.97888888888889,39.63388888888889],[-122.97888888888889,39.63388888888889],[-122.97888888888889,39.63388888888889],[-122.96861111111112,39.278055555555554],[-122.96861111111112,39.278055555555554],[-122.96861111111112,39.278055555555554],[-122.96861111111112,39.278055555555554],[-122.9625,39.05138888888889],[-122.9625,39.05138888888889],[-122.96027777777778,38.93444444444444],[-122.96027777777778,38.93444444444444],[-122.96027777777778,38.93444444444444],[-122.96027777777778,38.93444444444444],[-122.96027777777778,38.93444444444444],[-122.665,37.89416666666666],[-122.665,37.89416666666666],[-122.665,37.89416666666666],[-122.58944444444444,37.82055555555556],[-122.58944444444444,37.82055555555556],[-122.58944444444444,37.82055555555556],[-122.58944444444444,37.82055555555556],[-122.45,37.7],[-122.45,37.7],[-122.45,37.7],[-122.45,37.7],[-122.45,37.7],[-122.4,37.65],[-122.34666666666666,37.57611111111112],[-122.34666666666666,37.57611111111112],[-122.31666666666666,37.516666666666666],[-122.31666666666666,37.516666666666666],[-122.18333333333334,37.45],[-122.18333333333334,37.45],[-122.18333333333334,37.45],[-122.18333333333334,37.45],[-122.12222222222222,37.5075],[-122.12222222222222,37.5075],[-122.12222222222222,37.5075],[-122.12222222222222,37.5075],[-122.12222222222222,37.5075],[-122.12222222222222,37.5075],[-122.21666666666667,37.55],[-122.27361111111111,37.575833333333335],[-122.27361111111111,37.575833333333335],[-122.27361111111111,37.575833333333335],[-122.27361111111111,37.575833333333335],[-122.27361111111111,37.575833333333335],[-122.27361111111111,37.575833333333335],[-122.31583333333333,37.593611111111116]],"type":"LineString"}
}
