{
  "id": 2014840883,
  "type": "Feature",
  "properties": {
    "geom:area": 0,
    "geom:bbox": "-122.343611,37.491389,-87.933333,42.235000",
    "geom:latitude": 40.65326591894875,
    "geom:longitude": -105.23778532905399,
    "src:alt_label": "swim-path",
    "src:geom": "swim",
    "swim:altitudes": [
      "016",
      "016",
      "038",
      "059",
      "059",
      "158",
      "158",
      "204",
      "204",
      "239C",
      "240C",
      "240C",
      "240C",
      "240C",
      "240C",
      "241",
      "252",
      "301",
      "320C",
      "320C",
      "320C",
      "320C",
      "320C",
      "320C",
      "320C",
      "320C",
      "320C",
      "320C",
      "320C",
      "320C",
      "320C",
      "320C",
      "320C",
      "320C",
      "320C",
      "320C",
      "320C",
      "320C",
      "320C",
      "320C",
      "320C",
      "320C",
      "320C",
      "320C",
      "320C",
      "320C",
      "320C",
      "320C",
      "320C",
      "320C",
      "320C",
      "320C",
      "320C",
      "320C",
      "320C",
      "320C",
      "320C",
      "320C",
      "320C",
      "320C",
      "320C",
      "320C",
      "320C",
      "320C",
      "320C",
      "320C",
      "320C",
      "320C",
      "320C",
      "320C",
      "320C",
      "320C",
      "320C",
      "320C",
      "320C",
      "320C",
      "320C",
      "320C",
      "320C",
      "320C",
      "320C",
      "320C",
      "320C",
      "320C",
      "320C",
      "320C",
      "320C",
      "320C",
      "320C",
      "320C",
      "320C",
      "320C",
      "320C",
      "320C",
      "320C",
      "320C",
      "320C",
      "320C",
      "320C",
      "320C",
      "320C",
      "320C",
      "320C",
      "320C",
      "320C",
      "320C",
      "320C",
      "320C",
      "320C",
      "320C",
      "320C",
      "320C",
      "320C",
      "320C",
      "320C",
      "320C",
      "320C",
      "320C",
      "320C",
      "320C",
      "320C",
      "320C",
      "320C",
      "320C",
      "320C",
      "320C",
      "320C",
      "320C",
      "320C",
      "320C",
      "320C",
      "320C",
      "320C",
      "320C",
      "320C",
      "320C",
      "320C",
      "320C",
      "320C",
      "320C",
      "320C",
      "320C",
      "320C",
      "320C",
      "320C",
      "320C",
      "320C",
      "320C",
      "320C",
      "320C",
      "320C",
      "320C",
      "320C",
      "320C",
      "320C",
      "320C",
      "320C",
      "320C",
      "320C",
      "320C",
      "320C",
      "320C",
      "320C",
      "320C",
      "320C",
      "320C",
      "320C",
      "320C",
      "320C",
      "320C",
      "320",
      "320",
      "320",
      "320",
      "320",
      "320",
      "320",
      "320",
      "320",
      "320",
      "321",
      "321",
      "330",
      "330",
      "331",
      "340C",
      "340C",
      "340C",
      "340C",
      "340C",
      "340C",
      "340C",
      "340C",
      "340C",
      "340C",
      "340C",
      "340C",
      "340C",
      "340C",
      "340C",
      "340C",
      "340C",
      "340C",
      "340C",
      "340C",
      "340C",
      "340C",
      "340C",
      "340C",
      "340C",
      "340C",
      "340C",
      "340C",
      "340C",
      "340C",
      "340C",
      "340C",
      "340C",
      "340C",
      "340C",
      "340C",
      "340C",
      "340C",
      "340C",
      "340C",
      "340C",
      "340C",
      "340C",
      "340C",
      "340C",
      "340C",
      "340C",
      "340C",
      "340C",
      "340C",
      "340C",
      "340C",
      "340C",
      "340C",
      "340C",
      "340C",
      "340C",
      "340C",
      "340C",
      "340C",
      "340C",
      "340C",
      "340C",
      "340C",
      "340C",
      "340C",
      "340C",
      "340C",
      "340C",
      "340C",
      "340C",
      "340C",
      "340C",
      "340C",
      "340C",
      "340C",
      "340C",
      "340C",
      "340C",
      "340C",
      "340C",
      "340C",
      "340C",
      "340C",
      "340C",
      "340C",
      "340C",
      "340C",
      "340C",
      "340C",
      "340C",
      "340C",
      "340C",
      "340C",
      "340C",
      "340C",
      "340C",
      "340C",
      "340C",
      "340C",
      "340C",
      "340C",
      "340C",
      "340C",
      "340C",
      "340C",
      "340C",
      "340C",
      "340C",
      "340C",
      "340C",
      "340C",
      "340C",
      "340C",
      "340C",
      "340C",
      "340C",
      "340C",
      "340C",
      "340C",
      "340C",
      "340C",
      "340C",
      "340C",
      "340C",
      "340C",
      "340C",
      "340C",
      "340C",
      "340",
      "340",
      "340",
      "331",
      "331",
      "331",
      "284",
      "284",
      "250",
      "250",
      "231",
      "209",
      "201",
      "201",
      "188",
      "188",
      "188",
      "163",
      "163",
      "130",
      "130",
      "130",
      "113",
      "104",
      "104",
      "090",
      "083",
      "083",
      "083",
      "074",
      "074",
      "069",
      "069",
      "065",
      "061",
      "061",
      "054",
      "054",
      "034",
      "034",
      "017",
      "017",
      "017",
      "007",
      "007",
      "003"
    ],
    "swim:geom": "path",
    "swim:speeds": [
      151,
      151,
      197,
      227,
      227,
      362,
      362,
      386,
      386,
      396,
      397,
      397,
      397,
      397,
      397,
      398,
      400,
      400,
      399,
      399,
      399,
      399,
      399,
      399,
      395,
      395,
      396,
      396,
      398,
      398,
      398,
      398,
      402,
      402,
      402,
      401,
      401,
      399,
      395,
      395,
      395,
      388,
      385,
      385,
      385,
      392,
      392,
      392,
      392,
      392,
      393,
      393,
      393,
      394,
      394,
      394,
      394,
      394,
      394,
      394,
      394,
      394,
      395,
      395,
      395,
      396,
      396,
      397,
      399,
      399,
      399,
      400,
      400,
      400,
      401,
      401,
      401,
      403,
      403,
      403,
      403,
      403,
      403,
      403,
      403,
      403,
      403,
      403,
      402,
      402,
      402,
      402,
      402,
      402,
      395,
      395,
      402,
      397,
      402,
      402,
      402,
      400,
      400,
      402,
      402,
      402,
      402,
      402,
      402,
      402,
      402,
      402,
      402,
      401,
      402,
      402,
      402,
      401,
      401,
      402,
      401,
      401,
      402,
      402,
      402,
      402,
      401,
      401,
      401,
      401,
      400,
      400,
      401,
      401,
      401,
      401,
      400,
      401,
      401,
      401,
      401,
      401,
      401,
      401,
      401,
      401,
      401,
      401,
      401,
      401,
      401,
      402,
      402,
      402,
      401,
      401,
      401,
      403,
      403,
      403,
      402,
      402,
      402,
      402,
      402,
      402,
      401,
      402,
      402,
      402,
      400,
      400,
      400,
      400,
      399,
      399,
      399,
      399,
      399,
      398,
      401,
      401,
      398,
      398,
      400,
      403,
      403,
      412,
      412,
      412,
      412,
      412,
      411,
      411,
      411,
      411,
      411,
      411,
      412,
      412,
      413,
      413,
      413,
      413,
      413,
      416,
      417,
      417,
      417,
      417,
      417,
      417,
      417,
      417,
      417,
      417,
      416,
      415,
      415,
      412,
      411,
      411,
      411,
      411,
      409,
      409,
      408,
      408,
      407,
      407,
      407,
      407,
      407,
      408,
      408,
      409,
      409,
      409,
      409,
      409,
      409,
      409,
      409,
      410,
      410,
      410,
      411,
      411,
      411,
      411,
      411,
      412,
      412,
      412,
      414,
      414,
      415,
      415,
      417,
      417,
      418,
      418,
      418,
      418,
      412,
      410,
      410,
      406,
      404,
      403,
      401,
      404,
      411,
      411,
      411,
      404,
      402,
      402,
      402,
      400,
      402,
      402,
      404,
      404,
      405,
      405,
      402,
      402,
      401,
      399,
      399,
      396,
      396,
      394,
      394,
      391,
      389,
      389,
      389,
      383,
      383,
      383,
      380,
      380,
      376,
      375,
      375,
      374,
      374,
      374,
      375,
      375,
      375,
      375,
      384,
      384,
      384,
      388,
      388,
      388,
      390,
      390,
      378,
      378,
      356,
      355,
      357,
      357,
      354,
      354,
      354,
      341,
      341,
      326,
      326,
      326,
      322,
      303,
      303,
      288,
      269,
      269,
      269,
      248,
      248,
      251,
      251,
      248,
      249,
      249,
      234,
      234,
      223,
      223,
      191,
      191,
      191,
      144,
      144,
      146
    ],
    "swim:timestamps": [
      1771591256,
      1771591256,
      1771591326,
      1771591386,
      1771591386,
      1771591686,
      1771591686,
      1771591806,
      1771591806,
      1771591926,
      1771591986,
      1771591986,
      1771592047,
      1771592047,
      1771592047,
      1771592107,
      1771592163,
      1771592343,
      1771592463,
      1771592463,
      1771592463,
      1771592523,
      1771592523,
      1771592523,
      1771592644,
      1771592644,
      1771592824,
      1771592824,
      1771592884,
      1771592884,
      1771592884,
      1771592884,
      1771593004,
      1771593064,
      1771593064,
      1771593124,
      1771593124,
      1771593184,
      1771593244,
      1771593244,
      1771593244,
      1771593364,
      1771593484,
      1771593484,
      1771593544,
      1771593845,
      1771593845,
      1771593845,
      1771593905,
      1771593905,
      1771593965,
      1771593965,
      1771593965,
      1771594085,
      1771594085,
      1771594085,
      1771594145,
      1771594385,
      1771594385,
      1771594385,
      1771594445,
      1771594445,
      1771594565,
      1771594565,
      1771594565,
      1771594686,
      1771594686,
      1771594746,
      1771594926,
      1771594926,
      1771594986,
      1771595046,
      1771595046,
      1771595046,
      1771595166,
      1771595166,
      1771595166,
      1771595286,
      1771595286,
      1771595466,
      1771595466,
      1771595466,
      1771595466,
      1771595508,
      1771595526,
      1771595526,
      1771595707,
      1771595707,
      1771595767,
      1771595767,
      1771595808,
      1771595808,
      1771595869,
      1771595887,
      1771595938,
      1771595938,
      1771595947,
      1771595998,
      1771596007,
      1771596049,
      1771596049,
      1771596058,
      1771596058,
      1771596127,
      1771596169,
      1771596169,
      1771596289,
      1771596289,
      1771596289,
      1771596289,
      1771596307,
      1771596367,
      1771596409,
      1771596419,
      1771596469,
      1771596469,
      1771596469,
      1771596479,
      1771596479,
      1771596488,
      1771596539,
      1771596539,
      1771596589,
      1771596589,
      1771596599,
      1771596599,
      1771596649,
      1771596839,
      1771596839,
      1771596839,
      1771596889,
      1771596889,
      1771596959,
      1771596959,
      1771597019,
      1771597019,
      1771597070,
      1771597079,
      1771597079,
      1771597139,
      1771597139,
      1771597139,
      1771597199,
      1771597259,
      1771597319,
      1771597319,
      1771597439,
      1771597490,
      1771597490,
      1771597490,
      1771597500,
      1771597550,
      1771597550,
      1771597550,
      1771597620,
      1771597620,
      1771597620,
      1771597790,
      1771597790,
      1771597790,
      1771597800,
      1771597851,
      1771597851,
      1771597860,
      1771597911,
      1771597911,
      1771597971,
      1771597980,
      1771597980,
      1771597980,
      1771598091,
      1771598091,
      1771598091,
      1771598091,
      1771598271,
      1771598331,
      1771598331,
      1771598331,
      1771598331,
      1771598391,
      1771598401,
      1771598401,
      1771598451,
      1771598451,
      1771598461,
      1771598511,
      1771598511,
      1771598632,
      1771598632,
      1771598632,
      1771598701,
      1771598701,
      1771598761,
      1771598761,
      1771598761,
      1771599001,
      1771599001,
      1771599001,
      1771599112,
      1771599112,
      1771599172,
      1771599172,
      1771599172,
      1771599182,
      1771599182,
      1771599302,
      1771599353,
      1771599353,
      1771599353,
      1771599362,
      1771599362,
      1771599482,
      1771599482,
      1771599542,
      1771599593,
      1771599593,
      1771599602,
      1771599653,
      1771599653,
      1771599722,
      1771599773,
      1771599773,
      1771599773,
      1771599773,
      1771599833,
      1771599833,
      1771599893,
      1771599893,
      1771599953,
      1771600013,
      1771600013,
      1771600013,
      1771600035,
      1771600155,
      1771600194,
      1771600215,
      1771600215,
      1771600275,
      1771600275,
      1771600275,
      1771600314,
      1771600314,
      1771600335,
      1771600395,
      1771600395,
      1771600494,
      1771600515,
      1771600575,
      1771600575,
      1771600614,
      1771600614,
      1771600816,
      1771600876,
      1771600876,
      1771601056,
      1771601056,
      1771601116,
      1771601116,
      1771601236,
      1771601236,
      1771601417,
      1771601417,
      1771601417,
      1771601417,
      1771601657,
      1771601717,
      1771601717,
      1771601849,
      1771601909,
      1771601969,
      1771602029,
      1771602090,
      1771602210,
      1771602210,
      1771602210,
      1771602390,
      1771602450,
      1771602450,
      1771602450,
      1771602690,
      1771602721,
      1771602721,
      1771602810,
      1771602810,
      1771603021,
      1771603021,
      1771603111,
      1771603111,
      1771603201,
      1771603231,
      1771603231,
      1771603321,
      1771603321,
      1771603442,
      1771603442,
      1771603502,
      1771603531,
      1771603531,
      1771603531,
      1771603802,
      1771603892,
      1771603892,
      1771604012,
      1771604012,
      1771604192,
      1771604343,
      1771604343,
      1771604403,
      1771604403,
      1771604463,
      1771604583,
      1771604583,
      1771604583,
      1771604583,
      1771604823,
      1771604823,
      1771604823,
      1771605003,
      1771605003,
      1771605003,
      1771605124,
      1771605124,
      1771605214,
      1771605214,
      1771605279,
      1771605340,
      1771605364,
      1771605364,
      1771605400,
      1771605400,
      1771605400,
      1771605484,
      1771605484,
      1771605604,
      1771605604,
      1771605604,
      1771605664,
      1771605699,
      1771605699,
      1771605784,
      1771605814,
      1771605814,
      1771605814,
      1771605874,
      1771605874,
      1771605905,
      1771605905,
      1771605934,
      1771605965,
      1771605965,
      1771605994,
      1771605994,
      1771606085,
      1771606085,
      1771606205,
      1771606205,
      1771606205,
      1771606294,
      1771606294,
      1771606325
    ],
    "wof:geomhash": "8b828120127b818b6338fb97a2211437",
    "wof:id": 2014840883,
    "wof:repo": "sfomuseum-data-flights-2026-02"
  },
  "bbox": [
    -122.3436111111111,
    37.49138888888889,
    -87.93333333333334,
    42.235
  ],
  "geometry": {"coordinates":[[-87.93333333333334,41.96666666666667],[-87.93333333333334,41.96666666666667],[-88.00611111111111,41.97166666666667],[-88.08527777777778,41.97361111111111],[-88.08527777777778,41.97361111111111],[-88.62249999999999,42.11527777777778],[-88.62249999999999,42.11527777777778],[-88.90583333333333,42.16166666666666],[-88.90583333333333,42.16166666666666],[-89.20083333333334,42.15333333333333],[-89.34833333333333,42.14944444444444],[-89.34833333333333,42.14944444444444],[-89.4975,42.14527777777778],[-89.4975,42.14527777777778],[-89.4975,42.14527777777778],[-89.64611111111111,42.14055555555556],[-89.77166666666666,42.13583333333333],[-90.21972222222223,42.12083333333334],[-90.51638888888888,42.11],[-90.51638888888888,42.11],[-90.51638888888888,42.11],[-90.66555555555556,42.105000000000004],[-90.66555555555556,42.105000000000004],[-90.66555555555556,42.105000000000004],[-90.96000000000001,42.09277777777778],[-90.96000000000001,42.09277777777778],[-91.405,42.08027777777778],[-91.405,42.08027777777778],[-91.55333333333333,42.08222222222223],[-91.55333333333333,42.08222222222223],[-91.55333333333333,42.08222222222223],[-91.55333333333333,42.08222222222223],[-91.85666666666665,42.085],[-92.00805555555556,42.086111111111116],[-92.00805555555556,42.086111111111116],[-92.15583333333333,42.08722222222222],[-92.15583333333333,42.08722222222222],[-92.30555555555556,42.08777777777778],[-92.4525,42.08833333333334],[-92.4525,42.08833333333334],[-92.4525,42.08833333333334],[-92.74166666666667,42.08888888888889],[-93.0275,42.08861111111111],[-93.0275,42.08861111111111],[-93.1713888888889,42.08833333333334],[-93.89555555555556,42.105000000000004],[-93.89555555555556,42.105000000000004],[-93.89555555555556,42.105000000000004],[-94.04333333333334,42.11194444444445],[-94.04333333333334,42.11194444444445],[-94.18916666666667,42.118611111111115],[-94.18916666666667,42.118611111111115],[-94.18916666666667,42.118611111111115],[-94.4825,42.13138888888889],[-94.4825,42.13138888888889],[-94.4825,42.13138888888889],[-94.63,42.1375],[-95.215,42.16027777777778],[-95.215,42.16027777777778],[-95.215,42.16027777777778],[-95.36305555555555,42.16555555555556],[-95.36305555555555,42.16555555555556],[-95.6575,42.175555555555555],[-95.6575,42.175555555555555],[-95.6575,42.175555555555555],[-95.95027777777779,42.18472222222222],[-95.95027777777779,42.18472222222222],[-96.09916666666666,42.18888888888888],[-96.5461111111111,42.200833333333335],[-96.5461111111111,42.200833333333335],[-96.69472222222223,42.20416666666667],[-96.84277777777777,42.2075],[-96.84277777777777,42.2075],[-96.84277777777777,42.2075],[-97.14416666666668,42.21388888888889],[-97.14416666666668,42.21388888888889],[-97.14416666666668,42.21388888888889],[-97.47555555555556,42.219722222222224],[-97.47555555555556,42.219722222222224],[-97.91388888888889,42.226111111111116],[-97.91388888888889,42.226111111111116],[-97.91388888888889,42.226111111111116],[-97.91388888888889,42.226111111111116],[-98.0038888888889,42.227222222222224],[-98.06388888888888,42.22805555555556],[-98.06388888888888,42.22805555555556],[-98.51527777777778,42.23222222222223],[-98.51527777777778,42.23222222222223],[-98.66444444444446,42.233333333333334],[-98.66444444444446,42.233333333333334],[-98.78444444444445,42.23388888888889],[-98.78444444444445,42.23388888888889],[-98.93416666666667,42.234722222222224],[-98.965,42.234722222222224],[-99.08083333333333,42.234722222222224],[-99.08083333333333,42.234722222222224],[-99.11583333333333,42.235],[-99.2275,42.23416666666667],[-99.26555555555555,42.231388888888894],[-99.38472222222222,42.22277777777778],[-99.38472222222222,42.22277777777778],[-99.38388888888889,42.22222222222222],[-99.38388888888889,42.22222222222222],[-99.56333333333333,42.20944444444445],[-99.685,42.20027777777778],[-99.685,42.20027777777778],[-99.98277777777778,42.17722222222222],[-99.98277777777778,42.17722222222222],[-99.98277777777778,42.17722222222222],[-99.98277777777778,42.17722222222222],[-100.01333333333334,42.17472222222222],[-100.16194444444444,42.16277777777778],[-100.28166666666667,42.153055555555554],[-100.29333333333334,42.15083333333333],[-100.42944444444444,42.14111111111111],[-100.42944444444444,42.14111111111111],[-100.42944444444444,42.14111111111111],[-100.44222222222223,42.138333333333335],[-100.44222222222223,42.138333333333335],[-100.45694444444445,42.13861111111111],[-100.5925,42.126111111111115],[-100.5925,42.126111111111115],[-100.7275,42.115833333333335],[-100.7275,42.115833333333335],[-100.74166666666667,42.112500000000004],[-100.74166666666667,42.112500000000004],[-100.87472222222222,42.10333333333333],[-101.33416666666666,42.06111111111111],[-101.33416666666666,42.06111111111111],[-101.33416666666666,42.06111111111111],[-101.46666666666667,42.05027777777777],[-101.46666666666667,42.05027777777777],[-101.63166666666666,42.03444444444444],[-101.63166666666666,42.03444444444444],[-101.77916666666667,42.020833333333336],[-101.77916666666667,42.020833333333336],[-101.90916666666668,42.00861111111111],[-101.92750000000001,42.00694444444444],[-101.92750000000001,42.00694444444444],[-102.07527777777777,41.993611111111115],[-102.07527777777777,41.993611111111115],[-102.07527777777777,41.993611111111115],[-102.22472222222223,41.984722222222224],[-102.37277777777777,41.97777777777778],[-102.52055555555556,41.96944444444445],[-102.52055555555556,41.96944444444445],[-102.81861111111111,41.95111111111111],[-102.93972222222223,41.94416666666666],[-102.93972222222223,41.94416666666666],[-102.93972222222223,41.94416666666666],[-102.96805555555555,41.94277777777778],[-103.08972222222222,41.93444444444444],[-103.08972222222222,41.93444444444444],[-103.08972222222222,41.93444444444444],[-103.2675,41.92222222222222],[-103.2675,41.92222222222222],[-103.2675,41.92222222222222],[-103.68222222222222,41.87222222222222],[-103.68222222222222,41.87222222222222],[-103.68222222222222,41.87222222222222],[-103.71222222222222,41.86694444444444],[-103.82972222222222,41.849722222222226],[-103.82972222222222,41.849722222222226],[-103.85944444444443,41.84527777777778],[-103.97694444444444,41.8275],[-103.97694444444444,41.8275],[-104.12388888888889,41.805],[-104.1525,41.800555555555555],[-104.1525,41.800555555555555],[-104.1525,41.800555555555555],[-104.41638888888889,41.75972222222222],[-104.41638888888889,41.75972222222222],[-104.41638888888889,41.75972222222222],[-104.41638888888889,41.75972222222222],[-104.85138888888888,41.69083333333333],[-104.99694444444445,41.66722222222222],[-104.99694444444445,41.66722222222222],[-104.99694444444445,41.66722222222222],[-104.99694444444445,41.66722222222222],[-105.14055555555557,41.64388888888889],[-105.16972222222223,41.64],[-105.16972222222223,41.64],[-105.2863888888889,41.62],[-105.2863888888889,41.62],[-105.31333333333333,41.61527777777778],[-105.43055555555556,41.596111111111114],[-105.43055555555556,41.596111111111114],[-105.73055555555555,41.545833333333334],[-105.73055555555555,41.545833333333334],[-105.73055555555555,41.545833333333334],[-105.90083333333334,41.51583333333333],[-105.90083333333334,41.51583333333333],[-106.04722222222222,41.488055555555555],[-106.04722222222222,41.488055555555555],[-106.04722222222222,41.488055555555555],[-106.6061111111111,41.31444444444444],[-106.6061111111111,41.31444444444444],[-106.6061111111111,41.31444444444444],[-106.85888888888888,41.23555555555556],[-106.85888888888888,41.23555555555556],[-107.00055555555555,41.19083333333333],[-107.00055555555555,41.19083333333333],[-107.00055555555555,41.19083333333333],[-107.02805555555555,41.18222222222222],[-107.02805555555555,41.18222222222222],[-107.31305555555555,41.092222222222226],[-107.42555555555556,41.05611111111111],[-107.42555555555556,41.05611111111111],[-107.42555555555556,41.05611111111111],[-107.4525,41.0475],[-107.4525,41.0475],[-107.73694444444445,40.95611111111111],[-107.73694444444445,40.95611111111111],[-107.8786111111111,40.91],[-107.98861111111111,40.87444444444444],[-107.98861111111111,40.87444444444444],[-108.01638888888888,40.86527777777778],[-108.12805555555555,40.828611111111115],[-108.12805555555555,40.828611111111115],[-108.29527777777777,40.77388888888889],[-108.40333333333334,40.738055555555555],[-108.40333333333334,40.738055555555555],[-108.40333333333334,40.738055555555555],[-108.40333333333334,40.738055555555555],[-108.53611111111111,40.693888888888885],[-108.53611111111111,40.693888888888885],[-108.67166666666667,40.64861111111111],[-108.67166666666667,40.64861111111111],[-108.80555555555556,40.60388888888889],[-108.94277777777778,40.5575],[-108.94277777777778,40.5575],[-108.94277777777778,40.5575],[-108.99666666666667,40.53944444444444],[-109.26722222222222,40.447222222222216],[-109.37472222222222,40.410555555555554],[-109.40333333333334,40.400555555555556],[-109.40333333333334,40.400555555555556],[-109.53833333333333,40.35416666666667],[-109.53833333333333,40.35416666666667],[-109.53833333333333,40.35416666666667],[-109.64555555555556,40.31722222222223],[-109.64555555555556,40.31722222222223],[-109.67472222222223,40.30694444444444],[-109.80805555555555,40.26083333333333],[-109.80805555555555,40.26083333333333],[-110.05222222222221,40.17527777777777],[-110.08027777777778,40.16555555555556],[-110.215,40.11888888888889],[-110.215,40.11888888888889],[-110.3236111111111,40.08166666666667],[-110.3236111111111,40.08166666666667],[-110.75666666666666,39.931666666666665],[-110.89222222222223,39.884166666666665],[-110.89222222222223,39.884166666666665],[-111.31944444444444,39.73305555555556],[-111.31944444444444,39.73305555555556],[-111.45444444444445,39.684999999999995],[-111.45444444444445,39.684999999999995],[-111.7275,39.58694444444445],[-111.7275,39.58694444444445],[-112.1375,39.437777777777775],[-112.1375,39.437777777777775],[-112.1375,39.437777777777775],[-112.1375,39.437777777777775],[-112.68833333333333,39.26083333333333],[-112.80694444444444,39.23444444444444],[-112.80694444444444,39.23444444444444],[-113.14,39.158055555555556],[-113.2786111111111,39.126111111111115],[-113.38611111111112,39.10111111111111],[-113.55027777777778,39.062777777777775],[-113.6875,39.03055555555555],[-113.96861111111112,38.96388888888889],[-113.96861111111112,38.96388888888889],[-113.96861111111112,38.96388888888889],[-114.38305555555554,38.86388888888889],[-114.51833333333333,38.83111111111111],[-114.51833333333333,38.83111111111111],[-114.51833333333333,38.83111111111111],[-115.05777777777777,38.69777777777777],[-115.11444444444444,38.68444444444444],[-115.11444444444444,38.68444444444444],[-115.33138888888888,38.62916666666667],[-115.33138888888888,38.62916666666667],[-115.79555555555555,38.51138888888889],[-115.79555555555555,38.51138888888889],[-116.00888888888889,38.455555555555556],[-116.00888888888889,38.455555555555556],[-116.19916666666667,38.405833333333334],[-116.27805555555555,38.38527777777778],[-116.27805555555555,38.38527777777778],[-116.46388888888889,38.33638888888889],[-116.46388888888889,38.33638888888889],[-116.72777777777777,38.26611111111111],[-116.72777777777777,38.26611111111111],[-116.86,38.235],[-116.93777777777778,38.223333333333336],[-116.93777777777778,38.223333333333336],[-116.93777777777778,38.223333333333336],[-117.54055555555556,38.14138888888889],[-117.72500000000001,38.115],[-117.72500000000001,38.115],[-117.9888888888889,38.07694444444445],[-117.9888888888889,38.07694444444445],[-118.37944444444443,38.019444444444446],[-118.71611111111112,37.96888888888889],[-118.71611111111112,37.96888888888889],[-118.8461111111111,37.94888888888889],[-118.8461111111111,37.94888888888889],[-118.97527777777778,37.92916666666667],[-119.22638888888889,37.89],[-119.22638888888889,37.89],[-119.22638888888889,37.89],[-119.22638888888889,37.89],[-119.75444444444445,37.80611111111111],[-119.75444444444445,37.80611111111111],[-119.75444444444445,37.80611111111111],[-120.15777777777778,37.74027777777778],[-120.15777777777778,37.74027777777778],[-120.15777777777778,37.74027777777778],[-120.42666666666668,37.696666666666665],[-120.42666666666668,37.696666666666665],[-120.63333333333334,37.666666666666664],[-120.63333333333334,37.666666666666664],[-120.76666666666667,37.65],[-120.9,37.63333333333333],[-120.93666666666667,37.63611111111111],[-120.93666666666667,37.63611111111111],[-121.01666666666667,37.63333333333333],[-121.01666666666667,37.63333333333333],[-121.01666666666667,37.63333333333333],[-121.18083333333334,37.603611111111114],[-121.18083333333334,37.603611111111114],[-121.38916666666667,37.57833333333333],[-121.38916666666667,37.57833333333333],[-121.38916666666667,37.57833333333333],[-121.50055555555555,37.56527777777777],[-121.58333333333333,37.55],[-121.58333333333333,37.55],[-121.705,37.531666666666666],[-121.76666666666667,37.516666666666666],[-121.76666666666667,37.516666666666666],[-121.76666666666667,37.516666666666666],[-121.85,37.5],[-121.85,37.5],[-121.88,37.49138888888889],[-121.88,37.49138888888889],[-121.93333333333334,37.5],[-121.96611111111112,37.49305555555556],[-121.96611111111112,37.49305555555556],[-122.01666666666667,37.5],[-122.01666666666667,37.5],[-122.11694444444444,37.53638888888889],[-122.11694444444444,37.53638888888889],[-122.24277777777777,37.57694444444445],[-122.24277777777777,37.57694444444445],[-122.24277777777777,37.57694444444445],[-122.33333333333333,37.6],[-122.33333333333333,37.6],[-122.3436111111111,37.60805555555556]],"type":"LineString"}
}
