{
  "id": 2014824693,
  "type": "Feature",
  "properties": {
    "geom:area": 0,
    "geom:bbox": "-122.380000,26.070000,-80.050000,38.330000",
    "geom:latitude": 33.128965518063154,
    "geom:longitude": -100.8920534780852,
    "src:alt_label": "swim-route",
    "src:geom": "swim",
    "swim:geom": "route",
    "wof:geomhash": "0d888a55df5e849cc63903c2ef8e3e15",
    "wof:id": 2014824693,
    "wof:repo": "sfomuseum-data-flights-2026-02"
  },
  "bbox": [
    -122.38,
    26.07,
    -80.05,
    38.33
  ],
  "geometry": {"coordinates":[[-80.15,26.07],[-80.07,26.09],[-80.07,26.09],[-80.06,26.12],[-80.06,26.12],[-80.05,26.15],[-80.06,26.18],[-80.06,26.19],[-80.07,26.22],[-80.11,26.24],[-80.16,26.25],[-80.29,26.27],[-80.47,26.3],[-80.65,26.32],[-80.72,26.33],[-80.83,26.35],[-80.86,26.35],[-80.93,26.36],[-80.97,26.41],[-81.02,26.45],[-81.04,26.47],[-81.08,26.51],[-81.11,26.54],[-81.16,26.58],[-81.21,26.63],[-81.21,26.64],[-81.33,26.74],[-81.39,26.8],[-81.91,27.29],[-81.91,27.29],[-82.27,27.35],[-82.36,27.37],[-82.43,27.38],[-82.56,27.41],[-82.69,27.43],[-83.15,27.52],[-83.21,27.53],[-84.83,27.81],[-85.05,27.85],[-85.26,27.88],[-85.46,27.95],[-86.71,28.31],[-88.01,28.69],[-88.08,28.71],[-88.7,28.88],[-89.11,28.97],[-90.1,29.18],[-90.5,29.24],[-90.92,29.31],[-92.38,29.54],[-92.82,29.61],[-92.89,29.62],[-94.88,29.9],[-95.35,29.96],[-95.87,30.27],[-96.36,30.55],[-96.63,30.78],[-96.82,30.99],[-97,31.2],[-97.01,31.2],[-97.52,31.77],[-97.88,32.16],[-98.56,32.5],[-100.09,33.24],[-101.47,33.88],[-101.93,34.09],[-102.63,34.4],[-102.84,34.5],[-103.95,35.03],[-104.37,35.22],[-104.58,35.32],[-104.79,35.42],[-105.43,35.71],[-106.36,36.12],[-107.03,36.37],[-108.1,36.75],[-108.8,37.05],[-109.16,37.15],[-110.88,37.57],[-111.28,37.66],[-112,37.83],[-112.62,37.94],[-113.1,38.02],[-114.06,38.18],[-114.28,38.22],[-114.96,38.33],[-115.88,38.33],[-116.33,38.33],[-117.27,38.12],[-117.27,38.12],[-117.77,38],[-118.76,37.9],[-119.1,37.86],[-119.81,37.77],[-119.99,37.75],[-120.04,37.74],[-120.26,37.72],[-120.28,37.72],[-120.38,37.7],[-120.4,37.7],[-120.75,37.66],[-120.78,37.66],[-120.83,37.65],[-120.96,37.63],[-121,37.63],[-121.08,37.62],[-121.18,37.6],[-121.26,37.59],[-121.39,37.58],[-121.41,37.58],[-121.6,37.55],[-121.61,37.55],[-121.62,37.55],[-121.7,37.53],[-121.8,37.51],[-121.83,37.5],[-121.88,37.49],[-122.08,37.54],[-122.14,37.56],[-122.18,37.57],[-122.28,37.59],[-122.33,37.61],[-122.36,37.61],[-122.38,37.62]],"type":"LineString"}
}
