{
  "id": 2014819631,
  "type": "Feature",
  "properties": {
    "geom:area": 0,
    "geom:bbox": "-122.400000,37.633333,-80.033333,43.175833",
    "geom:latitude": 42.096364656406955,
    "geom:longitude": -101.36132879826934,
    "src:alt_label": "swim-path",
    "src:geom": "swim",
    "swim:altitudes": [
      "004",
      "014",
      "014",
      "014",
      "014",
      "026",
      "026",
      "026",
      "026",
      "100",
      "100",
      "119",
      "119",
      "119",
      "144",
      "144",
      "144",
      "252",
      "252",
      "252",
      "252",
      "252",
      "252",
      "312",
      "312",
      "312",
      "312",
      "312",
      "324",
      "324",
      "335",
      "335",
      "335",
      "335",
      "344",
      "344",
      "370C",
      "370C",
      "370C",
      "370C",
      "370C",
      "370C",
      "370C",
      "370C",
      "370C",
      "370C",
      "370C",
      "370C",
      "370C",
      "370C",
      "370C",
      "370C",
      "370C",
      "370C",
      "370C",
      "370C",
      "370C",
      "370C",
      "370C",
      "370C",
      "370C",
      "370C",
      "370C",
      "370C",
      "370C",
      "370C",
      "370C",
      "370C",
      "370C",
      "370C",
      "370C",
      "370C",
      "370C",
      "370C",
      "370C",
      "370C",
      "370C",
      "370C",
      "370C",
      "370C",
      "370C",
      "370C",
      "370C",
      "370C",
      "370C",
      "370C",
      "370C",
      "370C",
      "370C",
      "370C",
      "370C",
      "370C",
      "370C",
      "370C",
      "370C",
      "370C",
      "370C",
      "370C",
      "370C",
      "370C",
      "370C",
      "370C",
      "370C",
      "370C",
      "370C",
      "370C",
      "370C",
      "370C",
      "370C",
      "370C",
      "370C",
      "370C",
      "370C",
      "370C",
      "370C",
      "370C",
      "370C",
      "370C",
      "370C",
      "370C",
      "370C",
      "370C",
      "370C",
      "370C",
      "370C",
      "370C",
      "330C",
      "330C",
      "330C",
      "330C",
      "330C",
      "330C",
      "330C",
      "330C",
      "330C",
      "330C",
      "330C",
      "330C",
      "330C",
      "330C",
      "330C",
      "330C",
      "330C",
      "330C",
      "330C",
      "330C",
      "330C",
      "330C",
      "330C",
      "330C",
      "330C",
      "330",
      "330",
      "330",
      "330",
      "350C",
      "350C",
      "350C",
      "350C",
      "350C",
      "350C",
      "350C",
      "350C",
      "350C",
      "350C",
      "350C",
      "350C",
      "350C",
      "350C",
      "350C",
      "350C",
      "350C",
      "350C",
      "350C",
      "350C",
      "350C",
      "350C",
      "365",
      "365",
      "370C",
      "370C",
      "370C",
      "370C",
      "370C",
      "370C",
      "370C",
      "370C",
      "370C",
      "370C",
      "370C",
      "370C",
      "370C",
      "370C",
      "370C",
      "370C",
      "370C",
      "370C",
      "370C",
      "370C",
      "370C",
      "370C",
      "370C",
      "370C",
      "370C",
      "370C",
      "370C",
      "370C",
      "370C",
      "370C",
      "370C",
      "370C",
      "370C",
      "370C",
      "370C",
      "370C",
      "370C",
      "370C",
      "370C",
      "370C",
      "370C",
      "370C",
      "370C",
      "370C",
      "370C",
      "370C",
      "370C",
      "370C",
      "370C",
      "370C",
      "370C",
      "370C",
      "370C",
      "370C",
      "370C",
      "370C",
      "370C",
      "370C",
      "370C",
      "370C",
      "370C",
      "370C",
      "370C",
      "370C",
      "370C",
      "370C",
      "370C",
      "370C",
      "370C",
      "370C",
      "370C",
      "370C",
      "370C",
      "370C",
      "370C",
      "370C",
      "370C",
      "370C",
      "370C",
      "370C",
      "370C",
      "370C",
      "370C",
      "370C",
      "370C",
      "370C",
      "370C",
      "370C",
      "370C",
      "370C",
      "370C",
      "370C",
      "370C",
      "370C",
      "370C",
      "370C",
      "370C",
      "370C",
      "370C",
      "370C",
      "370C",
      "370C",
      "370C",
      "370C",
      "370C",
      "370C",
      "370C",
      "370C",
      "370C",
      "370C",
      "370C",
      "370C",
      "370C",
      "370C",
      "370C",
      "370C",
      "370",
      "370",
      "361",
      "361",
      "361",
      "352",
      "352",
      "340",
      "337",
      "337",
      "337",
      "310C",
      "310C",
      "310C",
      "310C",
      "310C",
      "310C",
      "310C",
      "305",
      "295",
      "295",
      "295",
      "295",
      "295",
      "238",
      "238",
      "217",
      "217",
      "217",
      "195",
      "195",
      "195",
      "149",
      "149",
      "149",
      "138",
      "138",
      "138",
      "077",
      "077",
      "077",
      "072",
      "071",
      "071",
      "071",
      "070",
      "063",
      "063",
      "051",
      "051",
      "040",
      "039",
      "039",
      "039",
      "033",
      "024",
      "024",
      "017",
      "014"
    ],
    "swim:geom": "path",
    "swim:speeds": [
      169,
      193,
      193,
      193,
      193,
      204,
      204,
      204,
      204,
      326,
      326,
      367,
      367,
      367,
      382,
      382,
      382,
      482,
      482,
      482,
      482,
      482,
      482,
      545,
      545,
      545,
      545,
      545,
      549,
      549,
      554,
      554,
      554,
      554,
      552,
      552,
      532,
      532,
      529,
      529,
      529,
      529,
      529,
      529,
      528,
      528,
      528,
      526,
      526,
      526,
      526,
      526,
      526,
      526,
      526,
      526,
      525,
      525,
      524,
      524,
      523,
      523,
      523,
      524,
      524,
      524,
      525,
      525,
      526,
      526,
      526,
      526,
      526,
      530,
      530,
      530,
      530,
      530,
      530,
      530,
      530,
      516,
      516,
      529,
      529,
      529,
      529,
      529,
      535,
      535,
      535,
      535,
      535,
      535,
      535,
      535,
      535,
      535,
      516,
      516,
      516,
      505,
      505,
      505,
      506,
      506,
      506,
      506,
      506,
      504,
      504,
      504,
      501,
      501,
      498,
      498,
      495,
      495,
      495,
      494,
      494,
      494,
      494,
      498,
      498,
      498,
      503,
      503,
      517,
      517,
      517,
      522,
      522,
      523,
      523,
      506,
      506,
      506,
      506,
      506,
      480,
      480,
      480,
      480,
      480,
      483,
      483,
      483,
      476,
      476,
      476,
      468,
      468,
      468,
      468,
      507,
      509,
      510,
      510,
      510,
      509,
      508,
      508,
      502,
      490,
      490,
      488,
      488,
      486,
      487,
      487,
      487,
      487,
      504,
      504,
      506,
      506,
      504,
      504,
      504,
      506,
      507,
      507,
      506,
      502,
      502,
      502,
      502,
      499,
      501,
      501,
      505,
      505,
      505,
      507,
      507,
      507,
      507,
      507,
      508,
      508,
      508,
      507,
      507,
      507,
      507,
      493,
      498,
      498,
      498,
      504,
      504,
      504,
      510,
      514,
      514,
      512,
      512,
      512,
      512,
      495,
      495,
      494,
      494,
      494,
      500,
      500,
      516,
      516,
      516,
      521,
      521,
      521,
      524,
      526,
      526,
      529,
      533,
      535,
      535,
      533,
      533,
      539,
      539,
      538,
      538,
      538,
      538,
      538,
      544,
      546,
      551,
      551,
      551,
      553,
      553,
      553,
      561,
      561,
      561,
      562,
      562,
      564,
      564,
      564,
      565,
      565,
      565,
      565,
      570,
      572,
      572,
      572,
      572,
      572,
      575,
      576,
      576,
      578,
      578,
      578,
      577,
      579,
      580,
      580,
      580,
      580,
      572,
      572,
      572,
      572,
      570,
      570,
      554,
      554,
      553,
      553,
      552,
      552,
      552,
      550,
      550,
      538,
      529,
      529,
      529,
      552,
      552,
      552,
      552,
      552,
      552,
      552,
      553,
      552,
      552,
      552,
      552,
      552,
      485,
      485,
      466,
      466,
      466,
      461,
      461,
      461,
      442,
      442,
      442,
      431,
      431,
      431,
      292,
      292,
      292,
      281,
      282,
      282,
      282,
      283,
      277,
      277,
      262,
      262,
      177,
      179,
      179,
      179,
      177,
      141,
      141,
      140,
      145
    ],
    "swim:timestamps": [
      1771365613,
      1771365637,
      1771365637,
      1771365637,
      1771365637,
      1771365671,
      1771365671,
      1771365671,
      1771365671,
      1771365851,
      1771365851,
      1771365911,
      1771365911,
      1771365911,
      1771365971,
      1771365971,
      1771365971,
      1771366331,
      1771366331,
      1771366331,
      1771366331,
      1771366331,
      1771366331,
      1771366632,
      1771366632,
      1771366632,
      1771366632,
      1771366632,
      1771366692,
      1771366692,
      1771366752,
      1771366752,
      1771366752,
      1771366752,
      1771366806,
      1771366806,
      1771366986,
      1771366986,
      1771367046,
      1771367046,
      1771367046,
      1771367052,
      1771367052,
      1771367052,
      1771367227,
      1771367227,
      1771367227,
      1771367407,
      1771367407,
      1771367407,
      1771367407,
      1771367407,
      1771367467,
      1771367527,
      1771367527,
      1771367533,
      1771367587,
      1771367587,
      1771367653,
      1771367653,
      1771367713,
      1771367713,
      1771367713,
      1771367767,
      1771367767,
      1771367773,
      1771367827,
      1771367833,
      1771367888,
      1771367888,
      1771367888,
      1771367888,
      1771367888,
      1771367948,
      1771367948,
      1771367948,
      1771368068,
      1771368068,
      1771368128,
      1771368128,
      1771368128,
      1771368248,
      1771368248,
      1771368428,
      1771368428,
      1771368428,
      1771368428,
      1771368428,
      1771368729,
      1771368729,
      1771368729,
      1771368789,
      1771368789,
      1771368789,
      1771368849,
      1771368849,
      1771368849,
      1771368849,
      1771368969,
      1771368969,
      1771368969,
      1771369149,
      1771369149,
      1771369149,
      1771369209,
      1771369209,
      1771369209,
      1771369209,
      1771369209,
      1771369330,
      1771369330,
      1771369330,
      1771369390,
      1771369390,
      1771369450,
      1771369450,
      1771369510,
      1771369510,
      1771369510,
      1771369570,
      1771369570,
      1771369570,
      1771369570,
      1771369630,
      1771369630,
      1771369630,
      1771369930,
      1771369930,
      1771370171,
      1771370171,
      1771370171,
      1771370411,
      1771370411,
      1771370471,
      1771370471,
      1771370655,
      1771370655,
      1771370655,
      1771370655,
      1771370655,
      1771370952,
      1771370952,
      1771370952,
      1771370952,
      1771370952,
      1771371196,
      1771371196,
      1771371196,
      1771371312,
      1771371312,
      1771371312,
      1771371432,
      1771371432,
      1771371432,
      1771371432,
      1771371737,
      1771371797,
      1771371857,
      1771371857,
      1771371857,
      1771371917,
      1771371977,
      1771371977,
      1771372037,
      1771372338,
      1771372338,
      1771372398,
      1771372398,
      1771372458,
      1771372638,
      1771372638,
      1771372638,
      1771372638,
      1771372789,
      1771372789,
      1771372818,
      1771372818,
      1771373059,
      1771373059,
      1771373119,
      1771373179,
      1771373239,
      1771373239,
      1771373269,
      1771373359,
      1771373359,
      1771373359,
      1771373359,
      1771373539,
      1771373600,
      1771373600,
      1771373720,
      1771373720,
      1771373720,
      1771373810,
      1771373810,
      1771373810,
      1771374110,
      1771374110,
      1771374170,
      1771374170,
      1771374231,
      1771374351,
      1771374351,
      1771374351,
      1771374351,
      1771374771,
      1771374831,
      1771374831,
      1771374831,
      1771374951,
      1771374951,
      1771374951,
      1771375012,
      1771375072,
      1771375072,
      1771375192,
      1771375192,
      1771375192,
      1771375192,
      1771375432,
      1771375432,
      1771375469,
      1771375469,
      1771375469,
      1771375589,
      1771375589,
      1771375709,
      1771375709,
      1771375709,
      1771375853,
      1771375853,
      1771375853,
      1771375913,
      1771375950,
      1771375950,
      1771376010,
      1771376130,
      1771376190,
      1771376190,
      1771376310,
      1771376310,
      1771376430,
      1771376430,
      1771376574,
      1771376611,
      1771376634,
      1771376634,
      1771376634,
      1771376671,
      1771376694,
      1771376791,
      1771376791,
      1771376791,
      1771376814,
      1771376814,
      1771376814,
      1771376994,
      1771376994,
      1771376994,
      1771377031,
      1771377031,
      1771377091,
      1771377091,
      1771377091,
      1771377211,
      1771377211,
      1771377211,
      1771377211,
      1771377452,
      1771377512,
      1771377512,
      1771377512,
      1771377512,
      1771377512,
      1771377632,
      1771377692,
      1771377692,
      1771377720,
      1771377720,
      1771377720,
      1771377752,
      1771377812,
      1771377872,
      1771377872,
      1771377872,
      1771377872,
      1771377960,
      1771377960,
      1771377960,
      1771377960,
      1771378113,
      1771378113,
      1771378173,
      1771378173,
      1771378233,
      1771378233,
      1771378293,
      1771378293,
      1771378293,
      1771378353,
      1771378353,
      1771378413,
      1771378441,
      1771378441,
      1771378441,
      1771378681,
      1771378681,
      1771378802,
      1771378802,
      1771378862,
      1771378862,
      1771378862,
      1771378982,
      1771379042,
      1771379042,
      1771379042,
      1771379042,
      1771379042,
      1771379222,
      1771379222,
      1771379282,
      1771379282,
      1771379282,
      1771379342,
      1771379342,
      1771379342,
      1771379463,
      1771379463,
      1771379463,
      1771379481,
      1771379481,
      1771379481,
      1771379763,
      1771379763,
      1771379763,
      1771379772,
      1771379823,
      1771379823,
      1771379823,
      1771379832,
      1771379952,
      1771379952,
      1771380012,
      1771380012,
      1771380121,
      1771380136,
      1771380136,
      1771380136,
      1771380181,
      1771380241,
      1771380241,
      1771380301,
      1771380322
    ],
    "wof:geomhash": "fa9029e9c9a3a2cfdfc368a85f5c972f",
    "wof:id": 2014819631,
    "wof:repo": "sfomuseum-data-flights-2026-02"
  },
  "bbox": [
    -122.4,
    37.63333333333333,
    -80.03333333333333,
    43.17583333333333
  ],
  "geometry": {"coordinates":[[-122.38333333333334,37.63333333333333],[-122.4,37.63333333333333],[-122.4,37.63333333333333],[-122.4,37.63333333333333],[-122.4,37.63333333333333],[-122.38777777777779,37.65888888888889],[-122.38777777777779,37.65888888888889],[-122.38777777777779,37.65888888888889],[-122.38777777777779,37.65888888888889],[-122.15138888888889,37.786944444444444],[-122.15138888888889,37.786944444444444],[-122.07805555555555,37.86888888888889],[-122.07805555555555,37.86888888888889],[-122.07805555555555,37.86888888888889],[-121.99972222222222,37.95416666666667],[-121.99972222222222,37.95416666666667],[-121.99972222222222,37.95416666666667],[-121.41972222222223,38.52611111111111],[-121.41972222222223,38.52611111111111],[-121.41972222222223,38.52611111111111],[-121.41972222222223,38.52611111111111],[-121.41972222222223,38.52611111111111],[-121.41972222222223,38.52611111111111],[-120.67694444444444,38.974444444444444],[-120.67694444444444,38.974444444444444],[-120.67694444444444,38.974444444444444],[-120.67694444444444,38.974444444444444],[-120.67694444444444,38.974444444444444],[-120.51972222222223,39.066944444444445],[-120.51972222222223,39.066944444444445],[-120.35916666666667,39.16166666666666],[-120.35916666666667,39.16166666666666],[-120.35916666666667,39.16166666666666],[-120.35916666666667,39.16166666666666],[-120.23388888888888,39.23416666666667],[-120.23388888888888,39.23416666666667],[-119.77333333333333,39.50361111111111],[-119.77333333333333,39.50361111111111],[-119.62166666666666,39.59138888888889],[-119.62166666666666,39.59138888888889],[-119.62166666666666,39.59138888888889],[-119.59027777777777,39.61055555555556],[-119.59027777777777,39.61055555555556],[-119.59027777777777,39.61055555555556],[-119.16083333333334,39.85611111111111],[-119.16083333333334,39.85611111111111],[-119.16083333333334,39.85611111111111],[-118.6725,40.08777777777778],[-118.6725,40.08777777777778],[-118.6725,40.08777777777778],[-118.6725,40.08777777777778],[-118.6725,40.08777777777778],[-118.50805555555556,40.157222222222224],[-118.34027777777777,40.22805555555556],[-118.34027777777777,40.22805555555556],[-118.30277777777778,40.24388888888889],[-118.17277777777778,40.29805555555556],[-118.17277777777778,40.29805555555556],[-117.96833333333333,40.37555555555556],[-117.96833333333333,40.37555555555556],[-117.79388888888889,40.439166666666665],[-117.79388888888889,40.439166666666665],[-117.79388888888889,40.439166666666665],[-117.65805555555556,40.488055555555555],[-117.65805555555556,40.488055555555555],[-117.62138888888889,40.50138888888889],[-117.48305555555555,40.55083333333333],[-117.44666666666667,40.56388888888888],[-117.30694444444444,40.61388888888889],[-117.30694444444444,40.61388888888889],[-117.30694444444444,40.61388888888889],[-117.30694444444444,40.61388888888889],[-117.30694444444444,40.61388888888889],[-117.13111111111111,40.67638888888889],[-117.13111111111111,40.67638888888889],[-117.13111111111111,40.67638888888889],[-116.77388888888889,40.80222222222222],[-116.77388888888889,40.80222222222222],[-116.59555555555555,40.86416666666667],[-116.59555555555555,40.86416666666667],[-116.59555555555555,40.86416666666667],[-116.2425,40.98555555555556],[-116.2425,40.98555555555556],[-115.71388888888889,41.16555555555556],[-115.71388888888889,41.16555555555556],[-115.71388888888889,41.16555555555556],[-115.71388888888889,41.16555555555556],[-115.71388888888889,41.16555555555556],[-114.80222222222221,41.466944444444444],[-114.80222222222221,41.466944444444444],[-114.80222222222221,41.466944444444444],[-114.61305555555555,41.52861111111111],[-114.61305555555555,41.52861111111111],[-114.61305555555555,41.52861111111111],[-114.4325,41.58694444444445],[-114.4325,41.58694444444445],[-114.4325,41.58694444444445],[-114.4325,41.58694444444445],[-114.0761111111111,41.70027777777778],[-114.0761111111111,41.70027777777778],[-114.0761111111111,41.70027777777778],[-113.54972222222221,41.86527777777778],[-113.54972222222221,41.86527777777778],[-113.54972222222221,41.86527777777778],[-113.37194444444444,41.920833333333334],[-113.37194444444444,41.920833333333334],[-113.37194444444444,41.920833333333334],[-113.37194444444444,41.920833333333334],[-113.37194444444444,41.920833333333334],[-113.02722222222222,42.02638888888889],[-113.02722222222222,42.02638888888889],[-113.02722222222222,42.02638888888889],[-112.85277777777777,42.07944444444445],[-112.85277777777777,42.07944444444445],[-112.68138888888889,42.130833333333335],[-112.68138888888889,42.130833333333335],[-112.51055555555556,42.18194444444444],[-112.51055555555556,42.18194444444444],[-112.51055555555556,42.18194444444444],[-112.33583333333333,42.220555555555556],[-112.33583333333333,42.220555555555556],[-112.33583333333333,42.220555555555556],[-112.33583333333333,42.220555555555556],[-112.14861111111112,42.245],[-112.14861111111112,42.245],[-112.14861111111112,42.245],[-111.20833333333334,42.362500000000004],[-111.20833333333334,42.362500000000004],[-110.46583333333334,42.44972222222222],[-110.46583333333334,42.44972222222222],[-110.46583333333334,42.44972222222222],[-109.69416666666667,42.53472222222222],[-109.69416666666667,42.53472222222222],[-109.4975,42.555277777777775],[-109.4975,42.555277777777775],[-108.92527777777778,42.61277777777778],[-108.92527777777778,42.61277777777778],[-108.92527777777778,42.61277777777778],[-108.92527777777778,42.61277777777778],[-108.92527777777778,42.61277777777778],[-108.03083333333333,42.69972222222222],[-108.03083333333333,42.69972222222222],[-108.03083333333333,42.69972222222222],[-108.03083333333333,42.69972222222222],[-108.03083333333333,42.69972222222222],[-107.30694444444444,42.763888888888886],[-107.30694444444444,42.763888888888886],[-107.30694444444444,42.763888888888886],[-106.94583333333334,42.79416666666666],[-106.94583333333334,42.79416666666666],[-106.94583333333334,42.79416666666666],[-106.61361111111111,42.82083333333334],[-106.61361111111111,42.82083333333334],[-106.61361111111111,42.82083333333334],[-106.61361111111111,42.82083333333334],[-105.64055555555557,42.89361111111111],[-105.4475,42.90694444444444],[-105.25555555555556,42.919999999999995],[-105.25555555555556,42.919999999999995],[-105.25555555555556,42.919999999999995],[-105.0625,42.933055555555555],[-104.86944444444444,42.94555555555555],[-104.86944444444444,42.94555555555555],[-104.68027777777779,42.9575],[-103.74583333333334,43.01138888888889],[-103.74583333333334,43.01138888888889],[-103.56194444444444,43.020833333333336],[-103.56194444444444,43.020833333333336],[-103.37777777777777,43.03055555555555],[-102.82527777777777,43.05694444444444],[-102.82527777777777,43.05694444444444],[-102.82527777777777,43.05694444444444],[-102.82527777777777,43.05694444444444],[-102.3786111111111,43.07666666666667],[-102.3786111111111,43.07666666666667],[-102.25416666666666,43.08166666666667],[-102.25416666666666,43.08166666666667],[-101.48805555555556,43.109722222222224],[-101.48805555555556,43.109722222222224],[-101.29583333333333,43.11638888888889],[-101.10194444444444,43.1225],[-100.92666666666668,43.12777777777778],[-100.92666666666668,43.12777777777778],[-100.84916666666666,43.13],[-100.54833333333333,43.13777777777778],[-100.54833333333333,43.13777777777778],[-100.54833333333333,43.13777777777778],[-100.54833333333333,43.13777777777778],[-99.98027777777779,43.151111111111106],[-99.77555555555556,43.155],[-99.77555555555556,43.155],[-99.38833333333334,43.16166666666666],[-99.38833333333334,43.16166666666666],[-99.38833333333334,43.16166666666666],[-99.09944444444444,43.16583333333333],[-99.09944444444444,43.16583333333333],[-99.09944444444444,43.16583333333333],[-98.15055555555556,43.17388888888889],[-98.15055555555556,43.17388888888889],[-97.9575,43.175],[-97.9575,43.175],[-97.76555555555555,43.17583333333333],[-97.3825,43.17527777777777],[-97.3825,43.17527777777777],[-97.3825,43.17527777777777],[-97.3825,43.17527777777777],[-96.07472222222222,43.165],[-95.885,43.161944444444444],[-95.885,43.161944444444444],[-95.885,43.161944444444444],[-95.50361111111111,43.155833333333334],[-95.50361111111111,43.155833333333334],[-95.50361111111111,43.155833333333334],[-95.30722222222222,43.151944444444446],[-95.11166666666666,43.14805555555556],[-95.11166666666666,43.14805555555556],[-94.7225,43.13861111111111],[-94.7225,43.13861111111111],[-94.7225,43.13861111111111],[-94.7225,43.13861111111111],[-93.92944444444444,43.11555555555556],[-93.92944444444444,43.11555555555556],[-93.82055555555556,43.111666666666665],[-93.82055555555556,43.111666666666665],[-93.82055555555556,43.111666666666665],[-93.44333333333334,43.098888888888894],[-93.44333333333334,43.098888888888894],[-93.0525,43.10194444444445],[-93.0525,43.10194444444445],[-93.0525,43.10194444444445],[-92.57666666666667,43.11194444444445],[-92.57666666666667,43.11194444444445],[-92.57666666666667,43.11194444444445],[-92.37388888888889,43.11611111111111],[-92.25527777777778,43.11805555555556],[-92.25527777777778,43.11805555555556],[-92.0525,43.12138888888889],[-91.64055555555557,43.12694444444445],[-91.43555555555555,43.129444444444445],[-91.43555555555555,43.129444444444445],[-91.06861111111111,43.132222222222225],[-91.06861111111111,43.132222222222225],[-90.65722222222223,43.134166666666665],[-90.65722222222223,43.134166666666665],[-90.16388888888889,43.13472222222222],[-90.04583333333333,43.13444444444444],[-89.95666666666666,43.134166666666665],[-89.95666666666666,43.134166666666665],[-89.95666666666666,43.134166666666665],[-89.7975,43.13361111111111],[-89.75194444444445,43.13333333333333],[-89.38027777777778,43.13111111111111],[-89.38027777777778,43.13111111111111],[-89.38027777777778,43.13111111111111],[-89.34194444444444,43.132222222222225],[-89.34194444444444,43.132222222222225],[-89.34194444444444,43.132222222222225],[-88.7075,43.1225],[-88.7075,43.1225],[-88.7075,43.1225],[-88.53444444444445,43.12083333333334],[-88.53444444444445,43.12083333333334],[-88.325,43.117222222222225],[-88.325,43.117222222222225],[-88.325,43.117222222222225],[-87.90166666666667,43.07555555555556],[-87.90166666666667,43.07555555555556],[-87.90166666666667,43.07555555555556],[-87.90166666666667,43.07555555555556],[-87.05611111111111,42.98027777777778],[-86.8436111111111,42.955000000000005],[-86.8436111111111,42.955000000000005],[-86.8436111111111,42.955000000000005],[-86.8436111111111,42.955000000000005],[-86.8436111111111,42.955000000000005],[-86.41583333333334,42.90333333333333],[-86.2038888888889,42.87722222222222],[-86.2038888888889,42.87722222222222],[-86.08888888888889,42.86277777777778],[-86.08888888888889,42.86277777777778],[-86.08888888888889,42.86277777777778],[-85.99111111111111,42.85055555555556],[-85.73666666666666,42.81777777777778],[-85.52527777777777,42.7875],[-85.52527777777777,42.7875],[-85.52527777777777,42.7875],[-85.52527777777777,42.7875],[-85.24777777777778,42.69916666666666],[-85.24777777777778,42.69916666666666],[-85.24777777777778,42.69916666666666],[-85.24777777777778,42.69916666666666],[-84.74944444444445,42.5175],[-84.74944444444445,42.5175],[-84.5925,42.414722222222224],[-84.5925,42.414722222222224],[-84.44027777777778,42.31166666666666],[-84.44027777777778,42.31166666666666],[-84.28694444444444,42.20611111111111],[-84.28694444444444,42.20611111111111],[-84.28694444444444,42.20611111111111],[-84.13944444444445,42.102222222222224],[-84.13944444444445,42.102222222222224],[-83.99444444444444,41.996944444444445],[-83.93722222222223,41.95805555555556],[-83.93722222222223,41.95805555555556],[-83.93722222222223,41.95805555555556],[-83.19888888888889,41.715833333333336],[-83.19888888888889,41.715833333333336],[-82.81611111111111,41.594722222222224],[-82.81611111111111,41.594722222222224],[-82.62916666666666,41.53527777777778],[-82.62916666666666,41.53527777777778],[-82.62916666666666,41.53527777777778],[-82.25305555555556,41.413888888888884],[-82.06611111111111,41.35305555555556],[-82.06611111111111,41.35305555555556],[-82.06611111111111,41.35305555555556],[-82.06611111111111,41.35305555555556],[-82.06611111111111,41.35305555555556],[-81.56027777777777,41.186388888888885],[-81.56027777777777,41.186388888888885],[-81.40305555555557,41.13388888888889],[-81.40305555555557,41.13388888888889],[-81.40305555555557,41.13388888888889],[-81.24972222222222,41.08277777777778],[-81.24972222222222,41.08277777777778],[-81.24972222222222,41.08277777777778],[-80.95083333333334,40.98111111111111],[-80.95083333333334,40.98111111111111],[-80.95083333333334,40.98111111111111],[-80.88027777777778,40.95722222222223],[-80.88027777777778,40.95722222222223],[-80.88027777777778,40.95722222222223],[-80.42916666666667,40.69305555555555],[-80.42916666666667,40.69305555555555],[-80.42916666666667,40.69305555555555],[-80.40777777777778,40.674166666666665],[-80.36222222222221,40.63444444444444],[-80.36222222222221,40.63444444444444],[-80.36222222222221,40.63444444444444],[-80.33805555555556,40.61222222222222],[-80.14444444444445,40.58027777777778],[-80.14444444444445,40.58027777777778],[-80.04444444444444,40.57638888888889],[-80.04444444444444,40.57638888888889],[-80.03333333333333,40.49638888888889],[-80.04916666666666,40.49583333333334],[-80.04916666666666,40.49583333333334],[-80.04916666666666,40.49583333333334],[-80.09861111111111,40.49777777777778],[-80.15472222222223,40.49916666666667],[-80.15472222222223,40.49916666666667],[-80.20527777777778,40.50055555555556],[-80.22361111111111,40.500277777777775]],"type":"LineString"}
}
