{
  "id": 2014837437,
  "type": "Feature",
  "properties": {
    "geom:area": 0,
    "geom:bbox": "-122.100278,25.653889,-80.217222,38.354722",
    "geom:latitude": 33.76235748810759,
    "geom:longitude": -100.58679321186702,
    "src:alt_label": "swim-path",
    "src:geom": "swim",
    "swim:altitudes": [
      "006",
      "091",
      "123",
      "150",
      "179",
      "225",
      "237",
      "293",
      "302",
      "328",
      "340C",
      "340C",
      "340C",
      "340C",
      "340C",
      "340C",
      "340C",
      "340C",
      "340C",
      "340C",
      "340C",
      "340C",
      "340C",
      "340C",
      "340C",
      "340C",
      "340C",
      "341",
      "360C",
      "360C",
      "360C",
      "360C",
      "360C",
      "360C",
      "360C",
      "360C",
      "360C",
      "360C",
      "360C",
      "360C",
      "360C",
      "360C",
      "360C",
      "360C",
      "360C",
      "360C",
      "360C",
      "360C",
      "360C",
      "360C",
      "360C",
      "360C",
      "360C",
      "360C",
      "360C",
      "360C",
      "360C",
      "360C",
      "360C",
      "360C",
      "360C",
      "360C",
      "360C",
      "360C",
      "360C",
      "360C",
      "360C",
      "360C",
      "360C",
      "270",
      "246",
      "071",
      "042"
    ],
    "swim:geom": "path",
    "swim:speeds": [
      179,
      284,
      339,
      369,
      391,
      405,
      417,
      449,
      456,
      464,
      460,
      458,
      463,
      454,
      445,
      439,
      439,
      441,
      439,
      434,
      431,
      425,
      424,
      421,
      429,
      428,
      424,
      410,
      390,
      386,
      388,
      395,
      393,
      376,
      375,
      372,
      368,
      378,
      382,
      370,
      367,
      349,
      349,
      348,
      347,
      328,
      328,
      355,
      365,
      385,
      389,
      374,
      380,
      388,
      382,
      385,
      390,
      390,
      392,
      402,
      400,
      397,
      413,
      415,
      414,
      414,
      405,
      372,
      357,
      372,
      360,
      234,
      193
    ],
    "swim:timestamps": [
      1771637484,
      1771637722,
      1771637844,
      1771637956,
      1771638076,
      1771638257,
      1771638317,
      1771638617,
      1771638677,
      1771638858,
      1771639098,
      1771639335,
      1771639575,
      1771639935,
      1771640176,
      1771640356,
      1771640536,
      1771640777,
      1771640958,
      1771641078,
      1771641137,
      1771641449,
      1771641690,
      1771641810,
      1771642050,
      1771642220,
      1771642400,
      1771642701,
      1771643362,
      1771643735,
      1771643975,
      1771644143,
      1771644323,
      1771644744,
      1771645237,
      1771646078,
      1771646679,
      1771646919,
      1771647339,
      1771647880,
      1771648060,
      1771648480,
      1771648721,
      1771648961,
      1771649021,
      1771649331,
      1771649514,
      1771649691,
      1771649812,
      1771650132,
      1771650295,
      1771650552,
      1771650853,
      1771651153,
      1771651393,
      1771651811,
      1771652294,
      1771652474,
      1771652835,
      1771653615,
      1771653853,
      1771654393,
      1771654874,
      1771655354,
      1771655414,
      1771655474,
      1771656315,
      1771656703,
      1771657003,
      1771657724,
      1771658033,
      1771658804,
      1771658985
    ],
    "wof:geomhash": "ed999c0875a4ab37270b149205eb8a9d",
    "wof:id": 2014837437,
    "wof:repo": "sfomuseum-data-flights-2026-02"
  },
  "bbox": [
    -122.10027777777778,
    25.653888888888886,
    -80.21722222222222,
    38.35472222222222
  ],
  "geometry": {"coordinates":[[-80.26527777777778,25.801666666666666],[-80.21722222222222,25.98888888888889],[-80.41000000000001,25.995555555555555],[-80.57138888888889,25.896666666666665],[-80.76138888888889,25.77638888888889],[-81.11527777777778,25.679444444444446],[-81.23944444444444,25.653888888888886],[-81.89305555555556,25.78888888888889],[-82.0363888888889,25.85888888888889],[-82.39527777777778,26.034166666666668],[-82.91555555555556,26.28611111111111],[-83.39250000000001,26.514722222222222],[-83.90194444444445,26.756666666666668],[-84.65777777777778,27.1075],[-85.15333333333334,27.334444444444443],[-85.52027777777778,27.50111111111111],[-85.865,27.65611111111111],[-86.385,27.8875],[-86.755,28.05027777777778],[-86.99888888888889,28.15694444444444],[-87.12027777777777,28.209722222222222],[-87.74722222222222,28.479999999999997],[-88.22888888888889,28.684444444444445],[-88.46888888888888,28.78527777777778],[-88.91611111111112,29.04416666666667],[-89.2038888888889,29.259722222222223],[-89.51222222222222,29.48888888888889],[-90.02166666666666,29.860000000000003],[-91.22638888888889,30.483055555555556],[-91.90083333333334,30.823888888888888],[-92.33722222222222,31.04138888888889],[-92.62805555555555,31.20777777777778],[-92.94500000000001,31.390555555555554],[-93.67083333333333,31.805],[-94.5075,32.2725],[-95.9538888888889,33.05694444444444],[-96.98777777777778,33.59916666666667],[-97.40861111111111,33.81527777777777],[-98.17083333333333,34.20055555555556],[-99.14111111111112,34.67916666666667],[-99.46305555555556,34.83527777777778],[-100.19638888888889,35.184999999999995],[-100.60805555555555,35.378055555555555],[-101.01194444444444,35.56527777777777],[-101.11472222222221,35.612500000000004],[-101.6061111111111,35.83638888888889],[-101.91166666666668,35.986666666666665],[-102.2125,36.14194444444444],[-102.42444444444445,36.25055555555556],[-103.03194444444445,36.55833333333333],[-103.32972222222222,36.70722222222223],[-103.8436111111111,36.925555555555555],[-104.46111111111111,37.04694444444444],[-105.10916666666667,37.169444444444444],[-105.64972222222222,37.26916666666666],[-106.54333333333334,37.42666666666666],[-107.64,37.61277777777778],[-108.04222222222222,37.67777777777778],[-108.83777777777777,37.801944444444445],[-110.64611111111111,38.06333333333333],[-111.18527777777778,38.135555555555555],[-112.42166666666667,38.29083333333333],[-113.56916666666666,38.35472222222222],[-114.7325,38.33444444444444],[-114.88027777777778,38.33111111111111],[-115.02555555555556,38.322500000000005],[-117.05805555555555,38.10583333333334],[-117.77333333333333,37.77638888888889],[-118.38527777777779,37.76361111111111],[-119.91277777777778,37.71805555555556],[-120.58333333333333,37.68333333333333],[-121.88472222222222,37.49166666666667],[-122.10027777777778,37.530833333333334]],"type":"LineString"}
}
