{
  "id": 2014880259,
  "type": "Feature",
  "properties": {
    "geom:area": 0,
    "geom:bbox": "-173.780000,35.760000,147.780000,50.160000",
    "geom:latitude": 45.100159978628355,
    "geom:longitude": -28.50847079185951,
    "src:alt_label": "swim-route",
    "src:geom": "swim",
    "swim:geom": "route",
    "wof:geomhash": "4af91ce35d739f792c14cf6722627113",
    "wof:id": 2014880259,
    "wof:repo": "sfomuseum-data-flights-2026-02"
  },
  "bbox": [
    -173.78,
    35.76,
    147.78,
    50.16
  ],
  "geometry": {"coordinates":[[[140.39,35.76],[142.83,37.26],[147.78,39.96]],[[-173.78,49.98],[-170,50.16],[-151.62,49.25],[-139.74,47.01],[-135.97,45.98],[-130,44],[-126.84,41.7],[-126.84,41.69],[-126.83,41.69],[-126.81,41.67],[-125.1,40.22],[-125,40.13],[-124.3,39.5],[-124.25,39.45],[-124.16,39.37],[-123.95,39.18],[-123.88,39.12],[-123.83,39.08],[-123.75,39],[-123.65,38.92],[-123.59,38.88],[-123.37,38.7],[-123.33,38.67],[-123.14,38.52],[-122.87,38.3],[-122.85,38.29],[-122.77,38.22],[-122.75,38.16],[-122.72,38.06],[-122.69,37.95],[-122.67,37.9],[-122.67,37.9],[-122.65,37.87],[-122.62,37.85],[-122.59,37.82],[-122.58,37.81],[-122.51,37.74],[-122.5,37.73],[-122.44,37.68],[-122.37,37.62],[-122.38,37.62]]],"type":"MultiLineString"}
}
