{
  "id": 2014715393,
  "type": "Feature",
  "properties": {
    "geom:area": 0,
    "geom:bbox": "-122.386000,37.633420,-121.247230,38.086750",
    "geom:latitude": 37.96049799682335,
    "geom:longitude": -121.93409738032743,
    "src:alt_label": "swim-takeoff",
    "src:geom": "swim",
    "swim:elevations": [
      213,
      422,
      739,
      1121,
      1350,
      1489,
      1695,
      2890,
      3327,
      3623,
      4153,
      4247,
      4640,
      4962,
      5337,
      5589,
      5826,
      6016,
      6562,
      6581,
      7113,
      7134,
      7560,
      7696
    ],
    "swim:geom": "takeoff",
    "swim:timestamps": [
      1770250857,
      1770250869,
      1770250898,
      1770250939,
      1770250978,
      1770250990,
      1770251011,
      1770251096,
      1770251153,
      1770251195,
      1770251246,
      1770251255,
      1770251294,
      1770251327,
      1770251361,
      1770251390,
      1770251412,
      1770251433,
      1770251487,
      1770251490,
      1770251547,
      1770251550,
      1770251601,
      1770251623
    ],
    "wof:geomhash": "d2306b923a51ced5d8d9b71ae85c2480",
    "wof:id": 2014715393,
    "wof:repo": "sfomuseum-data-flights-2026-02"
  },
  "bbox": [
    -122.386,
    37.63342,
    -121.24723,
    38.08675
  ],
  "geometry": {"coordinates":[[-122.36331,37.63342],[-122.35747,37.64218],[-122.33724,37.65994],[-122.30692,37.68752],[-122.32172,37.72854],[-122.33099,37.74151],[-122.34652,37.76644],[-122.386,37.87767],[-122.34409,37.94833],[-122.26181,37.96598],[-122.15169,37.98523],[-122.13164,37.98706],[-122.0432,37.98859],[-121.96636,37.99305],[-121.88559,38.00239],[-121.81651,38.01189],[-121.76599,38.01902],[-121.71504,38.02605],[-121.58431,38.04366],[-121.57701,38.0446],[-121.43776,38.06261],[-121.43044,38.06355],[-121.30415,38.07974],[-121.24723,38.08675]],"type":"LineString"}
}
