{
  "id": 2014789561,
  "type": "Feature",
  "properties": {
    "geom:area": 0,
    "geom:bbox": "-122.380000,37.490000,-79.630000,45.310000",
    "geom:latitude": 42.030493683640266,
    "geom:longitude": -101.0536011176541,
    "src:alt_label": "swim-route",
    "src:geom": "swim",
    "swim:geom": "route",
    "wof:geomhash": "f7769ddcae07569af78d66a69176a083",
    "wof:id": 2014789561,
    "wof:repo": "sfomuseum-data-flights-2026-02"
  },
  "bbox": [
    -122.38,
    37.49,
    -79.63,
    45.31
  ],
  "geometry": {"coordinates":[[-79.63,43.68],[-79.77,43.69],[-79.87,43.7],[-79.97,43.71],[-80.18,43.72],[-80.2,43.73],[-80.22,43.73],[-80.3,43.73],[-80.41,43.73],[-80.58,43.73],[-80.87,43.72],[-81,43.71],[-81.1,43.71],[-81.3,43.7],[-81.39,43.69],[-81.72,43.68],[-81.84,43.67],[-82.02,43.66],[-82.08,43.65],[-82.13,43.65],[-82.37,43.64],[-82.52,43.63],[-82.81,43.61],[-82.81,43.61],[-83.15,43.58],[-83.25,43.57],[-83.4,43.61],[-83.72,43.71],[-86.45,44.52],[-87.1,44.7],[-87.36,44.76],[-88.32,45.02],[-89.46,45.31],[-90.6,45.14],[-91.29,45.03],[-91.39,45.02],[-92.43,44.84],[-93.09,44.73],[-93.66,44.63],[-94.23,44.53],[-94.83,44.41],[-95.14,44.35],[-95.36,44.31],[-95.59,44.26],[-96.04,44.17],[-98.42,43.65],[-98.9,43.54],[-99.38,43.43],[-99.67,43.23],[-99.99,43.21],[-100.02,43.2],[-100.3,43.13],[-102.21,42.64],[-102.32,42.55],[-102.83,42.47],[-103.47,42.25],[-104.61,41.93],[-106.78,41.28],[-107.16,41.19],[-107.38,41.09],[-109.13,40.52],[-109.78,40.29],[-112.51,39.3],[-113.32,39.12],[-116.2,38.42],[-117.27,38.14],[-117.77,38],[-118.76,37.9],[-119.1,37.86],[-119.49,37.81],[-119.6,37.8],[-119.96,37.75],[-120.15,37.73],[-120.23,37.72],[-120.4,37.7],[-120.56,37.68],[-120.62,37.67],[-120.69,37.67],[-120.75,37.66],[-120.87,37.64],[-120.92,37.64],[-120.96,37.63],[-121,37.63],[-121.13,37.61],[-121.21,37.6],[-121.26,37.59],[-121.4,37.58],[-121.41,37.58],[-121.6,37.55],[-121.61,37.55],[-121.62,37.55],[-121.69,37.53],[-121.8,37.51],[-121.81,37.51],[-121.88,37.49],[-122.08,37.54],[-122.1,37.55],[-122.18,37.57],[-122.28,37.59],[-122.33,37.61],[-122.36,37.61],[-122.38,37.62]],"type":"LineString"}
}
