{
  "id": 2014836595,
  "type": "Feature",
  "properties": {
    "geom:area": 0,
    "geom:bbox": "-122.401160,37.647370,-121.256740,37.962860",
    "geom:latitude": 37.842442593707496,
    "geom:longitude": -121.84825707604244,
    "src:alt_label": "swim-takeoff",
    "src:geom": "swim",
    "swim:elevations": [
      635,
      861,
      1023,
      1129,
      1596,
      2096,
      2302,
      2854,
      3182,
      3397,
      3805,
      4017,
      4229,
      4373,
      4557,
      4599,
      4838,
      5147,
      5645,
      5916,
      6355,
      6577,
      6950,
      7142
    ],
    "swim:geom": "takeoff",
    "swim:timestamps": [
      1771510763,
      1771510780,
      1771510793,
      1771510808,
      1771510855,
      1771510882,
      1771510895,
      1771510936,
      1771510963,
      1771510989,
      1771511029,
      1771511064,
      1771511089,
      1771511112,
      1771511126,
      1771511130,
      1771511153,
      1771511182,
      1771511217,
      1771511237,
      1771511273,
      1771511292,
      1771511334,
      1771511354
    ],
    "wof:geomhash": "12cec810006589f370fc2add41877384",
    "wof:id": 2014836595,
    "wof:repo": "sfomuseum-data-flights-2026-02"
  },
  "bbox": [
    -122.40116,
    37.64737,
    -121.25674,
    37.96286
  ],
  "geometry": {"coordinates":[[-122.40116,37.64737],[-122.39176,37.66078],[-122.37867,37.66726],[-122.36013,37.67237],[-122.31962,37.71166],[-122.29784,37.73868],[-122.28702,37.75165],[-122.23228,37.7772],[-122.18739,37.78655],[-122.13865,37.79591],[-122.05952,37.81015],[-121.98489,37.82487],[-121.92571,37.83601],[-121.87109,37.84664],[-121.8377,37.85317],[-121.829,37.85481],[-121.77001,37.86609],[-121.69749,37.87969],[-121.60787,37.89681],[-121.55676,37.90636],[-121.46688,37.92336],[-121.41618,37.93289],[-121.30816,37.95329],[-121.25674,37.96286]],"type":"LineString"}
}
