{
  "id": 2014860565,
  "type": "Feature",
  "properties": {
    "geom:area": 0,
    "geom:bbox": "-122.538170,36.720390,-121.432480,37.666800",
    "geom:latitude": 37.21534409493331,
    "geom:longitude": -122.05758146889787,
    "src:alt_label": "swim-takeoff",
    "src:geom": "swim",
    "swim:elevations": [
      183,
      449,
      714,
      978,
      1183,
      1666,
      1850,
      2406,
      2922,
      3378,
      3580,
      4165,
      4513,
      4660,
      5126,
      5236,
      5635,
      5942,
      6096,
      6374,
      6686,
      7048,
      7230,
      7466,
      7586,
      7850,
      8205,
      8335,
      8407,
      8643,
      8975,
      9143,
      9158
    ],
    "swim:geom": "takeoff",
    "swim:timestamps": [
      1771757326,
      1771757344,
      1771757371,
      1771757402,
      1771757444,
      1771757484,
      1771757498,
      1771757529,
      1771757561,
      1771757599,
      1771757620,
      1771757668,
      1771757692,
      1771757703,
      1771757759,
      1771757765,
      1771757790,
      1771757822,
      1771757839,
      1771757864,
      1771757896,
      1771757937,
      1771757956,
      1771757989,
      1771758002,
      1771758032,
      1771758086,
      1771758110,
      1771758122,
      1771758151,
      1771758203,
      1771758238,
      1771758245
    ],
    "wof:geomhash": "3465b1489254dbe40edad2ef6ef813d9",
    "wof:id": 2014860565,
    "wof:repo": "sfomuseum-data-flights-2026-02"
  },
  "bbox": [
    -122.53817,
    36.72039,
    -121.43248,
    37.6668
  ],
  "geometry": {"coordinates":[[-122.38522,37.62314],[-122.39969,37.62951],[-122.42133,37.63864],[-122.44697,37.64977],[-122.49252,37.6668],[-122.53221,37.64393],[-122.53816,37.62837],[-122.53817,37.59115],[-122.52535,37.55422],[-122.47806,37.51814],[-122.45024,37.49741],[-122.38312,37.44636],[-122.34806,37.42026],[-122.3321,37.40851],[-122.24889,37.3448],[-122.23835,37.33679],[-122.20021,37.30809],[-122.15158,37.27104],[-122.12559,37.25134],[-122.08603,37.22131],[-122.03477,37.18235],[-121.96701,37.13069],[-121.93585,37.10693],[-121.88158,37.06545],[-121.86038,37.04926],[-121.80809,37.00988],[-121.71594,36.93948],[-121.67341,36.90681],[-121.65362,36.89184],[-121.60025,36.8511],[-121.50801,36.77891],[-121.44387,36.72911],[-121.43248,36.72039]],"type":"LineString"}
}
