{
  "id": 2014807423,
  "type": "Feature",
  "properties": {
    "geom:area": 0,
    "geom:bbox": "-173.780000,35.760000,164.910000,49.570000",
    "geom:latitude": 47.187228416835545,
    "geom:longitude": -12.842241052594005,
    "src:alt_label": "swim-route",
    "src:geom": "swim",
    "swim:geom": "route",
    "wof:geomhash": "f372373c824ca017bca528578e3bfe10",
    "wof:id": 2014807423,
    "wof:repo": "sfomuseum-data-flights-2026-02"
  },
  "bbox": [
    -173.78,
    35.76,
    164.91,
    49.57
  ],
  "geometry": {"coordinates":[[[140.39,35.76],[142.33,36.92],[149.5,40.63],[164.91,46.13]],[[-173.78,49.41],[-170,49.56],[-165.68,49.57],[-162.81,49.49],[-158.52,49.24],[-157.11,49.12],[-151.52,48.48],[-143.48,47.02],[-139.93,46.17],[-138.77,45.86],[-130,43],[-127,40.63],[-127,40.62],[-124.13,39.2],[-124.1,39.18],[-124,39.13],[-123.91,39.08],[-123.85,39.06],[-123.75,39],[-123.65,38.92],[-123.59,38.88],[-123.37,38.7],[-123.33,38.67],[-123.14,38.52],[-123.13,38.52],[-122.87,38.3],[-122.85,38.29],[-122.77,38.22],[-122.75,38.16],[-122.72,38.06],[-122.69,37.95],[-122.67,37.9],[-122.67,37.9],[-122.65,37.87],[-122.62,37.85],[-122.59,37.82],[-122.58,37.81],[-122.51,37.74],[-122.5,37.73],[-122.44,37.68],[-122.37,37.62],[-122.38,37.62]]],"type":"MultiLineString"}
}
