{
  "id": 2014891699,
  "type": "Feature",
  "properties": {
    "geom:area": 0,
    "geom:bbox": "-122.345278,34.903333,-80.945833,38.501389",
    "geom:latitude": 37.0286135429335,
    "geom:longitude": -101.40237788886408,
    "src:alt_label": "swim-path",
    "src:geom": "swim",
    "swim:altitudes": [
      "017",
      "017",
      "017",
      "017",
      "017",
      "067",
      "067",
      "067",
      "067",
      "067",
      "067",
      "115",
      "115",
      "115",
      "115",
      "132",
      "132",
      "132",
      "132",
      "147",
      "147",
      "147",
      "147",
      "189",
      "189",
      "189",
      "189",
      "202",
      "202",
      "214",
      "214",
      "214",
      "225",
      "225",
      "225",
      "225",
      "235",
      "244",
      "244",
      "244",
      "244",
      "282",
      "282",
      "282",
      "282",
      "282",
      "282",
      "282",
      "330C",
      "330C",
      "330C",
      "330C",
      "330C",
      "330C",
      "330C",
      "330C",
      "330C",
      "330C",
      "330C",
      "330C",
      "330C",
      "330C",
      "330C",
      "330C",
      "330C",
      "330C",
      "330C",
      "330C",
      "330C",
      "330C",
      "330C",
      "330C",
      "330C",
      "330C",
      "330C",
      "330C",
      "330C",
      "330C",
      "330C",
      "330C",
      "330C",
      "330C",
      "330C",
      "330C",
      "330C",
      "330C",
      "330C",
      "330C",
      "330C",
      "330C",
      "330C",
      "330C",
      "330C",
      "330C",
      "330C",
      "330C",
      "330C",
      "330C",
      "330C",
      "330C",
      "330C",
      "330C",
      "330C",
      "330C",
      "330C",
      "330C",
      "330C",
      "330C",
      "330C",
      "330C",
      "330C",
      "330C",
      "330C",
      "330C",
      "330C",
      "330C",
      "330C",
      "330C",
      "330C",
      "330C",
      "330C",
      "330C",
      "330C",
      "330C",
      "330C",
      "330C",
      "330C",
      "330C",
      "330C",
      "330C",
      "330C",
      "330C",
      "330C",
      "330C",
      "330C",
      "330C",
      "329C",
      "329C",
      "329C",
      "329C",
      "329C",
      "330C",
      "330C",
      "330C",
      "330C",
      "330C",
      "330C",
      "330C",
      "330C",
      "330C",
      "330C",
      "330C",
      "330C",
      "330C",
      "331C",
      "331C",
      "331C",
      "331C",
      "330C",
      "330C",
      "330C",
      "330C",
      "330C",
      "330C",
      "330C",
      "330C",
      "330C",
      "330C",
      "330C",
      "330C",
      "330C",
      "330C",
      "330C",
      "330C",
      "330C",
      "330C",
      "330C",
      "331C",
      "330C",
      "330C",
      "330C",
      "330C",
      "330C",
      "330C",
      "330C",
      "330C",
      "330C",
      "330C",
      "330C",
      "330C",
      "330C",
      "330C",
      "330C",
      "330C",
      "330C",
      "330C",
      "330C",
      "330C",
      "330C",
      "330C",
      "330C",
      "330C",
      "330C",
      "330C",
      "330C",
      "330C",
      "330C",
      "330C",
      "330C",
      "330C",
      "330C",
      "330C",
      "330C",
      "330C",
      "330C",
      "330C",
      "330C",
      "330C",
      "330C",
      "330C",
      "330C",
      "330C",
      "330C",
      "330C",
      "330C",
      "330C",
      "330C",
      "330C",
      "330C",
      "330C",
      "330C",
      "330C",
      "330C",
      "330C",
      "330C",
      "330C",
      "330C",
      "330C",
      "330C",
      "330C",
      "330C",
      "330C",
      "330C",
      "330C",
      "330C",
      "330C",
      "330C",
      "330C",
      "330C",
      "330C",
      "330C",
      "330C",
      "330C",
      "330C",
      "330C",
      "330C",
      "330C",
      "330C",
      "330C",
      "330C",
      "331C",
      "331C",
      "330C",
      "330C",
      "330C",
      "330C",
      "330C",
      "330C",
      "330C",
      "330C",
      "330C",
      "330C",
      "330C",
      "330C",
      "330C",
      "330C",
      "330C",
      "330C",
      "330C",
      "330C",
      "330C",
      "330C",
      "330C",
      "330C",
      "330C",
      "330C",
      "330C",
      "330C",
      "330C",
      "330C",
      "330C",
      "330C",
      "330C",
      "330C",
      "330C",
      "330C",
      "330C",
      "330C",
      "330C",
      "330C",
      "330C",
      "330C",
      "330C",
      "330C",
      "330C",
      "330C",
      "330C",
      "330C",
      "330C",
      "330C",
      "330C",
      "330C",
      "330C",
      "330C",
      "330C",
      "330C",
      "330C",
      "330C",
      "330C",
      "330C",
      "330C",
      "330C",
      "330C",
      "330C",
      "330C",
      "330C",
      "330C",
      "330C",
      "330C",
      "330C",
      "330C",
      "330C",
      "330C",
      "330C",
      "330C",
      "330C",
      "330C",
      "330C",
      "330C",
      "330C",
      "330C",
      "330C",
      "330C",
      "330C",
      "330C",
      "330C",
      "330C",
      "330C",
      "330C",
      "330C",
      "330C",
      "330C",
      "330C",
      "330C",
      "330C",
      "330C",
      "330C",
      "330C",
      "330C",
      "330C",
      "330C",
      "330C",
      "330C",
      "330C",
      "330C",
      "330C",
      "330C",
      "330C",
      "330C",
      "330C",
      "330C",
      "330C",
      "330C",
      "330C",
      "330C",
      "330C",
      "330C",
      "330C",
      "330C",
      "330C",
      "330C",
      "330C",
      "330C",
      "330C",
      "330C",
      "330C",
      "330C",
      "330C",
      "330C",
      "330C",
      "330C",
      "330C",
      "330C",
      "330C",
      "330C",
      "330C",
      "330C",
      "330C",
      "330C",
      "330C",
      "330C",
      "330C",
      "330C",
      "330C",
      "330C",
      "330C",
      "330C",
      "330C",
      "330C",
      "330C",
      "330C",
      "330C",
      "330C",
      "330C",
      "330C",
      "330C",
      "330C",
      "330C",
      "330C",
      "330C",
      "330C",
      "330C",
      "330C",
      "330C",
      "330C",
      "330C",
      "330C",
      "330C",
      "330C",
      "330C",
      "330C",
      "330C",
      "330C",
      "330C",
      "330C",
      "330C",
      "330C",
      "330C",
      "330C",
      "330C",
      "330C",
      "330C",
      "330C",
      "330C",
      "330C",
      "330C",
      "330C",
      "330C",
      "330C",
      "330C",
      "330C",
      "330C",
      "330C",
      "330C",
      "330C",
      "330C",
      "330C",
      "330C",
      "330C",
      "330C",
      "330C",
      "330C",
      "330C",
      "330C",
      "330C",
      "330C",
      "330C",
      "330C",
      "330C",
      "330C",
      "330C",
      "330C",
      "330C",
      "330C",
      "330C",
      "325",
      "305",
      "305",
      "269",
      "269",
      "259",
      "259",
      "259",
      "259",
      "259",
      "246",
      "246",
      "203",
      "203",
      "203",
      "182",
      "182",
      "182",
      "182",
      "169",
      "169",
      "169",
      "145",
      "129",
      "129",
      "129",
      "129",
      "129",
      "115",
      "115",
      "115",
      "115",
      "107",
      "102",
      "102",
      "100",
      "100",
      "100",
      "090",
      "090",
      "090",
      "079",
      "079",
      "079",
      "072",
      "072",
      "072",
      "053",
      "053",
      "053",
      "050",
      "050",
      "050",
      "050",
      "050",
      "050",
      "050",
      "050",
      "050",
      "050",
      "050",
      "050",
      "050",
      "050",
      "050",
      "050",
      "037",
      "031",
      "031",
      "019",
      "019",
      "019",
      "019",
      "019",
      "014",
      "014",
      "014"
    ],
    "swim:geom": "path",
    "swim:speeds": [
      171,
      171,
      171,
      171,
      171,
      273,
      273,
      273,
      273,
      273,
      273,
      363,
      363,
      363,
      363,
      382,
      382,
      382,
      382,
      406,
      406,
      406,
      406,
      442,
      442,
      442,
      442,
      451,
      451,
      463,
      463,
      463,
      472,
      472,
      472,
      472,
      481,
      490,
      490,
      490,
      490,
      519,
      519,
      519,
      519,
      519,
      519,
      519,
      525,
      525,
      525,
      525,
      525,
      525,
      525,
      525,
      525,
      525,
      525,
      525,
      525,
      527,
      527,
      527,
      527,
      527,
      527,
      530,
      530,
      530,
      531,
      531,
      531,
      531,
      531,
      531,
      531,
      537,
      537,
      537,
      537,
      537,
      536,
      536,
      536,
      536,
      536,
      536,
      536,
      536,
      536,
      536,
      536,
      536,
      539,
      539,
      539,
      539,
      540,
      540,
      540,
      540,
      540,
      540,
      541,
      541,
      541,
      541,
      541,
      541,
      541,
      543,
      543,
      543,
      543,
      543,
      543,
      543,
      543,
      543,
      543,
      543,
      543,
      543,
      543,
      542,
      542,
      542,
      542,
      540,
      540,
      540,
      540,
      540,
      540,
      537,
      537,
      537,
      537,
      537,
      537,
      537,
      537,
      536,
      536,
      536,
      537,
      537,
      537,
      537,
      537,
      537,
      538,
      538,
      540,
      541,
      541,
      541,
      540,
      540,
      540,
      540,
      540,
      541,
      541,
      541,
      540,
      540,
      540,
      540,
      540,
      540,
      540,
      543,
      543,
      543,
      543,
      544,
      545,
      545,
      545,
      545,
      545,
      550,
      550,
      550,
      550,
      550,
      551,
      551,
      551,
      551,
      551,
      551,
      545,
      545,
      545,
      545,
      549,
      549,
      549,
      546,
      546,
      544,
      544,
      544,
      542,
      542,
      542,
      542,
      539,
      539,
      539,
      539,
      534,
      525,
      525,
      525,
      517,
      517,
      520,
      516,
      516,
      533,
      533,
      534,
      534,
      533,
      534,
      534,
      534,
      536,
      535,
      535,
      535,
      535,
      535,
      534,
      534,
      534,
      535,
      535,
      534,
      540,
      540,
      540,
      540,
      543,
      543,
      544,
      544,
      544,
      545,
      545,
      545,
      545,
      546,
      547,
      547,
      546,
      547,
      547,
      546,
      546,
      546,
      545,
      545,
      544,
      544,
      543,
      544,
      544,
      544,
      545,
      545,
      545,
      546,
      545,
      545,
      545,
      545,
      544,
      544,
      544,
      545,
      546,
      546,
      548,
      548,
      548,
      551,
      551,
      551,
      551,
      551,
      547,
      547,
      547,
      547,
      546,
      546,
      546,
      546,
      545,
      545,
      545,
      545,
      545,
      545,
      545,
      545,
      544,
      544,
      544,
      544,
      545,
      545,
      545,
      545,
      545,
      544,
      544,
      544,
      544,
      544,
      544,
      544,
      544,
      544,
      544,
      544,
      544,
      544,
      544,
      544,
      542,
      542,
      542,
      542,
      542,
      541,
      541,
      541,
      541,
      541,
      541,
      541,
      541,
      541,
      541,
      541,
      537,
      537,
      537,
      536,
      536,
      536,
      536,
      535,
      535,
      535,
      535,
      535,
      535,
      535,
      537,
      537,
      537,
      537,
      539,
      539,
      539,
      540,
      540,
      540,
      540,
      540,
      540,
      539,
      539,
      539,
      539,
      539,
      539,
      539,
      539,
      539,
      540,
      540,
      540,
      540,
      540,
      539,
      539,
      539,
      539,
      538,
      537,
      537,
      537,
      536,
      533,
      533,
      533,
      533,
      529,
      529,
      529,
      528,
      529,
      529,
      529,
      529,
      528,
      528,
      528,
      528,
      528,
      528,
      528,
      528,
      527,
      526,
      526,
      526,
      525,
      525,
      525,
      525,
      524,
      524,
      524,
      524,
      524,
      524,
      523,
      523,
      523,
      523,
      522,
      522,
      521,
      521,
      522,
      522,
      522,
      522,
      521,
      521,
      523,
      523,
      523,
      523,
      523,
      523,
      523,
      523,
      522,
      522,
      522,
      522,
      522,
      522,
      522,
      521,
      521,
      521,
      521,
      521,
      521,
      521,
      521,
      521,
      521,
      521,
      521,
      494,
      494,
      460,
      460,
      450,
      450,
      450,
      450,
      450,
      441,
      441,
      414,
      414,
      414,
      397,
      397,
      397,
      397,
      383,
      383,
      383,
      347,
      337,
      337,
      337,
      337,
      337,
      330,
      330,
      330,
      330,
      321,
      324,
      324,
      320,
      320,
      320,
      256,
      256,
      256,
      244,
      244,
      244,
      244,
      244,
      244,
      233,
      233,
      233,
      234,
      234,
      234,
      234,
      234,
      235,
      230,
      230,
      230,
      215,
      215,
      199,
      199,
      199,
      199,
      199,
      180,
      182,
      182,
      162,
      162,
      162,
      162,
      162,
      158,
      158,
      158
    ],
    "swim:timestamps": [
      1772127437,
      1772127437,
      1772127437,
      1772127437,
      1772127437,
      1772127618,
      1772127618,
      1772127618,
      1772127618,
      1772127618,
      1772127618,
      1772127798,
      1772127798,
      1772127798,
      1772127798,
      1772127858,
      1772127858,
      1772127858,
      1772127858,
      1772127918,
      1772127918,
      1772127918,
      1772127918,
      1772128098,
      1772128098,
      1772128098,
      1772128098,
      1772128158,
      1772128158,
      1772128218,
      1772128218,
      1772128218,
      1772128278,
      1772128278,
      1772128278,
      1772128278,
      1772128339,
      1772128399,
      1772128399,
      1772128399,
      1772128399,
      1772128699,
      1772128699,
      1772128699,
      1772128699,
      1772128699,
      1772128699,
      1772128699,
      1772129119,
      1772129119,
      1772129119,
      1772129119,
      1772129119,
      1772129119,
      1772129119,
      1772129299,
      1772129299,
      1772129299,
      1772129299,
      1772129299,
      1772129299,
      1772129480,
      1772129480,
      1772129480,
      1772129480,
      1772129480,
      1772129480,
      1772129600,
      1772129600,
      1772129600,
      1772129660,
      1772129660,
      1772129660,
      1772129660,
      1772129660,
      1772129660,
      1772129660,
      1772129960,
      1772129960,
      1772129960,
      1772129960,
      1772129960,
      1772130080,
      1772130080,
      1772130080,
      1772130080,
      1772130080,
      1772130080,
      1772130321,
      1772130321,
      1772130381,
      1772130381,
      1772130381,
      1772130381,
      1772130501,
      1772130501,
      1772130501,
      1772130501,
      1772130621,
      1772130621,
      1772130621,
      1772130621,
      1772130621,
      1772130621,
      1772130741,
      1772130741,
      1772130741,
      1772130801,
      1772130801,
      1772130801,
      1772130801,
      1772130922,
      1772130922,
      1772130934,
      1772130934,
      1772130982,
      1772130982,
      1772130982,
      1772130982,
      1772130982,
      1772130982,
      1772130994,
      1772130994,
      1772131054,
      1772131054,
      1772131114,
      1772131114,
      1772131114,
      1772131114,
      1772131222,
      1772131222,
      1772131234,
      1772131234,
      1772131234,
      1772131234,
      1772131282,
      1772131342,
      1772131342,
      1772131342,
      1772131342,
      1772131342,
      1772131402,
      1772131402,
      1772131462,
      1772131462,
      1772131462,
      1772131522,
      1772131535,
      1772131535,
      1772131535,
      1772131535,
      1772131535,
      1772131582,
      1772131582,
      1772131642,
      1772131703,
      1772131703,
      1772131703,
      1772131763,
      1772131763,
      1772131763,
      1772131763,
      1772131763,
      1772131775,
      1772131775,
      1772131775,
      1772131823,
      1772131823,
      1772131823,
      1772131823,
      1772131943,
      1772131943,
      1772131943,
      1772132015,
      1772132015,
      1772132015,
      1772132015,
      1772132063,
      1772132075,
      1772132075,
      1772132075,
      1772132075,
      1772132075,
      1772132255,
      1772132255,
      1772132255,
      1772132255,
      1772132255,
      1772132376,
      1772132376,
      1772132376,
      1772132376,
      1772132376,
      1772132376,
      1772132496,
      1772132496,
      1772132496,
      1772132496,
      1772132736,
      1772132736,
      1772132736,
      1772132796,
      1772132796,
      1772132856,
      1772132856,
      1772132856,
      1772132886,
      1772132886,
      1772132886,
      1772132886,
      1772133007,
      1772133007,
      1772133037,
      1772133067,
      1772133097,
      1772133157,
      1772133157,
      1772133157,
      1772133277,
      1772133277,
      1772133367,
      1772133397,
      1772133397,
      1772133547,
      1772133547,
      1772133577,
      1772133577,
      1772133608,
      1772133668,
      1772133668,
      1772133668,
      1772133697,
      1772133758,
      1772133758,
      1772133758,
      1772133773,
      1772133773,
      1772133833,
      1772133833,
      1772133845,
      1772133893,
      1772133893,
      1772133905,
      1772133962,
      1772133962,
      1772133962,
      1772133962,
      1772134074,
      1772134074,
      1772134142,
      1772134194,
      1772134194,
      1772134202,
      1772134202,
      1772134202,
      1772134254,
      1772134314,
      1772134374,
      1772134374,
      1772134386,
      1772134434,
      1772134434,
      1772134494,
      1772134494,
      1772134494,
      1772134554,
      1772134554,
      1772134626,
      1772134626,
      1772134674,
      1772134734,
      1772134734,
      1772134734,
      1772134795,
      1772134795,
      1772134795,
      1772134855,
      1772135095,
      1772135095,
      1772135095,
      1772135095,
      1772135155,
      1772135155,
      1772135155,
      1772135215,
      1772135275,
      1772135275,
      1772135396,
      1772135396,
      1772135396,
      1772135516,
      1772135516,
      1772135516,
      1772135516,
      1772135516,
      1772135756,
      1772135756,
      1772135756,
      1772135756,
      1772135876,
      1772135876,
      1772135876,
      1772135876,
      1772136053,
      1772136053,
      1772136053,
      1772136113,
      1772136173,
      1772136173,
      1772136173,
      1772136173,
      1772136413,
      1772136413,
      1772136413,
      1772136413,
      1772136473,
      1772136473,
      1772136473,
      1772136473,
      1772136473,
      1772136654,
      1772136654,
      1772136654,
      1772136654,
      1772136654,
      1772136654,
      1772136774,
      1772136774,
      1772136774,
      1772136774,
      1772136834,
      1772136834,
      1772136834,
      1772136834,
      1772136834,
      1772136954,
      1772136954,
      1772136954,
      1772136954,
      1772136954,
      1772137074,
      1772137074,
      1772137074,
      1772137134,
      1772137134,
      1772137134,
      1772137134,
      1772137134,
      1772137254,
      1772137254,
      1772137254,
      1772137375,
      1772137375,
      1772137375,
      1772137435,
      1772137435,
      1772137435,
      1772137435,
      1772137495,
      1772137495,
      1772137495,
      1772137495,
      1772137615,
      1772137615,
      1772137615,
      1772137735,
      1772137735,
      1772137735,
      1772137735,
      1772137795,
      1772137795,
      1772137795,
      1772137855,
      1772137855,
      1772137915,
      1772137915,
      1772137915,
      1772137915,
      1772138035,
      1772138035,
      1772138035,
      1772138035,
      1772138137,
      1772138137,
      1772138137,
      1772138137,
      1772138137,
      1772138317,
      1772138317,
      1772138336,
      1772138336,
      1772138336,
      1772138437,
      1772138437,
      1772138437,
      1772138437,
      1772138456,
      1772138497,
      1772138497,
      1772138497,
      1772138516,
      1772138576,
      1772138576,
      1772138576,
      1772138576,
      1772138696,
      1772138696,
      1772138696,
      1772138756,
      1772138798,
      1772138798,
      1772138798,
      1772138798,
      1772138816,
      1772138816,
      1772138816,
      1772138978,
      1772138997,
      1772138997,
      1772138997,
      1772138997,
      1772139057,
      1772139098,
      1772139098,
      1772139098,
      1772139117,
      1772139117,
      1772139117,
      1772139158,
      1772139177,
      1772139177,
      1772139218,
      1772139218,
      1772139218,
      1772139218,
      1772139339,
      1772139339,
      1772139339,
      1772139339,
      1772139399,
      1772139399,
      1772139477,
      1772139477,
      1772139519,
      1772139519,
      1772139519,
      1772139519,
      1772139537,
      1772139537,
      1772139718,
      1772139718,
      1772139718,
      1772139759,
      1772139759,
      1772139759,
      1772139759,
      1772139778,
      1772139838,
      1772139838,
      1772139879,
      1772139879,
      1772139939,
      1772139939,
      1772139939,
      1772140060,
      1772140060,
      1772140120,
      1772140120,
      1772140120,
      1772140180,
      1772140180,
      1772140180,
      1772140240,
      1772140240,
      1772140240,
      1772140480,
      1772140540,
      1772140540,
      1772140660,
      1772140660,
      1772140721,
      1772140721,
      1772140721,
      1772140721,
      1772140721,
      1772140781,
      1772140781,
      1772140913,
      1772140913,
      1772140913,
      1772140973,
      1772140973,
      1772140973,
      1772140973,
      1772141017,
      1772141017,
      1772141017,
      1772141153,
      1772141213,
      1772141213,
      1772141213,
      1772141213,
      1772141213,
      1772141273,
      1772141273,
      1772141273,
      1772141273,
      1772141306,
      1772141333,
      1772141333,
      1772141361,
      1772141361,
      1772141361,
      1772141481,
      1772141481,
      1772141481,
      1772141541,
      1772141541,
      1772141541,
      1772141574,
      1772141574,
      1772141574,
      1772141661,
      1772141661,
      1772141661,
      1772141733,
      1772141733,
      1772141733,
      1772141733,
      1772141733,
      1772141754,
      1772141788,
      1772141788,
      1772141788,
      1772141848,
      1772141848,
      1772141908,
      1772141908,
      1772141908,
      1772141908,
      1772141908,
      1772141994,
      1772142028,
      1772142028,
      1772142114,
      1772142114,
      1772142114,
      1772142114,
      1772142114,
      1772142143,
      1772142143,
      1772142143
    ],
    "wof:geomhash": "0c359b0e1a58989a0ae5a6aefbadc3da",
    "wof:id": 2014891699,
    "wof:repo": "sfomuseum-data-flights-2026-02"
  },
  "bbox": [
    -122.34527777777777,
    34.90333333333333,
    -80.94583333333334,
    38.50138888888889
  ],
  "geometry": {"coordinates":[[-122.34527777777777,37.64527777777778],[-122.34527777777777,37.64527777777778],[-122.34527777777777,37.64527777777778],[-122.34527777777777,37.64527777777778],[-122.34527777777777,37.64527777777778],[-122.14361111111111,37.75472222222222],[-122.14361111111111,37.75472222222222],[-122.14361111111111,37.75472222222222],[-122.14361111111111,37.75472222222222],[-122.14361111111111,37.75472222222222],[-122.14361111111111,37.75472222222222],[-121.86555555555555,37.89388888888889],[-121.86555555555555,37.89388888888889],[-121.86555555555555,37.89388888888889],[-121.86555555555555,37.89388888888889],[-121.76027777777777,37.94972222222222],[-121.76027777777777,37.94972222222222],[-121.76027777777777,37.94972222222222],[-121.76027777777777,37.94972222222222],[-121.62083333333332,37.967777777777776],[-121.62083333333332,37.967777777777776],[-121.62083333333332,37.967777777777776],[-121.62083333333332,37.967777777777776],[-121.16805555555555,37.98833333333334],[-121.16805555555555,37.98833333333334],[-121.16805555555555,37.98833333333334],[-121.16805555555555,37.98833333333334],[-121.01083333333334,38.00555555555555],[-121.01083333333334,38.00555555555555],[-120.85388888888889,38.02972222222222],[-120.85388888888889,38.02972222222222],[-120.85388888888889,38.02972222222222],[-120.68805555555556,38.055],[-120.68805555555556,38.055],[-120.68805555555556,38.055],[-120.68805555555556,38.055],[-120.525,38.07972222222222],[-120.35527777777777,38.10527777777778],[-120.35527777777777,38.10527777777778],[-120.35527777777777,38.10527777777778],[-120.35527777777777,38.10527777777778],[-119.46222222222222,38.233333333333334],[-119.46222222222222,38.233333333333334],[-119.46222222222222,38.233333333333334],[-119.46222222222222,38.233333333333334],[-119.46222222222222,38.233333333333334],[-119.46222222222222,38.233333333333334],[-119.46222222222222,38.233333333333334],[-118.17805555555556,38.40861111111111],[-118.17805555555556,38.40861111111111],[-118.17805555555556,38.40861111111111],[-118.17805555555556,38.40861111111111],[-118.17805555555556,38.40861111111111],[-118.17805555555556,38.40861111111111],[-118.17805555555556,38.40861111111111],[-117.61861111111111,38.47972222222222],[-117.61861111111111,38.47972222222222],[-117.61861111111111,38.47972222222222],[-117.61861111111111,38.47972222222222],[-117.61861111111111,38.47972222222222],[-117.61861111111111,38.47972222222222],[-117.05388888888889,38.50138888888889],[-117.05388888888889,38.50138888888889],[-117.05388888888889,38.50138888888889],[-117.05388888888889,38.50138888888889],[-117.05388888888889,38.50138888888889],[-117.05388888888889,38.50138888888889],[-116.6763888888889,38.47],[-116.6763888888889,38.47],[-116.6763888888889,38.47],[-116.48611111111111,38.45333333333333],[-116.48611111111111,38.45333333333333],[-116.48611111111111,38.45333333333333],[-116.48611111111111,38.45333333333333],[-116.48611111111111,38.45333333333333],[-116.48611111111111,38.45333333333333],[-116.48611111111111,38.45333333333333],[-115.54444444444444,38.36666666666667],[-115.54444444444444,38.36666666666667],[-115.54444444444444,38.36666666666667],[-115.54444444444444,38.36666666666667],[-115.54444444444444,38.36666666666667],[-115.18333333333334,38.331388888888895],[-115.18333333333334,38.331388888888895],[-115.18333333333334,38.331388888888895],[-115.18333333333334,38.331388888888895],[-115.18333333333334,38.331388888888895],[-115.18333333333334,38.331388888888895],[-114.43472222222222,38.254444444444445],[-114.43472222222222,38.254444444444445],[-114.24638888888889,38.23972222222222],[-114.24638888888889,38.23972222222222],[-114.24638888888889,38.23972222222222],[-114.24638888888889,38.23972222222222],[-113.86361111111111,38.211111111111116],[-113.86361111111111,38.211111111111116],[-113.86361111111111,38.211111111111116],[-113.86361111111111,38.211111111111116],[-113.48555555555555,38.181666666666665],[-113.48555555555555,38.181666666666665],[-113.48555555555555,38.181666666666665],[-113.48555555555555,38.181666666666665],[-113.48555555555555,38.181666666666665],[-113.48555555555555,38.181666666666665],[-113.10305555555556,38.150555555555556],[-113.10305555555556,38.150555555555556],[-113.10305555555556,38.150555555555556],[-112.91388888888889,38.13472222222222],[-112.91388888888889,38.13472222222222],[-112.91388888888889,38.13472222222222],[-112.91388888888889,38.13472222222222],[-112.53277777777778,38.10166666666667],[-112.53277777777778,38.10166666666667],[-112.52666666666667,38.10138888888889],[-112.52666666666667,38.10138888888889],[-112.3436111111111,38.085],[-112.3436111111111,38.085],[-112.3436111111111,38.085],[-112.3436111111111,38.085],[-112.3436111111111,38.085],[-112.3436111111111,38.085],[-112.31861111111111,38.08277777777778],[-112.31861111111111,38.08277777777778],[-112.13277777777778,38.06583333333333],[-112.13277777777778,38.06583333333333],[-111.94027777777778,38.04833333333333],[-111.94027777777778,38.04833333333333],[-111.94027777777778,38.04833333333333],[-111.94027777777778,38.04833333333333],[-111.57194444444444,38.01416666666667],[-111.57194444444444,38.01416666666667],[-111.56583333333333,38.013888888888886],[-111.56583333333333,38.013888888888886],[-111.56583333333333,38.013888888888886],[-111.56583333333333,38.013888888888886],[-111.38611111111112,38.00194444444445],[-111.23416666666667,37.99138888888889],[-111.23416666666667,37.99138888888889],[-111.23416666666667,37.99138888888889],[-111.23416666666667,37.99138888888889],[-111.23416666666667,37.99138888888889],[-111.04083333333332,37.97777777777778],[-111.04083333333332,37.97777777777778],[-110.815,37.961666666666666],[-110.815,37.961666666666666],[-110.815,37.961666666666666],[-110.63222222222221,37.94833333333333],[-110.5911111111111,37.945277777777775],[-110.5911111111111,37.945277777777775],[-110.5911111111111,37.945277777777775],[-110.5911111111111,37.945277777777775],[-110.5911111111111,37.945277777777775],[-110.44027777777778,37.93388888888889],[-110.44027777777778,37.93388888888889],[-110.25055555555555,37.91916666666666],[-110.06277777777777,37.90416666666667],[-110.06277777777777,37.90416666666667],[-110.06277777777777,37.90416666666667],[-109.87277777777777,37.88916666666667],[-109.87277777777777,37.88916666666667],[-109.87277777777777,37.88916666666667],[-109.87277777777777,37.88916666666667],[-109.87277777777777,37.88916666666667],[-109.84638888888888,37.886944444444445],[-109.84638888888888,37.886944444444445],[-109.84638888888888,37.886944444444445],[-109.685,37.87361111111111],[-109.685,37.87361111111111],[-109.685,37.87361111111111],[-109.685,37.87361111111111],[-109.31,37.841944444444444],[-109.31,37.841944444444444],[-109.31,37.841944444444444],[-109.08916666666666,37.82277777777778],[-109.08916666666666,37.82277777777778],[-109.08916666666666,37.82277777777778],[-109.08916666666666,37.82277777777778],[-108.92861111111111,37.808055555555555],[-108.89666666666668,37.80416666666667],[-108.89666666666668,37.80416666666667],[-108.89666666666668,37.80416666666667],[-108.89666666666668,37.80416666666667],[-108.89666666666668,37.80416666666667],[-108.32527777777777,37.72638888888889],[-108.32527777777777,37.72638888888889],[-108.32527777777777,37.72638888888889],[-108.32527777777777,37.72638888888889],[-108.32527777777777,37.72638888888889],[-107.94333333333334,37.672777777777775],[-107.94333333333334,37.672777777777775],[-107.94333333333334,37.672777777777775],[-107.94333333333334,37.672777777777775],[-107.94333333333334,37.672777777777775],[-107.94333333333334,37.672777777777775],[-107.56833333333333,37.618611111111115],[-107.56833333333333,37.618611111111115],[-107.56833333333333,37.618611111111115],[-107.56833333333333,37.618611111111115],[-106.81666666666666,37.50666666666667],[-106.81666666666666,37.50666666666667],[-106.81666666666666,37.50666666666667],[-106.63083333333333,37.47805555555556],[-106.63083333333333,37.47805555555556],[-106.44638888888889,37.44944444444444],[-106.44638888888889,37.44944444444444],[-106.44638888888889,37.44944444444444],[-106.37638888888888,37.43833333333333],[-106.37638888888888,37.43833333333333],[-106.37638888888888,37.43833333333333],[-106.37638888888888,37.43833333333333],[-105.99722222222222,37.37833333333333],[-105.99722222222222,37.37833333333333],[-105.89444444444445,37.36194444444445],[-105.81361111111111,37.348888888888894],[-105.70861111111111,37.33833333333334],[-105.52694444444444,37.338055555555556],[-105.52694444444444,37.338055555555556],[-105.52694444444444,37.338055555555556],[-105.16472222222222,37.359722222222224],[-105.16472222222222,37.359722222222224],[-104.90972222222223,37.38861111111111],[-104.80222222222221,37.400555555555556],[-104.80222222222221,37.400555555555556],[-104.36527777777778,37.401111111111106],[-104.36527777777778,37.401111111111106],[-104.25527777777778,37.38861111111111],[-104.25527777777778,37.38861111111111],[-104.1888888888889,37.38111111111111],[-103.99083333333333,37.35805555555556],[-103.99083333333333,37.35805555555556],[-103.99083333333333,37.35805555555556],[-103.89500000000001,37.346944444444446],[-103.71222222222222,37.32527777777778],[-103.71222222222222,37.32527777777778],[-103.71222222222222,37.32527777777778],[-103.66055555555556,37.31916666666667],[-103.66055555555556,37.31916666666667],[-103.47277777777778,37.296388888888885],[-103.47277777777778,37.296388888888885],[-103.455,37.294444444444444],[-103.28916666666666,37.274166666666666],[-103.28916666666666,37.274166666666666],[-103.27555555555556,37.2725],[-103.08583333333333,37.24916666666667],[-103.08583333333333,37.24916666666667],[-103.08583333333333,37.24916666666667],[-103.08583333333333,37.24916666666667],[-102.76666666666667,37.20888888888889],[-102.76666666666667,37.20888888888889],[-102.52361111111111,37.17777777777778],[-102.34972222222221,37.155],[-102.34972222222221,37.155],[-102.31444444444445,37.150555555555556],[-102.31444444444445,37.150555555555556],[-102.31444444444445,37.150555555555556],[-102.16388888888889,37.13055555555555],[-101.9775,37.105555555555554],[-101.79083333333332,37.08027777777778],[-101.79083333333332,37.08027777777778],[-101.75361111111111,37.07527777777778],[-101.60444444444444,37.055],[-101.60444444444444,37.055],[-101.41972222222223,37.029444444444444],[-101.41972222222223,37.029444444444444],[-101.41972222222223,37.029444444444444],[-101.23388888888888,37.00333333333333],[-101.23388888888888,37.00333333333333],[-101.01083333333334,36.97166666666667],[-101.01083333333334,36.97166666666667],[-100.86861111111111,36.95111111111111],[-100.6825,36.924166666666665],[-100.6825,36.924166666666665],[-100.6825,36.924166666666665],[-100.49805555555555,36.89722222222222],[-100.49805555555555,36.89722222222222],[-100.49805555555555,36.89722222222222],[-100.31361111111111,36.86972222222222],[-99.58361111111111,36.75833333333333],[-99.58361111111111,36.75833333333333],[-99.58361111111111,36.75833333333333],[-99.58361111111111,36.75833333333333],[-99.39694444444446,36.72916666666667],[-99.39694444444446,36.72916666666667],[-99.39694444444446,36.72916666666667],[-99.20944444444444,36.69944444444444],[-99.0225,36.669444444444444],[-99.0225,36.669444444444444],[-98.64583333333334,36.60805555555556],[-98.64583333333334,36.60805555555556],[-98.64583333333334,36.60805555555556],[-98.27166666666666,36.545833333333334],[-98.27166666666666,36.545833333333334],[-98.27166666666666,36.545833333333334],[-98.27166666666666,36.545833333333334],[-98.27166666666666,36.545833333333334],[-97.51972222222223,36.47638888888889],[-97.51972222222223,36.47638888888889],[-97.51972222222223,36.47638888888889],[-97.51972222222223,36.47638888888889],[-97.14416666666668,36.45666666666667],[-97.14416666666668,36.45666666666667],[-97.14416666666668,36.45666666666667],[-97.14416666666668,36.45666666666667],[-96.57249999999999,36.42333333333333],[-96.57249999999999,36.42333333333333],[-96.57249999999999,36.42333333333333],[-96.38527777777779,36.413333333333334],[-96.19777777777779,36.401944444444446],[-96.19777777777779,36.401944444444446],[-96.19777777777779,36.401944444444446],[-96.19777777777779,36.401944444444446],[-95.45694444444445,36.353611111111114],[-95.45694444444445,36.353611111111114],[-95.45694444444445,36.353611111111114],[-95.45694444444445,36.353611111111114],[-95.27805555555555,36.34111111111111],[-95.27805555555555,36.34111111111111],[-95.27805555555555,36.34111111111111],[-95.27805555555555,36.34111111111111],[-95.27805555555555,36.34111111111111],[-94.71333333333334,36.300555555555555],[-94.71333333333334,36.300555555555555],[-94.71333333333334,36.300555555555555],[-94.71333333333334,36.300555555555555],[-94.71333333333334,36.300555555555555],[-94.71333333333334,36.300555555555555],[-94.34305555555555,36.27222222222222],[-94.34305555555555,36.27222222222222],[-94.34305555555555,36.27222222222222],[-94.34305555555555,36.27222222222222],[-94.155,36.2575],[-94.155,36.2575],[-94.155,36.2575],[-94.155,36.2575],[-94.155,36.2575],[-93.78222222222222,36.24611111111111],[-93.78222222222222,36.24611111111111],[-93.78222222222222,36.24611111111111],[-93.78222222222222,36.24611111111111],[-93.78222222222222,36.24611111111111],[-93.40722222222223,36.236666666666665],[-93.40722222222223,36.236666666666665],[-93.40722222222223,36.236666666666665],[-93.22166666666666,36.231388888888894],[-93.22166666666666,36.231388888888894],[-93.22166666666666,36.231388888888894],[-93.22166666666666,36.231388888888894],[-93.22166666666666,36.231388888888894],[-92.84583333333333,36.219722222222224],[-92.84583333333333,36.219722222222224],[-92.84583333333333,36.219722222222224],[-92.47722222222222,36.2075],[-92.47722222222222,36.2075],[-92.47722222222222,36.2075],[-92.295,36.200833333333335],[-92.295,36.200833333333335],[-92.295,36.200833333333335],[-92.295,36.200833333333335],[-92.10888888888888,36.193888888888885],[-92.10888888888888,36.193888888888885],[-92.10888888888888,36.193888888888885],[-92.10888888888888,36.193888888888885],[-91.74111111111111,36.17944444444444],[-91.74111111111111,36.17944444444444],[-91.74111111111111,36.17944444444444],[-91.37083333333332,36.163333333333334],[-91.37083333333332,36.163333333333334],[-91.37083333333332,36.163333333333334],[-91.37083333333332,36.163333333333334],[-91.18694444444445,36.155277777777776],[-91.18694444444445,36.155277777777776],[-91.18694444444445,36.155277777777776],[-91.02111111111111,36.1475],[-91.02111111111111,36.1475],[-90.83722222222222,36.1425],[-90.83722222222222,36.1425],[-90.83722222222222,36.1425],[-90.83722222222222,36.1425],[-90.46583333333334,36.14222222222222],[-90.46583333333334,36.14222222222222],[-90.46583333333334,36.14222222222222],[-90.46583333333334,36.14222222222222],[-90.15583333333333,36.14416666666666],[-90.15583333333333,36.14416666666666],[-90.15583333333333,36.14416666666666],[-90.15583333333333,36.14416666666666],[-90.15583333333333,36.14416666666666],[-89.6,36.13805555555555],[-89.6,36.13805555555555],[-89.54083333333332,36.136944444444445],[-89.54083333333332,36.136944444444445],[-89.54083333333332,36.136944444444445],[-89.20805555555556,36.13388888888889],[-89.20805555555556,36.13388888888889],[-89.20805555555556,36.13388888888889],[-89.20805555555556,36.13388888888889],[-89.17888888888889,36.132777777777775],[-89.0261111111111,36.130833333333335],[-89.0261111111111,36.130833333333335],[-89.0261111111111,36.130833333333335],[-88.96055555555556,36.12972222222222],[-88.77888888888889,36.12972222222222],[-88.77888888888889,36.12972222222222],[-88.77888888888889,36.12972222222222],[-88.77888888888889,36.12972222222222],[-88.41694444444445,36.12888888888889],[-88.41694444444445,36.12888888888889],[-88.41694444444445,36.12888888888889],[-88.23694444444445,36.12777777777778],[-88.12277777777777,36.12694444444445],[-88.12277777777777,36.12694444444445],[-88.12277777777777,36.12694444444445],[-88.12277777777777,36.12694444444445],[-88.08416666666666,36.126666666666665],[-88.08416666666666,36.126666666666665],[-88.08416666666666,36.126666666666665],[-87.58055555555555,36.10388888888889],[-87.54277777777777,36.10138888888889],[-87.54277777777777,36.10138888888889],[-87.54277777777777,36.10138888888889],[-87.54277777777777,36.10138888888889],[-87.36361111111111,36.08916666666667],[-87.22500000000001,36.081388888888895],[-87.22500000000001,36.081388888888895],[-87.22500000000001,36.081388888888895],[-87.18805555555556,36.080000000000005],[-87.18805555555556,36.080000000000005],[-87.18805555555556,36.080000000000005],[-87.0475,36.07361111111111],[-86.97444444444444,36.07],[-86.97444444444444,36.07],[-86.87083333333332,36.065],[-86.87083333333332,36.065],[-86.87083333333332,36.065],[-86.87083333333332,36.065],[-86.51805555555555,36.04722222222222],[-86.51805555555555,36.04722222222222],[-86.51805555555555,36.04722222222222],[-86.51805555555555,36.04722222222222],[-86.34055555555555,36.03777777777778],[-86.34055555555555,36.03777777777778],[-86.09083333333332,36.02444444444444],[-86.09083333333332,36.02444444444444],[-85.98361111111112,36.01833333333333],[-85.98361111111112,36.01833333333333],[-85.98361111111112,36.01833333333333],[-85.98361111111112,36.01833333333333],[-85.91444444444446,36.01444444444444],[-85.91444444444446,36.01444444444444],[-85.37833333333333,35.98277777777778],[-85.37833333333333,35.98277777777778],[-85.37833333333333,35.98277777777778],[-85.27166666666666,35.976111111111116],[-85.27166666666666,35.976111111111116],[-85.27166666666666,35.976111111111116],[-85.27166666666666,35.976111111111116],[-85.20111111111112,35.97166666666667],[-85.02111111111111,35.96027777777778],[-85.02111111111111,35.96027777777778],[-84.95222222222222,35.95583333333334],[-84.95222222222222,35.95583333333334],[-84.74027777777778,35.94166666666666],[-84.74027777777778,35.94166666666666],[-84.74027777777778,35.94166666666666],[-84.38055555555555,35.91722222222222],[-84.38055555555555,35.91722222222222],[-84.20472222222223,35.905],[-84.20472222222223,35.905],[-84.20472222222223,35.905],[-84.06055555555555,35.89472222222222],[-84.06055555555555,35.89472222222222],[-84.06055555555555,35.89472222222222],[-83.84861111111111,35.87888888888889],[-83.84861111111111,35.87888888888889],[-83.84861111111111,35.87888888888889],[-83.17583333333334,35.82527777777778],[-82.97833333333334,35.78472222222222],[-82.97833333333334,35.78472222222222],[-82.67111111111112,35.71611111111111],[-82.67111111111112,35.71611111111111],[-82.52222222222223,35.68194444444444],[-82.52222222222223,35.68194444444444],[-82.52222222222223,35.68194444444444],[-82.52222222222223,35.68194444444444],[-82.52222222222223,35.68194444444444],[-82.40916666666668,35.65611111111111],[-82.40916666666668,35.65611111111111],[-82.07972222222222,35.580000000000005],[-82.07972222222222,35.580000000000005],[-82.07972222222222,35.580000000000005],[-81.93083333333334,35.52861111111111],[-81.93083333333334,35.52861111111111],[-81.93083333333334,35.52861111111111],[-81.93083333333334,35.52861111111111],[-81.84138888888889,35.496944444444445],[-81.84138888888889,35.496944444444445],[-81.84138888888889,35.496944444444445],[-81.60972222222222,35.418055555555554],[-81.48138888888889,35.38166666666667],[-81.48138888888889,35.38166666666667],[-81.48138888888889,35.38166666666667],[-81.48138888888889,35.38166666666667],[-81.48138888888889,35.38166666666667],[-81.37805555555555,35.352222222222224],[-81.37805555555555,35.352222222222224],[-81.37805555555555,35.352222222222224],[-81.37805555555555,35.352222222222224],[-81.31666666666666,35.335],[-81.27527777777777,35.323055555555555],[-81.27527777777777,35.323055555555555],[-81.22333333333333,35.3075],[-81.22333333333333,35.3075],[-81.22333333333333,35.3075],[-81.06527777777778,35.233333333333334],[-81.06527777777778,35.233333333333334],[-81.06527777777778,35.233333333333334],[-81.06416666666667,35.16416666666667],[-81.06416666666667,35.16416666666667],[-81.06416666666667,35.16416666666667],[-81.06083333333333,35.132777777777775],[-81.06083333333333,35.132777777777775],[-81.06083333333333,35.132777777777775],[-81.05194444444444,35.030833333333334],[-81.05194444444444,35.030833333333334],[-81.05194444444444,35.030833333333334],[-81.04694444444445,34.95388888888889],[-81.04694444444445,34.95388888888889],[-81.04694444444445,34.95388888888889],[-81.04694444444445,34.95388888888889],[-81.04694444444445,34.95388888888889],[-81.04388888888889,34.93694444444444],[-81.02277777777778,34.90333333333333],[-81.02277777777778,34.90333333333333],[-81.02277777777778,34.90333333333333],[-80.95666666666666,34.92388888888889],[-80.95666666666666,34.92388888888889],[-80.94583333333334,34.97944444444445],[-80.94583333333334,34.97944444444445],[-80.94583333333334,34.97944444444445],[-80.94583333333334,34.97944444444445],[-80.94583333333334,34.97944444444445],[-80.95222222222222,35.04805555555556],[-80.95611111111111,35.07916666666667],[-80.95611111111111,35.07916666666667],[-80.96055555555556,35.14472222222222],[-80.96055555555556,35.14472222222222],[-80.96055555555556,35.14472222222222],[-80.96055555555556,35.14472222222222],[-80.96055555555556,35.14472222222222],[-80.9625,35.16888888888889],[-80.9625,35.16888888888889],[-80.9625,35.16888888888889]],"type":"LineString"}
}
