{
  "id": 2014780237,
  "type": "Feature",
  "properties": {
    "geom:area": 0,
    "geom:bbox": "-122.357640,37.491900,-121.255910,37.613830",
    "geom:latitude": 37.54261228819918,
    "geom:longitude": -121.8137652934215,
    "src:alt_label": "swim-approach",
    "src:geom": "swim",
    "swim:elevations": [
      4842,
      4765,
      4567,
      4454,
      4293,
      3872,
      3778,
      3460,
      3353,
      3140,
      3097,
      2904,
      2722,
      2477,
      2403,
      2243,
      2162,
      2063,
      2020,
      1990,
      1898,
      1750,
      1622,
      1508,
      1386,
      1223,
      1101,
      1038,
      883,
      861,
      634,
      474,
      394,
      278,
      214,
      180,
      125,
      78,
      0
    ],
    "swim:geom": "approach",
    "swim:timestamps": [
      1771023564,
      1771023571,
      1771023590,
      1771023601,
      1771023617,
      1771023656,
      1771023665,
      1771023699,
      1771023731,
      1771023776,
      1771023785,
      1771023805,
      1771023823,
      1771023865,
      1771023886,
      1771023906,
      1771023927,
      1771023952,
      1771023958,
      1771023964,
      1771023985,
      1771024016,
      1771024043,
      1771024064,
      1771024090,
      1771024125,
      1771024161,
      1771024170,
      1771024197,
      1771024203,
      1771024244,
      1771024273,
      1771024291,
      1771024318,
      1771024333,
      1771024345,
      1771024359,
      1771024370,
      1771024386
    ],
    "wof:geomhash": "bc4db86868425e3bfed26e7f3d8dd2f2",
    "wof:id": 2014780237,
    "wof:repo": "sfomuseum-data-flights-2026-02"
  },
  "bbox": [
    -122.35764,
    37.4919,
    -121.25591,
    37.61383
  ],
  "geometry": {"coordinates":[[-121.25591,37.5941],[-121.26808,37.59237],[-121.30341,37.5879],[-121.32513,37.58545],[-121.35473,37.582],[-121.42628,37.57352],[-121.44268,37.5718],[-121.5039,37.56517],[-121.56042,37.55861],[-121.63699,37.54793],[-121.6513,37.54449],[-121.68241,37.53717],[-121.70972,37.53063],[-121.77416,37.51499],[-121.80406,37.50783],[-121.8316,37.5012],[-121.86183,37.49399],[-121.89617,37.4919],[-121.90437,37.49245],[-121.91248,37.49295],[-121.94073,37.49459],[-121.98158,37.49674],[-122.01677,37.49921],[-122.04419,37.50071],[-122.07707,37.50219],[-122.1194,37.51284],[-122.15876,37.53024],[-122.16883,37.53436],[-122.19849,37.5467],[-122.20442,37.54926],[-122.24651,37.56701],[-122.27253,37.57792],[-122.28796,37.58447],[-122.30801,37.59288],[-122.31873,37.59736],[-122.32742,37.60103],[-122.33776,37.60537],[-122.34552,37.60863],[-122.35764,37.61383]],"type":"LineString"}
}
