{
  "id": 2014715461,
  "type": "Feature",
  "properties": {
    "geom:area": 0,
    "geom:bbox": "-122.368110,37.630140,-121.258510,37.963230",
    "geom:latitude": 37.837273721578455,
    "geom:longitude": -121.82782922753037,
    "src:alt_label": "swim-takeoff",
    "src:geom": "swim",
    "swim:elevations": [
      152,
      623,
      782,
      1007,
      1169,
      1254,
      1459,
      2173,
      2703,
      2880,
      3253,
      3501,
      3781,
      4140,
      4326,
      4756,
      5165,
      5363,
      5527,
      5855,
      5917,
      6034,
      6232,
      6602
    ],
    "swim:geom": "takeoff",
    "swim:timestamps": [
      1770205732,
      1770205768,
      1770205791,
      1770205819,
      1770205851,
      1770205870,
      1770205894,
      1770205943,
      1770205974,
      1770205983,
      1770206019,
      1770206055,
      1770206094,
      1770206122,
      1770206139,
      1770206174,
      1770206214,
      1770206242,
      1770206266,
      1770206308,
      1770206318,
      1770206331,
      1770206355,
      1770206394
    ],
    "wof:geomhash": "87a051636b92db55560512da849918ce",
    "wof:id": 2014715461,
    "wof:repo": "sfomuseum-data-flights-2026-02"
  },
  "bbox": [
    -122.36811,
    37.63014,
    -121.25851,
    37.96323
  ],
  "geometry": {"coordinates":[[-122.36811,37.63014],[-122.34517,37.64667],[-122.329,37.656],[-122.30784,37.66778],[-122.27872,37.68403],[-122.25911,37.69493],[-122.22844,37.71105],[-122.16155,37.74519],[-122.11971,37.76707],[-122.10758,37.77336],[-122.05634,37.79946],[-122.00131,37.82702],[-121.92373,37.8412],[-121.86495,37.85227],[-121.83119,37.85885],[-121.75779,37.87225],[-121.67153,37.88816],[-121.61055,37.89946],[-121.55649,37.90931],[-121.46091,37.92695],[-121.43938,37.93077],[-121.40745,37.93653],[-121.35214,37.94642],[-121.25851,37.96323]],"type":"LineString"}
}
