{
  "id": 2014798269,
  "type": "Feature",
  "properties": {
    "geom:area": 0,
    "geom:bbox": "-122.350000,37.637778,-70.776944,43.101944",
    "geom:latitude": 40.92570720021422,
    "geom:longitude": -96.508839317127,
    "src:alt_label": "swim-path",
    "src:geom": "swim",
    "swim:altitudes": [
      "018",
      "018",
      "018",
      "018",
      "043",
      "043",
      "058",
      "067",
      "067",
      "093",
      "093",
      "093",
      "093",
      "117",
      "117",
      "117",
      "167",
      "167",
      "167",
      "187",
      "187",
      "187",
      "187",
      "187",
      "209",
      "209",
      "240C",
      "240C",
      "240C",
      "240C",
      "240C",
      "240C",
      "240C",
      "240C",
      "240C",
      "240C",
      "240C",
      "240C",
      "240C",
      "240C",
      "240C",
      "240C",
      "240C",
      "240C",
      "240C",
      "240C",
      "240C",
      "240C",
      "240C",
      "240C",
      "240C",
      "240C",
      "240C",
      "240C",
      "240C",
      "240C",
      "240C",
      "240C",
      "240C",
      "240C",
      "240C",
      "240C",
      "240C",
      "240C",
      "240C",
      "240C",
      "240C",
      "240C",
      "240C",
      "240C",
      "240C",
      "240C",
      "240C",
      "240C",
      "240C",
      "240C",
      "240C",
      "240C",
      "240C",
      "240C",
      "240C",
      "240C",
      "240C",
      "240C",
      "240C",
      "240C",
      "240C",
      "240C",
      "240C",
      "240C",
      "240C",
      "240C",
      "240C",
      "240C",
      "240C",
      "240C",
      "240C",
      "240C",
      "240C",
      "240C",
      "240C",
      "240C",
      "240C",
      "240C",
      "240C",
      "240C",
      "240C",
      "240C",
      "240C",
      "240C",
      "240C",
      "240C",
      "240C",
      "240C",
      "240C",
      "240C",
      "240C",
      "300C",
      "300C",
      "300C",
      "300C",
      "300C",
      "300C",
      "300C",
      "300C",
      "300C",
      "300C",
      "300C",
      "300C",
      "300C",
      "300C",
      "300C",
      "300C",
      "300C",
      "300C",
      "300C",
      "300C",
      "300C",
      "300C",
      "300C",
      "300C",
      "300C",
      "300C",
      "300C",
      "300C",
      "300C",
      "300C",
      "300C",
      "300C",
      "300C",
      "300C",
      "300C",
      "300C",
      "300C",
      "300C",
      "320C",
      "320C",
      "320C",
      "320C",
      "320C",
      "320C",
      "320C",
      "320C",
      "320C",
      "320C",
      "320C",
      "320C",
      "320C",
      "320C",
      "320C",
      "320C",
      "320C",
      "320C",
      "320C",
      "320C",
      "320C",
      "320C",
      "320C",
      "320C",
      "320C",
      "320C",
      "320C",
      "320C",
      "320C",
      "320C",
      "320C",
      "320C",
      "320C",
      "320C",
      "320C",
      "320C",
      "320C",
      "320C",
      "320C",
      "320C",
      "320C",
      "320C",
      "320C",
      "320C",
      "320C",
      "320C",
      "320C",
      "320C",
      "320C",
      "320C",
      "320C",
      "320C",
      "320C",
      "320C",
      "320C",
      "320C",
      "320C",
      "320C",
      "320C",
      "320C",
      "320C",
      "320C",
      "320C",
      "320C",
      "320C",
      "320C",
      "320C",
      "320C",
      "320C",
      "320C",
      "320C",
      "320C",
      "320C",
      "320C",
      "320C",
      "320C",
      "320C",
      "320C",
      "320C",
      "320C",
      "320C",
      "320C",
      "320C",
      "320C",
      "320C",
      "320C",
      "320C",
      "320C",
      "320C",
      "320C",
      "320C",
      "320C",
      "320C",
      "320C",
      "320C",
      "320C",
      "320C",
      "320C",
      "320C",
      "320C",
      "320C",
      "320C",
      "320C",
      "320C",
      "320C",
      "320C",
      "320C",
      "320C",
      "320C",
      "320C",
      "320C",
      "320C",
      "320C",
      "320C",
      "320C",
      "320C",
      "320C",
      "320C",
      "320C",
      "320C",
      "320C",
      "320C",
      "320C",
      "320C",
      "320C",
      "320C",
      "320C",
      "320C",
      "320C",
      "320C",
      "320C",
      "320C",
      "320C",
      "320C",
      "320C",
      "320C",
      "320C",
      "320C",
      "320C",
      "320C",
      "320C",
      "320C",
      "320C",
      "320C",
      "320C",
      "320C",
      "320C",
      "320C",
      "320C",
      "320C",
      "320C",
      "320C",
      "320C",
      "320C",
      "320C",
      "320C",
      "320C",
      "320C",
      "320C",
      "320C",
      "320C",
      "320C",
      "320C",
      "320C",
      "320C",
      "320C",
      "320C",
      "320C",
      "320C",
      "320C",
      "320C",
      "320C",
      "320C",
      "320C",
      "320C",
      "320C",
      "320C",
      "320C",
      "320C",
      "320C",
      "320C",
      "320C",
      "320C",
      "320C",
      "320C",
      "320C",
      "320C",
      "320C",
      "320C",
      "320C",
      "320C",
      "320C",
      "320C",
      "320C",
      "320C",
      "320C",
      "320C",
      "320C",
      "320C",
      "320C",
      "320C",
      "320C",
      "320C",
      "320C",
      "320C",
      "320C",
      "320C",
      "320C",
      "320C",
      "320C",
      "320C",
      "320C",
      "320C",
      "320C",
      "320C",
      "320C",
      "320C",
      "320C",
      "320C",
      "320C",
      "320C",
      "320C",
      "320C",
      "320C",
      "320C",
      "320C",
      "320C",
      "320C",
      "320C",
      "320C",
      "320C",
      "320C",
      "320C",
      "320C",
      "320C",
      "320C",
      "320C",
      "320C",
      "320C",
      "320C",
      "320C",
      "320C",
      "320C",
      "320C",
      "320C",
      "320C",
      "320C",
      "320C",
      "320C",
      "320C",
      "320C",
      "320C",
      "320C",
      "320C",
      "320C",
      "320C",
      "320C",
      "320C",
      "320C",
      "320C",
      "320C",
      "320C",
      "320C",
      "320C",
      "320C",
      "320C",
      "320C",
      "320C",
      "320C",
      "320C",
      "320C",
      "320C",
      "320C",
      "320C",
      "320C",
      "320C",
      "320C",
      "320C",
      "320C",
      "320C",
      "320C",
      "320C",
      "320C",
      "320C",
      "320C",
      "320C",
      "320C",
      "320C",
      "320C",
      "320C",
      "320C",
      "320C",
      "320C",
      "320C",
      "320C",
      "320C",
      "320C",
      "320C",
      "320C",
      "320C",
      "320C",
      "320C",
      "320C",
      "320C",
      "320C",
      "320C",
      "320C",
      "320C",
      "320C",
      "320C",
      "320C",
      "320C",
      "320C",
      "320C",
      "320C",
      "320C",
      "320C",
      "320C",
      "320C",
      "320C",
      "320C",
      "320C",
      "320C",
      "320C",
      "320C",
      "320C",
      "320C",
      "320C",
      "320C",
      "320C",
      "320C",
      "320C",
      "320C",
      "320C",
      "320C",
      "320C",
      "320C",
      "320C",
      "320C",
      "320C",
      "320C",
      "320C",
      "320C",
      "320C",
      "320C",
      "320C",
      "320C",
      "320C",
      "320C",
      "320C",
      "320C",
      "320C",
      "320C",
      "320C",
      "320C",
      "320C",
      "320C",
      "320C",
      "320C",
      "320C",
      "320C",
      "320C",
      "320C",
      "320C",
      "320C",
      "320C",
      "320C",
      "320C",
      "320C",
      "320C",
      "320C",
      "320C",
      "320C",
      "320C",
      "320C",
      "320C",
      "320C",
      "320C",
      "320C",
      "320C",
      "320C",
      "320C",
      "320C",
      "320C",
      "320C",
      "320C",
      "320C",
      "320C",
      "320C",
      "320C",
      "320C",
      "320C",
      "320C",
      "320C",
      "320C",
      "320C",
      "320C",
      "320C",
      "320C",
      "320C",
      "320C",
      "320C",
      "320C",
      "320C",
      "320C",
      "320C",
      "320C",
      "320C",
      "320C",
      "320C",
      "320C",
      "320C",
      "320C",
      "320C",
      "320C",
      "320C",
      "320C",
      "320C",
      "320C",
      "320C",
      "320C",
      "320C",
      "320C",
      "320C",
      "320C",
      "320C",
      "320C",
      "320C",
      "320C",
      "320C",
      "320C",
      "320C",
      "320C",
      "320C",
      "320C",
      "320C",
      "320C",
      "320C",
      "320C",
      "320C",
      "320C",
      "320C",
      "320C",
      "320C",
      "320C",
      "320C",
      "320C",
      "320C",
      "320C",
      "320C",
      "320C",
      "320C",
      "320C",
      "320C",
      "320C",
      "320C",
      "320C",
      "320C",
      "320C",
      "300",
      "300",
      "300",
      "268",
      "268",
      "263",
      "222",
      "215",
      "215",
      "191",
      "172",
      "139",
      "135",
      "135",
      "105",
      "105",
      "087",
      "080C",
      "080C",
      "060",
      "053",
      "051",
      "051",
      "040",
      "021",
      "007",
      "007"
    ],
    "swim:geom": "path",
    "swim:speeds": [
      174,
      174,
      174,
      174,
      216,
      216,
      257,
      255,
      255,
      253,
      253,
      253,
      253,
      257,
      257,
      257,
      368,
      368,
      368,
      375,
      375,
      375,
      375,
      375,
      379,
      379,
      405,
      405,
      405,
      404,
      404,
      404,
      404,
      404,
      404,
      403,
      403,
      403,
      403,
      404,
      404,
      404,
      408,
      408,
      408,
      408,
      410,
      410,
      410,
      415,
      415,
      415,
      415,
      415,
      418,
      418,
      418,
      418,
      419,
      420,
      420,
      419,
      419,
      419,
      419,
      419,
      419,
      419,
      419,
      420,
      419,
      420,
      420,
      419,
      419,
      419,
      420,
      420,
      420,
      420,
      420,
      421,
      421,
      421,
      421,
      421,
      422,
      422,
      422,
      422,
      422,
      422,
      422,
      421,
      421,
      421,
      421,
      421,
      421,
      421,
      421,
      420,
      420,
      420,
      420,
      420,
      419,
      419,
      419,
      414,
      414,
      414,
      414,
      414,
      414,
      414,
      414,
      394,
      394,
      394,
      394,
      394,
      400,
      401,
      401,
      401,
      401,
      402,
      402,
      402,
      402,
      408,
      408,
      408,
      408,
      408,
      411,
      411,
      411,
      411,
      411,
      411,
      411,
      411,
      412,
      412,
      412,
      412,
      412,
      415,
      415,
      415,
      415,
      415,
      415,
      421,
      421,
      421,
      421,
      420,
      420,
      421,
      421,
      421,
      421,
      421,
      421,
      421,
      418,
      418,
      418,
      417,
      417,
      417,
      417,
      415,
      415,
      416,
      415,
      416,
      416,
      417,
      417,
      417,
      417,
      417,
      417,
      417,
      417,
      417,
      417,
      417,
      417,
      417,
      416,
      416,
      416,
      416,
      416,
      416,
      413,
      413,
      413,
      412,
      412,
      412,
      412,
      412,
      412,
      412,
      412,
      412,
      411,
      411,
      411,
      411,
      411,
      411,
      410,
      410,
      410,
      410,
      410,
      410,
      410,
      410,
      410,
      410,
      410,
      410,
      410,
      410,
      409,
      410,
      410,
      410,
      410,
      410,
      410,
      410,
      406,
      406,
      406,
      409,
      409,
      409,
      408,
      404,
      404,
      397,
      397,
      400,
      400,
      394,
      393,
      393,
      393,
      393,
      393,
      391,
      391,
      389,
      389,
      389,
      389,
      387,
      387,
      388,
      388,
      387,
      387,
      387,
      387,
      387,
      387,
      385,
      385,
      385,
      385,
      384,
      384,
      384,
      384,
      384,
      384,
      384,
      384,
      384,
      384,
      385,
      387,
      387,
      387,
      387,
      387,
      387,
      387,
      387,
      388,
      388,
      388,
      388,
      388,
      388,
      388,
      389,
      389,
      389,
      389,
      389,
      389,
      389,
      389,
      389,
      389,
      389,
      389,
      389,
      389,
      390,
      392,
      392,
      392,
      394,
      394,
      394,
      394,
      395,
      395,
      394,
      392,
      392,
      392,
      392,
      392,
      392,
      386,
      386,
      386,
      386,
      386,
      386,
      387,
      387,
      388,
      388,
      388,
      388,
      393,
      393,
      393,
      393,
      393,
      393,
      394,
      394,
      394,
      394,
      394,
      394,
      394,
      394,
      396,
      396,
      396,
      399,
      399,
      399,
      399,
      398,
      398,
      398,
      398,
      398,
      398,
      397,
      397,
      397,
      397,
      397,
      395,
      395,
      395,
      395,
      395,
      395,
      395,
      395,
      395,
      395,
      395,
      395,
      395,
      395,
      395,
      395,
      395,
      394,
      394,
      394,
      394,
      394,
      393,
      393,
      393,
      393,
      393,
      389,
      389,
      389,
      389,
      389,
      390,
      390,
      390,
      386,
      386,
      389,
      389,
      389,
      389,
      389,
      389,
      389,
      392,
      389,
      389,
      389,
      389,
      393,
      389,
      389,
      392,
      392,
      391,
      391,
      390,
      390,
      390,
      390,
      390,
      390,
      388,
      387,
      390,
      390,
      390,
      389,
      389,
      389,
      389,
      384,
      384,
      384,
      384,
      389,
      389,
      385,
      385,
      386,
      386,
      386,
      387,
      387,
      387,
      387,
      387,
      387,
      386,
      387,
      387,
      387,
      393,
      393,
      393,
      397,
      397,
      397,
      397,
      397,
      397,
      395,
      388,
      388,
      388,
      389,
      389,
      384,
      384,
      383,
      382,
      382,
      382,
      379,
      379,
      379,
      379,
      379,
      379,
      379,
      376,
      376,
      377,
      379,
      379,
      379,
      379,
      379,
      378,
      378,
      378,
      378,
      378,
      378,
      379,
      379,
      377,
      378,
      378,
      381,
      383,
      383,
      383,
      383,
      384,
      382,
      383,
      383,
      383,
      383,
      383,
      384,
      384,
      384,
      384,
      384,
      382,
      381,
      385,
      385,
      385,
      385,
      385,
      381,
      381,
      381,
      384,
      384,
      384,
      384,
      385,
      385,
      385,
      385,
      385,
      385,
      385,
      388,
      388,
      388,
      388,
      388,
      388,
      389,
      389,
      389,
      391,
      391,
      391,
      391,
      391,
      390,
      390,
      390,
      390,
      390,
      390,
      413,
      413,
      413,
      381,
      381,
      381,
      381,
      381,
      381,
      381,
      376,
      376,
      376,
      376,
      373,
      373,
      373,
      373,
      373,
      373,
      373,
      373,
      373,
      375,
      375,
      375,
      375,
      376,
      376,
      376,
      376,
      371,
      371,
      371,
      371,
      372,
      372,
      363,
      363,
      363,
      323,
      323,
      318,
      314,
      299,
      299,
      300,
      328,
      321,
      311,
      311,
      294,
      294,
      260,
      242,
      242,
      215,
      210,
      204,
      204,
      161,
      150,
      131,
      131
    ],
    "swim:timestamps": [
      1771185354,
      1771185354,
      1771185354,
      1771185354,
      1771185429,
      1771185429,
      1771185469,
      1771185490,
      1771185490,
      1771185550,
      1771185550,
      1771185550,
      1771185550,
      1771185610,
      1771185610,
      1771185610,
      1771185790,
      1771185790,
      1771185790,
      1771185850,
      1771185850,
      1771185850,
      1771185850,
      1771185850,
      1771185910,
      1771185910,
      1771186090,
      1771186090,
      1771186090,
      1771186210,
      1771186210,
      1771186210,
      1771186210,
      1771186210,
      1771186210,
      1771186391,
      1771186391,
      1771186391,
      1771186391,
      1771186451,
      1771186451,
      1771186451,
      1771186631,
      1771186631,
      1771186631,
      1771186631,
      1771186751,
      1771186751,
      1771186751,
      1771186811,
      1771186811,
      1771186811,
      1771186811,
      1771186811,
      1771187051,
      1771187051,
      1771187051,
      1771187051,
      1771187079,
      1771187139,
      1771187139,
      1771187199,
      1771187199,
      1771187199,
      1771187259,
      1771187259,
      1771187259,
      1771187259,
      1771187259,
      1771187319,
      1771187352,
      1771187379,
      1771187379,
      1771187412,
      1771187412,
      1771187412,
      1771187592,
      1771187592,
      1771187592,
      1771187592,
      1771187592,
      1771187680,
      1771187712,
      1771187712,
      1771187712,
      1771187712,
      1771187800,
      1771187800,
      1771187892,
      1771187892,
      1771187892,
      1771187920,
      1771187980,
      1771188040,
      1771188040,
      1771188040,
      1771188040,
      1771188040,
      1771188073,
      1771188073,
      1771188101,
      1771188133,
      1771188133,
      1771188133,
      1771188133,
      1771188161,
      1771188193,
      1771188193,
      1771188193,
      1771188341,
      1771188401,
      1771188401,
      1771188401,
      1771188401,
      1771188401,
      1771188461,
      1771188461,
      1771189215,
      1771189215,
      1771189215,
      1771189215,
      1771189215,
      1771189335,
      1771189396,
      1771189396,
      1771189396,
      1771189396,
      1771189456,
      1771189456,
      1771189456,
      1771189456,
      1771189816,
      1771189816,
      1771189816,
      1771189816,
      1771189816,
      1771189997,
      1771189997,
      1771189997,
      1771189997,
      1771189997,
      1771190057,
      1771190057,
      1771190057,
      1771190177,
      1771190177,
      1771190177,
      1771190177,
      1771190177,
      1771190357,
      1771190357,
      1771190357,
      1771190357,
      1771190357,
      1771190357,
      1771190718,
      1771190718,
      1771190718,
      1771190718,
      1771190740,
      1771190740,
      1771190910,
      1771190910,
      1771190910,
      1771190910,
      1771190920,
      1771190920,
      1771190920,
      1771191030,
      1771191030,
      1771191030,
      1771191100,
      1771191100,
      1771191100,
      1771191100,
      1771191150,
      1771191211,
      1771191220,
      1771191271,
      1771191331,
      1771191331,
      1771191341,
      1771191341,
      1771191341,
      1771191341,
      1771191451,
      1771191511,
      1771191511,
      1771191511,
      1771191511,
      1771191521,
      1771191571,
      1771191571,
      1771191571,
      1771191631,
      1771191631,
      1771191631,
      1771191631,
      1771191631,
      1771191631,
      1771192001,
      1771192001,
      1771192001,
      1771192062,
      1771192062,
      1771192062,
      1771192122,
      1771192122,
      1771192182,
      1771192182,
      1771192182,
      1771192182,
      1771192242,
      1771192302,
      1771192302,
      1771192302,
      1771192302,
      1771192302,
      1771192482,
      1771192482,
      1771192482,
      1771192482,
      1771192602,
      1771192602,
      1771192602,
      1771192602,
      1771192662,
      1771192722,
      1771192722,
      1771192722,
      1771192722,
      1771192722,
      1771192782,
      1771192903,
      1771192903,
      1771192903,
      1771192963,
      1771192963,
      1771192963,
      1771192963,
      1771192998,
      1771192998,
      1771192998,
      1771193023,
      1771193023,
      1771193023,
      1771193058,
      1771193178,
      1771193178,
      1771193203,
      1771193203,
      1771193238,
      1771193238,
      1771193263,
      1771193298,
      1771193298,
      1771193298,
      1771193323,
      1771193358,
      1771193383,
      1771193383,
      1771193478,
      1771193478,
      1771193478,
      1771193478,
      1771193539,
      1771193539,
      1771193564,
      1771193564,
      1771193599,
      1771193599,
      1771193624,
      1771193624,
      1771193659,
      1771193659,
      1771193779,
      1771193779,
      1771193779,
      1771193804,
      1771193864,
      1771193864,
      1771193864,
      1771193924,
      1771193924,
      1771193924,
      1771194044,
      1771194044,
      1771194044,
      1771194044,
      1771194104,
      1771194199,
      1771194199,
      1771194199,
      1771194224,
      1771194224,
      1771194224,
      1771194285,
      1771194285,
      1771194345,
      1771194345,
      1771194380,
      1771194405,
      1771194405,
      1771194405,
      1771194440,
      1771194500,
      1771194500,
      1771194525,
      1771194525,
      1771194560,
      1771194560,
      1771194560,
      1771194585,
      1771194585,
      1771194680,
      1771194680,
      1771194680,
      1771194740,
      1771194740,
      1771194825,
      1771194885,
      1771194885,
      1771194885,
      1771194945,
      1771194945,
      1771194945,
      1771194945,
      1771195005,
      1771195041,
      1771195101,
      1771195161,
      1771195161,
      1771195161,
      1771195161,
      1771195161,
      1771195161,
      1771195401,
      1771195401,
      1771195401,
      1771195401,
      1771195401,
      1771195401,
      1771195581,
      1771195581,
      1771195641,
      1771195641,
      1771195641,
      1771195641,
      1771196062,
      1771196062,
      1771196062,
      1771196062,
      1771196062,
      1771196062,
      1771196182,
      1771196182,
      1771196182,
      1771196182,
      1771196242,
      1771196242,
      1771196302,
      1771196302,
      1771196422,
      1771196422,
      1771196422,
      1771196481,
      1771196481,
      1771196481,
      1771196481,
      1771196783,
      1771196783,
      1771196783,
      1771196783,
      1771196843,
      1771196843,
      1771196903,
      1771196903,
      1771196903,
      1771196903,
      1771196903,
      1771197082,
      1771197082,
      1771197082,
      1771197082,
      1771197202,
      1771197202,
      1771197202,
      1771197202,
      1771197202,
      1771197324,
      1771197324,
      1771197324,
      1771197324,
      1771197324,
      1771197383,
      1771197383,
      1771197383,
      1771197623,
      1771197623,
      1771197623,
      1771197683,
      1771197683,
      1771197743,
      1771197743,
      1771197743,
      1771197743,
      1771197743,
      1771197984,
      1771197984,
      1771197984,
      1771198104,
      1771198104,
      1771198164,
      1771198164,
      1771198164,
      1771198190,
      1771198190,
      1771198370,
      1771198370,
      1771198370,
      1771198431,
      1771198431,
      1771198491,
      1771198491,
      1771198524,
      1771198551,
      1771198551,
      1771198551,
      1771198551,
      1771198584,
      1771198671,
      1771198671,
      1771198705,
      1771198705,
      1771198765,
      1771198765,
      1771198825,
      1771198825,
      1771198825,
      1771198825,
      1771198825,
      1771198825,
      1771198885,
      1771198945,
      1771198971,
      1771198971,
      1771198971,
      1771199091,
      1771199091,
      1771199091,
      1771199091,
      1771199185,
      1771199185,
      1771199185,
      1771199185,
      1771199212,
      1771199212,
      1771199305,
      1771199305,
      1771199365,
      1771199365,
      1771199365,
      1771199392,
      1771199392,
      1771199392,
      1771199392,
      1771199452,
      1771199452,
      1771199512,
      1771199572,
      1771199572,
      1771199572,
      1771199666,
      1771199692,
      1771199692,
      1771199752,
      1771199752,
      1771199752,
      1771199812,
      1771199812,
      1771199812,
      1771199872,
      1771199906,
      1771199906,
      1771199906,
      1771199933,
      1771199933,
      1771199966,
      1771199966,
      1771199993,
      1771200026,
      1771200026,
      1771200026,
      1771200113,
      1771200113,
      1771200113,
      1771200113,
      1771200173,
      1771200293,
      1771200293,
      1771200327,
      1771200327,
      1771200387,
      1771200567,
      1771200567,
      1771200567,
      1771200567,
      1771200627,
      1771200687,
      1771200747,
      1771200774,
      1771200774,
      1771200774,
      1771200774,
      1771200894,
      1771200894,
      1771200928,
      1771200954,
      1771200954,
      1771201134,
      1771201194,
      1771201194,
      1771201194,
      1771201194,
      1771201348,
      1771201435,
      1771201528,
      1771201555,
      1771201589,
      1771201589,
      1771201615,
      1771201735,
      1771201735,
      1771201769,
      1771201769,
      1771201829,
      1771201949,
      1771201975,
      1771202156,
      1771202156,
      1771202156,
      1771202156,
      1771202156,
      1771202576,
      1771202576,
      1771202576,
      1771202696,
      1771202696,
      1771202696,
      1771202696,
      1771202816,
      1771202816,
      1771202937,
      1771202937,
      1771202997,
      1771202997,
      1771202997,
      1771203597,
      1771203597,
      1771203597,
      1771203597,
      1771203597,
      1771203718,
      1771203778,
      1771203778,
      1771203778,
      1771203898,
      1771203898,
      1771203898,
      1771203958,
      1771203958,
      1771204018,
      1771204018,
      1771204018,
      1771204201,
      1771204201,
      1771204201,
      1771204261,
      1771204261,
      1771204261,
      1771204441,
      1771204441,
      1771204441,
      1771204501,
      1771204501,
      1771204501,
      1771204501,
      1771204799,
      1771204799,
      1771204799,
      1771204799,
      1771204921,
      1771204921,
      1771204921,
      1771204981,
      1771205051,
      1771205051,
      1771205051,
      1771205051,
      1771205051,
      1771205294,
      1771205294,
      1771205294,
      1771205294,
      1771205414,
      1771205414,
      1771205414,
      1771205414,
      1771205834,
      1771205834,
      1771205894,
      1771205894,
      1771205954,
      1771205954,
      1771206315,
      1771206315,
      1771206315,
      1771206525,
      1771206525,
      1771206555,
      1771206675,
      1771206705,
      1771206705,
      1771206795,
      1771206855,
      1771206951,
      1771206975,
      1771206975,
      1771207096,
      1771207096,
      1771207311,
      1771207396,
      1771207396,
      1771207576,
      1771207605,
      1771207636,
      1771207636,
      1771207725,
      1771207876,
      1771207965,
      1771207965
    ],
    "wof:geomhash": "7e3bf90f79136a00a0f1e0e67607f907",
    "wof:id": 2014798269,
    "wof:repo": "sfomuseum-data-flights-2026-02"
  },
  "bbox": [
    -122.35,
    37.63777777777778,
    -70.77694444444444,
    43.10194444444445
  ],
  "geometry": {"coordinates":[[-70.95,42.36666666666667],[-70.95,42.36666666666667],[-70.95,42.36666666666667],[-70.95,42.36666666666667],[-70.8625,42.382222222222225],[-70.8625,42.382222222222225],[-70.8,42.4],[-70.78361111111111,42.415277777777774],[-70.78361111111111,42.415277777777774],[-70.77694444444444,42.48111111111111],[-70.77694444444444,42.48111111111111],[-70.77694444444444,42.48111111111111],[-70.77694444444444,42.48111111111111],[-70.83583333333333,42.53333333333333],[-70.83583333333333,42.53333333333333],[-70.83583333333333,42.53333333333333],[-71.13472222222222,42.70138888888889],[-71.13472222222222,42.70138888888889],[-71.13472222222222,42.70138888888889],[-71.24722222222222,42.76444444444444],[-71.24722222222222,42.76444444444444],[-71.24722222222222,42.76444444444444],[-71.24722222222222,42.76444444444444],[-71.24722222222222,42.76444444444444],[-71.38527777777779,42.79416666666666],[-71.38527777777779,42.79416666666666],[-71.83888888888889,42.84277777777778],[-71.83888888888889,42.84277777777778],[-71.83888888888889,42.84277777777778],[-72.14194444444445,42.875],[-72.14194444444445,42.875],[-72.14194444444445,42.875],[-72.14194444444445,42.875],[-72.14194444444445,42.875],[-72.14194444444445,42.875],[-72.58444444444444,42.92055555555555],[-72.58444444444444,42.92055555555555],[-72.58444444444444,42.92055555555555],[-72.58444444444444,42.92055555555555],[-72.73055555555555,42.934999999999995],[-72.73055555555555,42.934999999999995],[-72.73055555555555,42.934999999999995],[-73.19916666666667,42.980555555555554],[-73.19916666666667,42.980555555555554],[-73.19916666666667,42.980555555555554],[-73.19916666666667,42.980555555555554],[-73.51444444444445,42.99861111111111],[-73.51444444444445,42.99861111111111],[-73.51444444444445,42.99861111111111],[-73.67222222222223,43.00222222222222],[-73.67222222222223,43.00222222222222],[-73.67222222222223,43.00222222222222],[-73.67222222222223,43.00222222222222],[-73.67222222222223,43.00222222222222],[-74.30694444444444,43.01555555555556],[-74.30694444444444,43.01555555555556],[-74.30694444444444,43.01555555555556],[-74.30694444444444,43.01555555555556],[-74.36861111111111,43.01777777777777],[-74.52833333333334,43.02722222222222],[-74.52833333333334,43.02722222222222],[-74.6863888888889,43.0325],[-74.6863888888889,43.0325],[-74.6863888888889,43.0325],[-74.84555555555555,43.03972222222222],[-74.84555555555555,43.03972222222222],[-74.84555555555555,43.03972222222222],[-74.84555555555555,43.03972222222222],[-74.84555555555555,43.03972222222222],[-75.00555555555556,43.046388888888885],[-75.10249999999999,43.05],[-75.16805555555555,43.052499999999995],[-75.16805555555555,43.052499999999995],[-75.26444444444445,43.05638888888888],[-75.26444444444445,43.05638888888888],[-75.26444444444445,43.05638888888888],[-75.71416666666667,43.06861111111112],[-75.71416666666667,43.06861111111112],[-75.71416666666667,43.06861111111112],[-75.71416666666667,43.06861111111112],[-75.71416666666667,43.06861111111112],[-75.93916666666667,43.074444444444445],[-76.03472222222221,43.07638888888889],[-76.03472222222221,43.07638888888889],[-76.03472222222221,43.07638888888889],[-76.03472222222221,43.07638888888889],[-76.26027777777777,43.081388888888895],[-76.26027777777777,43.081388888888895],[-76.515,43.08638888888889],[-76.515,43.08638888888889],[-76.515,43.08638888888889],[-76.57888888888888,43.087500000000006],[-76.74416666666667,43.09027777777778],[-76.90083333333334,43.0925],[-76.90083333333334,43.0925],[-76.90083333333334,43.0925],[-76.90083333333334,43.0925],[-76.90083333333334,43.0925],[-76.99666666666667,43.093611111111116],[-76.99666666666667,43.093611111111116],[-77.05972222222222,43.09444444444445],[-77.1563888888889,43.095555555555556],[-77.1563888888889,43.095555555555556],[-77.1563888888889,43.095555555555556],[-77.1563888888889,43.095555555555556],[-77.21805555555555,43.09638888888889],[-77.31416666666667,43.09722222222222],[-77.31416666666667,43.09722222222222],[-77.31416666666667,43.09722222222222],[-77.71722222222222,43.10055555555556],[-77.87166666666666,43.10138888888889],[-77.87166666666666,43.10138888888889],[-77.87166666666666,43.10138888888889],[-77.87166666666666,43.10138888888889],[-77.87166666666666,43.10138888888889],[-78.02972222222222,43.10194444444445],[-78.02972222222222,43.10194444444445],[-79.93166666666667,43.09055555555556],[-79.93166666666667,43.09055555555556],[-79.93166666666667,43.09055555555556],[-79.93166666666667,43.09055555555556],[-79.93166666666667,43.09055555555556],[-80.23722222222223,43.08527777777778],[-80.39111111111112,43.0825],[-80.39111111111112,43.0825],[-80.39111111111112,43.0825],[-80.39111111111112,43.0825],[-80.54194444444444,43.07944444444445],[-80.54194444444444,43.07944444444445],[-80.54194444444444,43.07944444444445],[-80.54194444444444,43.07944444444445],[-81.47472222222223,43.05583333333333],[-81.47472222222223,43.05583333333333],[-81.47472222222223,43.05583333333333],[-81.47472222222223,43.05583333333333],[-81.47472222222223,43.05583333333333],[-81.94500000000001,43.04111111111111],[-81.94500000000001,43.04111111111111],[-81.94500000000001,43.04111111111111],[-81.94500000000001,43.04111111111111],[-81.94500000000001,43.04111111111111],[-82.1036111111111,43.03583333333333],[-82.1036111111111,43.03583333333333],[-82.1036111111111,43.03583333333333],[-82.41555555555556,43.02444444444444],[-82.41555555555556,43.02444444444444],[-82.41555555555556,43.02444444444444],[-82.41555555555556,43.02444444444444],[-82.41555555555556,43.02444444444444],[-82.88527777777779,43.005833333333335],[-82.88527777777779,43.005833333333335],[-82.88527777777779,43.005833333333335],[-82.88527777777779,43.005833333333335],[-82.88527777777779,43.005833333333335],[-82.88527777777779,43.005833333333335],[-83.82055555555556,42.95527777777778],[-83.82055555555556,42.95527777777778],[-83.82055555555556,42.95527777777778],[-83.82055555555556,42.95527777777778],[-83.87138888888889,42.9475],[-83.87138888888889,42.9475],[-84.31722222222221,42.87555555555556],[-84.31722222222221,42.87555555555556],[-84.31722222222221,42.87555555555556],[-84.31722222222221,42.87555555555556],[-84.33777777777777,42.87222222222222],[-84.33777777777777,42.87222222222222],[-84.33777777777777,42.87222222222222],[-84.61416666666666,42.82694444444445],[-84.61416666666666,42.82694444444445],[-84.61416666666666,42.82694444444445],[-84.79805555555555,42.796388888888885],[-84.79805555555555,42.796388888888885],[-84.79805555555555,42.796388888888885],[-84.79805555555555,42.796388888888885],[-84.91972222222223,42.77611111111111],[-85.07055555555556,42.75055555555556],[-85.10416666666666,42.745],[-85.22472222222223,42.724444444444444],[-85.38111111111111,42.6975],[-85.38111111111111,42.6975],[-85.41111111111111,42.69222222222222],[-85.41111111111111,42.69222222222222],[-85.41111111111111,42.69222222222222],[-85.41111111111111,42.69222222222222],[-85.68805555555556,42.64388888888889],[-85.84027777777777,42.617222222222225],[-85.84027777777777,42.617222222222225],[-85.84027777777777,42.617222222222225],[-85.84027777777777,42.617222222222225],[-85.87333333333332,42.61138888888889],[-85.99333333333334,42.59],[-85.99333333333334,42.59],[-85.99333333333334,42.59],[-86.14888888888889,42.56194444444444],[-86.14888888888889,42.56194444444444],[-86.14888888888889,42.56194444444444],[-86.14888888888889,42.56194444444444],[-86.14888888888889,42.56194444444444],[-86.14888888888889,42.56194444444444],[-87.07666666666667,42.39083333333333],[-87.07666666666667,42.39083333333333],[-87.07666666666667,42.39083333333333],[-87.22694444444444,42.36222222222222],[-87.22694444444444,42.36222222222222],[-87.22694444444444,42.36222222222222],[-87.375,42.33388888888889],[-87.375,42.33388888888889],[-87.52583333333334,42.30472222222222],[-87.52583333333334,42.30472222222222],[-87.52583333333334,42.30472222222222],[-87.52583333333334,42.30472222222222],[-87.67444444444445,42.27583333333333],[-87.82055555555556,42.24722222222222],[-87.82055555555556,42.24722222222222],[-87.82055555555556,42.24722222222222],[-87.82055555555556,42.24722222222222],[-87.82055555555556,42.24722222222222],[-88.29305555555555,42.16166666666666],[-88.29305555555555,42.16166666666666],[-88.29305555555555,42.16166666666666],[-88.29305555555555,42.16166666666666],[-88.58972222222222,42.108333333333334],[-88.58972222222222,42.108333333333334],[-88.58972222222222,42.108333333333334],[-88.58972222222222,42.108333333333334],[-88.73805555555556,42.08166666666667],[-88.88583333333334,42.05472222222222],[-88.88583333333334,42.05472222222222],[-88.88583333333334,42.05472222222222],[-88.88583333333334,42.05472222222222],[-88.88583333333334,42.05472222222222],[-89.03388888888888,42.027499999999996],[-89.32916666666667,41.972500000000004],[-89.32916666666667,41.972500000000004],[-89.32916666666667,41.972500000000004],[-89.47611111111111,41.94499999999999],[-89.47611111111111,41.94499999999999],[-89.47611111111111,41.94499999999999],[-89.47611111111111,41.94499999999999],[-89.54194444444444,41.93111111111111],[-89.54194444444444,41.93111111111111],[-89.54194444444444,41.93111111111111],[-89.62277777777777,41.91722222222222],[-89.62277777777777,41.91722222222222],[-89.62277777777777,41.91722222222222],[-89.69972222222222,41.901666666666664],[-89.99083333333333,41.85111111111111],[-89.99083333333333,41.85111111111111],[-90.04888888888888,41.84861111111111],[-90.04888888888888,41.84861111111111],[-90.13694444444445,41.840833333333336],[-90.13694444444445,41.840833333333336],[-90.19416666666667,41.837500000000006],[-90.28138888888888,41.82944444444445],[-90.28138888888888,41.82944444444445],[-90.28138888888888,41.82944444444445],[-90.33749999999999,41.82638888888889],[-90.42611111111111,41.81805555555556],[-90.48277777777778,41.815],[-90.48277777777778,41.815],[-90.7125,41.796388888888885],[-90.7125,41.796388888888885],[-90.7125,41.796388888888885],[-90.7125,41.796388888888885],[-90.85499999999999,41.784166666666664],[-90.85499999999999,41.784166666666664],[-90.91277777777778,41.77916666666667],[-90.91277777777778,41.77916666666667],[-90.99916666666667,41.77194444444444],[-90.99916666666667,41.77194444444444],[-91.05555555555556,41.76722222222222],[-91.05555555555556,41.76722222222222],[-91.14194444444445,41.75972222222222],[-91.14194444444445,41.75972222222222],[-91.42555555555556,41.734722222222224],[-91.42555555555556,41.734722222222224],[-91.42555555555556,41.734722222222224],[-91.48305555555555,41.72944444444445],[-91.6236111111111,41.716944444444444],[-91.6236111111111,41.716944444444444],[-91.6236111111111,41.716944444444444],[-91.76638888888888,41.703611111111115],[-91.76638888888888,41.703611111111115],[-91.76638888888888,41.703611111111115],[-92.04916666666666,41.67638888888889],[-92.04916666666666,41.67638888888889],[-92.04916666666666,41.67638888888889],[-92.04916666666666,41.67638888888889],[-92.19,41.66277777777778],[-92.43388888888889,41.638333333333335],[-92.43388888888889,41.638333333333335],[-92.43388888888889,41.638333333333335],[-92.47555555555556,41.634166666666665],[-92.47555555555556,41.634166666666665],[-92.47555555555556,41.634166666666665],[-92.61916666666666,41.61972222222222],[-92.61916666666666,41.61972222222222],[-92.77333333333333,41.60388888888889],[-92.77333333333333,41.60388888888889],[-92.85777777777777,41.595],[-92.91527777777779,41.58888888888889],[-92.91527777777779,41.58888888888889],[-92.91527777777779,41.58888888888889],[-93,41.580000000000005],[-93.14305555555556,41.565],[-93.14305555555556,41.565],[-93.2,41.558611111111105],[-93.2,41.558611111111105],[-93.28472222222221,41.54972222222222],[-93.28472222222221,41.54972222222222],[-93.28472222222221,41.54972222222222],[-93.34194444444444,41.54333333333333],[-93.34194444444444,41.54333333333333],[-93.57083333333333,41.51833333333333],[-93.57083333333333,41.51833333333333],[-93.57083333333333,41.51833333333333],[-93.71194444444444,41.5025],[-93.71194444444444,41.5025],[-93.91166666666668,41.480000000000004],[-94.05333333333333,41.46388888888889],[-94.05333333333333,41.46388888888889],[-94.05333333333333,41.46388888888889],[-94.20111111111112,41.446666666666665],[-94.20111111111112,41.446666666666665],[-94.20111111111112,41.446666666666665],[-94.20111111111112,41.446666666666665],[-94.34305555555555,41.43],[-94.42472222222223,41.42027777777778],[-94.56722222222221,41.40333333333333],[-94.71000000000001,41.38611111111111],[-94.71000000000001,41.38611111111111],[-94.71000000000001,41.38611111111111],[-94.71000000000001,41.38611111111111],[-94.71000000000001,41.38611111111111],[-94.71000000000001,41.38611111111111],[-95.27194444444444,41.31666666666667],[-95.27194444444444,41.31666666666667],[-95.27194444444444,41.31666666666667],[-95.27194444444444,41.31666666666667],[-95.27194444444444,41.31666666666667],[-95.27194444444444,41.31666666666667],[-95.69166666666668,41.26277777777778],[-95.69166666666668,41.26277777777778],[-95.83333333333333,41.244166666666665],[-95.83333333333333,41.244166666666665],[-95.83333333333333,41.244166666666665],[-95.83333333333333,41.244166666666665],[-96.84138888888889,41.106944444444444],[-96.84138888888889,41.106944444444444],[-96.84138888888889,41.106944444444444],[-96.84138888888889,41.106944444444444],[-96.84138888888889,41.106944444444444],[-96.84138888888889,41.106944444444444],[-97.12583333333333,41.06666666666667],[-97.12583333333333,41.06666666666667],[-97.12583333333333,41.06666666666667],[-97.12583333333333,41.06666666666667],[-97.26777777777778,41.04611111111111],[-97.26777777777778,41.04611111111111],[-97.39944444444446,41.026944444444446],[-97.39944444444446,41.026944444444446],[-97.68777777777778,40.98444444444444],[-97.68777777777778,40.98444444444444],[-97.68777777777778,40.98444444444444],[-97.82888888888888,40.96333333333334],[-97.82888888888888,40.96333333333334],[-97.82888888888888,40.96333333333334],[-97.82888888888888,40.96333333333334],[-98.55472222222222,40.852222222222224],[-98.55472222222222,40.852222222222224],[-98.55472222222222,40.852222222222224],[-98.55472222222222,40.852222222222224],[-98.69666666666667,40.82972222222222],[-98.69666666666667,40.82972222222222],[-98.83777777777777,40.80722222222222],[-98.83777777777777,40.80722222222222],[-98.83777777777777,40.80722222222222],[-98.83777777777777,40.80722222222222],[-98.83777777777777,40.80722222222222],[-99.26138888888889,40.73888888888889],[-99.26138888888889,40.73888888888889],[-99.26138888888889,40.73888888888889],[-99.26138888888889,40.73888888888889],[-99.54444444444444,40.69222222222222],[-99.54444444444444,40.69222222222222],[-99.54444444444444,40.69222222222222],[-99.54444444444444,40.69222222222222],[-99.54444444444444,40.69222222222222],[-99.8286111111111,40.64472222222222],[-99.8286111111111,40.64472222222222],[-99.8286111111111,40.64472222222222],[-99.8286111111111,40.64472222222222],[-99.8286111111111,40.64472222222222],[-99.96138888888889,40.62222222222222],[-99.96138888888889,40.62222222222222],[-99.96138888888889,40.62222222222222],[-100.525,40.52472222222222],[-100.525,40.52472222222222],[-100.525,40.52472222222222],[-100.66638888888889,40.499722222222225],[-100.66638888888889,40.499722222222225],[-100.80472222222222,40.47527777777778],[-100.80472222222222,40.47527777777778],[-100.80472222222222,40.47527777777778],[-100.80472222222222,40.47527777777778],[-100.80472222222222,40.47527777777778],[-101.36833333333333,40.41166666666666],[-101.36833333333333,40.41166666666666],[-101.36833333333333,40.41166666666666],[-101.64972222222222,40.38388888888889],[-101.64972222222222,40.38388888888889],[-101.79055555555556,40.36972222222222],[-101.79055555555556,40.36972222222222],[-101.79055555555556,40.36972222222222],[-101.84472222222222,40.363055555555555],[-101.84472222222222,40.363055555555555],[-102.26944444444445,40.318333333333335],[-102.26944444444445,40.318333333333335],[-102.26944444444445,40.318333333333335],[-102.41000000000001,40.30416666666667],[-102.41000000000001,40.30416666666667],[-102.5525,40.28861111111111],[-102.5525,40.28861111111111],[-102.63777777777779,40.280833333333334],[-102.69277777777778,40.27388888888889],[-102.69277777777778,40.27388888888889],[-102.69277777777778,40.27388888888889],[-102.69277777777778,40.27388888888889],[-102.78138888888888,40.265],[-102.97555555555556,40.242222222222225],[-102.97555555555556,40.242222222222225],[-103.06305555555555,40.23361111111111],[-103.06305555555555,40.23361111111111],[-103.20222222222222,40.21805555555556],[-103.20222222222222,40.21805555555556],[-103.33999999999999,40.202222222222225],[-103.33999999999999,40.202222222222225],[-103.33999999999999,40.202222222222225],[-103.33999999999999,40.202222222222225],[-103.33999999999999,40.202222222222225],[-103.33999999999999,40.202222222222225],[-103.48027777777779,40.18583333333333],[-103.61805555555554,40.16972222222222],[-103.67555555555556,40.161944444444444],[-103.67555555555556,40.161944444444444],[-103.67555555555556,40.161944444444444],[-103.94944444444445,40.12972222222222],[-103.94944444444445,40.12972222222222],[-103.94944444444445,40.12972222222222],[-103.94944444444445,40.12972222222222],[-104.16583333333334,40.10416666666667],[-104.16583333333334,40.10416666666667],[-104.16583333333334,40.10416666666667],[-104.16583333333334,40.10416666666667],[-104.22638888888889,40.096111111111114],[-104.22638888888889,40.096111111111114],[-104.43972222222223,40.07027777777778],[-104.43972222222223,40.07027777777778],[-104.5786111111111,40.05277777777778],[-104.5786111111111,40.05277777777778],[-104.5786111111111,40.05277777777778],[-104.63777777777779,40.04527777777778],[-104.63777777777779,40.04527777777778],[-104.63777777777779,40.04527777777778],[-104.63777777777779,40.04527777777778],[-104.77555555555556,40.028055555555554],[-104.77555555555556,40.028055555555554],[-104.91111111111111,40.00888888888889],[-105.05638888888889,39.99444444444445],[-105.05638888888889,39.99444444444445],[-105.05638888888889,39.99444444444445],[-105.27277777777778,39.974444444444444],[-105.33888888888889,39.9675],[-105.33888888888889,39.9675],[-105.48138888888889,39.95166666666667],[-105.48138888888889,39.95166666666667],[-105.48138888888889,39.95166666666667],[-105.62416666666665,39.93833333333333],[-105.62416666666665,39.93833333333333],[-105.62416666666665,39.93833333333333],[-105.76333333333334,39.92333333333333],[-105.83583333333333,39.91694444444444],[-105.83583333333333,39.91694444444444],[-105.83583333333333,39.91694444444444],[-105.90138888888889,39.90861111111111],[-105.90138888888889,39.90861111111111],[-105.97222222222223,39.902499999999996],[-105.97222222222223,39.902499999999996],[-106.03694444444444,39.89527777777778],[-106.10583333333332,39.88805555555555],[-106.10583333333332,39.88805555555555],[-106.10583333333332,39.88805555555555],[-106.30749999999999,39.86611111111111],[-106.30749999999999,39.86611111111111],[-106.30749999999999,39.86611111111111],[-106.30749999999999,39.86611111111111],[-106.44333333333334,39.850833333333334],[-106.71138888888889,39.82055555555556],[-106.71138888888889,39.82055555555556],[-106.77277777777778,39.81472222222222],[-106.77277777777778,39.81472222222222],[-106.90861111111111,39.799166666666665],[-107.33361111111111,39.75],[-107.33361111111111,39.75],[-107.33361111111111,39.75],[-107.33361111111111,39.75],[-107.46666666666667,39.73416666666667],[-107.57777777777777,39.72083333333334],[-107.71611111111112,39.70388888888889],[-107.78777777777778,39.69416666666666],[-107.78777777777778,39.69416666666666],[-107.78777777777778,39.69416666666666],[-107.78777777777778,39.69416666666666],[-108.0586111111111,39.66166666666666],[-108.0586111111111,39.66166666666666],[-108.1211111111111,39.653888888888886],[-108.19305555555556,39.644999999999996],[-108.19305555555556,39.644999999999996],[-108.59916666666666,39.59305555555556],[-108.73972222222223,39.57472222222223],[-108.73972222222223,39.57472222222223],[-108.73972222222223,39.57472222222223],[-108.73972222222223,39.57472222222223],[-109.07249999999999,39.53055555555555],[-109.28916666666666,39.50138888888889],[-109.4775,39.47555555555556],[-109.56083333333333,39.46416666666667],[-109.61361111111111,39.45666666666667],[-109.61361111111111,39.45666666666667],[-109.69611111111111,39.445277777777775],[-109.96694444444445,39.40694444444444],[-109.96694444444445,39.40694444444444],[-110.02111111111111,39.39944444444444],[-110.02111111111111,39.39944444444444],[-110.15416666666667,39.38027777777778],[-110.42361111111111,39.34111111111111],[-110.50444444444445,39.32944444444445],[-110.91055555555556,39.26888888888889],[-110.91055555555556,39.26888888888889],[-110.91055555555556,39.26888888888889],[-110.91055555555556,39.26888888888889],[-110.91055555555556,39.26888888888889],[-111.83,39.126111111111115],[-111.83,39.126111111111115],[-111.83,39.126111111111115],[-112.09888888888888,39.08305555555556],[-112.09888888888888,39.08305555555556],[-112.09888888888888,39.08305555555556],[-112.09888888888888,39.08305555555556],[-112.36694444444444,39.03916666666667],[-112.36694444444444,39.03916666666667],[-112.63305555555554,38.99527777777778],[-112.63305555555554,38.99527777777778],[-112.79472222222222,38.96805555555556],[-112.79472222222222,38.96805555555556],[-112.79472222222222,38.96805555555556],[-114.14055555555557,38.733333333333334],[-114.14055555555557,38.733333333333334],[-114.14055555555557,38.733333333333334],[-114.14055555555557,38.733333333333334],[-114.14055555555557,38.733333333333334],[-114.40972222222223,38.69083333333333],[-114.54388888888889,38.66861111111111],[-114.54388888888889,38.66861111111111],[-114.54388888888889,38.66861111111111],[-114.81833333333333,38.62361111111111],[-114.81833333333333,38.62361111111111],[-114.81833333333333,38.62361111111111],[-114.95166666666667,38.60138888888889],[-114.95166666666667,38.60138888888889],[-115.08555555555554,38.57888888888889],[-115.08555555555554,38.57888888888889],[-115.08555555555554,38.57888888888889],[-115.49305555555556,38.52166666666667],[-115.49305555555556,38.52166666666667],[-115.49305555555556,38.52166666666667],[-115.62138888888889,38.49027777777778],[-115.62138888888889,38.49027777777778],[-115.62138888888889,38.49027777777778],[-116.01638888888888,38.418055555555554],[-116.01638888888888,38.418055555555554],[-116.01638888888888,38.418055555555554],[-116.14722222222223,38.394999999999996],[-116.14722222222223,38.394999999999996],[-116.14722222222223,38.394999999999996],[-116.14722222222223,38.394999999999996],[-116.7961111111111,38.27722222222222],[-116.7961111111111,38.27722222222222],[-116.7961111111111,38.27722222222222],[-116.7961111111111,38.27722222222222],[-117.05333333333333,38.22944444444445],[-117.05333333333333,38.22944444444445],[-117.05333333333333,38.22944444444445],[-117.17027777777778,38.2075],[-117.32527777777777,38.17833333333333],[-117.32527777777777,38.17833333333333],[-117.32527777777777,38.17833333333333],[-117.32527777777777,38.17833333333333],[-117.32527777777777,38.17833333333333],[-117.8386111111111,38.07972222222222],[-117.8386111111111,38.07972222222222],[-117.8386111111111,38.07972222222222],[-117.8386111111111,38.07972222222222],[-118.095,38.029444444444444],[-118.095,38.029444444444444],[-118.095,38.029444444444444],[-118.095,38.029444444444444],[-118.98972222222223,37.87],[-118.98972222222223,37.87],[-119.11888888888888,37.85527777777778],[-119.11888888888888,37.85527777777778],[-119.24861111111112,37.84],[-119.24861111111112,37.84],[-120.01027777777777,37.74861111111111],[-120.01027777777777,37.74861111111111],[-120.01027777777777,37.74861111111111],[-120.45,37.7],[-120.45,37.7],[-120.4961111111111,37.68861111111111],[-120.71444444444445,37.66277777777778],[-120.78333333333333,37.65],[-120.78333333333333,37.65],[-120.92222222222223,37.63777777777778],[-121.03472222222221,37.64722222222222],[-121.23333333333333,37.68333333333333],[-121.26583333333333,37.690555555555555],[-121.26583333333333,37.690555555555555],[-121.4675,37.727222222222224],[-121.4675,37.727222222222224],[-121.8,37.78333333333333],[-121.92166666666667,37.80916666666666],[-121.92166666666667,37.80916666666666],[-122.15777777777778,37.85138888888889],[-122.2,37.86666666666667],[-122.22833333333334,37.863055555555555],[-122.22833333333334,37.863055555555555],[-122.25,37.8],[-122.31027777777777,37.713055555555556],[-122.35,37.666666666666664],[-122.35,37.666666666666664]],"type":"LineString"}
}
