{
  "id": 2014822823,
  "type": "Feature",
  "properties": {
    "geom:area": 0,
    "geom:bbox": "-122.903630,37.450010,-122.244510,38.496830",
    "geom:latitude": 37.84374138776141,
    "geom:longitude": -122.59555158405293,
    "src:alt_label": "swim-approach",
    "src:geom": "swim",
    "swim:elevations": [
      6511,
      6344,
      6149,
      5954,
      5495,
      5018,
      4721,
      4433,
      4327,
      3891,
      3770,
      3423,
      3385,
      3353,
      3353,
      3353,
      3300,
      3230,
      3200,
      3139,
      3076,
      3012,
      2860,
      2586,
      2531,
      2461,
      2438,
      2360,
      2256,
      2141,
      2077,
      1950,
      1892,
      1829,
      1829,
      1829,
      1829,
      1829,
      1829,
      1829,
      1829,
      1829,
      1829,
      1615,
      1537,
      1349,
      1225,
      1156,
      1081,
      1006,
      916,
      903,
      789,
      586,
      455,
      392,
      258,
      157,
      135
    ],
    "swim:geom": "approach",
    "swim:timestamps": [
      1771454208,
      1771454226,
      1771454247,
      1771454268,
      1771454314,
      1771454365,
      1771454396,
      1771454426,
      1771454439,
      1771454486,
      1771454499,
      1771454544,
      1771454555,
      1771454591,
      1771454615,
      1771454630,
      1771454660,
      1771454690,
      1771454705,
      1771454747,
      1771454784,
      1771454797,
      1771454824,
      1771454878,
      1771454887,
      1771454914,
      1771454961,
      1771454991,
      1771455021,
      1771455051,
      1771455070,
      1771455113,
      1771455139,
      1771455172,
      1771455191,
      1771455231,
      1771455254,
      1771455281,
      1771455315,
      1771455354,
      1771455360,
      1771455388,
      1771455391,
      1771455445,
      1771455462,
      1771455506,
      1771455524,
      1771455545,
      1771455565,
      1771455592,
      1771455621,
      1771455651,
      1771455672,
      1771455716,
      1771455746,
      1771455764,
      1771455797,
      1771455823,
      1771455863
    ],
    "wof:geomhash": "1ebffcc6e7741bcf1ba48dfc2ea4d2cb",
    "wof:id": 2014822823,
    "wof:repo": "sfomuseum-data-flights-2026-02"
  },
  "bbox": [
    -122.90363,
    37.45001,
    -122.24451,
    38.49683
  ],
  "geometry": {"coordinates":[[-122.90363,38.49683],[-122.8878,38.46546],[-122.86984,38.42933],[-122.85179,38.39377],[-122.81357,38.31748],[-122.77237,38.23418],[-122.75554,38.18291],[-122.74171,38.13475],[-122.73564,38.11377],[-122.7135,38.03803],[-122.70744,38.01707],[-122.68688,37.94589],[-122.68187,37.92909],[-122.67726,37.87735],[-122.68353,37.84494],[-122.6875,37.82481],[-122.6953,37.78493],[-122.7026,37.74731],[-122.70621,37.72951],[-122.71532,37.68196],[-122.7226,37.64114],[-122.72011,37.62619],[-122.71259,37.59565],[-122.69842,37.53542],[-122.69624,37.52555],[-122.68964,37.49706],[-122.64896,37.46181],[-122.60711,37.45516],[-122.56396,37.45001],[-122.5329,37.47025],[-122.52525,37.49003],[-122.50782,37.53361],[-122.49788,37.55902],[-122.48534,37.59076],[-122.47816,37.60816],[-122.46171,37.64689],[-122.45252,37.66861],[-122.44164,37.69415],[-122.4288,37.72636],[-122.41399,37.76285],[-122.41181,37.7686],[-122.40059,37.79543],[-122.39935,37.79827],[-122.357,37.83822],[-122.33902,37.84839],[-122.2899,37.84509],[-122.27054,37.83999],[-122.25225,37.82945],[-122.24451,37.81503],[-122.25496,37.7959],[-122.26796,37.77625],[-122.28189,37.75566],[-122.29167,37.74107],[-122.3114,37.71123],[-122.32392,37.69246],[-122.3307,37.68236],[-122.34301,37.66371],[-122.35307,37.64863],[-122.36796,37.62563]],"type":"LineString"}
}
