{
  "id": 2014811699,
  "type": "Feature",
  "properties": {
    "geom:area": 0,
    "geom:bbox": "-122.380000,10.000000,-84.220000,37.620000",
    "geom:latitude": 24.289546728077195,
    "geom:longitude": -102.97237422319975,
    "src:alt_label": "swim-route",
    "src:geom": "swim",
    "swim:geom": "route",
    "wof:geomhash": "4d2110c890971bdb6b7b8bac37b52316",
    "wof:id": 2014811699,
    "wof:repo": "sfomuseum-data-flights-2026-02"
  },
  "bbox": [
    -122.38,
    10,
    -84.22,
    37.62
  ],
  "geometry": {"coordinates":[[-122.38,37.62],[-122.36,37.61],[-122.34,37.61],[-122.34,37.6],[-122.26,37.57],[-122.24,37.57],[-122.2,37.53],[-122.2,37.53],[-122.18,37.51],[-122.15,37.49],[-122.13,37.48],[-122.11,37.46],[-122,37.38],[-121.97,37.36],[-121.81,37.25],[-121.77,37.22],[-121.76,37.21],[-121.7,37.17],[-121.59,37.09],[-121.57,37.07],[-121.51,37.03],[-121.39,36.94],[-121.33,36.9],[-121.21,36.8],[-121.2,36.8],[-121.12,36.79],[-121.02,36.77],[-120.88,36.75],[-120.83,36.74],[-120.79,36.73],[-120.67,36.64],[-120.64,36.61],[-119.78,35.89],[-119.53,35.71],[-119.49,35.64],[-118.75,35.03],[-118.36,34.68],[-118.06,34.39],[-117.71,34.08],[-117.53,33.92],[-117.17,33.62],[-116.84,33.35],[-116.59,33.14],[-115.68,32.67],[-115.65,32.65],[-115.62,32.63],[-115.33,32.45],[-115,32.24],[-114.58,32.02],[-113.94,31.7],[-113.72,31.59],[-113.48,31.47],[-113.3,31.37],[-112.88,31.14],[-112.46,30.91],[-111.35,30.32],[-111.01,30.11],[-110.79,30],[-110.58,29.88],[-110.43,29.79],[-109.95,29.52],[-109.15,29.07],[-108.5,28.68],[-107.64,28.16],[-107.13,27.85],[-107,27.77],[-106.47,27.43],[-106.07,27.18],[-104.87,26.42],[-103.08,25.25],[-103.06,25.23],[-102.68,24.98],[-102.47,24.83],[-102.27,24.7],[-101.49,24.16],[-100.97,23.73],[-100.65,23.49],[-100.65,23.48],[-100.33,23.23],[-100.17,23.09],[-99.51,22.55],[-99.15,22.25],[-99.02,22.14],[-98.47,21.68],[-97.59,20.92],[-97.18,20.58],[-96.88,20.31],[-96.75,20.19],[-96.49,20],[-95.92,19.58],[-95.15,19],[-91.38,16.08],[-88.39,13.32],[-86.13,11.16],[-85.94,10.97],[-85.88,10.92],[-85.77,10.81],[-85.66,10.71],[-85.55,10.59],[-85.43,10.54],[-84.96,10.33],[-84.8,10.26],[-84.6,10.17],[-84.45,10.1],[-84.4,10.08],[-84.37,10.07],[-84.29,10.03],[-84.22,10]],"type":"LineString"}
}
