{
  "id": 2014844701,
  "type": "Feature",
  "properties": {
    "geom:area": 0,
    "geom:bbox": "-122.470000,29.980000,-95.340000,37.680000",
    "geom:latitude": 33.04503507845422,
    "geom:longitude": -109.27737125908484,
    "src:alt_label": "swim-route",
    "src:geom": "swim",
    "swim:geom": "route",
    "wof:geomhash": "dd5c0bc0a6d7376fd531f12ffd7c0873",
    "wof:id": 2014844701,
    "wof:repo": "sfomuseum-data-flights-2026-02"
  },
  "bbox": [
    -122.47,
    29.98,
    -95.34,
    37.68
  ],
  "geometry": {"coordinates":[[-122.38,37.62],[-122.36,37.68],[-122.38,37.64],[-122.39,37.64],[-122.42,37.58],[-122.42,37.57],[-122.44,37.55],[-122.47,37.5],[-122.47,37.49],[-122.47,37.49],[-122.43,37.46],[-122.33,37.4],[-122.17,37.29],[-122.14,37.27],[-122.1,37.25],[-122.04,37.21],[-121.91,37.13],[-121.9,37.12],[-121.82,37.07],[-121.71,36.99],[-121.65,36.95],[-121.63,36.94],[-121.53,36.88],[-121.48,36.84],[-121.41,36.79],[-121.27,36.7],[-121.1,36.59],[-121.05,36.53],[-120.98,36.44],[-120.91,36.4],[-120.81,36.33],[-120.33,35.99],[-120.02,35.79],[-120,35.77],[-119.9,35.7],[-119.39,35.41],[-119.2,35.3],[-118.18,34.7],[-118.06,34.63],[-117.96,34.6],[-117.78,34.55],[-117.21,34.38],[-116.67,34.21],[-116.11,34.03],[-116,34],[-115.77,33.94],[-115.59,33.9],[-115.59,33.9],[-115.06,33.77],[-114.04,33.51],[-114,33.5],[-113.45,33.42],[-112.91,33.33],[-111.82,33.16],[-111.38,33.09],[-110.5,32.95],[-109.44,32.76],[-108.37,32.57],[-107.97,32.49],[-106.9,32.28],[-106.22,32.2],[-105.74,32.15],[-105.71,32.14],[-103.62,31.86],[-103.59,31.86],[-101.3,31.45],[-99.98,31.2],[-98.84,30.96],[-97.94,30.84],[-97.84,30.82],[-97.67,30.8],[-97.26,30.74],[-97.21,30.73],[-97.12,30.71],[-97.05,30.7],[-97.01,30.7],[-96.99,30.7],[-96.9,30.68],[-96.71,30.65],[-96.54,30.62],[-96.42,30.61],[-96.27,30.51],[-96.26,30.51],[-96.15,30.43],[-96.06,30.37],[-96.05,30.37],[-96.04,30.36],[-95.98,30.21],[-95.96,30.14],[-95.95,30.14],[-95.8,30.1],[-95.61,30.05],[-95.55,30.04],[-95.52,30.03],[-95.43,30.01],[-95.34,29.98]],"type":"LineString"}
}
