{
  "id": 2014823301,
  "type": "Feature",
  "properties": {
    "geom:area": 0,
    "geom:bbox": "-178.770000,21.990000,180.000000,48.100000",
    "geom:latitude": 45.10547483299046,
    "geom:longitude": 3.8854435339916193,
    "src:alt_label": "swim-route",
    "src:geom": "swim",
    "swim:geom": "route",
    "wof:geomhash": "b9468b1b93b8f2f74263670763502aa2",
    "wof:id": 2014823301,
    "wof:repo": "sfomuseum-data-flights-2026-02"
  },
  "bbox": [
    -178.77,
    21.99,
    180,
    48.1
  ],
  "geometry": {"coordinates":[[[114.2,22.32],[114.33,22.31],[114.42,22.3],[114.53,22.29],[114.65,22.28],[114.83,22.26],[115.18,22.23],[115.41,22.21],[115.68,22.18],[115.84,22.16],[115.85,22.16],[115.92,22.16],[116.07,22.14],[116.39,22.11],[116.82,22.06],[117.16,22.03],[117.5,21.99],[118,22.28],[118.22,22.4],[118.51,22.57],[119.59,23.18],[119.91,23.35],[120.52,23.94],[121.02,24.41],[121.69,24.9],[121.99,25.13],[122.48,25.51],[123,25.91],[124,26.66],[125,27.4],[127.97,29.53],[128.67,30.01],[129.42,30.51],[129.92,30.84],[131.3,31.57],[132.4,32.12],[133.41,32.65],[133.63,32.71],[135,33.05],[135.2,33.1],[135.9,33.21],[137.23,33.43],[137.37,33.45],[138.25,33.74],[139.5,34.12],[141.53,34.54],[145.32,35.21],[146,35.32],[146.99,35.5],[150,36],[160,40],[165,42.17],[170,44],[180,47]],[[-178.77,47.17],[-170,48],[-168.75,48.05],[-166.93,48.1],[-160,48],[-150,47],[-148.69,46.67],[-145.8,45.88],[-143.16,45.08],[-142.1,44.73],[-140,44],[-136.87,42.89],[-132.87,41.29],[-132.14,40.97],[-131.42,40.65],[-130,40],[-129.24,39.62],[-128.67,39.34],[-127,38.47],[-126.99,38.46],[-125.5,38],[-125.06,37.88],[-124.67,37.77],[-124.61,37.76],[-124.22,37.65],[-124.15,37.63],[-123.84,37.54],[-123.79,37.53],[-123.58,37.47],[-123.53,37.45],[-123.33,37.39],[-122.96,37.28],[-122.86,37.26],[-122.84,37.26],[-122.84,37.26],[-122.76,37.28],[-122.71,37.29],[-122.63,37.31],[-122.5,37.34],[-122.44,37.36],[-122.29,37.39],[-122.28,37.39],[-122.31,37.46],[-122.34,37.54],[-122.37,37.6],[-122.37,37.61],[-122.38,37.62]]],"type":"MultiLineString"}
}
