{
  "id": 2014895143,
  "type": "Feature",
  "properties": {
    "geom:area": 0,
    "geom:bbox": "-156.450000,20.800000,-122.400000,37.662500",
    "geom:latitude": 30.322659716458347,
    "geom:longitude": -140.25539858179812,
    "src:alt_label": "swim-path",
    "src:geom": "swim",
    "swim:altitudes": [
      "006",
      "006",
      "006",
      "050",
      "050",
      "050",
      "074",
      "074",
      "074",
      "074",
      "074",
      "112",
      "112",
      "112",
      "133",
      "133",
      "133",
      "133",
      "133",
      "225",
      "225",
      "225",
      "225",
      "225",
      "225",
      "225",
      "240",
      "251",
      "251",
      "251",
      "264",
      "264",
      "264",
      "264",
      "264",
      "284",
      "284",
      "284",
      "284",
      "284",
      "313",
      "313",
      "313",
      "313",
      "313",
      "313",
      "320C",
      "320C",
      "320C",
      "320C",
      "320C",
      "320C",
      "320C",
      "320C",
      "320C",
      "320C",
      "320C",
      "320C",
      "320C",
      "320C",
      "320C",
      "320C",
      "320C",
      "320C",
      "320C",
      "320C",
      "320C",
      "320C",
      "320C",
      "320C",
      "320C",
      "320",
      "320",
      "320C",
      "320C",
      "320C",
      "320",
      "320",
      "320",
      "320",
      "320",
      "320C",
      "320C",
      "320",
      "320",
      "320",
      "320",
      "320",
      "320",
      "320",
      "320",
      "320",
      "320",
      "320",
      "320",
      "320",
      "320",
      "320",
      "320",
      "320",
      "320",
      "320",
      "320",
      "320",
      "320",
      "320",
      "320",
      "320",
      "319T",
      "319T",
      "319T",
      "309T",
      "309T",
      "309T",
      "309T",
      "309T",
      "290T",
      "290T",
      "290T",
      "279T",
      "279T",
      "279T",
      "279T",
      "269T",
      "248T",
      "248T",
      "248T",
      "235T",
      "235T",
      "235T",
      "235T",
      "131T",
      "131T",
      "131T",
      "131T",
      "119T",
      "119T",
      "119T",
      "119T",
      "090T",
      "090T",
      "090T",
      "090T",
      "069T",
      "069T",
      "069T",
      "069T",
      "051T",
      "051T",
      "051T",
      "051T",
      "051T",
      "042T",
      "042T",
      "042T",
      "032T",
      "032T",
      "032T",
      "032T",
      "007T",
      "007T",
      "007T"
    ],
    "swim:geom": "path",
    "swim:speeds": [
      183,
      183,
      183,
      261,
      261,
      261,
      263,
      263,
      263,
      263,
      263,
      314,
      314,
      314,
      334,
      334,
      334,
      334,
      334,
      372,
      372,
      372,
      372,
      372,
      372,
      372,
      372,
      377,
      377,
      377,
      382,
      382,
      382,
      382,
      382,
      394,
      394,
      394,
      394,
      394,
      401,
      401,
      401,
      401,
      401,
      401,
      400,
      400,
      399,
      399,
      399,
      399,
      399,
      399,
      399,
      399,
      400,
      400,
      400,
      400,
      400,
      400,
      400,
      400,
      400,
      400,
      400,
      400,
      400,
      400,
      400,
      400,
      400,
      402,
      402,
      402,
      400,
      400,
      400,
      400,
      400,
      403,
      403,
      470,
      470,
      470,
      470,
      470,
      470,
      470,
      470,
      470,
      470,
      470,
      500,
      500,
      500,
      500,
      500,
      510,
      510,
      510,
      510,
      510,
      510,
      510,
      500,
      500,
      500,
      500,
      500,
      500,
      500,
      500,
      500,
      500,
      500,
      500,
      500,
      500,
      500,
      500,
      500,
      490,
      460,
      460,
      460,
      430,
      430,
      430,
      430,
      350,
      350,
      350,
      350,
      310,
      310,
      310,
      310,
      300,
      300,
      300,
      300,
      260,
      260,
      260,
      260,
      220,
      220,
      220,
      220,
      220,
      200,
      200,
      200,
      190,
      190,
      190,
      190,
      160,
      160,
      160
    ],
    "swim:timestamps": [
      1772126965,
      1772126965,
      1772126965,
      1772127101,
      1772127101,
      1772127101,
      1772127161,
      1772127161,
      1772127161,
      1772127161,
      1772127161,
      1772127281,
      1772127281,
      1772127281,
      1772127341,
      1772127341,
      1772127341,
      1772127341,
      1772127341,
      1772127642,
      1772127642,
      1772127642,
      1772127642,
      1772127642,
      1772127642,
      1772127642,
      1772127702,
      1772127762,
      1772127762,
      1772127762,
      1772127822,
      1772127822,
      1772127822,
      1772127822,
      1772127822,
      1772127942,
      1772127942,
      1772127942,
      1772127942,
      1772127942,
      1772128122,
      1772128122,
      1772128122,
      1772128122,
      1772128122,
      1772128122,
      1772128182,
      1772128182,
      1772128302,
      1772128302,
      1772128363,
      1772128363,
      1772128363,
      1772128363,
      1772128363,
      1772128363,
      1772128483,
      1772128483,
      1772128483,
      1772128483,
      1772128483,
      1772128483,
      1772128483,
      1772128723,
      1772128723,
      1772128723,
      1772128723,
      1772128723,
      1772128843,
      1772128843,
      1772128843,
      1772128942,
      1772128942,
      1772128963,
      1772128963,
      1772128963,
      1772129002,
      1772129002,
      1772129002,
      1772129002,
      1772129002,
      1772129023,
      1772129023,
      1772142661,
      1772142661,
      1772142661,
      1772142661,
      1772142721,
      1772142721,
      1772142721,
      1772142781,
      1772142781,
      1772142781,
      1772142781,
      1772143022,
      1772143022,
      1772143022,
      1772143082,
      1772143082,
      1772143142,
      1772143142,
      1772143142,
      1772143202,
      1772143202,
      1772143202,
      1772143202,
      1772143262,
      1772143262,
      1772143383,
      1772143383,
      1772143383,
      1772143443,
      1772143443,
      1772143443,
      1772143443,
      1772143443,
      1772143563,
      1772143563,
      1772143563,
      1772143623,
      1772143623,
      1772143623,
      1772143623,
      1772143684,
      1772143804,
      1772143804,
      1772143804,
      1772143864,
      1772143864,
      1772143864,
      1772143864,
      1772144225,
      1772144225,
      1772144225,
      1772144225,
      1772144285,
      1772144285,
      1772144285,
      1772144285,
      1772144405,
      1772144405,
      1772144405,
      1772144405,
      1772144526,
      1772144526,
      1772144526,
      1772144526,
      1772144647,
      1772144647,
      1772144706,
      1772144706,
      1772144706,
      1772144767,
      1772144767,
      1772144767,
      1772144827,
      1772144827,
      1772144827,
      1772144827,
      1772145007,
      1772145007,
      1772145007
    ],
    "wof:geomhash": "9d6d592447985c89ea62f6de01d0c764",
    "wof:id": 2014895143,
    "wof:repo": "sfomuseum-data-flights-2026-02"
  },
  "bbox": [
    -156.45,
    20.8,
    -122.4,
    37.6625
  ],
  "geometry": {"coordinates":[[-122.4,37.63333333333333],[-122.4,37.63333333333333],[-122.4,37.63333333333333],[-122.55166666666666,37.6625],[-122.55166666666666,37.6625],[-122.55166666666666,37.6625],[-122.62222222222222,37.64388888888889],[-122.62222222222222,37.64388888888889],[-122.62222222222222,37.64388888888889],[-122.62222222222222,37.64388888888889],[-122.62222222222222,37.64388888888889],[-122.8111111111111,37.595],[-122.8111111111111,37.595],[-122.8111111111111,37.595],[-122.92194444444445,37.566111111111105],[-122.92194444444445,37.566111111111105],[-122.92194444444445,37.566111111111105],[-122.92194444444445,37.566111111111105],[-122.92194444444445,37.566111111111105],[-123.52555555555556,37.406388888888884],[-123.52555555555556,37.406388888888884],[-123.52555555555556,37.406388888888884],[-123.52555555555556,37.406388888888884],[-123.52555555555556,37.406388888888884],[-123.52555555555556,37.406388888888884],[-123.52555555555556,37.406388888888884],[-123.64888888888889,37.373333333333335],[-123.77305555555556,37.33972222222222],[-123.77305555555556,37.33972222222222],[-123.77305555555556,37.33972222222222],[-123.90055555555556,37.305277777777775],[-123.90055555555556,37.305277777777775],[-123.90055555555556,37.305277777777775],[-123.90055555555556,37.305277777777775],[-123.90055555555556,37.305277777777775],[-124.16055555555556,37.23388888888889],[-124.16055555555556,37.23388888888889],[-124.16055555555556,37.23388888888889],[-124.16055555555556,37.23388888888889],[-124.16055555555556,37.23388888888889],[-124.55583333333333,37.124722222222225],[-124.55583333333333,37.124722222222225],[-124.55583333333333,37.124722222222225],[-124.55583333333333,37.124722222222225],[-124.55583333333333,37.124722222222225],[-124.55583333333333,37.124722222222225],[-124.68805555555556,37.088055555555556],[-124.68805555555556,37.088055555555556],[-124.94888888888889,37.014722222222225],[-124.94888888888889,37.014722222222225],[-125.07777777777777,36.97916666666667],[-125.07777777777777,36.97916666666667],[-125.07777777777777,36.97916666666667],[-125.07777777777777,36.97916666666667],[-125.07777777777777,36.97916666666667],[-125.07777777777777,36.97916666666667],[-125.34305555555555,36.9075],[-125.34305555555555,36.9075],[-125.34305555555555,36.9075],[-125.34305555555555,36.9075],[-125.34305555555555,36.9075],[-125.34305555555555,36.9075],[-125.34305555555555,36.9075],[-125.89305555555556,36.756388888888885],[-125.89305555555556,36.756388888888885],[-125.89305555555556,36.756388888888885],[-125.89305555555556,36.756388888888885],[-125.89305555555556,36.756388888888885],[-126.155,36.68333333333333],[-126.155,36.68333333333333],[-126.155,36.68333333333333],[-126.31666666666666,36.61666666666667],[-126.31666666666666,36.61666666666667],[-126.4175,36.60944444444445],[-126.4175,36.60944444444445],[-126.4175,36.60944444444445],[-126.45,36.583333333333336],[-126.45,36.583333333333336],[-126.45,36.583333333333336],[-126.45,36.583333333333336],[-126.45,36.583333333333336],[-126.55,36.57166666666667],[-126.55,36.57166666666667],[-154.2,24.316666666666666],[-154.2,24.316666666666666],[-154.2,24.316666666666666],[-154.2,24.316666666666666],[-154.31666666666666,24.233333333333334],[-154.31666666666666,24.233333333333334],[-154.31666666666666,24.233333333333334],[-154.43333333333334,24.166666666666668],[-154.43333333333334,24.166666666666668],[-154.43333333333334,24.166666666666668],[-154.43333333333334,24.166666666666668],[-154.75,23.7],[-154.75,23.7],[-154.75,23.7],[-154.81666666666666,23.566666666666666],[-154.81666666666666,23.566666666666666],[-154.88333333333333,23.45],[-154.88333333333333,23.45],[-154.88333333333333,23.45],[-154.96666666666667,23.316666666666666],[-154.96666666666667,23.316666666666666],[-154.96666666666667,23.316666666666666],[-154.96666666666667,23.316666666666666],[-155.03333333333333,23.2],[-155.03333333333333,23.2],[-155.16666666666666,22.933333333333334],[-155.16666666666666,22.933333333333334],[-155.16666666666666,22.933333333333334],[-155.23333333333332,22.816666666666666],[-155.23333333333332,22.816666666666666],[-155.23333333333332,22.816666666666666],[-155.23333333333332,22.816666666666666],[-155.23333333333332,22.816666666666666],[-155.36666666666667,22.566666666666666],[-155.36666666666667,22.566666666666666],[-155.36666666666667,22.566666666666666],[-155.43333333333334,22.433333333333334],[-155.43333333333334,22.433333333333334],[-155.43333333333334,22.433333333333334],[-155.43333333333334,22.433333333333334],[-155.5,22.316666666666666],[-155.63333333333333,22.083333333333332],[-155.63333333333333,22.083333333333332],[-155.63333333333333,22.083333333333332],[-155.68333333333334,21.966666666666665],[-155.68333333333334,21.966666666666665],[-155.68333333333334,21.966666666666665],[-155.68333333333334,21.966666666666665],[-156,21.4],[-156,21.4],[-156,21.4],[-156,21.4],[-156.03333333333333,21.316666666666666],[-156.03333333333333,21.316666666666666],[-156.03333333333333,21.316666666666666],[-156.03333333333333,21.316666666666666],[-156.11666666666667,21.166666666666668],[-156.11666666666667,21.166666666666668],[-156.11666666666667,21.166666666666668],[-156.11666666666667,21.166666666666668],[-156.21666666666667,21.05],[-156.21666666666667,21.05],[-156.21666666666667,21.05],[-156.21666666666667,21.05],[-156.28333333333333,20.933333333333334],[-156.28333333333333,20.933333333333334],[-156.33333333333334,20.883333333333333],[-156.33333333333334,20.883333333333333],[-156.33333333333334,20.883333333333333],[-156.36666666666667,20.85],[-156.36666666666667,20.85],[-156.36666666666667,20.85],[-156.4,20.8],[-156.4,20.8],[-156.4,20.8],[-156.4,20.8],[-156.45,20.85],[-156.45,20.85],[-156.45,20.85]],"type":"LineString"}
}
