{
  "id": 2014779001,
  "type": "Feature",
  "properties": {
    "geom:area": 0,
    "geom:bbox": "-122.754640,37.537330,-122.085070,38.402370",
    "geom:latitude": 37.86630891226098,
    "geom:longitude": -122.46619847142522,
    "src:alt_label": "swim-approach",
    "src:geom": "swim",
    "swim:elevations": [
      7392,
      6669,
      6280,
      6204,
      5623,
      5330,
      5136,
      4990,
      4794,
      4418,
      4221,
      3987,
      3850,
      3746,
      3659,
      3548,
      3512,
      3266,
      3184,
      3003,
      2665,
      2379,
      2076,
      1999,
      1882,
      1730,
      1552,
      1313,
      1218,
      1219,
      1219,
      1029,
      1009,
      850,
      578,
      310,
      277,
      98,
      0
    ],
    "swim:geom": "approach",
    "swim:timestamps": [
      1771003872,
      1771003937,
      1771003975,
      1771003981,
      1771004054,
      1771004096,
      1771004120,
      1771004137,
      1771004166,
      1771004215,
      1771004243,
      1771004273,
      1771004297,
      1771004328,
      1771004360,
      1771004396,
      1771004401,
      1771004450,
      1771004469,
      1771004495,
      1771004539,
      1771004567,
      1771004595,
      1771004602,
      1771004622,
      1771004646,
      1771004676,
      1771004717,
      1771004753,
      1771004785,
      1771004801,
      1771004848,
      1771004851,
      1771004882,
      1771004935,
      1771004995,
      1771005002,
      1771005055,
      1771005079
    ],
    "wof:geomhash": "70f8e0127f57c3583e8535366baf57f8",
    "wof:id": 2014779001,
    "wof:repo": "sfomuseum-data-flights-2026-02"
  },
  "bbox": [
    -122.75464,
    37.53733,
    -122.08507,
    38.40237
  ],
  "geometry": {"coordinates":[[-122.50744,38.40237],[-122.61424,38.32942],[-122.67463,38.288],[-122.68479,38.28104],[-122.75464,38.1829],[-122.73437,38.11218],[-122.72254,38.07054],[-122.71395,38.04102],[-122.70017,37.99394],[-122.67765,37.9165],[-122.64984,37.87814],[-122.61029,37.84052],[-122.57942,37.81136],[-122.54118,37.77509],[-122.50507,37.74099],[-122.46037,37.71326],[-122.45322,37.71117],[-122.38437,37.69242],[-122.35964,37.68566],[-122.32796,37.67682],[-122.278,37.66178],[-122.2459,37.65176],[-122.2143,37.64234],[-122.20631,37.64002],[-122.18299,37.63283],[-122.15641,37.62499],[-122.12359,37.61625],[-122.09192,37.59133],[-122.08507,37.56284],[-122.10504,37.54099],[-122.12239,37.53866],[-122.17217,37.53733],[-122.17525,37.53799],[-122.20493,37.54967],[-122.25503,37.57062],[-122.30223,37.59054],[-122.30751,37.5927],[-122.34309,37.60765],[-122.35938,37.6149]],"type":"LineString"}
}
