{
  "id": 2014730839,
  "type": "Feature",
  "properties": {
    "geom:area": 0,
    "geom:bbox": "-122.432790,36.763180,-121.326210,37.705330",
    "geom:latitude": 37.23597058805162,
    "geom:longitude": -121.96158887531594,
    "src:alt_label": "swim-takeoff",
    "src:geom": "swim",
    "swim:elevations": [
      152,
      514,
      1037,
      1150,
      1650,
      2628,
      2734,
      3371,
      3437,
      3665,
      4131,
      4507,
      4669,
      5274,
      5434,
      5765,
      6084,
      6515,
      6676,
      7003,
      7196,
      7445,
      7691,
      7970,
      8378,
      8504,
      8838,
      8839,
      8839
    ],
    "swim:geom": "takeoff",
    "swim:timestamps": [
      1770382983,
      1770383016,
      1770383066,
      1770383080,
      1770383134,
      1770383185,
      1770383192,
      1770383245,
      1770383252,
      1770383285,
      1770383329,
      1770383361,
      1770383374,
      1770383419,
      1770383437,
      1770383468,
      1770383498,
      1770383539,
      1770383556,
      1770383590,
      1770383610,
      1770383641,
      1770383673,
      1770383706,
      1770383747,
      1770383768,
      1770383804,
      1770383824,
      1770383856
    ],
    "wof:geomhash": "6983718cf5dec7674db54c818c1bc1c6",
    "wof:id": 2014730839,
    "wof:repo": "sfomuseum-data-flights-2026-02"
  },
  "bbox": [
    -122.43279,
    36.76318,
    -121.32621,
    37.70533
  ],
  "geometry": {"coordinates":[[-122.3685,37.62947],[-122.36372,37.65501],[-122.36866,37.69701],[-122.38169,37.70533],[-122.43279,37.67382],[-122.42364,37.61199],[-122.42228,37.603],[-122.40708,37.53505],[-122.39984,37.52626],[-122.35235,37.49247],[-122.283,37.44435],[-122.22991,37.40594],[-122.20965,37.3916],[-122.13185,37.33726],[-122.10157,37.31588],[-122.04817,37.27826],[-121.99456,37.24042],[-121.92066,37.18802],[-121.88967,37.16601],[-121.82722,37.12163],[-121.79183,37.09649],[-121.73373,37.05501],[-121.67511,37.01321],[-121.6111,36.96743],[-121.53382,36.9122],[-121.49324,36.88307],[-121.42564,36.83445],[-121.38874,36.80779],[-121.32621,36.76318]],"type":"LineString"}
}
