{
  "id": 2014739825,
  "type": "Feature",
  "properties": {
    "geom:area": 0,
    "geom:bbox": "-122.669870,37.536820,-122.058110,38.382400",
    "geom:latitude": 37.816594160309606,
    "geom:longitude": -122.42314583929686,
    "src:alt_label": "swim-approach",
    "src:geom": "swim",
    "swim:elevations": [
      7563,
      7128,
      6529,
      6467,
      6134,
      5700,
      5494,
      5317,
      5181,
      5105,
      4837,
      4460,
      4142,
      4053,
      3924,
      3872,
      3769,
      3504,
      3353,
      3230,
      3156,
      2974,
      2802,
      2677,
      2437,
      2151,
      1925,
      1907,
      1630,
      1500,
      1220,
      1219,
      1219,
      1008,
      942,
      894,
      855,
      681,
      630,
      522,
      334,
      193,
      88,
      64,
      0
    ],
    "swim:geom": "approach",
    "swim:timestamps": [
      1770585952,
      1770585977,
      1770586015,
      1770586021,
      1770586051,
      1770586093,
      1770586111,
      1770586137,
      1770586153,
      1770586159,
      1770586187,
      1770586226,
      1770586256,
      1770586272,
      1770586312,
      1770586335,
      1770586361,
      1770586396,
      1770586438,
      1770586462,
      1770586472,
      1770586502,
      1770586528,
      1770586544,
      1770586574,
      1770586618,
      1770586645,
      1770586648,
      1770586678,
      1770586697,
      1770586732,
      1770586750,
      1770586774,
      1770586818,
      1770586840,
      1770586886,
      1770586892,
      1770586912,
      1770586931,
      1770586961,
      1770587008,
      1770587038,
      1770587064,
      1770587073,
      1770587089
    ],
    "wof:geomhash": "0644a95c72d7b11a3a1a7e13e1ada15e",
    "wof:id": 2014739825,
    "wof:repo": "sfomuseum-data-flights-2026-02"
  },
  "bbox": [
    -122.66987,
    37.53682,
    -122.05811,
    38.3824
  ],
  "geometry": {"coordinates":[[-122.60525,38.3824],[-122.62599,38.3447],[-122.63348,38.27613],[-122.63464,38.26525],[-122.64051,38.21157],[-122.64824,38.13952],[-122.65188,38.10802],[-122.6563,38.06377],[-122.65886,38.03774],[-122.65988,38.02794],[-122.66462,37.98337],[-122.66987,37.92151],[-122.64777,37.87571],[-122.62653,37.85631],[-122.57815,37.81025],[-122.55184,37.78498],[-122.52426,37.75877],[-122.48838,37.72465],[-122.44585,37.68495],[-122.41231,37.67112],[-122.39613,37.67135],[-122.35014,37.68134],[-122.30901,37.68657],[-122.28583,37.68079],[-122.24248,37.66805],[-122.18186,37.64842],[-122.14584,37.6363],[-122.14187,37.63497],[-122.10358,37.61922],[-122.08408,37.60536],[-122.05811,37.57378],[-122.06406,37.55568],[-122.07839,37.53682],[-122.1206,37.53923],[-122.14206,37.54555],[-122.18714,37.55904],[-122.19312,37.561],[-122.21257,37.56759],[-122.23021,37.57333],[-122.25668,37.58163],[-122.29627,37.59335],[-122.32145,37.60062],[-122.34215,37.60747],[-122.34894,37.61015],[-122.36186,37.61564]],"type":"LineString"}
}
