{
  "id": 2014806283,
  "type": "Feature",
  "properties": {
    "geom:area": 0,
    "geom:bbox": "-122.770000,37.620000,-83.350000,43.020000",
    "geom:latitude": 41.966694708791664,
    "geom:longitude": -103.70358998154117,
    "src:alt_label": "swim-route",
    "src:geom": "swim",
    "swim:geom": "route",
    "wof:geomhash": "a845bc5d112ad18159b7172a86c1a318",
    "wof:id": 2014806283,
    "wof:repo": "sfomuseum-data-flights-2026-02"
  },
  "bbox": [
    -122.77,
    37.62,
    -83.35,
    43.02
  ],
  "geometry": {"coordinates":[[-83.35,42.21],[-83.37,42.27],[-83.89,42.28],[-84.15,42.37],[-84.32,42.43],[-84.33,42.43],[-84.48,42.44],[-84.57,42.44],[-84.59,42.44],[-84.62,42.44],[-84.81,42.44],[-84.91,42.45],[-84.96,42.45],[-85,42.45],[-85.1,42.45],[-85.22,42.45],[-86.13,42.47],[-86.32,42.44],[-86.96,42.36],[-87,42.35],[-87.95,42.22],[-87.99,42.22],[-88.6,42.27],[-89.12,42.31],[-89.65,42.34],[-90,42.36],[-90.71,42.4],[-91.45,42.45],[-92.2,42.5],[-93.1,42.55],[-94.29,42.61],[-94.57,42.64],[-96.23,42.78],[-99.71,42.99],[-99.85,42.99],[-100,43],[-100.24,43],[-101.23,43.02],[-101.67,43.02],[-102.26,43.02],[-102.31,43.02],[-104,43],[-105.98,42.9],[-106.18,42.89],[-106.74,42.85],[-107.12,42.83],[-108.05,42.76],[-108.65,42.71],[-109.81,42.61],[-110.11,42.58],[-111.71,42.33],[-111.87,42.3],[-112.45,42.2],[-113.3,41.91],[-113.52,41.84],[-114.06,41.65],[-114.3,41.58],[-114.49,41.53],[-115.53,41.21],[-116.59,40.88],[-118.2,40.36],[-118.87,40.13],[-119.02,40.08],[-120.51,39.55],[-121.1,39.34],[-121.3,39.22],[-121.6,39.04],[-121.65,39.02],[-121.82,38.91],[-121.84,38.9],[-121.92,38.85],[-122.25,38.66],[-122.29,38.63],[-122.44,38.54],[-122.68,38.31],[-122.69,38.3],[-122.77,38.22],[-122.75,38.16],[-122.7,38],[-122.69,37.95],[-122.67,37.9],[-122.65,37.87],[-122.59,37.82],[-122.58,37.81],[-122.53,37.77],[-122.51,37.74],[-122.5,37.74],[-122.5,37.73],[-122.44,37.68],[-122.37,37.62],[-122.38,37.62]],"type":"LineString"}
}
