{
  "id": 2014835559,
  "type": "Feature",
  "properties": {
    "geom:area": 0,
    "geom:bbox": "-122.470000,26.070000,-80.150000,37.680000",
    "geom:latitude": 31.401160943918107,
    "geom:longitude": -101.59050131956383,
    "src:alt_label": "swim-route",
    "src:geom": "swim",
    "swim:geom": "route",
    "wof:geomhash": "6433636e428319cd405dac21d7fddb96",
    "wof:id": 2014835559,
    "wof:repo": "sfomuseum-data-flights-2026-02"
  },
  "bbox": [
    -122.47,
    26.07,
    -80.15,
    37.68
  ],
  "geometry": {"coordinates":[[-122.38,37.62],[-122.36,37.68],[-122.41,37.59],[-122.42,37.59],[-122.46,37.51],[-122.46,37.51],[-122.47,37.49],[-122.47,37.48],[-122.46,37.48],[-122.43,37.46],[-122.43,37.46],[-122.4,37.44],[-122.39,37.44],[-122.33,37.4],[-122.17,37.29],[-122.14,37.27],[-122.06,37.22],[-121.96,37.16],[-121.91,37.13],[-121.73,37],[-121.72,37],[-121.71,36.99],[-121.68,36.98],[-121.51,36.86],[-121.33,36.74],[-121.24,36.68],[-121.02,36.54],[-120.95,36.49],[-120.92,36.47],[-120.8,36.39],[-120.56,36.23],[-120.33,36.07],[-119.96,35.82],[-119.92,35.79],[-119.73,35.7],[-119.49,35.66],[-118.58,35.39],[-117.15,34.94],[-116.66,34.78],[-116.2,34.63],[-115.75,34.47],[-115.53,34.4],[-115.29,34.3],[-114.63,34.08],[-114,33.85],[-113.95,33.84],[-113.76,33.77],[-113.44,33.66],[-112.63,33.36],[-112.48,33.3],[-112.18,33.19],[-112.03,33.14],[-111.48,32.93],[-110.67,32.62],[-110.64,32.61],[-110.59,32.59],[-109.75,32.35],[-109.13,32.38],[-108.34,32.31],[-108.2,32.21],[-106.23,32.01],[-106.06,32.07],[-104.46,31.87],[-103.89,31.8],[-103.44,31.74],[-102.63,31.63],[-101.28,31.42],[-100.51,31.31],[-100.34,31.28],[-99.94,31.21],[-97.95,30.84],[-97.84,30.82],[-97.12,30.68],[-96.42,30.54],[-95.73,30.39],[-94.83,30.19],[-94.38,30.1],[-93.12,29.8],[-92.38,29.63],[-90.5,29.16],[-89.64,28.94],[-88.43,28.61],[-88,28.49],[-86.35,28.02],[-85.48,27.76],[-85.16,27.66],[-85.01,27.62],[-84.38,27.42],[-84.16,27.42],[-83.96,27.41],[-83.13,27.38],[-82.91,27.32],[-82.78,27.29],[-82.77,27.28],[-82.04,26.96],[-81.99,26.91],[-81.92,26.86],[-81.82,26.77],[-81.74,26.7],[-81.68,26.65],[-81.66,26.63],[-81.56,26.56],[-81.39,26.45],[-81.34,26.42],[-81.33,26.41],[-81.25,26.35],[-81.24,26.35],[-81.17,26.29],[-80.99,26.16],[-80.98,26.15],[-80.93,26.14],[-80.92,26.14],[-80.8,26.12],[-80.69,26.12],[-80.61,26.11],[-80.46,26.1],[-80.42,26.09],[-80.38,26.09],[-80.33,26.09],[-80.24,26.08],[-80.15,26.07]],"type":"LineString"}
}
