{
  "id": 2014868735,
  "type": "Feature",
  "properties": {
    "geom:area": 0,
    "geom:bbox": "-122.557240,36.741410,-122.290250,37.695750",
    "geom:latitude": 37.22906579764986,
    "geom:longitude": -122.46643335677349,
    "src:alt_label": "swim-takeoff",
    "src:geom": "swim",
    "swim:elevations": [
      284,
      532,
      824,
      1172,
      1317,
      1919,
      2229,
      2585,
      3233,
      3552,
      4159,
      4332,
      4523,
      4784,
      5393,
      5638,
      5697,
      6211,
      6506,
      6856,
      7045,
      7359,
      7498,
      7865,
      8020,
      8316,
      8346
    ],
    "swim:geom": "takeoff",
    "swim:timestamps": [
      1771844997,
      1771845019,
      1771845043,
      1771845088,
      1771845103,
      1771845143,
      1771845164,
      1771845185,
      1771845233,
      1771845268,
      1771845312,
      1771845328,
      1771845342,
      1771845362,
      1771845417,
      1771845448,
      1771845455,
      1771845500,
      1771845527,
      1771845567,
      1771845591,
      1771845628,
      1771845644,
      1771845688,
      1771845706,
      1771845747,
      1771845751
    ],
    "wof:geomhash": "726509020f2ebbcebd40b802bef2f19c",
    "wof:id": 2014868735,
    "wof:repo": "sfomuseum-data-flights-2026-02"
  },
  "bbox": [
    -122.55724,
    36.74141,
    -122.29025,
    37.69575
  ],
  "geometry": {"coordinates":[[-122.36407,37.63974],[-122.36317,37.65707],[-122.36388,37.67677],[-122.40755,37.69575],[-122.42769,37.6931],[-122.44842,37.65355],[-122.45232,37.62942],[-122.45657,37.60491],[-122.46642,37.54759],[-122.47545,37.50033],[-122.48729,37.43665],[-122.49135,37.41416],[-122.49518,37.39288],[-122.50082,37.36179],[-122.51608,37.27645],[-122.5249,37.22746],[-122.52707,37.21467],[-122.54035,37.13999],[-122.54841,37.09489],[-122.55724,37.02789],[-122.54086,36.98663],[-122.48428,36.92954],[-122.45934,36.90547],[-122.39107,36.83902],[-122.36188,36.81062],[-122.29677,36.74769],[-122.29025,36.74141]],"type":"LineString"}
}
