{
  "id": 2014876135,
  "type": "Feature",
  "properties": {
    "geom:area": 0,
    "geom:bbox": "-122.357920,37.592410,-121.254550,38.237670",
    "geom:latitude": 37.91713735257106,
    "geom:longitude": -121.81661509309706,
    "src:alt_label": "swim-takeoff",
    "src:geom": "swim",
    "swim:elevations": [
      183,
      380,
      716,
      1121,
      1148,
      1279,
      1347,
      1640,
      2112,
      2624,
      2772,
      3253,
      3654,
      3883,
      4067,
      4290,
      4532,
      4770,
      5015,
      5120,
      5629,
      5881,
      6324,
      6377,
      6563,
      6614,
      6792
    ],
    "swim:geom": "takeoff",
    "swim:timestamps": [
      1771953986,
      1771954001,
      1771954027,
      1771954078,
      1771954082,
      1771954107,
      1771954119,
      1771954148,
      1771954179,
      1771954227,
      1771954241,
      1771954284,
      1771954318,
      1771954347,
      1771954377,
      1771954404,
      1771954430,
      1771954448,
      1771954464,
      1771954470,
      1771954509,
      1771954532,
      1771954586,
      1771954592,
      1771954615,
      1771954624,
      1771954655
    ],
    "wof:geomhash": "410762ec0efd801ce907ca4b31918f3f",
    "wof:id": 2014876135,
    "wof:repo": "sfomuseum-data-flights-2026-02"
  },
  "bbox": [
    -122.35792,
    37.59241,
    -121.25455,
    38.23767
  ],
  "geometry": {"coordinates":[[-122.35792,37.61383],[-122.34383,37.60882],[-122.31897,37.60324],[-122.26306,37.59241],[-122.25776,37.59299],[-122.22876,37.60789],[-122.2154,37.61853],[-122.18101,37.6468],[-122.14252,37.67752],[-122.08044,37.72597],[-122.06285,37.7412],[-122.00688,37.79108],[-121.96041,37.83261],[-121.9199,37.8688],[-121.87612,37.90783],[-121.83372,37.94629],[-121.78783,37.98217],[-121.74746,38.00262],[-121.71214,38.01947],[-121.69885,38.0258],[-121.61109,38.06755],[-121.55768,38.09263],[-121.4281,38.15509],[-121.41331,38.16211],[-121.35658,38.18925],[-121.33468,38.19969],[-121.25455,38.23767]],"type":"LineString"}
}
