{
  "id": 2014864433,
  "type": "Feature",
  "properties": {
    "geom:area": 0,
    "geom:bbox": "-122.278889,35.868333,-115.230833,37.801944",
    "geom:latitude": 37.215562255437,
    "geom:longitude": -118.5416605467265,
    "src:alt_label": "swim-path",
    "src:geom": "swim",
    "swim:altitudes": [
      "059",
      "059",
      "098",
      "098",
      "145",
      "145",
      "145",
      "178",
      "178",
      "178",
      "229",
      "229",
      "229",
      "229",
      "294",
      "294",
      "294",
      "294",
      "337",
      "337",
      "337",
      "337",
      "337",
      "337",
      "360C",
      "360C",
      "360C",
      "360C",
      "360C",
      "360C",
      "360C",
      "360C",
      "360C",
      "360C",
      "360C",
      "360C",
      "360C",
      "360C",
      "360C",
      "360C",
      "360C",
      "360C",
      "360C",
      "360C",
      "360C",
      "360C",
      "360C",
      "360C",
      "360C",
      "360C",
      "360C",
      "360C",
      "360C",
      "360C",
      "360C",
      "360C",
      "360",
      "360",
      "345",
      "343",
      "343",
      "343",
      "340C",
      "340C",
      "340C",
      "340C",
      "340C",
      "340C",
      "340C",
      "340C",
      "340C",
      "340C",
      "340C",
      "340C",
      "340C",
      "340C",
      "340C",
      "340C",
      "340C",
      "337",
      "337",
      "337",
      "327",
      "320C",
      "320C",
      "320C",
      "320C",
      "320C",
      "320C",
      "320C",
      "320C",
      "320C",
      "320C",
      "320C",
      "320C",
      "300",
      "300",
      "300",
      "282",
      "280",
      "280",
      "280",
      "277",
      "269",
      "266",
      "266",
      "266",
      "259",
      "259",
      "242",
      "242",
      "212",
      "212",
      "192",
      "192",
      "192",
      "192",
      "177",
      "130",
      "130",
      "130",
      "130",
      "130",
      "117",
      "117",
      "081",
      "070",
      "070",
      "070",
      "063",
      "063",
      "063",
      "063",
      "056",
      "056",
      "045",
      "045",
      "041",
      "041",
      "034",
      "034",
      "022",
      "022",
      "022",
      "015",
      "015",
      "015"
    ],
    "swim:geom": "path",
    "swim:speeds": [
      223,
      223,
      239,
      239,
      355,
      355,
      355,
      362,
      362,
      362,
      387,
      387,
      387,
      387,
      413,
      413,
      413,
      413,
      402,
      402,
      402,
      402,
      402,
      402,
      400,
      400,
      399,
      399,
      399,
      399,
      399,
      399,
      399,
      398,
      398,
      398,
      398,
      398,
      398,
      398,
      402,
      405,
      405,
      405,
      407,
      407,
      407,
      405,
      405,
      405,
      405,
      404,
      403,
      394,
      394,
      394,
      392,
      392,
      395,
      396,
      396,
      396,
      401,
      401,
      402,
      402,
      402,
      402,
      402,
      402,
      385,
      385,
      381,
      381,
      381,
      380,
      380,
      380,
      380,
      379,
      379,
      379,
      373,
      373,
      373,
      373,
      373,
      373,
      371,
      371,
      371,
      370,
      370,
      370,
      370,
      373,
      373,
      373,
      375,
      374,
      374,
      374,
      369,
      366,
      363,
      363,
      363,
      363,
      363,
      351,
      351,
      334,
      334,
      329,
      329,
      329,
      329,
      317,
      318,
      318,
      318,
      318,
      318,
      317,
      317,
      261,
      238,
      238,
      238,
      225,
      225,
      225,
      225,
      223,
      223,
      221,
      221,
      229,
      229,
      229,
      229,
      174,
      174,
      174,
      159,
      159,
      159
    ],
    "swim:timestamps": [
      1771867271,
      1771867271,
      1771867329,
      1771867329,
      1771867452,
      1771867452,
      1771867452,
      1771867512,
      1771867512,
      1771867512,
      1771867632,
      1771867632,
      1771867632,
      1771867632,
      1771867812,
      1771867812,
      1771867812,
      1771867812,
      1771867932,
      1771867932,
      1771867932,
      1771867932,
      1771867932,
      1771867932,
      1771868052,
      1771868113,
      1771868133,
      1771868133,
      1771868133,
      1771868193,
      1771868193,
      1771868233,
      1771868233,
      1771868253,
      1771868253,
      1771868293,
      1771868353,
      1771868353,
      1771868353,
      1771868353,
      1771868373,
      1771868413,
      1771868413,
      1771868413,
      1771868493,
      1771868533,
      1771868533,
      1771868613,
      1771868613,
      1771868613,
      1771868613,
      1771868653,
      1771868673,
      1771868713,
      1771868713,
      1771868733,
      1771868793,
      1771868793,
      1771868894,
      1771868914,
      1771868914,
      1771868914,
      1771868974,
      1771868974,
      1771869014,
      1771869014,
      1771869034,
      1771869034,
      1771869034,
      1771869034,
      1771869134,
      1771869134,
      1771869274,
      1771869274,
      1771869274,
      1771869334,
      1771869334,
      1771869334,
      1771869334,
      1771869514,
      1771869514,
      1771869514,
      1771869574,
      1771869634,
      1771869634,
      1771869634,
      1771869634,
      1771869634,
      1771869755,
      1771869755,
      1771869755,
      1771869815,
      1771869815,
      1771869815,
      1771869815,
      1771870115,
      1771870115,
      1771870115,
      1771870223,
      1771870235,
      1771870235,
      1771870235,
      1771870253,
      1771870295,
      1771870313,
      1771870313,
      1771870313,
      1771870355,
      1771870355,
      1771870415,
      1771870415,
      1771870493,
      1771870493,
      1771870553,
      1771870553,
      1771870553,
      1771870553,
      1771870607,
      1771870733,
      1771870733,
      1771870733,
      1771870733,
      1771870733,
      1771870776,
      1771870776,
      1771870956,
      1771871027,
      1771871027,
      1771871027,
      1771871087,
      1771871087,
      1771871087,
      1771871087,
      1771871136,
      1771871136,
      1771871196,
      1771871196,
      1771871213,
      1771871213,
      1771871256,
      1771871256,
      1771871333,
      1771871333,
      1771871333,
      1771871377,
      1771871377,
      1771871377
    ],
    "wof:geomhash": "4dbb1e04774b17e7ef01390374abcc9a",
    "wof:id": 2014864433,
    "wof:repo": "sfomuseum-data-flights-2026-02"
  },
  "bbox": [
    -122.27888888888889,
    35.86833333333333,
    -115.23083333333334,
    37.801944444444445
  ],
  "geometry": {"coordinates":[[-115.23083333333334,36.114444444444445],[-115.23083333333334,36.114444444444445],[-115.30277777777778,36.0825],[-115.30277777777778,36.0825],[-115.38,35.92222222222222],[-115.38,35.92222222222222],[-115.38,35.92222222222222],[-115.4738888888889,35.86833333333333],[-115.4738888888889,35.86833333333333],[-115.4738888888889,35.86833333333333],[-115.73611111111111,35.88444444444444],[-115.73611111111111,35.88444444444444],[-115.73611111111111,35.88444444444444],[-115.73611111111111,35.88444444444444],[-116.08388888888888,36.01305555555555],[-116.08388888888888,36.01305555555555],[-116.08388888888888,36.01305555555555],[-116.08388888888888,36.01305555555555],[-116.28305555555555,36.17361111111111],[-116.28305555555555,36.17361111111111],[-116.28305555555555,36.17361111111111],[-116.28305555555555,36.17361111111111],[-116.28305555555555,36.17361111111111],[-116.28305555555555,36.17361111111111],[-116.47694444444444,36.331388888888895],[-116.57138888888889,36.41138888888889],[-116.60944444444443,36.44305555555555],[-116.60944444444443,36.44305555555555],[-116.60944444444443,36.44305555555555],[-116.7025,36.52472222222222],[-116.7025,36.52472222222222],[-116.75833333333334,36.574444444444445],[-116.75833333333334,36.574444444444445],[-116.79638888888888,36.60777777777778],[-116.79638888888888,36.60777777777778],[-116.85111111111111,36.65555555555555],[-116.94194444444445,36.73833333333334],[-116.94194444444445,36.73833333333334],[-116.94194444444445,36.73833333333334],[-116.94194444444445,36.73833333333334],[-116.9713888888889,36.77861111111111],[-117.01055555555556,36.83888888888889],[-117.01055555555556,36.83888888888889],[-117.01055555555556,36.83888888888889],[-117.10333333333332,36.981388888888894],[-117.14222222222223,37.04138888888889],[-117.14222222222223,37.04138888888889],[-117.23305555555555,37.180277777777775],[-117.23305555555555,37.180277777777775],[-117.23305555555555,37.180277777777775],[-117.23305555555555,37.180277777777775],[-117.2725,37.240833333333335],[-117.29861111111111,37.280277777777776],[-117.3475,37.33277777777778],[-117.3475,37.33277777777778],[-117.365,37.349722222222226],[-117.45222222222222,37.43416666666666],[-117.45222222222222,37.43416666666666],[-117.61,37.58638888888889],[-117.62916666666666,37.605000000000004],[-117.62916666666666,37.605000000000004],[-117.62916666666666,37.605000000000004],[-117.71916666666667,37.69305555555555],[-117.71916666666667,37.69305555555555],[-117.79138888888889,37.763333333333335],[-117.79138888888889,37.763333333333335],[-117.80916666666667,37.78055555555555],[-117.80916666666667,37.78055555555555],[-117.80916666666667,37.78055555555555],[-117.80916666666667,37.78055555555555],[-118.04027777777777,37.801944444444445],[-118.04027777777777,37.801944444444445],[-118.33444444444444,37.79277777777778],[-118.33444444444444,37.79277777777778],[-118.33444444444444,37.79277777777778],[-118.46694444444445,37.78805555555555],[-118.46694444444445,37.78805555555555],[-118.46694444444445,37.78805555555555],[-118.46694444444445,37.78805555555555],[-118.87944444444443,37.77166666666667],[-118.87944444444443,37.77166666666667],[-118.87944444444443,37.77166666666667],[-119.00527777777778,37.76638888888889],[-119.13444444444445,37.76083333333333],[-119.13444444444445,37.76083333333333],[-119.13444444444445,37.76083333333333],[-119.13444444444445,37.76083333333333],[-119.13444444444445,37.76083333333333],[-119.39527777777778,37.74944444444444],[-119.39527777777778,37.74944444444444],[-119.39527777777778,37.74944444444444],[-119.52444444444444,37.743611111111115],[-119.52444444444444,37.743611111111115],[-119.52444444444444,37.743611111111115],[-119.52444444444444,37.743611111111115],[-120.17861111111111,37.711111111111116],[-120.17861111111111,37.711111111111116],[-120.17861111111111,37.711111111111116],[-120.41666666666667,37.7],[-120.44,37.69499999999999],[-120.44,37.69499999999999],[-120.44,37.69499999999999],[-120.48333333333333,37.68333333333333],[-120.56722222222221,37.680277777777775],[-120.61666666666666,37.68333333333333],[-120.61666666666666,37.68333333333333],[-120.61666666666666,37.68333333333333],[-120.69166666666668,37.66555555555556],[-120.69166666666668,37.66555555555556],[-120.81361111111111,37.651111111111106],[-120.81361111111111,37.651111111111106],[-120.96666666666667,37.63333333333333],[-120.96666666666667,37.63333333333333],[-121.08333333333333,37.61666666666667],[-121.08333333333333,37.61666666666667],[-121.08333333333333,37.61666666666667],[-121.08333333333333,37.61666666666667],[-121.18333333333334,37.6],[-121.41666666666667,37.583333333333336],[-121.41666666666667,37.583333333333336],[-121.41666666666667,37.583333333333336],[-121.41666666666667,37.583333333333336],[-121.41666666666667,37.583333333333336],[-121.49444444444444,37.566111111111105],[-121.49444444444444,37.566111111111105],[-121.77555555555556,37.514722222222225],[-121.88333333333334,37.5],[-121.88333333333334,37.5],[-121.88333333333334,37.5],[-121.95,37.5],[-121.95,37.5],[-121.95,37.5],[-121.95,37.5],[-122.01583333333333,37.50361111111111],[-122.01583333333333,37.50361111111111],[-122.08666666666666,37.52583333333333],[-122.08666666666666,37.52583333333333],[-122.1,37.53333333333333],[-122.1,37.53333333333333],[-122.1613888888889,37.55027777777777],[-122.1613888888889,37.55027777777777],[-122.23333333333333,37.583333333333336],[-122.23333333333333,37.583333333333336],[-122.23333333333333,37.583333333333336],[-122.27888888888889,37.58722222222222],[-122.27888888888889,37.58722222222222],[-122.27888888888889,37.58722222222222]],"type":"LineString"}
}
