{
  "id": 2014844725,
  "type": "Feature",
  "properties": {
    "geom:area": 0,
    "geom:bbox": "-157.920000,21.270000,-122.380000,37.830000",
    "geom:latitude": 31.95733903690103,
    "geom:longitude": -141.47817524256658,
    "src:alt_label": "swim-route",
    "src:geom": "swim",
    "swim:geom": "route",
    "wof:geomhash": "1dfa854080cca13e612f7875c295a9ce",
    "wof:id": 2014844725,
    "wof:repo": "sfomuseum-data-flights-2026-02"
  },
  "bbox": [
    -157.92,
    21.27,
    -122.38,
    37.83
  ],
  "geometry": {"coordinates":[[-122.38,37.62],[-122.49,37.67],[-122.49,37.67],[-122.5,37.67],[-122.58,37.68],[-122.58,37.68],[-122.61,37.68],[-122.68,37.69],[-122.7,37.69],[-122.86,37.7],[-122.88,37.7],[-123,37.7],[-123.09,37.71],[-123.42,37.73],[-123.54,37.73],[-123.69,37.74],[-123.77,37.75],[-123.79,37.75],[-123.99,37.76],[-124.08,37.76],[-124.27,37.77],[-124.6,37.79],[-125.83,37.83],[-127,37.64],[-129.33,37.23],[-133.81,36.28],[-134.31,36.17],[-135,36],[-137.47,35.01],[-142,33],[-148,30],[-148.76,29.49],[-155.26,24.72],[-155.3,24.7],[-156.32,24.04],[-156.65,22.92],[-156.7,22.76],[-156.73,22.64],[-156.74,22.6],[-156.79,22.43],[-156.8,22.42],[-156.82,22.35],[-156.85,22.23],[-156.91,22.03],[-156.96,21.84],[-156.97,21.84],[-157.19,21.67],[-157.19,21.67],[-157.21,21.65],[-157.22,21.64],[-157.35,21.54],[-157.51,21.42],[-157.53,21.4],[-157.67,21.29],[-157.7,21.27],[-157.72,21.27],[-157.75,21.28],[-157.83,21.3],[-157.92,21.32]],"type":"LineString"}
}
