{
  "id": 2014791013,
  "type": "Feature",
  "properties": {
    "geom:area": 0,
    "geom:bbox": "-122.380000,35.070000,-80.950000,39.230000",
    "geom:latitude": 38.33769559636411,
    "geom:longitude": -101.37273348277664,
    "src:alt_label": "swim-route",
    "src:geom": "swim",
    "swim:geom": "route",
    "wof:geomhash": "713b7942ee543d18265f3fb55f139b8f",
    "wof:id": 2014791013,
    "wof:repo": "sfomuseum-data-flights-2026-02"
  },
  "bbox": [
    -122.38,
    35.07,
    -80.95,
    39.23
  ],
  "geometry": {"coordinates":[[-122.38,37.62],[-122.27,37.69],[-122.22,37.72],[-122.21,37.72],[-122.16,37.75],[-122.12,37.76],[-122.09,37.78],[-122.02,37.82],[-122.01,37.82],[-122,37.83],[-121.94,37.85],[-121.77,37.92],[-121.75,37.93],[-121.51,38.02],[-121.45,38.04],[-121.41,38.06],[-121.23,38.13],[-121.23,38.13],[-121.04,38.21],[-120.97,38.21],[-120.79,38.24],[-120.74,38.25],[-120.62,38.26],[-120.2,38.32],[-120.04,38.34],[-119.88,38.37],[-119.73,38.39],[-119.39,38.43],[-119.22,38.45],[-118.89,38.49],[-118.51,38.54],[-118.23,38.57],[-118,38.6],[-117.97,38.6],[-117.3,38.68],[-117.29,38.68],[-117.17,38.69],[-113.32,39.09],[-112.73,39.14],[-112.53,39.15],[-111.71,39.18],[-110.27,39.22],[-109.99,39.23],[-109.96,39.23],[-108.8,39.18],[-107.31,39.1],[-106.75,39.07],[-105.34,38.99],[-104.63,38.94],[-104.62,38.94],[-104.11,38.88],[-104.1,38.88],[-103.62,38.82],[-103.33,38.82],[-103.26,38.83],[-103.2,38.83],[-103.17,38.83],[-102.05,38.85],[-101.79,38.85],[-101.56,38.83],[-101.2,38.79],[-100.65,38.73],[-100.52,38.72],[-100.24,38.74],[-99.89,38.73],[-99.21,38.74],[-98.26,38.76],[-96.38,38.75],[-96.21,38.75],[-94.7,38.71],[-91.3,38.56],[-90.66,38.53],[-90.51,38.52],[-89.16,38.42],[-88.24,38.1],[-87.76,37.93],[-86.49,37.41],[-86.23,37.3],[-86.07,37.23],[-86.03,37.22],[-85.94,37.18],[-85.26,36.9],[-85.04,36.81],[-84.81,36.72],[-84.36,36.53],[-84.28,36.47],[-84.2,36.41],[-84.13,36.36],[-84.02,36.29],[-83.47,35.89],[-83.36,35.87],[-83.16,35.83],[-83.11,35.81],[-82.7,35.72],[-82.32,35.64],[-82.28,35.63],[-82.06,35.58],[-81.93,35.53],[-81.81,35.48],[-81.73,35.45],[-81.68,35.44],[-81.57,35.41],[-81.49,35.38],[-81.46,35.37],[-81.32,35.34],[-81.23,35.31],[-81.07,35.26],[-81.07,35.26],[-81.07,35.23],[-81.06,35.15],[-81.06,35.1],[-81.06,35.07],[-81.02,35.11],[-80.97,35.18],[-80.95,35.21]],"type":"LineString"}
}
