{
  "id": 2014810477,
  "type": "Feature",
  "properties": {
    "geom:area": 0,
    "geom:bbox": "-122.336111,32.916667,-97.025556,38.511944",
    "geom:latitude": 36.72188598701439,
    "geom:longitude": -109.40105615145029,
    "src:alt_label": "swim-path",
    "src:geom": "swim",
    "swim:altitudes": [
      "023",
      "023",
      "023",
      "023",
      "023",
      "081",
      "081",
      "081",
      "120",
      "120",
      "120",
      "120",
      "120",
      "194",
      "194",
      "220",
      "220",
      "220",
      "220",
      "241",
      "241",
      "279",
      "279",
      "279",
      "279",
      "279",
      "298",
      "298",
      "298",
      "298",
      "307",
      "307",
      "312",
      "312",
      "312",
      "328",
      "331",
      "331",
      "331",
      "339",
      "339",
      "351",
      "351",
      "351",
      "352",
      "352",
      "352",
      "370C",
      "370C",
      "370C",
      "370C",
      "370C",
      "370C",
      "370C",
      "370C",
      "370C",
      "370C",
      "370C",
      "370C",
      "370C",
      "370C",
      "370C",
      "370C",
      "369C",
      "369C",
      "369C",
      "369C",
      "370C",
      "370C",
      "370C",
      "370C",
      "370C",
      "370C",
      "370C",
      "370C",
      "370C",
      "370C",
      "370C",
      "370C",
      "370C",
      "370C",
      "370C",
      "370C",
      "370C",
      "370C",
      "370C",
      "370C",
      "370C",
      "370C",
      "370C",
      "370C",
      "370C",
      "370C",
      "370C",
      "370C",
      "370C",
      "370C",
      "370C",
      "370C",
      "370C",
      "370C",
      "370C",
      "370C",
      "370C",
      "370C",
      "370C",
      "370C",
      "370C",
      "370C",
      "370C",
      "370C",
      "370C",
      "370C",
      "370C",
      "370C",
      "370C",
      "370C",
      "370C",
      "370C",
      "371C",
      "371C",
      "371C",
      "371C",
      "371C",
      "371C",
      "370C",
      "370C",
      "370C",
      "370C",
      "370C",
      "370C",
      "370C",
      "370C",
      "370C",
      "370C",
      "370C",
      "370C",
      "370C",
      "370C",
      "370C",
      "370C",
      "370C",
      "370C",
      "370C",
      "370C",
      "370C",
      "370C",
      "370C",
      "370C",
      "371C",
      "371C",
      "371C",
      "371C",
      "371C",
      "370C",
      "370C",
      "370C",
      "370C",
      "370C",
      "370C",
      "370C",
      "370C",
      "370C",
      "370C",
      "369C",
      "369C",
      "369C",
      "370C",
      "370C",
      "370C",
      "370C",
      "370C",
      "370C",
      "370C",
      "370C",
      "370C",
      "370C",
      "370C",
      "370C",
      "371C",
      "370C",
      "370C",
      "370C",
      "370C",
      "370C",
      "370C",
      "370C",
      "370C",
      "370C",
      "370C",
      "370C",
      "370C",
      "370C",
      "370C",
      "370C",
      "370C",
      "370C",
      "370C",
      "370C",
      "370C",
      "370C",
      "370C",
      "370C",
      "370C",
      "370C",
      "370C",
      "370C",
      "370C",
      "370C",
      "370C",
      "370C",
      "370C",
      "370C",
      "370C",
      "370C",
      "370C",
      "370C",
      "370C",
      "370C",
      "370C",
      "370C",
      "370C",
      "370C",
      "370C",
      "370C",
      "370C",
      "370C",
      "370C",
      "370C",
      "370C",
      "370C",
      "370C",
      "370C",
      "370C",
      "371C",
      "371C",
      "371C",
      "371C",
      "371C",
      "371C",
      "390C",
      "390C",
      "390C",
      "390C",
      "390C",
      "390C",
      "390C",
      "390C",
      "390C",
      "390C",
      "390C",
      "390C",
      "390C",
      "390C",
      "390C",
      "390C",
      "390C",
      "390C",
      "390C",
      "390C",
      "390C",
      "390C",
      "390C",
      "390C",
      "390C",
      "390C",
      "390C",
      "390C",
      "390C",
      "390C",
      "390C",
      "390C",
      "390C",
      "390C",
      "390C",
      "390C",
      "390C",
      "390C",
      "390C",
      "390C",
      "390C",
      "390C",
      "390C",
      "390C",
      "390C",
      "390C",
      "391C",
      "391C",
      "390C",
      "390C",
      "390C",
      "390C",
      "390C",
      "390C",
      "390C",
      "390C",
      "390C",
      "390C",
      "390C",
      "390",
      "390",
      "390",
      "390",
      "382",
      "382",
      "382",
      "382",
      "382",
      "382",
      "373",
      "373",
      "373",
      "344",
      "344",
      "344",
      "333",
      "333",
      "333",
      "303",
      "303",
      "303",
      "282",
      "282",
      "282",
      "282",
      "232",
      "232",
      "208",
      "208",
      "208",
      "208",
      "208",
      "167",
      "167",
      "167",
      "167",
      "150",
      "150",
      "138",
      "138",
      "138",
      "118",
      "118",
      "118",
      "118",
      "106",
      "099",
      "099",
      "099",
      "093",
      "093",
      "093",
      "090",
      "090",
      "083",
      "083",
      "083",
      "083",
      "069",
      "069",
      "063",
      "063",
      "053",
      "049",
      "049",
      "049",
      "039",
      "039",
      "039",
      "030",
      "030",
      "025",
      "025",
      "025",
      "025",
      "008",
      "008",
      "008",
      "008",
      "008",
      "008"
    ],
    "swim:geom": "path",
    "swim:speeds": [
      194,
      194,
      194,
      194,
      194,
      286,
      286,
      286,
      397,
      397,
      397,
      397,
      397,
      381,
      381,
      389,
      389,
      389,
      389,
      403,
      403,
      420,
      420,
      420,
      420,
      420,
      464,
      464,
      464,
      464,
      471,
      471,
      491,
      491,
      491,
      499,
      503,
      503,
      503,
      510,
      510,
      513,
      513,
      513,
      512,
      512,
      512,
      525,
      525,
      525,
      525,
      525,
      525,
      524,
      524,
      524,
      524,
      524,
      524,
      524,
      523,
      523,
      523,
      523,
      523,
      523,
      523,
      524,
      525,
      525,
      525,
      525,
      527,
      527,
      521,
      521,
      521,
      521,
      521,
      523,
      523,
      523,
      523,
      523,
      523,
      519,
      519,
      518,
      518,
      513,
      513,
      513,
      513,
      513,
      512,
      512,
      512,
      512,
      514,
      506,
      506,
      512,
      512,
      514,
      514,
      514,
      516,
      516,
      516,
      516,
      516,
      516,
      515,
      515,
      515,
      514,
      514,
      514,
      514,
      516,
      516,
      516,
      516,
      516,
      516,
      506,
      506,
      506,
      506,
      506,
      510,
      510,
      514,
      514,
      514,
      514,
      512,
      512,
      512,
      512,
      512,
      512,
      512,
      510,
      510,
      510,
      510,
      520,
      520,
      521,
      521,
      521,
      521,
      521,
      510,
      510,
      510,
      510,
      510,
      511,
      511,
      511,
      511,
      511,
      513,
      513,
      513,
      516,
      516,
      520,
      520,
      520,
      520,
      520,
      529,
      529,
      529,
      529,
      529,
      539,
      532,
      532,
      532,
      530,
      530,
      530,
      530,
      530,
      529,
      529,
      529,
      528,
      528,
      528,
      528,
      528,
      528,
      529,
      529,
      529,
      529,
      529,
      530,
      530,
      530,
      530,
      530,
      530,
      530,
      530,
      530,
      530,
      530,
      530,
      530,
      530,
      530,
      533,
      533,
      533,
      533,
      533,
      533,
      531,
      531,
      531,
      527,
      527,
      525,
      525,
      525,
      525,
      525,
      525,
      522,
      522,
      522,
      522,
      522,
      522,
      526,
      526,
      526,
      526,
      526,
      526,
      532,
      532,
      532,
      532,
      529,
      529,
      529,
      529,
      530,
      530,
      530,
      531,
      531,
      531,
      531,
      531,
      531,
      531,
      534,
      534,
      534,
      535,
      535,
      535,
      535,
      535,
      535,
      535,
      535,
      535,
      528,
      528,
      528,
      528,
      528,
      525,
      525,
      525,
      525,
      526,
      526,
      526,
      512,
      512,
      512,
      512,
      513,
      513,
      513,
      511,
      511,
      511,
      511,
      509,
      509,
      509,
      509,
      505,
      505,
      505,
      505,
      505,
      505,
      504,
      504,
      504,
      514,
      514,
      514,
      514,
      514,
      514,
      513,
      513,
      513,
      494,
      494,
      494,
      494,
      464,
      464,
      450,
      450,
      450,
      450,
      450,
      403,
      403,
      403,
      403,
      378,
      378,
      358,
      358,
      358,
      335,
      335,
      335,
      335,
      303,
      305,
      305,
      305,
      304,
      304,
      304,
      303,
      303,
      303,
      303,
      303,
      303,
      294,
      294,
      297,
      297,
      276,
      277,
      277,
      277,
      254,
      254,
      254,
      209,
      209,
      170,
      170,
      170,
      170,
      124,
      124,
      124,
      124,
      124,
      124
    ],
    "swim:timestamps": [
      1771287513,
      1771287513,
      1771287513,
      1771287513,
      1771287513,
      1771287633,
      1771287633,
      1771287633,
      1771287753,
      1771287753,
      1771287753,
      1771287753,
      1771287753,
      1771287873,
      1771287873,
      1771287933,
      1771287933,
      1771287933,
      1771287933,
      1771287993,
      1771287993,
      1771288114,
      1771288114,
      1771288114,
      1771288114,
      1771288114,
      1771288234,
      1771288234,
      1771288234,
      1771288234,
      1771288320,
      1771288320,
      1771288354,
      1771288354,
      1771288354,
      1771288440,
      1771288474,
      1771288474,
      1771288474,
      1771288534,
      1771288534,
      1771288594,
      1771288594,
      1771288594,
      1771288620,
      1771288620,
      1771288620,
      1771288834,
      1771288834,
      1771288834,
      1771288834,
      1771288834,
      1771288834,
      1771288860,
      1771288920,
      1771288920,
      1771288920,
      1771288920,
      1771288955,
      1771288955,
      1771289041,
      1771289041,
      1771289041,
      1771289135,
      1771289135,
      1771289135,
      1771289135,
      1771289161,
      1771289221,
      1771289221,
      1771289281,
      1771289281,
      1771289315,
      1771289315,
      1771289521,
      1771289521,
      1771289521,
      1771289521,
      1771289521,
      1771289615,
      1771289615,
      1771289615,
      1771289615,
      1771289615,
      1771289615,
      1771289795,
      1771289795,
      1771289856,
      1771289856,
      1771290002,
      1771290002,
      1771290002,
      1771290002,
      1771290002,
      1771290242,
      1771290242,
      1771290242,
      1771290242,
      1771290302,
      1771290362,
      1771290362,
      1771290422,
      1771290422,
      1771290482,
      1771290482,
      1771290482,
      1771290543,
      1771290543,
      1771290543,
      1771290543,
      1771290663,
      1771290663,
      1771290723,
      1771290723,
      1771290723,
      1771290783,
      1771290783,
      1771290783,
      1771290783,
      1771290903,
      1771290951,
      1771290951,
      1771290951,
      1771290951,
      1771290951,
      1771291131,
      1771291131,
      1771291131,
      1771291131,
      1771291143,
      1771291192,
      1771291192,
      1771291264,
      1771291264,
      1771291264,
      1771291264,
      1771291432,
      1771291444,
      1771291444,
      1771291444,
      1771291444,
      1771291444,
      1771291444,
      1771291624,
      1771291624,
      1771291624,
      1771291624,
      1771291672,
      1771291672,
      1771291684,
      1771291684,
      1771291684,
      1771291684,
      1771291684,
      1771291864,
      1771291864,
      1771291864,
      1771291864,
      1771291864,
      1771291913,
      1771291913,
      1771291913,
      1771291913,
      1771291924,
      1771291973,
      1771291973,
      1771291973,
      1771292033,
      1771292033,
      1771292093,
      1771292093,
      1771292093,
      1771292093,
      1771292093,
      1771292573,
      1771292573,
      1771292573,
      1771292573,
      1771292573,
      1771292679,
      1771292739,
      1771292739,
      1771292739,
      1771292754,
      1771292754,
      1771292754,
      1771292754,
      1771292754,
      1771292874,
      1771292874,
      1771292919,
      1771292934,
      1771292934,
      1771292934,
      1771292934,
      1771292934,
      1771292934,
      1771293100,
      1771293100,
      1771293100,
      1771293100,
      1771293100,
      1771293160,
      1771293160,
      1771293174,
      1771293174,
      1771293174,
      1771293220,
      1771293220,
      1771293220,
      1771293234,
      1771293280,
      1771293280,
      1771293280,
      1771293294,
      1771293294,
      1771293294,
      1771293400,
      1771293400,
      1771293415,
      1771293415,
      1771293460,
      1771293460,
      1771293475,
      1771293475,
      1771293475,
      1771293520,
      1771293520,
      1771293581,
      1771293581,
      1771293581,
      1771293581,
      1771293581,
      1771293581,
      1771293761,
      1771293761,
      1771293761,
      1771293761,
      1771293761,
      1771293761,
      1771294061,
      1771294061,
      1771294061,
      1771294061,
      1771294061,
      1771294061,
      1771294182,
      1771294182,
      1771294182,
      1771294182,
      1771294242,
      1771294242,
      1771294242,
      1771294242,
      1771294351,
      1771294351,
      1771294351,
      1771294411,
      1771294411,
      1771294411,
      1771294422,
      1771294422,
      1771294422,
      1771294422,
      1771294603,
      1771294603,
      1771294603,
      1771294651,
      1771294663,
      1771294663,
      1771294663,
      1771294663,
      1771294723,
      1771294723,
      1771294723,
      1771294723,
      1771294843,
      1771294843,
      1771294843,
      1771294843,
      1771294843,
      1771295023,
      1771295023,
      1771295023,
      1771295023,
      1771295072,
      1771295083,
      1771295083,
      1771295192,
      1771295192,
      1771295192,
      1771295192,
      1771295252,
      1771295252,
      1771295252,
      1771295384,
      1771295384,
      1771295384,
      1771295384,
      1771295504,
      1771295504,
      1771295504,
      1771295504,
      1771295553,
      1771295553,
      1771295553,
      1771295553,
      1771295564,
      1771295564,
      1771295613,
      1771295613,
      1771295613,
      1771295793,
      1771295793,
      1771295793,
      1771295853,
      1771295853,
      1771295853,
      1771295913,
      1771295913,
      1771295913,
      1771295973,
      1771295973,
      1771295973,
      1771295973,
      1771296094,
      1771296094,
      1771296154,
      1771296154,
      1771296154,
      1771296154,
      1771296154,
      1771296274,
      1771296274,
      1771296274,
      1771296274,
      1771296334,
      1771296334,
      1771296378,
      1771296378,
      1771296378,
      1771296454,
      1771296454,
      1771296454,
      1771296454,
      1771296514,
      1771296558,
      1771296558,
      1771296558,
      1771296634,
      1771296634,
      1771296634,
      1771296672,
      1771296672,
      1771296732,
      1771296732,
      1771296732,
      1771296732,
      1771296792,
      1771296792,
      1771296815,
      1771296815,
      1771296858,
      1771296875,
      1771296875,
      1771296875,
      1771296918,
      1771296918,
      1771296918,
      1771296978,
      1771296978,
      1771297055,
      1771297055,
      1771297055,
      1771297055,
      1771297218,
      1771297218,
      1771297218,
      1771297218,
      1771297218,
      1771297218
    ],
    "wof:geomhash": "239fcaf699bea45a000abb1677a37e93",
    "wof:id": 2014810477,
    "wof:repo": "sfomuseum-data-flights-2026-02"
  },
  "bbox": [
    -122.33611111111111,
    32.916666666666664,
    -97.02555555555556,
    38.511944444444445
  ],
  "geometry": {"coordinates":[[-122.33611111111111,37.64861111111111],[-122.33611111111111,37.64861111111111],[-122.33611111111111,37.64861111111111],[-122.33611111111111,37.64861111111111],[-122.33611111111111,37.64861111111111],[-122.18305555555555,37.73361111111111],[-122.18305555555555,37.73361111111111],[-122.18305555555555,37.73361111111111],[-121.98222222222222,37.83111111111111],[-121.98222222222222,37.83111111111111],[-121.98222222222222,37.83111111111111],[-121.98222222222222,37.83111111111111],[-121.98222222222222,37.83111111111111],[-121.72333333333333,37.87833333333333],[-121.72333333333333,37.87833333333333],[-121.58611111111111,37.90333333333333],[-121.58611111111111,37.90333333333333],[-121.58611111111111,37.90333333333333],[-121.58611111111111,37.90333333333333],[-121.44777777777779,37.92861111111111],[-121.44777777777779,37.92861111111111],[-121.16194444444444,37.980555555555554],[-121.16194444444444,37.980555555555554],[-121.16194444444444,37.980555555555554],[-121.16194444444444,37.980555555555554],[-121.16194444444444,37.980555555555554],[-120.85249999999999,38.02972222222222],[-120.85249999999999,38.02972222222222],[-120.85249999999999,38.02972222222222],[-120.85249999999999,38.02972222222222],[-120.61138888888888,38.065555555555555],[-120.61138888888888,38.065555555555555],[-120.52305555555556,38.080000000000005],[-120.52305555555556,38.080000000000005],[-120.52305555555556,38.080000000000005],[-120.265,38.11694444444444],[-120.17527777777778,38.13194444444444],[-120.17527777777778,38.13194444444444],[-120.17527777777778,38.13194444444444],[-119.99861111111112,38.157777777777774],[-119.99861111111112,38.157777777777774],[-119.81944444444444,38.18388888888889],[-119.81944444444444,38.18388888888889],[-119.81944444444444,38.18388888888889],[-119.73388888888888,38.19499999999999],[-119.73388888888888,38.19499999999999],[-119.73388888888888,38.19499999999999],[-119.08999999999999,38.28666666666666],[-119.08999999999999,38.28666666666666],[-119.08999999999999,38.28666666666666],[-119.08999999999999,38.28666666666666],[-119.08999999999999,38.28666666666666],[-119.08999999999999,38.28666666666666],[-119.01583333333333,38.29666666666667],[-118.83527777777778,38.32083333333334],[-118.83527777777778,38.32083333333334],[-118.83527777777778,38.32083333333334],[-118.83527777777778,38.32083333333334],[-118.72472222222223,38.33638888888889],[-118.72472222222223,38.33638888888889],[-118.47444444444444,38.36972222222222],[-118.47444444444444,38.36972222222222],[-118.47444444444444,38.36972222222222],[-118.1825,38.407777777777774],[-118.1825,38.407777777777774],[-118.1825,38.407777777777774],[-118.1825,38.407777777777774],[-118.08361111111111,38.420833333333334],[-117.89916666666667,38.44444444444444],[-117.89916666666667,38.44444444444444],[-117.75166666666667,38.463055555555556],[-117.75166666666667,38.463055555555556],[-117.6363888888889,38.4775],[-117.6363888888889,38.4775],[-116.99805555555555,38.511944444444445],[-116.99805555555555,38.511944444444445],[-116.99805555555555,38.511944444444445],[-116.99805555555555,38.511944444444445],[-116.99805555555555,38.511944444444445],[-116.69638888888889,38.50222222222222],[-116.69638888888889,38.50222222222222],[-116.69638888888889,38.50222222222222],[-116.69638888888889,38.50222222222222],[-116.69638888888889,38.50222222222222],[-116.69638888888889,38.50222222222222],[-116.1438888888889,38.473055555555554],[-116.1438888888889,38.473055555555554],[-115.9625,38.44472222222222],[-115.9625,38.44472222222222],[-115.53861111111111,38.37777777777778],[-115.53861111111111,38.37777777777778],[-115.53861111111111,38.37777777777778],[-115.53861111111111,38.37777777777778],[-115.53861111111111,38.37777777777778],[-114.83749999999999,38.2625],[-114.83749999999999,38.2625],[-114.83749999999999,38.2625],[-114.83749999999999,38.2625],[-114.66000000000001,38.2325],[-114.48527777777778,38.20305555555556],[-114.48527777777778,38.20305555555556],[-114.30722222222222,38.1725],[-114.30722222222222,38.1725],[-114.12888888888888,38.14194444444444],[-114.12888888888888,38.14194444444444],[-114.12888888888888,38.14194444444444],[-113.95138888888889,38.11083333333333],[-113.95138888888889,38.11083333333333],[-113.95138888888889,38.11083333333333],[-113.95138888888889,38.11083333333333],[-113.59722222222221,38.04805555555556],[-113.59722222222221,38.04805555555556],[-113.41916666666667,38.01611111111111],[-113.41916666666667,38.01611111111111],[-113.41916666666667,38.01611111111111],[-113.24388888888889,37.98444444444444],[-113.24388888888889,37.98444444444444],[-113.24388888888889,37.98444444444444],[-113.24388888888889,37.98444444444444],[-112.88694444444445,37.91861111111111],[-112.745,37.8925],[-112.745,37.8925],[-112.745,37.8925],[-112.745,37.8925],[-112.745,37.8925],[-112.22083333333333,37.79333333333333],[-112.22083333333333,37.79333333333333],[-112.22083333333333,37.79333333333333],[-112.22083333333333,37.79333333333333],[-112.18472222222222,37.78638888888889],[-112.04694444444445,37.75972222222222],[-112.04694444444445,37.75972222222222],[-111.83444444444444,37.718333333333334],[-111.83444444444444,37.718333333333334],[-111.83444444444444,37.718333333333334],[-111.83444444444444,37.718333333333334],[-111.34638888888888,37.62166666666667],[-111.31305555555555,37.615],[-111.31305555555555,37.615],[-111.31305555555555,37.615],[-111.31305555555555,37.615],[-111.31305555555555,37.615],[-111.31305555555555,37.615],[-110.79638888888888,37.51027777777778],[-110.79638888888888,37.51027777777778],[-110.79638888888888,37.51027777777778],[-110.79638888888888,37.51027777777778],[-110.6563888888889,37.481388888888894],[-110.6563888888889,37.481388888888894],[-110.61944444444444,37.473888888888894],[-110.61944444444444,37.473888888888894],[-110.61944444444444,37.473888888888894],[-110.61944444444444,37.473888888888894],[-110.61944444444444,37.473888888888894],[-110.10138888888888,37.36555555555556],[-110.10138888888888,37.36555555555556],[-110.10138888888888,37.36555555555556],[-110.10138888888888,37.36555555555556],[-110.10138888888888,37.36555555555556],[-109.9575,37.335],[-109.9575,37.335],[-109.9575,37.335],[-109.9575,37.335],[-109.92750000000001,37.328611111111115],[-109.78611111111111,37.29805555555556],[-109.78611111111111,37.29805555555556],[-109.78611111111111,37.29805555555556],[-109.60944444444443,37.26],[-109.60944444444443,37.26],[-109.43388888888889,37.22166666666667],[-109.43388888888889,37.22166666666667],[-109.43388888888889,37.22166666666667],[-109.43388888888889,37.22166666666667],[-109.43388888888889,37.22166666666667],[-108.03222222222222,36.90611111111111],[-108.03222222222222,36.90611111111111],[-108.03222222222222,36.90611111111111],[-108.03222222222222,36.90611111111111],[-108.03222222222222,36.90611111111111],[-107.74305555555556,36.83833333333334],[-107.56722222222221,36.79722222222222],[-107.56722222222221,36.79722222222222],[-107.56722222222221,36.79722222222222],[-107.49777777777778,36.780833333333334],[-107.49777777777778,36.780833333333334],[-107.49777777777778,36.780833333333334],[-107.49777777777778,36.780833333333334],[-107.49777777777778,36.780833333333334],[-107.14611111111111,36.69638888888888],[-107.14611111111111,36.69638888888888],[-107.04055555555556,36.67111111111111],[-106.97333333333333,36.65472222222222],[-106.97333333333333,36.65472222222222],[-106.97333333333333,36.65472222222222],[-106.97333333333333,36.65472222222222],[-106.97333333333333,36.65472222222222],[-106.97333333333333,36.65472222222222],[-106.49527777777777,36.53777777777778],[-106.49527777777777,36.53777777777778],[-106.49527777777777,36.53777777777778],[-106.49527777777777,36.53777777777778],[-106.49527777777777,36.53777777777778],[-106.31944444444444,36.494166666666665],[-106.31944444444444,36.494166666666665],[-106.27638888888889,36.483333333333334],[-106.27638888888889,36.483333333333334],[-106.27638888888889,36.483333333333334],[-106.14111111111112,36.44944444444444],[-106.14111111111112,36.44944444444444],[-106.14111111111112,36.44944444444444],[-106.09805555555555,36.43861111111111],[-105.97472222222223,36.4075],[-105.97472222222223,36.4075],[-105.97472222222223,36.4075],[-105.92277777777778,36.394444444444446],[-105.92277777777778,36.394444444444446],[-105.92277777777778,36.394444444444446],[-105.61749999999999,36.31666666666667],[-105.61749999999999,36.31666666666667],[-105.57722222222222,36.30638888888888],[-105.57722222222222,36.30638888888888],[-105.45138888888889,36.27388888888889],[-105.45138888888889,36.27388888888889],[-105.42833333333334,36.268055555555556],[-105.42833333333334,36.268055555555556],[-105.42833333333334,36.268055555555556],[-105.27972222222222,36.22944444444445],[-105.27972222222222,36.22944444444445],[-105.10277777777777,36.183611111111105],[-105.10277777777777,36.183611111111105],[-105.10277777777777,36.183611111111105],[-105.10277777777777,36.183611111111105],[-105.10277777777777,36.183611111111105],[-105.10277777777777,36.183611111111105],[-104.59416666666667,36.049166666666665],[-104.59416666666667,36.049166666666665],[-104.59416666666667,36.049166666666665],[-104.59416666666667,36.049166666666665],[-104.59416666666667,36.049166666666665],[-104.59416666666667,36.049166666666665],[-103.73611111111111,35.81666666666667],[-103.73611111111111,35.81666666666667],[-103.73611111111111,35.81666666666667],[-103.73611111111111,35.81666666666667],[-103.73611111111111,35.81666666666667],[-103.73611111111111,35.81666666666667],[-103.39,35.721111111111114],[-103.39,35.721111111111114],[-103.39,35.721111111111114],[-103.39,35.721111111111114],[-103.21916666666667,35.67333333333333],[-103.21916666666667,35.67333333333333],[-103.21916666666667,35.67333333333333],[-103.21916666666667,35.67333333333333],[-102.89916666666667,35.58305555555556],[-102.89916666666667,35.58305555555556],[-102.89916666666667,35.58305555555556],[-102.72777777777777,35.534166666666664],[-102.72777777777777,35.534166666666664],[-102.72777777777777,35.534166666666664],[-102.70527777777778,35.52777777777778],[-102.70527777777778,35.52777777777778],[-102.70527777777778,35.52777777777778],[-102.70527777777778,35.52777777777778],[-102.21027777777778,35.385],[-102.21027777777778,35.385],[-102.21027777777778,35.385],[-102.04388888888889,35.33638888888889],[-102.04055555555556,35.33527777777778],[-102.04055555555556,35.33527777777778],[-102.04055555555556,35.33527777777778],[-102.04055555555556,35.33527777777778],[-101.84638888888888,35.27833333333333],[-101.84638888888888,35.27833333333333],[-101.84638888888888,35.27833333333333],[-101.84638888888888,35.27833333333333],[-101.54055555555556,35.16888888888889],[-101.54055555555556,35.16888888888889],[-101.54055555555556,35.16888888888889],[-101.54055555555556,35.16888888888889],[-101.54055555555556,35.16888888888889],[-101.04944444444445,34.963055555555556],[-101.04944444444445,34.963055555555556],[-101.04944444444445,34.963055555555556],[-101.04944444444445,34.963055555555556],[-100.92277777777778,34.909444444444446],[-100.8913888888889,34.89611111111111],[-100.8913888888889,34.89611111111111],[-100.61388888888888,34.778055555555554],[-100.61388888888888,34.778055555555554],[-100.61388888888888,34.778055555555554],[-100.61388888888888,34.778055555555554],[-100.46194444444444,34.713055555555556],[-100.46194444444444,34.713055555555556],[-100.46194444444444,34.713055555555556],[-100.12388888888889,34.566944444444445],[-100.12388888888889,34.566944444444445],[-100.12388888888889,34.566944444444445],[-100.12388888888889,34.566944444444445],[-99.83555555555554,34.441111111111105],[-99.83555555555554,34.441111111111105],[-99.83555555555554,34.441111111111105],[-99.83555555555554,34.441111111111105],[-99.6875,34.376111111111115],[-99.6875,34.376111111111115],[-99.6875,34.376111111111115],[-99.6875,34.376111111111115],[-99.685,34.375277777777775],[-99.685,34.375277777777775],[-99.53972222222222,34.31083333333333],[-99.53972222222222,34.31083333333333],[-99.53972222222222,34.31083333333333],[-99.08805555555556,34.094166666666666],[-99.08805555555556,34.094166666666666],[-99.08805555555556,34.094166666666666],[-98.94194444444445,34.02388888888889],[-98.94194444444445,34.02388888888889],[-98.94194444444445,34.02388888888889],[-98.7936111111111,33.9525],[-98.7936111111111,33.9525],[-98.7936111111111,33.9525],[-98.65111111111112,33.88333333333333],[-98.65111111111112,33.88333333333333],[-98.65111111111112,33.88333333333333],[-98.65111111111112,33.88333333333333],[-98.37944444444443,33.749722222222225],[-98.37944444444443,33.749722222222225],[-98.25027777777778,33.68666666666666],[-98.25027777777778,33.68666666666666],[-98.25027777777778,33.68666666666666],[-98.25027777777778,33.68666666666666],[-98.25027777777778,33.68666666666666],[-98.00805555555556,33.566944444444445],[-98.00805555555556,33.566944444444445],[-98.00805555555556,33.566944444444445],[-98.00805555555556,33.566944444444445],[-97.8963888888889,33.51111111111111],[-97.8963888888889,33.51111111111111],[-97.81666666666666,33.46666666666667],[-97.81666666666666,33.46666666666667],[-97.81666666666666,33.46666666666667],[-97.69611111111111,33.41111111111111],[-97.69611111111111,33.41111111111111],[-97.69611111111111,33.41111111111111],[-97.69611111111111,33.41111111111111],[-97.60944444444443,33.36388888888889],[-97.55,33.333333333333336],[-97.55,33.333333333333336],[-97.55,33.333333333333336],[-97.42555555555556,33.300555555555555],[-97.42555555555556,33.300555555555555],[-97.42555555555556,33.300555555555555],[-97.36666666666666,33.28333333333333],[-97.36666666666666,33.28333333333333],[-97.26666666666667,33.266666666666666],[-97.26666666666667,33.266666666666666],[-97.26666666666667,33.266666666666666],[-97.26666666666667,33.266666666666666],[-97.16666666666667,33.233333333333334],[-97.16666666666667,33.233333333333334],[-97.1388888888889,33.22777777777778],[-97.1388888888889,33.22777777777778],[-97.08333333333333,33.2],[-97.06,33.18805555555555],[-97.06,33.18805555555555],[-97.06,33.18805555555555],[-97.03333333333333,33.15],[-97.03333333333333,33.15],[-97.03333333333333,33.15],[-97.03333333333333,33.083333333333336],[-97.03333333333333,33.083333333333336],[-97.02555555555556,33.0175],[-97.02555555555556,33.0175],[-97.02555555555556,33.0175],[-97.02555555555556,33.0175],[-97.03333333333333,32.916666666666664],[-97.03333333333333,32.916666666666664],[-97.03333333333333,32.916666666666664],[-97.03333333333333,32.916666666666664],[-97.03333333333333,32.916666666666664],[-97.03333333333333,32.916666666666664]],"type":"LineString"}
}
