{
  "id": 2014782285,
  "type": "Feature",
  "properties": {
    "geom:area": 0,
    "geom:bbox": "-122.331944,37.500000,-74.211389,42.915278",
    "geom:latitude": 40.9095125069616,
    "geom:longitude": -98.32228148112209,
    "src:alt_label": "swim-path",
    "src:geom": "swim",
    "swim:altitudes": [
      "031",
      "031",
      "069",
      "069",
      "069",
      "097",
      "176",
      "176",
      "176",
      "208",
      "253",
      "253",
      "253",
      "272",
      "272",
      "313",
      "320C",
      "320C",
      "320C",
      "320C",
      "320C",
      "320C",
      "320C",
      "320C",
      "320C",
      "320C",
      "320C",
      "320C",
      "320C",
      "320C",
      "320C",
      "320C",
      "320C",
      "320C",
      "327",
      "327",
      "340C",
      "340C",
      "340C",
      "340C",
      "340C",
      "340C",
      "340C",
      "340C",
      "340C",
      "340C",
      "340C",
      "340C",
      "340C",
      "340C",
      "340C",
      "340C",
      "340C",
      "340C",
      "340C",
      "340C",
      "340C",
      "340C",
      "340C",
      "340C",
      "340C",
      "340C",
      "340C",
      "340C",
      "340C",
      "340C",
      "340C",
      "340C",
      "340C",
      "340C",
      "340C",
      "340C",
      "340C",
      "340C",
      "340C",
      "340C",
      "340C",
      "340C",
      "340C",
      "340C",
      "340C",
      "340C",
      "340C",
      "340C",
      "340C",
      "340C",
      "340C",
      "340C",
      "340C",
      "340C",
      "340C",
      "340C",
      "340C",
      "340C",
      "340C",
      "340C",
      "340C",
      "340C",
      "340C",
      "340C",
      "340C",
      "340C",
      "340C",
      "340C",
      "340C",
      "340C",
      "340C",
      "340C",
      "340C",
      "340C",
      "340C",
      "340C",
      "340C",
      "340C",
      "340C",
      "340C",
      "340C",
      "340C",
      "340C",
      "340C",
      "340C",
      "340C",
      "340C",
      "340C",
      "340C",
      "340C",
      "340C",
      "340C",
      "340C",
      "340C",
      "340C",
      "340C",
      "340C",
      "340C",
      "340C",
      "340C",
      "340C",
      "340C",
      "340C",
      "340C",
      "340C",
      "340C",
      "340C",
      "340C",
      "340C",
      "340C",
      "340C",
      "340C",
      "340C",
      "340C",
      "360C",
      "360C",
      "360C",
      "360C",
      "360C",
      "360C",
      "360C",
      "360C",
      "360C",
      "360C",
      "360C",
      "360C",
      "360C",
      "360C",
      "360C",
      "360C",
      "360C",
      "360C",
      "360C",
      "360C",
      "360C",
      "360C",
      "360C",
      "360C",
      "360C",
      "360C",
      "360C",
      "360C",
      "360C",
      "360C",
      "360C",
      "360C",
      "360C",
      "360C",
      "360C",
      "360",
      "340C",
      "340C",
      "340C",
      "340C",
      "340C",
      "320",
      "320",
      "340C",
      "340C",
      "340C",
      "340C",
      "340C",
      "340C",
      "340C",
      "340C",
      "340C",
      "340C",
      "340C",
      "340C",
      "340C",
      "340C",
      "340C",
      "340C",
      "340C",
      "340C",
      "340C",
      "340C",
      "340C",
      "340C",
      "340C",
      "340C",
      "340C",
      "340C",
      "340C",
      "340C",
      "340C",
      "340C",
      "340C",
      "340C",
      "340C",
      "340C",
      "340C",
      "340C",
      "340C",
      "340C",
      "340C",
      "340C",
      "340C",
      "340C",
      "340C",
      "340",
      "293",
      "259",
      "239",
      "232",
      "205",
      "186",
      "166",
      "123",
      "094",
      "060",
      "055",
      "048",
      "035",
      "013",
      "011",
      "006"
    ],
    "swim:geom": "path",
    "swim:speeds": [
      201,
      201,
      252,
      252,
      252,
      255,
      370,
      370,
      370,
      374,
      411,
      411,
      411,
      423,
      423,
      442,
      440,
      440,
      442,
      442,
      439,
      439,
      438,
      436,
      425,
      421,
      421,
      421,
      421,
      420,
      420,
      419,
      419,
      419,
      418,
      418,
      415,
      415,
      416,
      417,
      417,
      417,
      417,
      417,
      417,
      416,
      416,
      416,
      416,
      416,
      416,
      413,
      413,
      413,
      411,
      409,
      409,
      406,
      406,
      407,
      407,
      407,
      407,
      411,
      411,
      413,
      413,
      417,
      417,
      419,
      419,
      419,
      415,
      413,
      413,
      414,
      415,
      414,
      414,
      415,
      416,
      416,
      418,
      417,
      417,
      417,
      418,
      420,
      419,
      420,
      420,
      418,
      418,
      418,
      418,
      418,
      419,
      419,
      418,
      418,
      419,
      419,
      420,
      420,
      421,
      421,
      422,
      422,
      422,
      422,
      422,
      423,
      423,
      423,
      423,
      424,
      424,
      424,
      424,
      433,
      436,
      436,
      438,
      438,
      438,
      439,
      439,
      439,
      439,
      439,
      440,
      440,
      441,
      443,
      443,
      443,
      443,
      438,
      438,
      434,
      429,
      428,
      428,
      427,
      427,
      426,
      424,
      424,
      415,
      415,
      399,
      399,
      398,
      398,
      399,
      397,
      400,
      400,
      402,
      402,
      394,
      394,
      394,
      386,
      382,
      381,
      379,
      379,
      376,
      376,
      374,
      374,
      374,
      373,
      374,
      374,
      375,
      375,
      374,
      374,
      374,
      374,
      374,
      374,
      374,
      374,
      362,
      363,
      365,
      369,
      372,
      399,
      400,
      404,
      421,
      432,
      453,
      464,
      469,
      485,
      486,
      485,
      496,
      492,
      487,
      486,
      474,
      472,
      473,
      471,
      472,
      470,
      470,
      471,
      470,
      471,
      471,
      470,
      471,
      468,
      466,
      465,
      464,
      463,
      462,
      461,
      460,
      457,
      447,
      446,
      446,
      445,
      445,
      446,
      446,
      444,
      443,
      445,
      391,
      380,
      373,
      355,
      348,
      346,
      321,
      279,
      243,
      246,
      235,
      217,
      150,
      144,
      145
    ],
    "swim:timestamps": [
      1771015824,
      1771015824,
      1771015892,
      1771015892,
      1771015892,
      1771015945,
      1771016185,
      1771016185,
      1771016185,
      1771016245,
      1771016365,
      1771016365,
      1771016365,
      1771016425,
      1771016425,
      1771016545,
      1771016605,
      1771016605,
      1771016641,
      1771016641,
      1771016666,
      1771016701,
      1771016726,
      1771016761,
      1771016786,
      1771016881,
      1771016906,
      1771016941,
      1771016941,
      1771017001,
      1771017001,
      1771017026,
      1771017026,
      1771017062,
      1771017122,
      1771017122,
      1771017182,
      1771017206,
      1771017242,
      1771017266,
      1771017302,
      1771017302,
      1771017327,
      1771017362,
      1771017362,
      1771017422,
      1771017422,
      1771017507,
      1771017567,
      1771017567,
      1771017602,
      1771017722,
      1771017722,
      1771017722,
      1771017867,
      1771017963,
      1771017963,
      1771018083,
      1771018083,
      1771018143,
      1771018203,
      1771018263,
      1771018263,
      1771018624,
      1771018624,
      1771018684,
      1771018684,
      1771018864,
      1771018864,
      1771018984,
      1771019104,
      1771019104,
      1771019224,
      1771019285,
      1771019345,
      1771019472,
      1771019525,
      1771019532,
      1771019532,
      1771019585,
      1771019645,
      1771019645,
      1771019712,
      1771019772,
      1771019832,
      1771019832,
      1771019892,
      1771020006,
      1771020012,
      1771020306,
      1771020306,
      1771020433,
      1771020433,
      1771020546,
      1771020546,
      1771020553,
      1771020606,
      1771020666,
      1771020733,
      1771020793,
      1771020853,
      1771020914,
      1771020974,
      1771020974,
      1771021094,
      1771021094,
      1771021154,
      1771021154,
      1771021394,
      1771021394,
      1771021454,
      1771021514,
      1771021574,
      1771021634,
      1771021634,
      1771021995,
      1771021995,
      1771022101,
      1771022101,
      1771022235,
      1771022461,
      1771022476,
      1771022536,
      1771022536,
      1771022581,
      1771022596,
      1771022656,
      1771022656,
      1771022702,
      1771022716,
      1771022822,
      1771022822,
      1771022884,
      1771023062,
      1771023062,
      1771023124,
      1771023182,
      1771023351,
      1771023351,
      1771023411,
      1771023531,
      1771023545,
      1771023545,
      1771023651,
      1771023651,
      1771023725,
      1771023831,
      1771023831,
      1771024071,
      1771024071,
      1771024372,
      1771024372,
      1771024432,
      1771024432,
      1771024492,
      1771024612,
      1771024672,
      1771024672,
      1771024853,
      1771024853,
      1771025033,
      1771025093,
      1771025093,
      1771025213,
      1771025274,
      1771025333,
      1771025454,
      1771025454,
      1771025574,
      1771025574,
      1771025934,
      1771025995,
      1771025995,
      1771026055,
      1771026175,
      1771026175,
      1771026352,
      1771026352,
      1771026412,
      1771026712,
      1771026772,
      1771026772,
      1771026832,
      1771026892,
      1771026892,
      1771026952,
      1771027317,
      1771027677,
      1771027733,
      1771028098,
      1771028394,
      1771028819,
      1771028935,
      1771029175,
      1771029359,
      1771029536,
      1771029956,
      1771030201,
      1771030317,
      1771030561,
      1771030858,
      1771030918,
      1771031158,
      1771031398,
      1771031458,
      1771031518,
      1771032119,
      1771032239,
      1771032272,
      1771032299,
      1771032332,
      1771032360,
      1771032420,
      1771032452,
      1771032480,
      1771032512,
      1771032572,
      1771032600,
      1771032632,
      1771032720,
      1771032752,
      1771032780,
      1771032840,
      1771032873,
      1771032993,
      1771033081,
      1771033125,
      1771033141,
      1771033305,
      1771033321,
      1771033381,
      1771033485,
      1771033561,
      1771033726,
      1771033786,
      1771033966,
      1771034146,
      1771034267,
      1771034387,
      1771034447,
      1771034464,
      1771034567,
      1771034627,
      1771034687,
      1771034824,
      1771034987,
      1771035184,
      1771035228,
      1771035244,
      1771035304,
      1771035468,
      1771035484,
      1771035528
    ],
    "wof:geomhash": "8f0baad25e563b707d25e00e6b5567d1",
    "wof:id": 2014782285,
    "wof:repo": "sfomuseum-data-flights-2026-02"
  },
  "bbox": [
    -122.33194444444445,
    37.5,
    -74.21138888888889,
    42.915277777777774
  ],
  "geometry": {"coordinates":[[-74.21138888888889,40.63722222222222],[-74.21138888888889,40.63722222222222],[-74.28333333333333,40.7],[-74.28333333333333,40.7],[-74.28333333333333,40.7],[-74.35249999999999,40.709722222222226],[-74.83361111111111,40.835],[-74.83361111111111,40.835],[-74.83361111111111,40.835],[-74.96833333333333,40.869166666666665],[-75.22694444444444,40.90888888888889],[-75.22694444444444,40.90888888888889],[-75.22694444444444,40.90888888888889],[-75.37444444444444,40.87416666666667],[-75.37444444444444,40.87416666666667],[-75.68527777777778,40.800555555555555],[-75.83888888888889,40.763888888888886],[-75.83888888888889,40.763888888888886],[-75.92888888888889,40.74111111111111],[-75.92888888888889,40.74111111111111],[-75.99194444444444,40.72694444444445],[-76.08083333333333,40.705555555555556],[-76.1463888888889,40.689166666666665],[-76.2475,40.67333333333333],[-76.29916666666666,40.675555555555555],[-76.55083333333333,40.71277777777778],[-76.59583333333333,40.71944444444445],[-76.70166666666667,40.735],[-76.70166666666667,40.735],[-76.85138888888888,40.75666666666667],[-76.85138888888888,40.75666666666667],[-76.90527777777778,40.764722222222225],[-76.90527777777778,40.764722222222225],[-77.00083333333333,40.77833333333333],[-77.14916666666667,40.79972222222222],[-77.14916666666667,40.79972222222222],[-77.29972222222221,40.82083333333334],[-77.35499999999999,40.828611111111115],[-77.44972222222222,40.841944444444444],[-77.51027777777777,40.85027777777778],[-77.60194444444444,40.863055555555555],[-77.60194444444444,40.863055555555555],[-77.65944444444445,40.87083333333334],[-77.75,40.88333333333333],[-77.75,40.88333333333333],[-77.89888888888889,40.90361111111111],[-77.89888888888889,40.90361111111111],[-78.11194444444443,40.93111111111111],[-78.26222222222222,40.94944444444444],[-78.26222222222222,40.94944444444444],[-78.3536111111111,40.96055555555556],[-78.66277777777778,40.99777777777778],[-78.66277777777778,40.99777777777778],[-78.66277777777778,40.99777777777778],[-79.00138888888888,41.0375],[-79.22833333333334,41.06361111111111],[-79.22833333333334,41.06361111111111],[-79.52305555555556,41.09666666666667],[-79.52305555555556,41.09666666666667],[-79.6725,41.113055555555555],[-79.82027777777778,41.12916666666667],[-79.96722222222222,41.144999999999996],[-79.96722222222222,41.144999999999996],[-80.89277777777778,41.24],[-80.89277777777778,41.24],[-81.04472222222222,41.255],[-81.04472222222222,41.255],[-81.50277777777778,41.29861111111111],[-81.50277777777778,41.29861111111111],[-81.79472222222222,41.32527777777778],[-82.10083333333333,41.3525],[-82.10083333333333,41.3525],[-82.39972222222222,41.401944444444446],[-82.5475,41.428888888888885],[-82.69722222222222,41.45611111111111],[-83.00694444444444,41.51083333333333],[-83.14305555555556,41.535555555555554],[-83.15444444444445,41.53805555555555],[-83.15444444444445,41.53805555555555],[-83.2911111111111,41.56166666666666],[-83.44333333333334,41.588055555555556],[-83.44333333333334,41.588055555555556],[-83.60305555555556,41.61555555555556],[-83.75777777777778,41.64222222222222],[-83.90444444444445,41.66694444444444],[-83.90444444444445,41.66694444444444],[-84.05749999999999,41.692499999999995],[-84.36055555555555,41.74305555555556],[-84.36305555555555,41.74333333333333],[-85.12222222222222,41.86555555555556],[-85.12222222222222,41.86555555555556],[-85.45194444444445,41.91694444444444],[-85.45194444444445,41.91694444444444],[-85.72277777777778,41.958333333333336],[-85.72277777777778,41.958333333333336],[-85.75583333333333,41.96333333333334],[-85.87527777777777,41.981388888888894],[-86.025,42.00694444444444],[-86.20444444444445,42.05444444444444],[-86.35083333333333,42.09305555555556],[-86.50027777777778,42.1325],[-86.64611111111111,42.17055555555555],[-86.79472222222222,42.20916666666667],[-86.79472222222222,42.20916666666667],[-87.09416666666667,42.28638888888889],[-87.09416666666667,42.28638888888889],[-87.24277777777777,42.32416666666667],[-87.24277777777777,42.32416666666667],[-87.82972222222222,42.47138888888889],[-87.82972222222222,42.47138888888889],[-87.98194444444445,42.509166666666665],[-88.13277777777778,42.54611111111111],[-88.28416666666666,42.58416666666667],[-88.435,42.62222222222222],[-88.435,42.62222222222222],[-89.35027777777778,42.846111111111114],[-89.35027777777778,42.846111111111114],[-89.62694444444443,42.9125],[-89.62694444444443,42.9125],[-89.9863888888889,42.915277777777774],[-90.61944444444444,42.88305555555556],[-90.64916666666667,42.88138888888889],[-90.81472222222222,42.8725],[-90.81472222222222,42.8725],[-90.94888888888889,42.86527777777778],[-90.9825,42.86333333333334],[-91.14750000000001,42.85416666666667],[-91.14750000000001,42.85416666666667],[-91.28027777777778,42.84638888888889],[-91.31083333333333,42.844722222222224],[-91.60555555555555,42.82694444444445],[-91.60555555555555,42.82694444444445],[-91.76527777777778,42.816944444444445],[-92.2625,42.785],[-92.2625,42.785],[-92.42750000000001,42.77361111111111],[-92.59388888888888,42.76222222222222],[-93.05555555555556,42.72888888888889],[-93.05555555555556,42.72888888888889],[-93.21722222222222,42.71666666666667],[-93.53722222222223,42.69222222222222],[-93.60166666666666,42.68722222222222],[-93.60166666666666,42.68722222222222],[-93.85694444444444,42.666666666666664],[-93.85694444444444,42.666666666666664],[-94.07694444444444,42.64861111111111],[-94.33166666666666,42.62694444444445],[-94.33166666666666,42.62694444444445],[-94.98111111111112,42.569722222222225],[-94.98111111111112,42.569722222222225],[-95.72888888888889,42.49888888888889],[-95.72888888888889,42.49888888888889],[-95.875,42.48444444444444],[-95.875,42.48444444444444],[-96.02472222222222,42.46944444444445],[-96.31916666666666,42.43944444444444],[-96.46611111111112,42.424166666666665],[-96.46611111111112,42.424166666666665],[-96.91333333333334,42.37638888888889],[-96.91333333333334,42.37638888888889],[-97.35444444444444,42.3275],[-97.50166666666667,42.31083333333333],[-97.50166666666667,42.31083333333333],[-97.78694444444444,42.27777777777778],[-97.9413888888889,42.25972222222222],[-98.08083333333333,42.24305555555556],[-98.36027777777777,42.20944444444445],[-98.36027777777777,42.20944444444445],[-98.6363888888889,42.17527777777777],[-98.6363888888889,42.17527777777777],[-99.45944444444444,42.069722222222225],[-99.59638888888888,42.05166666666666],[-99.59638888888888,42.05166666666666],[-99.73416666666667,42.033055555555556],[-100.01055555555556,41.995555555555555],[-100.01055555555556,41.995555555555555],[-100.4063888888889,41.93861111111111],[-100.4063888888889,41.93861111111111],[-100.54444444444444,41.91888888888889],[-101.22611111111111,41.82],[-101.36138888888888,41.80166666666666],[-101.36138888888888,41.80166666666666],[-101.49722222222222,41.782222222222224],[-101.63361111111112,41.76111111111111],[-101.63361111111112,41.76111111111111],[-101.77222222222223,41.73916666666667],[-102.57416666666666,41.61277777777778],[-103.35527777777777,41.48388888888889],[-103.48694444444445,41.46027777777778],[-104.28083333333333,41.32333333333334],[-104.94583333333334,41.20138888888889],[-105.92166666666667,41.01861111111111],[-106.20333333333333,40.96333333333334],[-106.7761111111111,40.84777777777778],[-107.22333333333333,40.75833333333333],[-107.67444444444445,40.66416666666667],[-108.77166666666666,40.42638888888889],[-109.43944444444445,40.27583333333333],[-109.73333333333333,40.20805555555556],[-110.42777777777778,40.044444444444444],[-111.27,39.839444444444446],[-111.4375,39.79805555555556],[-112.10472222222222,39.62916666666667],[-112.78833333333333,39.45138888888889],[-112.95277777777778,39.407777777777774],[-113.08277777777778,39.373333333333335],[-114.72472222222223,38.92055555555555],[-115.03916666666666,38.830555555555556],[-115.10388888888889,38.81194444444444],[-115.19611111111111,38.78527777777778],[-115.26138888888889,38.76694444444444],[-115.35277777777777,38.73972222222222],[-115.49555555555555,38.698055555555555],[-115.59194444444444,38.66972222222222],[-115.65305555555557,38.651944444444446],[-115.74805555555555,38.62416666666667],[-115.90333333333334,38.57777777777778],[-115.96583333333334,38.55916666666666],[-116.06166666666667,38.53055555555555],[-116.2761111111111,38.46611111111111],[-116.36777777777777,38.43861111111111],[-116.42777777777778,38.42055555555555],[-116.58138888888888,38.37361111111111],[-116.6738888888889,38.345555555555556],[-116.97916666666667,38.25138888888889],[-117.185,38.1875],[-117.31083333333333,38.14861111111111],[-117.35583333333332,38.1375],[-117.76027777777777,38.07944444444445],[-117.82111111111111,38.07138888888889],[-117.97472222222223,38.05083333333333],[-118.22444444444444,38.01722222222222],[-118.43833333333333,37.988055555555555],[-118.84444444444443,37.93111111111111],[-118.99666666666667,37.909444444444446],[-119.46111111111111,37.842222222222226],[-119.92194444444445,37.77333333333333],[-120.22500000000001,37.72694444444445],[-120.51277777777777,37.686388888888885],[-120.64472222222223,37.671388888888885],[-120.7,37.666666666666664],[-120.89583333333334,37.64083333333333],[-121.01611111111112,37.62583333333333],[-121.135,37.61],[-121.41666666666667,37.583333333333336],[-121.68416666666667,37.53666666666666],[-121.98333333333333,37.5],[-122.03861111111111,37.500277777777775],[-122.06666666666666,37.5],[-122.13333333333334,37.516666666666666],[-122.28777777777778,37.58444444444444],[-122.3,37.583333333333336],[-122.33194444444445,37.60305555555556]],"type":"LineString"}
}
