{
  "id": 2014742537,
  "type": "Feature",
  "properties": {
    "geom:area": 0,
    "geom:bbox": "-122.354900,37.491340,-121.273010,37.612530",
    "geom:latitude": 37.54565903303701,
    "geom:longitude": -121.81871196919205,
    "src:alt_label": "swim-approach",
    "src:geom": "swim",
    "swim:elevations": [
      4886,
      4801,
      4344,
      3966,
      3711,
      3476,
      3263,
      3156,
      3059,
      2768,
      2558,
      2525,
      2391,
      2072,
      2011,
      1845,
      1705,
      1655,
      1435,
      1179,
      990,
      968,
      734,
      639,
      453,
      396,
      318,
      247,
      151,
      22
    ],
    "swim:geom": "approach",
    "swim:timestamps": [
      1770560036,
      1770560044,
      1770560086,
      1770560122,
      1770560150,
      1770560174,
      1770560214,
      1770560241,
      1770560255,
      1770560296,
      1770560337,
      1770560351,
      1770560371,
      1770560425,
      1770560443,
      1770560485,
      1770560516,
      1770560527,
      1770560562,
      1770560603,
      1770560638,
      1770560644,
      1770560688,
      1770560709,
      1770560749,
      1770560766,
      1770560785,
      1770560804,
      1770560830,
      1770560857
    ],
    "wof:geomhash": "32cca042727079d8868100cc88d3afd0",
    "wof:id": 2014742537,
    "wof:repo": "sfomuseum-data-flights-2026-02"
  },
  "bbox": [
    -122.3549,
    37.49134,
    -121.27301,
    37.61253
  ],
  "geometry": {"coordinates":[[-121.27301,37.59146],[-121.28749,37.58964],[-121.36358,37.58136],[-121.42891,37.57361],[-121.47836,37.56795],[-121.52163,37.56287],[-121.5903,37.55482],[-121.63295,37.54879],[-121.65404,37.54379],[-121.71646,37.5289],[-121.7779,37.51421],[-121.79705,37.50965],[-121.82412,37.5032],[-121.89808,37.49134],[-121.92268,37.49207],[-121.97867,37.49381],[-122.01694,37.50409],[-122.03002,37.50831],[-122.07186,37.5218],[-122.12055,37.53772],[-122.16058,37.55067],[-122.16728,37.55285],[-122.2123,37.56733],[-122.23349,37.57423],[-122.27067,37.58577],[-122.28452,37.58962],[-122.29963,37.59433],[-122.31432,37.59873],[-122.33423,37.60476],[-122.3549,37.61253]],"type":"LineString"}
}
