{
  "id": 2014772073,
  "type": "Feature",
  "properties": {
    "geom:area": 0,
    "geom:bbox": "-122.532900,37.457060,-121.255510,37.632930",
    "geom:latitude": 37.54981042840188,
    "geom:longitude": -122.03598339218993,
    "src:alt_label": "swim-approach",
    "src:geom": "swim",
    "swim:elevations": [
      4694,
      4461,
      4080,
      3813,
      3549,
      3512,
      3319,
      3318,
      3201,
      3016,
      2926,
      2554,
      2482,
      2389,
      2171,
      2134,
      2066,
      1992,
      1883,
      1682,
      1556,
      1305,
      1217,
      1008,
      848,
      800,
      659,
      366,
      248,
      181,
      109,
      2,
      417,
      582,
      940,
      945,
      1189,
      1405,
      1524,
      1524,
      1524,
      1524,
      1524,
      1524,
      1524,
      1524,
      1524,
      1271,
      1126,
      1047,
      724,
      549,
      486,
      339,
      273,
      55,
      0
    ],
    "swim:geom": "approach",
    "swim:timestamps": [
      1770887853,
      1770887882,
      1770887931,
      1770887963,
      1770887998,
      1770888002,
      1770888036,
      1770888042,
      1770888072,
      1770888107,
      1770888121,
      1770888173,
      1770888183,
      1770888194,
      1770888225,
      1770888249,
      1770888280,
      1770888300,
      1770888331,
      1770888371,
      1770888394,
      1770888442,
      1770888461,
      1770888502,
      1770888533,
      1770888544,
      1770888570,
      1770888628,
      1770888658,
      1770888674,
      1770888691,
      1770888707,
      1770888741,
      1770888750,
      1770888801,
      1770888820,
      1770888864,
      1770888877,
      1770888925,
      1770888933,
      1770888972,
      1770889014,
      1770889043,
      1770889055,
      1770889085,
      1770889120,
      1770889146,
      1770889195,
      1770889224,
      1770889243,
      1770889275,
      1770889317,
      1770889327,
      1770889363,
      1770889381,
      1770889434,
      1770889448
    ],
    "wof:geomhash": "84cf4e76d0837cfe6046564c06958eb6",
    "wof:id": 2014772073,
    "wof:repo": "sfomuseum-data-flights-2026-02"
  },
  "bbox": [
    -122.5329,
    37.45706,
    -121.25551,
    37.63293
  ],
  "geometry": {"coordinates":[[-121.25551,37.59358],[-121.31074,37.58673],[-121.39935,37.57725],[-121.45579,37.57075],[-121.51395,37.56388],[-121.52179,37.56291],[-121.57617,37.55653],[-121.58579,37.55535],[-121.63257,37.54884],[-121.68446,37.53663],[-121.70428,37.53179],[-121.7591,37.49364],[-121.77233,37.49078],[-121.78827,37.49037],[-121.83236,37.49075],[-121.86594,37.49074],[-121.90796,37.49157],[-121.93321,37.49239],[-121.97139,37.49347],[-122.01702,37.50409],[-122.04184,37.51196],[-122.09456,37.52936],[-122.11539,37.53592],[-122.15815,37.54993],[-122.19063,37.56039],[-122.20217,37.56408],[-122.22892,37.57281],[-122.28788,37.59071],[-122.31394,37.59842],[-122.3277,37.60228],[-122.34198,37.60723],[-122.35588,37.61301],[-122.38685,37.62639],[-122.39679,37.62908],[-122.46201,37.63205],[-122.48735,37.63293],[-122.5329,37.61188],[-122.52859,37.59938],[-122.47569,37.57695],[-122.46595,37.57373],[-122.42282,37.55415],[-122.38,37.53099],[-122.34992,37.51433],[-122.33781,37.50756],[-122.30673,37.49029],[-122.27126,37.47064],[-122.24367,37.45706],[-122.19123,37.47941],[-122.18858,37.50633],[-122.20215,37.52004],[-122.22465,37.542],[-122.25541,37.56852],[-122.26438,37.57218],[-122.29539,37.58522],[-122.30884,37.59094],[-122.35224,37.60911],[-122.36365,37.61378]],"type":"LineString"}
}
