{
  "id": 2014836509,
  "type": "Feature",
  "properties": {
    "geom:area": 0,
    "geom:bbox": "-122.380000,37.620000,-77.040000,43.120000",
    "geom:latitude": 41.430955988286954,
    "geom:longitude": -99.57464416681246,
    "src:alt_label": "swim-route",
    "src:geom": "swim",
    "swim:geom": "route",
    "wof:geomhash": "5d432689d4ba02ea860051712c06be38",
    "wof:id": 2014836509,
    "wof:repo": "sfomuseum-data-flights-2026-02"
  },
  "bbox": [
    -122.38,
    37.62,
    -77.04,
    43.12
  ],
  "geometry": {"coordinates":[[-122.38,37.62],[-122.28,37.68],[-122.27,37.69],[-122.27,37.69],[-122.21,37.72],[-122.21,37.72],[-122.21,37.73],[-122.19,37.75],[-122.15,37.79],[-122.14,37.8],[-122.07,37.88],[-122.03,37.92],[-121.9,38.06],[-121.9,38.06],[-121.86,38.11],[-121.81,38.16],[-121.73,38.25],[-121.72,38.26],[-121.66,38.33],[-121.64,38.35],[-121.58,38.41],[-121.56,38.43],[-121.55,38.44],[-121.5,38.47],[-121.3,38.6],[-121.22,38.65],[-121.14,38.69],[-121.1,38.72],[-121.06,38.74],[-120.89,38.85],[-120.76,38.93],[-120.35,39.16],[-119.99,39.38],[-119.98,39.38],[-119.1,39.89],[-118.92,39.98],[-118.5,40.16],[-118.12,40.32],[-117.82,40.38],[-117.35,40.48],[-116.92,40.57],[-116.31,40.73],[-115.39,40.98],[-114.46,41.21],[-113.84,41.36],[-112.63,41.47],[-111.8,41.54],[-110.81,41.61],[-110.54,41.63],[-107.8,41.78],[-106.49,41.83],[-106,41.85],[-104.61,41.88],[-103.48,41.89],[-102.8,41.97],[-102.12,42.05],[-100.99,42.16],[-99.58,42.29],[-99.28,42.32],[-96.89,42.48],[-96.27,42.52],[-94.29,42.61],[-93.02,42.75],[-92.76,42.77],[-91.57,42.88],[-89.65,43.03],[-89.23,43.06],[-88.28,43.12],[-87,42.97],[-86.01,42.85],[-85.5,42.79],[-85.47,42.77],[-85.17,42.67],[-85.01,42.62],[-85,42.61],[-84.9,42.58],[-84.68,42.47],[-83.72,41.86],[-82.71,41.23],[-81.75,40.6],[-81.56,40.48],[-81.37,40.35],[-81.18,40.22],[-81.14,40.2],[-80.99,40.1],[-80.8,39.97],[-80.6,39.83],[-80.4,39.69],[-80.14,39.52],[-79.89,39.34],[-79.83,39.29],[-79.7,39.28],[-79.68,39.28],[-79.62,39.28],[-79.56,39.27],[-79.24,39.25],[-78.96,39.22],[-78.73,39.2],[-78.37,39.16],[-78.35,39.16],[-78.26,39.14],[-78.16,39.11],[-78.15,39.11],[-78.11,39.1],[-78.06,39.09],[-77.99,39.07],[-77.98,39.07],[-77.86,39.04],[-77.75,39.01],[-77.71,39],[-77.7,38.99],[-77.69,38.99],[-77.68,38.99],[-77.67,38.99],[-77.66,38.99],[-77.65,38.98],[-77.62,38.97],[-77.45,38.91],[-77.41,38.89],[-77.31,38.85],[-77.31,38.85],[-77.17,38.79],[-77.11,38.76],[-77.11,38.76],[-77.11,38.67],[-77.11,38.65],[-77.11,38.63],[-77.09,38.69],[-77.06,38.77],[-77.04,38.85]],"type":"LineString"}
}
