{
  "id": 2014694765,
  "type": "Feature",
  "properties": {
    "geom:area": 0,
    "geom:bbox": "-122.365510,37.491990,-121.261720,37.618720",
    "geom:latitude": 37.546598288864885,
    "geom:longitude": -121.81896826602602,
    "src:alt_label": "swim-approach",
    "src:geom": "swim",
    "swim:elevations": [
      4627,
      4327,
      4109,
      4009,
      3723,
      3517,
      3387,
      3231,
      2985,
      2847,
      2600,
      2404,
      2168,
      2132,
      2082,
      1923,
      1855,
      1827,
      1566,
      1401,
      1124,
      1102,
      977,
      849,
      746,
      557,
      549,
      549,
      454,
      338,
      246,
      107,
      446
    ],
    "swim:geom": "approach",
    "swim:timestamps": [
      1770068456,
      1770068488,
      1770068515,
      1770068525,
      1770068560,
      1770068584,
      1770068602,
      1770068629,
      1770068666,
      1770068689,
      1770068722,
      1770068747,
      1770068779,
      1770068794,
      1770068826,
      1770068848,
      1770068863,
      1770068890,
      1770068924,
      1770068943,
      1770068997,
      1770069000,
      1770069022,
      1770069049,
      1770069080,
      1770069116,
      1770069130,
      1770069154,
      1770069178,
      1770069203,
      1770069231,
      1770069266,
      1770069297
    ],
    "wof:geomhash": "761fcaec6d35ded9e6309b1afcc8fe7b",
    "wof:id": 2014694765,
    "wof:repo": "sfomuseum-data-flights-2026-02"
  },
  "bbox": [
    -122.36551,
    37.49199,
    -121.26172,
    37.61872
  ],
  "geometry": {"coordinates":[[-121.26172,37.59288],[-121.32792,37.58484],[-121.38181,37.57877],[-121.40078,37.57657],[-121.47008,37.56858],[-121.51502,37.56338],[-121.54959,37.55941],[-121.59944,37.55362],[-121.6632,37.54122],[-121.70194,37.53193],[-121.75615,37.51906],[-121.79642,37.5095],[-121.84529,37.49767],[-121.86751,37.49247],[-121.91254,37.49199],[-121.94166,37.49259],[-121.96101,37.49305],[-121.99238,37.49657],[-122.02863,37.50783],[-122.05001,37.51477],[-122.10406,37.53211],[-122.107,37.53309],[-122.12887,37.54035],[-122.15492,37.54881],[-122.18296,37.55788],[-122.21521,37.56839],[-122.2273,37.57222],[-122.24983,37.57947],[-122.27156,37.58641],[-122.29228,37.59225],[-122.31505,37.59904],[-122.34238,37.60769],[-122.36551,37.61872]],"type":"LineString"}
}
