{
  "id": 2014894983,
  "type": "Feature",
  "properties": {
    "geom:area": 0,
    "geom:bbox": "-122.366667,30.007222,-95.149444,38.511667",
    "geom:latitude": 35.925189004535824,
    "geom:longitude": -108.14265755332617,
    "src:alt_label": "swim-path",
    "src:geom": "swim",
    "swim:altitudes": [
      "008",
      "008",
      "008",
      "009",
      "034",
      "034",
      "049",
      "079",
      "079",
      "079",
      "138",
      "138",
      "138",
      "138",
      "162",
      "162",
      "178",
      "178",
      "264",
      "264",
      "264",
      "264",
      "295",
      "295",
      "295",
      "303",
      "303",
      "303",
      "309",
      "312",
      "312",
      "319",
      "342",
      "342",
      "345",
      "348C",
      "348C",
      "348C",
      "348C",
      "350C",
      "350C",
      "350C",
      "350C",
      "350C",
      "350C",
      "350C",
      "350C",
      "350C",
      "350C",
      "350C",
      "350C",
      "350C",
      "350C",
      "350C",
      "350C",
      "350C",
      "350C",
      "350C",
      "350C",
      "350C",
      "350C",
      "350C",
      "350C",
      "350C",
      "350C",
      "350C",
      "350C",
      "350C",
      "350C",
      "350C",
      "350C",
      "350C",
      "350C",
      "350C",
      "350C",
      "350C",
      "350C",
      "350C",
      "350C",
      "350C",
      "350C",
      "350C",
      "350C",
      "350C",
      "350C",
      "350C",
      "350C",
      "350C",
      "350C",
      "350C",
      "350C",
      "350C",
      "350C",
      "350C",
      "350C",
      "350C",
      "350C",
      "350C",
      "350C",
      "350C",
      "350C",
      "350C",
      "350C",
      "350C",
      "350C",
      "350C",
      "350C",
      "350C",
      "350C",
      "350C",
      "350C",
      "350C",
      "350C",
      "350C",
      "350C",
      "350C",
      "350C",
      "350C",
      "350C",
      "350C",
      "350C",
      "350C",
      "350C",
      "350C",
      "350C",
      "350C",
      "350C",
      "350C",
      "350C",
      "350C",
      "350C",
      "350C",
      "350C",
      "350C",
      "350C",
      "350C",
      "350C",
      "350C",
      "350C",
      "350C",
      "350C",
      "350C",
      "350C",
      "350C",
      "350C",
      "350C",
      "350C",
      "350C",
      "350C",
      "350C",
      "350C",
      "350C",
      "350C",
      "350C",
      "350C",
      "350C",
      "350C",
      "350C",
      "350C",
      "350C",
      "350C",
      "350C",
      "350C",
      "350C",
      "350C",
      "350C",
      "350C",
      "350C",
      "350C",
      "350C",
      "350C",
      "350C",
      "350C",
      "350C",
      "350C",
      "350C",
      "350C",
      "350C",
      "350C",
      "350C",
      "350C",
      "350C",
      "350C",
      "350C",
      "350C",
      "350C",
      "350C",
      "350C",
      "350C",
      "350C",
      "350C",
      "350C",
      "350C",
      "350C",
      "350C",
      "350C",
      "350C",
      "350C",
      "350C",
      "350C",
      "350C",
      "350C",
      "350C",
      "350C",
      "350C",
      "350C",
      "350C",
      "350C",
      "350C",
      "350C",
      "350C",
      "350C",
      "350C",
      "350C",
      "350C",
      "350C",
      "350C",
      "350C",
      "350C",
      "350C",
      "350C",
      "350C",
      "350C",
      "350C",
      "350C",
      "350C",
      "350C",
      "350C",
      "350C",
      "350C",
      "350C",
      "350C",
      "350C",
      "350C",
      "350C",
      "350C",
      "350C",
      "350C",
      "350C",
      "350C",
      "350C",
      "350C",
      "350C",
      "350C",
      "350C",
      "350C",
      "350C",
      "350C",
      "350C",
      "350C",
      "350C",
      "350C",
      "350C",
      "350C",
      "350C",
      "350C",
      "350C",
      "350C",
      "350C",
      "350C",
      "350C",
      "350C",
      "350C",
      "350C",
      "350C",
      "350C",
      "350C",
      "350C",
      "350C",
      "350C",
      "350C",
      "350C",
      "350C",
      "350C",
      "350C",
      "350C",
      "350C",
      "350C",
      "350C",
      "350C",
      "350C",
      "350C",
      "350C",
      "350C",
      "350C",
      "350C",
      "350C",
      "350C",
      "350C",
      "350C",
      "350C",
      "350C",
      "350C",
      "350C",
      "350C",
      "350C",
      "350C",
      "350C",
      "350C",
      "350C",
      "350C",
      "350C",
      "350C",
      "350C",
      "350C",
      "350C",
      "350C",
      "350C",
      "350C",
      "350C",
      "350C",
      "350C",
      "350C",
      "350C",
      "342",
      "342",
      "342",
      "342",
      "330",
      "330",
      "330",
      "332",
      "332",
      "332",
      "320",
      "320",
      "320",
      "310C",
      "310C",
      "310C",
      "310C",
      "310C",
      "310",
      "290",
      "290",
      "290",
      "290",
      "266",
      "266",
      "246",
      "246",
      "240",
      "237",
      "237",
      "220",
      "220",
      "220",
      "214",
      "200",
      "200",
      "197",
      "197",
      "197",
      "167",
      "167",
      "167",
      "152",
      "152",
      "152",
      "152",
      "141",
      "141",
      "141",
      "112",
      "112",
      "112",
      "110",
      "100",
      "099",
      "075",
      "055",
      "055",
      "055",
      "055",
      "054",
      "030",
      "030",
      "030",
      "030",
      "005",
      "005",
      "005",
      "005",
      "005",
      "005",
      "005"
    ],
    "swim:geom": "path",
    "swim:speeds": [
      183,
      183,
      183,
      184,
      191,
      191,
      244,
      252,
      252,
      252,
      363,
      363,
      363,
      363,
      373,
      373,
      393,
      393,
      470,
      470,
      470,
      470,
      495,
      495,
      495,
      503,
      503,
      503,
      500,
      509,
      509,
      517,
      528,
      528,
      524,
      526,
      526,
      526,
      526,
      526,
      527,
      527,
      527,
      527,
      530,
      530,
      530,
      530,
      530,
      530,
      530,
      530,
      530,
      530,
      531,
      531,
      533,
      533,
      533,
      533,
      533,
      533,
      538,
      538,
      540,
      540,
      541,
      541,
      541,
      541,
      541,
      541,
      541,
      540,
      540,
      540,
      540,
      539,
      539,
      539,
      539,
      542,
      542,
      542,
      542,
      539,
      539,
      538,
      538,
      538,
      538,
      535,
      535,
      535,
      535,
      533,
      532,
      532,
      532,
      532,
      532,
      532,
      532,
      531,
      531,
      531,
      531,
      531,
      531,
      541,
      541,
      542,
      542,
      549,
      549,
      544,
      544,
      546,
      549,
      549,
      549,
      549,
      550,
      550,
      550,
      550,
      550,
      549,
      547,
      547,
      547,
      547,
      547,
      547,
      547,
      546,
      546,
      547,
      547,
      547,
      547,
      547,
      547,
      546,
      543,
      542,
      542,
      542,
      542,
      542,
      542,
      542,
      552,
      552,
      552,
      552,
      552,
      552,
      554,
      555,
      555,
      557,
      557,
      557,
      558,
      558,
      558,
      559,
      559,
      559,
      559,
      557,
      557,
      557,
      557,
      554,
      554,
      554,
      554,
      555,
      555,
      555,
      555,
      556,
      556,
      556,
      556,
      559,
      559,
      559,
      559,
      559,
      561,
      561,
      561,
      561,
      561,
      561,
      562,
      562,
      562,
      562,
      562,
      562,
      562,
      562,
      562,
      562,
      562,
      560,
      560,
      560,
      560,
      555,
      555,
      553,
      553,
      553,
      550,
      550,
      550,
      550,
      549,
      549,
      549,
      549,
      549,
      549,
      549,
      549,
      553,
      553,
      553,
      553,
      553,
      551,
      551,
      551,
      551,
      551,
      551,
      551,
      551,
      551,
      551,
      551,
      551,
      552,
      552,
      552,
      552,
      552,
      552,
      551,
      551,
      551,
      551,
      551,
      550,
      550,
      550,
      550,
      549,
      549,
      549,
      549,
      549,
      549,
      549,
      550,
      550,
      550,
      550,
      552,
      553,
      553,
      553,
      552,
      552,
      552,
      552,
      551,
      551,
      551,
      551,
      550,
      550,
      550,
      550,
      549,
      549,
      549,
      549,
      548,
      548,
      548,
      548,
      548,
      548,
      542,
      542,
      542,
      542,
      542,
      533,
      533,
      533,
      533,
      534,
      534,
      534,
      535,
      535,
      535,
      536,
      536,
      536,
      536,
      534,
      534,
      534,
      536,
      536,
      536,
      515,
      515,
      515,
      499,
      499,
      499,
      492,
      492,
      493,
      481,
      481,
      481,
      481,
      466,
      466,
      462,
      462,
      443,
      443,
      443,
      434,
      434,
      434,
      434,
      414,
      414,
      414,
      414,
      414,
      395,
      395,
      395,
      391,
      391,
      391,
      391,
      369,
      369,
      369,
      318,
      318,
      318,
      317,
      303,
      301,
      285,
      264,
      264,
      264,
      264,
      266,
      204,
      204,
      204,
      204,
      154,
      154,
      154,
      154,
      154,
      154,
      154
    ],
    "swim:timestamps": [
      1772111233,
      1772111233,
      1772111233,
      1772111247,
      1772111307,
      1772111307,
      1772111367,
      1772111427,
      1772111427,
      1772111427,
      1772111607,
      1772111607,
      1772111607,
      1772111607,
      1772111667,
      1772111667,
      1772111727,
      1772111727,
      1772112087,
      1772112087,
      1772112087,
      1772112087,
      1772112267,
      1772112267,
      1772112267,
      1772112327,
      1772112327,
      1772112327,
      1772112371,
      1772112387,
      1772112387,
      1772112447,
      1772112611,
      1772112611,
      1772112627,
      1772112671,
      1772112671,
      1772112671,
      1772112671,
      1772112731,
      1772112867,
      1772112867,
      1772112867,
      1772112867,
      1772113047,
      1772113047,
      1772113047,
      1772113047,
      1772113091,
      1772113091,
      1772113107,
      1772113107,
      1772113107,
      1772113107,
      1772113151,
      1772113151,
      1772113227,
      1772113227,
      1772113227,
      1772113271,
      1772113271,
      1772113271,
      1772113451,
      1772113451,
      1772113511,
      1772113511,
      1772113571,
      1772113631,
      1772113631,
      1772113647,
      1772113647,
      1772113647,
      1772113647,
      1772113707,
      1772113707,
      1772113707,
      1772113707,
      1772113992,
      1772113992,
      1772113992,
      1772113992,
      1772114112,
      1772114112,
      1772114112,
      1772114112,
      1772114172,
      1772114172,
      1772114292,
      1772114292,
      1772114292,
      1772114292,
      1772114412,
      1772114412,
      1772114412,
      1772114412,
      1772114472,
      1772114532,
      1772114532,
      1772114532,
      1772114592,
      1772114592,
      1772114592,
      1772114592,
      1772114652,
      1772114652,
      1772114652,
      1772114652,
      1772114652,
      1772114652,
      1772114772,
      1772114772,
      1772114832,
      1772114832,
      1772114868,
      1772114868,
      1772114893,
      1772114893,
      1772114953,
      1772114988,
      1772114988,
      1772114988,
      1772114988,
      1772115133,
      1772115133,
      1772115168,
      1772115168,
      1772115168,
      1772115193,
      1772115229,
      1772115229,
      1772115229,
      1772115253,
      1772115289,
      1772115289,
      1772115289,
      1772115349,
      1772115349,
      1772115469,
      1772115469,
      1772115469,
      1772115469,
      1772115469,
      1772115493,
      1772115553,
      1772115589,
      1772115613,
      1772115613,
      1772115613,
      1772115649,
      1772115649,
      1772115649,
      1772115649,
      1772115793,
      1772115793,
      1772115793,
      1772115793,
      1772115793,
      1772115793,
      1772115829,
      1772115889,
      1772115889,
      1772115949,
      1772115949,
      1772115949,
      1772116009,
      1772116009,
      1772116009,
      1772116070,
      1772116070,
      1772116070,
      1772116070,
      1772116190,
      1772116190,
      1772116190,
      1772116190,
      1772116310,
      1772116310,
      1772116310,
      1772116310,
      1772116459,
      1772116459,
      1772116459,
      1772116459,
      1772116490,
      1772116490,
      1772116490,
      1772116490,
      1772116550,
      1772116550,
      1772116550,
      1772116576,
      1772116576,
      1772116817,
      1772116817,
      1772116817,
      1772116817,
      1772116817,
      1772116817,
      1772116851,
      1772116851,
      1772116851,
      1772116851,
      1772116851,
      1772117177,
      1772117177,
      1772117177,
      1772117177,
      1772117177,
      1772117177,
      1772117237,
      1772117237,
      1772117237,
      1772117237,
      1772117357,
      1772117357,
      1772117478,
      1772117478,
      1772117478,
      1772117538,
      1772117538,
      1772117538,
      1772117538,
      1772117598,
      1772117598,
      1772117598,
      1772117598,
      1772117658,
      1772117658,
      1772117658,
      1772117658,
      1772117954,
      1772117954,
      1772117954,
      1772117954,
      1772117954,
      1772118074,
      1772118074,
      1772118074,
      1772118074,
      1772118135,
      1772118135,
      1772118135,
      1772118135,
      1772118195,
      1772118195,
      1772118195,
      1772118195,
      1772118255,
      1772118255,
      1772118255,
      1772118495,
      1772118495,
      1772118495,
      1772118615,
      1772118615,
      1772118615,
      1772118615,
      1772118615,
      1772118735,
      1772118735,
      1772118735,
      1772118735,
      1772118916,
      1772118916,
      1772118916,
      1772118916,
      1772118916,
      1772118916,
      1772118916,
      1772119036,
      1772119036,
      1772119036,
      1772119036,
      1772119336,
      1772119396,
      1772119396,
      1772119396,
      1772119517,
      1772119517,
      1772119517,
      1772119517,
      1772119577,
      1772119577,
      1772119637,
      1772119637,
      1772119697,
      1772119697,
      1772119697,
      1772119697,
      1772119757,
      1772119757,
      1772119757,
      1772119757,
      1772119877,
      1772119934,
      1772119934,
      1772119934,
      1772119994,
      1772119994,
      1772120054,
      1772120054,
      1772120054,
      1772120054,
      1772120054,
      1772120174,
      1772120174,
      1772120174,
      1772120174,
      1772120234,
      1772120234,
      1772120234,
      1772120294,
      1772120294,
      1772120294,
      1772120474,
      1772120474,
      1772120474,
      1772120474,
      1772120538,
      1772120538,
      1772120538,
      1772120547,
      1772120547,
      1772120547,
      1772120607,
      1772120607,
      1772120607,
      1772120667,
      1772120667,
      1772120667,
      1772120727,
      1772120727,
      1772120778,
      1772120847,
      1772120847,
      1772120847,
      1772120847,
      1772120907,
      1772120907,
      1772120967,
      1772120967,
      1772121019,
      1772121027,
      1772121027,
      1772121066,
      1772121066,
      1772121066,
      1772121079,
      1772121120,
      1772121120,
      1772121139,
      1772121139,
      1772121139,
      1772121208,
      1772121208,
      1772121208,
      1772121259,
      1772121259,
      1772121259,
      1772121259,
      1772121319,
      1772121319,
      1772121319,
      1772121439,
      1772121439,
      1772121439,
      1772121448,
      1772121496,
      1772121508,
      1772121619,
      1772121743,
      1772121743,
      1772121743,
      1772121743,
      1772121749,
      1772121866,
      1772121866,
      1772121866,
      1772121866,
      1772122049,
      1772122049,
      1772122049,
      1772122049,
      1772122049,
      1772122049,
      1772122049
    ],
    "wof:geomhash": "257d58e1c030a135fae1cd53cfab8464",
    "wof:id": 2014894983,
    "wof:repo": "sfomuseum-data-flights-2026-02"
  },
  "bbox": [
    -122.36666666666666,
    30.00722222222222,
    -95.14944444444446,
    38.51166666666666
  ],
  "geometry": {"coordinates":[[-122.36666666666666,37.63333333333333],[-122.36666666666666,37.63333333333333],[-122.36666666666666,37.63333333333333],[-122.36055555555555,37.63722222222222],[-122.31527777777778,37.67638888888889],[-122.31527777777778,37.67638888888889],[-122.33027777777778,37.73583333333333],[-122.36472222222221,37.80166666666666],[-122.36472222222221,37.80166666666666],[-122.36472222222221,37.80166666666666],[-122.21916666666667,37.973888888888894],[-122.21916666666667,37.973888888888894],[-122.21916666666667,37.973888888888894],[-122.21916666666667,37.973888888888894],[-122.08805555555556,37.98888888888889],[-122.08805555555556,37.98888888888889],[-121.95194444444445,37.99],[-121.95194444444445,37.99],[-121.005,38.006388888888885],[-121.005,38.006388888888885],[-121.005,38.006388888888885],[-121.005,38.006388888888885],[-120.50111111111111,38.08361111111111],[-120.50111111111111,38.08361111111111],[-120.50111111111111,38.08361111111111],[-120.32722222222222,38.109722222222224],[-120.32722222222222,38.109722222222224],[-120.32722222222222,38.109722222222224],[-120.21583333333334,38.12444444444444],[-120.14888888888889,38.13583333333333],[-120.14888888888889,38.13583333333333],[-119.96777777777778,38.1625],[-119.49194444444444,38.22972222222222],[-119.49194444444444,38.22972222222222],[-119.42333333333333,38.24027777777778],[-119.31166666666667,38.25527777777778],[-119.31166666666667,38.25527777777778],[-119.31166666666667,38.25527777777778],[-119.31166666666667,38.25527777777778],[-119.1286111111111,38.27916666666667],[-118.68944444444445,38.340833333333336],[-118.68944444444445,38.340833333333336],[-118.68944444444445,38.340833333333336],[-118.68944444444445,38.340833333333336],[-118.13777777777779,38.413888888888884],[-118.13777777777779,38.413888888888884],[-118.13777777777779,38.413888888888884],[-118.13777777777779,38.413888888888884],[-118.01555555555555,38.42972222222222],[-118.01555555555555,38.42972222222222],[-117.93694444444445,38.439722222222215],[-117.93694444444445,38.439722222222215],[-117.93694444444445,38.439722222222215],[-117.93694444444445,38.439722222222215],[-117.82666666666667,38.45388888888889],[-117.82666666666667,38.45388888888889],[-117.59944444444444,38.4825],[-117.59944444444444,38.4825],[-117.59944444444444,38.4825],[-117.45111111111112,38.50055555555556],[-117.45111111111112,38.50055555555556],[-117.45111111111112,38.50055555555556],[-116.87388888888889,38.51166666666666],[-116.87388888888889,38.51166666666666],[-116.67888888888889,38.507222222222225],[-116.67888888888889,38.507222222222225],[-116.48833333333333,38.5025],[-116.29444444444444,38.496944444444445],[-116.29444444444444,38.496944444444445],[-116.255,38.49583333333334],[-116.255,38.49583333333334],[-116.255,38.49583333333334],[-116.255,38.49583333333334],[-116.06333333333333,38.49055555555556],[-116.06333333333333,38.49055555555556],[-116.06333333333333,38.49055555555556],[-116.06333333333333,38.49055555555556],[-115.1388888888889,38.45944444444445],[-115.1388888888889,38.45944444444445],[-115.1388888888889,38.45944444444445],[-115.1388888888889,38.45944444444445],[-114.75861111111111,38.44472222222222],[-114.75861111111111,38.44472222222222],[-114.75861111111111,38.44472222222222],[-114.75861111111111,38.44472222222222],[-114.56666666666666,38.43694444444444],[-114.56666666666666,38.43694444444444],[-114.18722222222223,38.419999999999995],[-114.18722222222223,38.419999999999995],[-114.18722222222223,38.419999999999995],[-114.18722222222223,38.419999999999995],[-113.80944444444444,38.401944444444446],[-113.80944444444444,38.401944444444446],[-113.80944444444444,38.401944444444446],[-113.80944444444444,38.401944444444446],[-113.62166666666666,38.3925],[-113.43444444444445,38.38333333333333],[-113.43444444444445,38.38333333333333],[-113.43444444444445,38.38333333333333],[-113.28444444444445,38.375],[-113.28444444444445,38.375],[-113.28444444444445,38.375],[-113.28444444444445,38.375],[-113.09583333333333,38.365],[-113.09583333333333,38.365],[-113.09583333333333,38.365],[-113.09583333333333,38.365],[-113.09583333333333,38.365],[-113.09583333333333,38.365],[-112.73027777777779,38.275],[-112.73027777777779,38.275],[-112.55222222222221,38.220555555555556],[-112.55222222222221,38.220555555555556],[-112.41555555555556,38.17861111111111],[-112.41555555555556,38.17861111111111],[-112.37027777777777,38.165],[-112.37027777777777,38.165],[-112.19,38.10916666666667],[-112.08277777777778,38.07611111111112],[-112.08277777777778,38.07611111111112],[-112.08277777777778,38.07611111111112],[-112.08277777777778,38.07611111111112],[-111.64722222222223,37.939722222222215],[-111.64722222222223,37.939722222222215],[-111.53916666666666,37.905277777777776],[-111.53916666666666,37.905277777777776],[-111.53916666666666,37.905277777777776],[-111.46833333333333,37.882777777777775],[-111.36333333333333,37.84916666666667],[-111.36333333333333,37.84916666666667],[-111.36333333333333,37.84916666666667],[-111.29027777777777,37.825833333333335],[-111.18444444444445,37.7925],[-111.18444444444445,37.7925],[-111.18444444444445,37.7925],[-111.00638888888889,37.73527777777778],[-111.00638888888889,37.73527777777778],[-110.65138888888889,37.61972222222222],[-110.65138888888889,37.61972222222222],[-110.65138888888889,37.61972222222222],[-110.65138888888889,37.61972222222222],[-110.65138888888889,37.61972222222222],[-110.58055555555555,37.59638888888889],[-110.40305555555557,37.53805555555555],[-110.29222222222222,37.50194444444445],[-110.22916666666667,37.48111111111111],[-110.22916666666667,37.48111111111111],[-110.22916666666667,37.48111111111111],[-110.12027777777777,37.44472222222222],[-110.12027777777777,37.44472222222222],[-110.12027777777777,37.44472222222222],[-110.12027777777777,37.44472222222222],[-109.69916666666667,37.30333333333333],[-109.69916666666667,37.30333333333333],[-109.69916666666667,37.30333333333333],[-109.69916666666667,37.30333333333333],[-109.69916666666667,37.30333333333333],[-109.69916666666667,37.30333333333333],[-109.58805555555556,37.26583333333333],[-109.4063888888889,37.20416666666667],[-109.4063888888889,37.20416666666667],[-109.22722222222222,37.14277777777778],[-109.22722222222222,37.14277777777778],[-109.22722222222222,37.14277777777778],[-109.04972222222221,37.08166666666667],[-109.04972222222221,37.08166666666667],[-109.04972222222221,37.08166666666667],[-108.87166666666666,37.02055555555555],[-108.87166666666666,37.02055555555555],[-108.87166666666666,37.02055555555555],[-108.87166666666666,37.02055555555555],[-108.51527777777778,36.89555555555555],[-108.51527777777778,36.89555555555555],[-108.51527777777778,36.89555555555555],[-108.51527777777778,36.89555555555555],[-108.16194444444444,36.77055555555555],[-108.16194444444444,36.77055555555555],[-108.16194444444444,36.77055555555555],[-108.16194444444444,36.77055555555555],[-107.73611111111111,36.63055555555555],[-107.73611111111111,36.63055555555555],[-107.73611111111111,36.63055555555555],[-107.73611111111111,36.63055555555555],[-107.62555555555555,36.594722222222224],[-107.62555555555555,36.594722222222224],[-107.62555555555555,36.594722222222224],[-107.62555555555555,36.594722222222224],[-107.44611111111111,36.535555555555554],[-107.44611111111111,36.535555555555554],[-107.44611111111111,36.535555555555554],[-107.37277777777777,36.51111111111111],[-107.37277777777777,36.51111111111111],[-106.6563888888889,36.27166666666667],[-106.6563888888889,36.27166666666667],[-106.6563888888889,36.27166666666667],[-106.6563888888889,36.27166666666667],[-106.6563888888889,36.27166666666667],[-106.6563888888889,36.27166666666667],[-106.55055555555555,36.23555555555556],[-106.55055555555555,36.23555555555556],[-106.55055555555555,36.23555555555556],[-106.55055555555555,36.23555555555556],[-106.55055555555555,36.23555555555556],[-105.58111111111111,35.90083333333333],[-105.58111111111111,35.90083333333333],[-105.58111111111111,35.90083333333333],[-105.58111111111111,35.90083333333333],[-105.58111111111111,35.90083333333333],[-105.58111111111111,35.90083333333333],[-105.40333333333334,35.838055555555556],[-105.40333333333334,35.838055555555556],[-105.40333333333334,35.838055555555556],[-105.40333333333334,35.838055555555556],[-105.05805555555555,35.71555555555556],[-105.05805555555555,35.71555555555556],[-104.71138888888889,35.59138888888889],[-104.71138888888889,35.59138888888889],[-104.71138888888889,35.59138888888889],[-104.54027777777777,35.52916666666667],[-104.54027777777777,35.52916666666667],[-104.54027777777777,35.52916666666667],[-104.54027777777777,35.52916666666667],[-104.37055555555555,35.467222222222226],[-104.37055555555555,35.467222222222226],[-104.37055555555555,35.467222222222226],[-104.37055555555555,35.467222222222226],[-104.19694444444445,35.40361111111111],[-104.19694444444445,35.40361111111111],[-104.19694444444445,35.40361111111111],[-104.19694444444445,35.40361111111111],[-103.36416666666666,35.08722222222222],[-103.36416666666666,35.08722222222222],[-103.36416666666666,35.08722222222222],[-103.36416666666666,35.08722222222222],[-103.36416666666666,35.08722222222222],[-103.03083333333333,34.950833333333335],[-103.03083333333333,34.950833333333335],[-103.03083333333333,34.950833333333335],[-103.03083333333333,34.950833333333335],[-102.86472222222221,34.882777777777775],[-102.86472222222221,34.882777777777775],[-102.86472222222221,34.882777777777775],[-102.86472222222221,34.882777777777775],[-102.70111111111112,34.81527777777777],[-102.70111111111112,34.81527777777777],[-102.70111111111112,34.81527777777777],[-102.70111111111112,34.81527777777777],[-102.53444444444445,34.74611111111111],[-102.53444444444445,34.74611111111111],[-102.53444444444445,34.74611111111111],[-101.87416666666665,34.46805555555556],[-101.87416666666665,34.46805555555556],[-101.87416666666665,34.46805555555556],[-101.54972222222221,34.32972222222222],[-101.54972222222221,34.32972222222222],[-101.54972222222221,34.32972222222222],[-101.54972222222221,34.32972222222222],[-101.54972222222221,34.32972222222222],[-101.22277777777778,34.18888888888888],[-101.22277777777778,34.18888888888888],[-101.22277777777778,34.18888888888888],[-101.22277777777778,34.18888888888888],[-100.73805555555556,33.9775],[-100.73805555555556,33.9775],[-100.73805555555556,33.9775],[-100.73805555555556,33.9775],[-100.73805555555556,33.9775],[-100.73805555555556,33.9775],[-100.73805555555556,33.9775],[-100.41222222222223,33.83361111111111],[-100.41222222222223,33.83361111111111],[-100.41222222222223,33.83361111111111],[-100.41222222222223,33.83361111111111],[-99.59638888888888,33.467777777777776],[-99.43472222222222,33.394444444444446],[-99.43472222222222,33.394444444444446],[-99.43472222222222,33.394444444444446],[-99.1111111111111,33.24611111111111],[-99.1111111111111,33.24611111111111],[-99.1111111111111,33.24611111111111],[-99.1111111111111,33.24611111111111],[-98.95111111111112,33.1725],[-98.95111111111112,33.1725],[-98.79055555555556,33.098333333333336],[-98.79055555555556,33.098333333333336],[-98.63055555555555,33.02361111111111],[-98.63055555555555,33.02361111111111],[-98.63055555555555,33.02361111111111],[-98.63055555555555,33.02361111111111],[-98.47055555555556,32.94916666666666],[-98.47055555555556,32.94916666666666],[-98.47055555555556,32.94916666666666],[-98.47055555555556,32.94916666666666],[-98.15666666666667,32.80166666666666],[-98.0225,32.73694444444445],[-98.0225,32.73694444444445],[-98.0225,32.73694444444445],[-97.88527777777779,32.638333333333335],[-97.88527777777779,32.638333333333335],[-97.75638888888889,32.535],[-97.75638888888889,32.535],[-97.75638888888889,32.535],[-97.75638888888889,32.535],[-97.75638888888889,32.535],[-97.50416666666666,32.33027777777778],[-97.50416666666666,32.33027777777778],[-97.50416666666666,32.33027777777778],[-97.50416666666666,32.33027777777778],[-97.375,32.226111111111116],[-97.375,32.226111111111116],[-97.375,32.226111111111116],[-97.24861111111112,32.123333333333335],[-97.24861111111112,32.123333333333335],[-97.24861111111112,32.123333333333335],[-96.84138888888889,31.850833333333334],[-96.84138888888889,31.850833333333334],[-96.84138888888889,31.850833333333334],[-96.84138888888889,31.850833333333334],[-96.66166666666668,31.772222222222222],[-96.66166666666668,31.772222222222222],[-96.66166666666668,31.772222222222222],[-96.6825,31.795555555555556],[-96.6825,31.795555555555556],[-96.6825,31.795555555555556],[-96.58611111111111,31.642777777777777],[-96.58611111111111,31.642777777777777],[-96.58611111111111,31.642777777777777],[-96.51416666666667,31.51861111111111],[-96.51416666666667,31.51861111111111],[-96.51416666666667,31.51861111111111],[-96.4388888888889,31.396666666666665],[-96.4388888888889,31.396666666666665],[-96.36416666666666,31.274444444444445],[-96.29083333333332,31.154444444444444],[-96.29083333333332,31.154444444444444],[-96.29083333333332,31.154444444444444],[-96.29083333333332,31.154444444444444],[-96.22083333333333,31.039166666666667],[-96.22083333333333,31.039166666666667],[-96.14972222222222,30.92527777777778],[-96.14972222222222,30.92527777777778],[-96.09333333333333,30.83888888888889],[-96.07972222222222,30.818055555555556],[-96.07972222222222,30.818055555555556],[-96.02694444444444,30.735833333333336],[-96.02694444444444,30.735833333333336],[-96.02694444444444,30.735833333333336],[-96.01027777777777,30.71],[-95.96722222222222,30.642777777777777],[-95.96722222222222,30.642777777777777],[-95.95805555555556,30.628055555555555],[-95.95805555555556,30.628055555555555],[-95.95805555555556,30.628055555555555],[-95.88027777777778,30.50638888888889],[-95.88027777777778,30.50638888888889],[-95.88027777777778,30.50638888888889],[-95.82305555555556,30.443333333333335],[-95.82305555555556,30.443333333333335],[-95.82305555555556,30.443333333333335],[-95.82305555555556,30.443333333333335],[-95.74444444444444,30.363333333333333],[-95.74444444444444,30.363333333333333],[-95.74444444444444,30.363333333333333],[-95.59833333333333,30.211666666666666],[-95.59833333333333,30.211666666666666],[-95.59833333333333,30.211666666666666],[-95.58888888888889,30.201944444444443],[-95.53611111111111,30.147222222222222],[-95.5261111111111,30.136666666666667],[-95.3711111111111,30.092222222222222],[-95.19250000000001,30.092777777777776],[-95.19250000000001,30.092777777777776],[-95.19250000000001,30.092777777777776],[-95.19250000000001,30.092777777777776],[-95.18416666666667,30.092777777777776],[-95.14944444444446,30.011111111111113],[-95.14944444444446,30.011111111111113],[-95.14944444444446,30.011111111111113],[-95.14944444444446,30.011111111111113],[-95.30944444444444,30.00722222222222],[-95.30944444444444,30.00722222222222],[-95.30944444444444,30.00722222222222],[-95.30944444444444,30.00722222222222],[-95.30944444444444,30.00722222222222],[-95.30944444444444,30.00722222222222],[-95.30944444444444,30.00722222222222]],"type":"LineString"}
}
