{
  "id": 2014825587,
  "type": "Feature",
  "properties": {
    "geom:area": 0,
    "geom:bbox": "-178.630000,37.500000,175.960000,54.080000",
    "geom:latitude": 51.80472944308649,
    "geom:longitude": -3.215469342785738,
    "src:alt_label": "swim-route",
    "src:geom": "swim",
    "swim:geom": "route",
    "wof:geomhash": "6102b663f30233922fd3ccea89bf618d",
    "wof:id": 2014825587,
    "wof:repo": "sfomuseum-data-flights-2026-02"
  },
  "bbox": [
    -178.63,
    37.5,
    175.96,
    54.08
  ],
  "geometry": {"coordinates":[[[-122.38,37.62],[-122.36,37.61],[-122.33,37.61],[-122.23,37.59],[-122.29,37.61],[-122.33,37.63],[-122.33,37.63],[-122.36,37.64],[-122.37,37.65],[-122.44,37.68],[-122.45,37.69],[-122.47,37.66],[-122.47,37.66],[-122.51,37.58],[-122.51,37.58],[-122.53,37.55],[-122.55,37.52],[-122.57,37.54],[-122.58,37.55],[-122.65,37.63],[-122.77,37.76],[-122.79,37.78],[-122.83,37.84],[-122.9,37.9],[-123.01,38.03],[-123.02,38.04],[-123.17,38.21],[-123.29,38.34],[-123.35,38.41],[-123.47,38.53],[-123.47,38.54],[-123.52,38.6],[-123.62,38.7],[-123.85,38.95],[-124.05,39.17],[-124.14,39.26],[-124.33,39.41],[-125.09,40.22],[-126.5,41.66],[-126.79,41.87],[-126.81,41.89],[-126.82,41.89],[-126.83,41.9],[-127.59,42.45],[-129.98,44.09],[-129.98,44.1],[-132.66,45.58],[-135.49,47.01],[-135.58,47.05],[-140,49],[-141.18,49.42],[-142.38,49.83],[-143.6,50.22],[-144.22,50.42],[-150,52],[-151.08,52.27],[-151.25,52.31],[-152.52,52.6],[-155.1,53.15],[-156.42,53.4],[-156.65,53.45],[-159.09,53.86],[-159.1,53.86],[-159.33,53.9],[-160,54],[-161.27,54.05],[-161.97,54.05],[-163.4,54.08],[-167.67,54.07],[-170,54],[-177.26,53.65],[-178.63,53.54]],[[175.96,52.95],[170.74,52.12],[166.76,51.51],[165.46,51.27],[160.39,50.2],[159.36,49.72],[159.35,49.71],[159.35,49.71],[157.45,48.74],[156.52,48.25],[153,46.2],[150.55,44.6],[149.76,44.06],[147.48,42.39],[146.86,41.92],[145,40.42],[143.79,39.85],[142.53,39.23],[140.92,38.14],[139.76,38.02],[139.11,37.95],[137.46,37.93],[133.47,37.76],[133,37.74],[131.57,37.64],[129.57,37.69],[129.26,37.69],[129.2,37.7],[128.79,37.7],[128.75,37.7],[128.71,37.69],[128.39,37.65],[128.11,37.6],[127.85,37.56],[127.66,37.53],[127.46,37.53],[127.25,37.52],[126.97,37.52],[126.92,37.51],[126.76,37.51],[126.66,37.51],[126.55,37.5],[126.45,37.5]]],"type":"MultiLineString"}
}
