{
  "id": 2014903577,
  "type": "Feature",
  "properties": {
    "geom:area": 0,
    "geom:bbox": "-121.808333,27.879167,-81.283056,38.518056",
    "geom:latitude": 33.98191370544877,
    "geom:longitude": -101.12282398837492,
    "src:alt_label": "swim-path",
    "src:geom": "swim",
    "swim:altitudes": [
      "161",
      "161",
      "209",
      "231",
      "231",
      "268",
      "283",
      "298",
      "317",
      "332",
      "348",
      "363",
      "363",
      "378",
      "388C",
      "390C",
      "390C",
      "390C",
      "390C",
      "390C",
      "390C",
      "390C",
      "390C",
      "390C",
      "390C",
      "390C",
      "390C",
      "390C",
      "390C",
      "390C",
      "390C",
      "390C",
      "390C",
      "390C",
      "390C",
      "390C",
      "390C",
      "390C",
      "390C",
      "390C",
      "390C",
      "390C",
      "390C",
      "390C",
      "390C",
      "390C",
      "390C",
      "390C",
      "390C",
      "390C",
      "390C",
      "390C",
      "390C",
      "390C",
      "390C",
      "390C",
      "390C",
      "390C",
      "390C",
      "390C",
      "390C",
      "390C",
      "390C",
      "390C",
      "390C",
      "390C",
      "390C",
      "390C",
      "390C",
      "390C",
      "390C",
      "390C",
      "390C",
      "390C",
      "390C",
      "390C",
      "390C",
      "390C",
      "390C",
      "390C",
      "390C",
      "390C",
      "390C",
      "390C",
      "390C",
      "390C",
      "390C",
      "390C",
      "390C",
      "390C",
      "390C",
      "390C",
      "390C",
      "390C",
      "390C",
      "390C",
      "390C",
      "390C",
      "390C",
      "390C",
      "390C",
      "390C",
      "390C",
      "390C",
      "390C",
      "390C",
      "390C",
      "390C",
      "390C",
      "390C",
      "390C",
      "390C",
      "390C",
      "390C",
      "390C",
      "390C",
      "390C",
      "390C",
      "390C",
      "390C",
      "390C",
      "390C",
      "390C",
      "390C",
      "390C",
      "390C",
      "390C",
      "390C",
      "390C",
      "390C",
      "390C",
      "390C",
      "390C",
      "390C",
      "390C",
      "390C",
      "390C",
      "390C",
      "390C",
      "390C",
      "390C",
      "390C",
      "390C",
      "390C",
      "390C",
      "390C",
      "390C",
      "390C",
      "390C",
      "390C",
      "390C",
      "390C",
      "390C",
      "390C",
      "390C",
      "390C",
      "390C",
      "390C",
      "390C",
      "390C",
      "390C",
      "390C",
      "390C",
      "390C",
      "390C",
      "390C",
      "390C",
      "390C",
      "390C",
      "390C",
      "390C",
      "390C",
      "390C",
      "390C",
      "390C",
      "390C",
      "390C",
      "390C",
      "390C",
      "390C",
      "390C",
      "390C",
      "390C",
      "390C",
      "390C",
      "390C",
      "390C",
      "390C",
      "390C",
      "390C",
      "390C",
      "390C",
      "389C",
      "390C",
      "390C",
      "390C",
      "390C",
      "390C",
      "390C",
      "390C",
      "390C",
      "390C",
      "390C",
      "390C",
      "390C",
      "390C",
      "390C",
      "390C",
      "390C",
      "390C",
      "390C",
      "390C",
      "390C",
      "390C",
      "390C",
      "390C",
      "390C",
      "390C",
      "390C",
      "390C",
      "390C",
      "390C",
      "390C",
      "390C",
      "390C",
      "390C",
      "390C",
      "390C",
      "390C",
      "390",
      "390",
      "390",
      "390",
      "371",
      "348",
      "328",
      "307",
      "303",
      "285",
      "285",
      "268",
      "253",
      "240",
      "228",
      "208",
      "187",
      "176",
      "176",
      "176",
      "162",
      "155",
      "136",
      "128",
      "127",
      "110",
      "101",
      "101",
      "082",
      "036",
      "024",
      "004"
    ],
    "swim:geom": "path",
    "swim:speeds": [
      406,
      406,
      448,
      461,
      461,
      486,
      498,
      507,
      515,
      517,
      517,
      524,
      524,
      523,
      520,
      520,
      518,
      518,
      518,
      515,
      515,
      513,
      513,
      513,
      514,
      514,
      516,
      518,
      519,
      520,
      520,
      522,
      521,
      520,
      520,
      522,
      523,
      526,
      531,
      531,
      527,
      530,
      531,
      531,
      531,
      532,
      532,
      532,
      533,
      533,
      533,
      533,
      533,
      533,
      533,
      533,
      534,
      534,
      536,
      537,
      538,
      538,
      538,
      538,
      538,
      538,
      510,
      538,
      536,
      536,
      536,
      535,
      535,
      535,
      535,
      536,
      536,
      537,
      538,
      538,
      538,
      538,
      537,
      535,
      535,
      534,
      535,
      535,
      535,
      535,
      535,
      535,
      535,
      535,
      535,
      535,
      535,
      535,
      535,
      535,
      535,
      535,
      535,
      535,
      532,
      535,
      535,
      532,
      534,
      534,
      530,
      527,
      528,
      528,
      528,
      528,
      528,
      536,
      536,
      539,
      540,
      539,
      543,
      543,
      542,
      542,
      542,
      543,
      543,
      542,
      541,
      537,
      530,
      527,
      527,
      526,
      527,
      527,
      527,
      527,
      528,
      528,
      528,
      529,
      528,
      529,
      528,
      528,
      528,
      527,
      527,
      530,
      523,
      527,
      524,
      525,
      526,
      524,
      525,
      525,
      525,
      524,
      523,
      523,
      519,
      519,
      521,
      521,
      520,
      520,
      519,
      519,
      518,
      519,
      515,
      518,
      518,
      518,
      518,
      516,
      518,
      518,
      518,
      516,
      518,
      519,
      519,
      519,
      518,
      518,
      519,
      519,
      518,
      514,
      518,
      518,
      513,
      514,
      518,
      517,
      516,
      517,
      521,
      522,
      523,
      527,
      527,
      527,
      527,
      528,
      528,
      527,
      528,
      532,
      532,
      532,
      532,
      532,
      531,
      529,
      530,
      531,
      530,
      529,
      530,
      521,
      522,
      522,
      520,
      521,
      515,
      513,
      513,
      518,
      518,
      518,
      517,
      509,
      494,
      494,
      473,
      474,
      467,
      453,
      434,
      425,
      421,
      421,
      421,
      394,
      393,
      354,
      333,
      343,
      324,
      315,
      307,
      264,
      244,
      235,
      151
    ],
    "swim:timestamps": [
      1772258473,
      1772258473,
      1772258593,
      1772258653,
      1772258653,
      1772258773,
      1772258833,
      1772258897,
      1772258953,
      1772259013,
      1772259077,
      1772259133,
      1772259133,
      1772259193,
      1772259257,
      1772259373,
      1772259494,
      1772259494,
      1772259618,
      1772259674,
      1772259674,
      1772259794,
      1772259914,
      1772259914,
      1772259974,
      1772259974,
      1772260034,
      1772260154,
      1772260274,
      1772260334,
      1772260334,
      1772260578,
      1772260939,
      1772261119,
      1772261119,
      1772261239,
      1772261299,
      1772261599,
      1772261638,
      1772261638,
      1772261659,
      1772261698,
      1772261938,
      1772261938,
      1772261959,
      1772262058,
      1772262058,
      1772262079,
      1772262178,
      1772262200,
      1772262320,
      1772262358,
      1772262418,
      1772262440,
      1772262478,
      1772262500,
      1772262538,
      1772262560,
      1772262658,
      1772262718,
      1772262839,
      1772262899,
      1772262899,
      1772262959,
      1772263079,
      1772263079,
      1772263173,
      1772263233,
      1772263353,
      1772263379,
      1772263414,
      1772263439,
      1772263474,
      1772263594,
      1772263619,
      1772263714,
      1772263739,
      1772263799,
      1772263859,
      1772263859,
      1772263894,
      1772263919,
      1772264074,
      1772264195,
      1772264255,
      1772264315,
      1772264435,
      1772264495,
      1772264495,
      1772264555,
      1772264615,
      1772264665,
      1772264665,
      1772264725,
      1772264793,
      1772264845,
      1772264905,
      1772264973,
      1772265025,
      1772265025,
      1772265033,
      1772265085,
      1772265093,
      1772265153,
      1772265205,
      1772265213,
      1772265273,
      1772265325,
      1772265333,
      1772265453,
      1772265514,
      1772265745,
      1772265754,
      1772265754,
      1772265814,
      1772265865,
      1772265934,
      1772266054,
      1772266054,
      1772266105,
      1772266225,
      1772266285,
      1772266465,
      1772266525,
      1772266645,
      1772266705,
      1772266765,
      1772266885,
      1772266885,
      1772266945,
      1772267005,
      1772267066,
      1772267186,
      1772267194,
      1772267254,
      1772267426,
      1772267434,
      1772267434,
      1772267486,
      1772267546,
      1772267606,
      1772267666,
      1772267726,
      1772267735,
      1772267846,
      1772267855,
      1772267906,
      1772267906,
      1772267915,
      1772267966,
      1772267966,
      1772268035,
      1772268095,
      1772268146,
      1772268155,
      1772268206,
      1772268215,
      1772268326,
      1772268336,
      1772268336,
      1772268396,
      1772268446,
      1772268506,
      1772268516,
      1772268626,
      1772268626,
      1772268636,
      1772268696,
      1772268746,
      1772268816,
      1772268866,
      1772268876,
      1772268936,
      1772268986,
      1772269237,
      1772269333,
      1772269393,
      1772269393,
      1772269453,
      1772269477,
      1772269513,
      1772269513,
      1772269573,
      1772269597,
      1772269633,
      1772269717,
      1772269777,
      1772269777,
      1772269837,
      1772269958,
      1772269993,
      1772270053,
      1772270078,
      1772270138,
      1772270173,
      1772270173,
      1772270198,
      1772270258,
      1772270293,
      1772270413,
      1772270435,
      1772270495,
      1772270556,
      1772270616,
      1772270676,
      1772270713,
      1772270736,
      1772270773,
      1772270773,
      1772270796,
      1772270845,
      1772270856,
      1772270916,
      1772271097,
      1772271205,
      1772271385,
      1772271445,
      1772271445,
      1772271476,
      1772271536,
      1772271565,
      1772271596,
      1772271626,
      1772271686,
      1772271716,
      1772271776,
      1772271830,
      1772271830,
      1772271836,
      1772271890,
      1772272010,
      1772272070,
      1772272130,
      1772272197,
      1772272257,
      1772272310,
      1772272370,
      1772272377,
      1772272437,
      1772272437,
      1772272497,
      1772272557,
      1772272617,
      1772272677,
      1772272797,
      1772272917,
      1772272970,
      1772272977,
      1772272977,
      1772273046,
      1772273098,
      1772273210,
      1772273268,
      1772273278,
      1772273398,
      1772273450,
      1772273458,
      1772273578,
      1772273750,
      1772273878,
      1772274111
    ],
    "wof:geomhash": "65f96b2641fafe5a1671f41841494ea5",
    "wof:id": 2014903577,
    "wof:repo": "sfomuseum-data-flights-2026-02"
  },
  "bbox": [
    -121.80833333333334,
    27.879166666666666,
    -81.28305555555555,
    38.518055555555556
  ],
  "geometry": {"coordinates":[[-121.80833333333334,37.82694444444445],[-121.80833333333334,37.82694444444445],[-121.50416666666666,37.89861111111111],[-121.35027777777778,37.934999999999995],[-121.35027777777778,37.934999999999995],[-121.02527777777777,38.00361111111111],[-120.85472222222222,38.02972222222222],[-120.67416666666666,38.055],[-120.50111111111111,38.083333333333336],[-120.32194444444444,38.11],[-120.13472222222222,38.13527777777778],[-119.95666666666666,38.163888888888884],[-119.95666666666666,38.163888888888884],[-119.7775,38.19],[-119.59416666666667,38.215],[-119.23194444444445,38.26694444444444],[-118.87277777777777,38.31638888888889],[-118.87277777777777,38.31638888888889],[-118.51861111111111,38.36416666666667],[-118.33972222222222,38.38777777777778],[-118.33972222222222,38.38777777777778],[-117.96777777777778,38.43555555555555],[-117.60805555555555,38.48083333333334],[-117.60805555555555,38.48083333333334],[-117.46166666666667,38.49888888888889],[-117.46166666666667,38.49888888888889],[-117.27638888888889,38.518055555555556],[-116.90666666666667,38.51277777777778],[-116.53583333333333,38.50361111111111],[-116.35,38.49861111111111],[-116.35,38.49861111111111],[-115.57583333333334,38.47527777777778],[-114.49555555555555,38.433611111111105],[-113.94277777777778,38.40861111111111],[-113.94277777777778,38.40861111111111],[-113.57194444444444,38.390277777777776],[-113.38833333333334,38.38055555555555],[-112.48333333333333,38.21611111111111],[-112.36861111111111,38.18444444444444],[-112.36861111111111,38.18444444444444],[-112.30749999999999,38.1675],[-112.19305555555556,38.13583333333333],[-111.48916666666666,37.9375],[-111.48916666666666,37.9375],[-111.42361111111111,37.91888888888889],[-111.13805555555557,37.83638888888889],[-111.13805555555557,37.83638888888889],[-111.0736111111111,37.81777777777778],[-110.78472222222221,37.742222222222225],[-110.71555555555555,37.725833333333334],[-110.37722222222222,37.645833333333336],[-110.24555555555555,37.614444444444445],[-110.06555555555555,37.57138888888889],[-110.00305555555556,37.55611111111111],[-109.88666666666667,37.52777777777778],[-109.84277777777777,37.51722222222222],[-109.70972222222223,37.48416666666667],[-109.66388888888889,37.473055555555554],[-109.34888888888888,37.39472222222222],[-109.17194444444445,37.35027777777778],[-108.81138888888889,37.25888888888889],[-108.63305555555554,37.213055555555556],[-108.63305555555554,37.213055555555556],[-108.45444444444445,37.16694444444444],[-108.0975,37.073888888888895],[-108.0975,37.073888888888895],[-107.83888888888889,37.00555555555555],[-107.6738888888889,36.961666666666666],[-107.32,36.86638888888889],[-107.21416666666667,36.83777777777778],[-107.14472222222223,36.81888888888889],[-107.03972222222222,36.79],[-106.96777777777778,36.77055555555555],[-106.61972222222222,36.67444444444444],[-106.51388888888889,36.64472222222222],[-106.24777777777778,36.57027777777778],[-106.16555555555556,36.54694444444444],[-105.98666666666666,36.49444444444445],[-105.8261111111111,36.43833333333333],[-105.8261111111111,36.43833333333333],[-105.73194444444445,36.404444444444444],[-105.65222222222222,36.37583333333333],[-105.23111111111112,36.223333333333336],[-104.89694444444446,36.10111111111111],[-104.73055555555555,36.038333333333334],[-104.56388888888888,35.97666666666667],[-104.2286111111111,35.85166666666667],[-104.06027777777777,35.788888888888884],[-104.06027777777777,35.788888888888884],[-103.89222222222223,35.725833333333334],[-103.72555555555556,35.66305555555555],[-103.58111111111111,35.60416666666667],[-103.58111111111111,35.60416666666667],[-103.41527777777779,35.54222222222222],[-103.22944444444444,35.47138888888889],[-103.08777777777777,35.415],[-102.92277777777778,35.35194444444445],[-102.76027777777777,35.28805555555555],[-102.59666666666666,35.22277777777778],[-102.59666666666666,35.22277777777778],[-102.59694444444445,35.22277777777778],[-102.43416666666667,35.159166666666664],[-102.43333333333334,35.15861111111111],[-102.27027777777778,35.09666666666667],[-102.1,35.05222222222222],[-102.1,35.05166666666666],[-101.93305555555555,35.010555555555555],[-101.76,34.965833333333336],[-101.76,34.96527777777778],[-101.38611111111112,34.86944444444445],[-101.21722222222222,34.825],[-100.57666666666667,34.65694444444444],[-100.54388888888889,34.64666666666667],[-100.54388888888889,34.64666666666667],[-100.37527777777777,34.60166666666667],[-100.2363888888889,34.565],[-100.03333333333333,34.50805555555556],[-99.71277777777777,34.368611111111115],[-99.71277777777777,34.368611111111115],[-99.59861111111111,34.31583333333333],[-99.28111111111112,34.16888888888889],[-99.09805555555555,34.08444444444444],[-98.62444444444444,33.86222222222222],[-98.46694444444445,33.78722222222222],[-98.15472222222223,33.6375],[-97.99694444444445,33.56222222222222],[-97.83999999999999,33.48638888888889],[-97.55833333333334,33.348888888888894],[-97.55833333333334,33.348888888888894],[-97.40277777777779,33.27222222222222],[-97.24722222222222,33.19638888888888],[-97.09138888888889,33.119166666666665],[-96.79527777777777,32.955555555555556],[-96.76527777777778,32.939722222222215],[-96.62194444444444,32.85722222222223],[-96.21916666666667,32.626111111111115],[-96.19222222222223,32.60916666666667],[-96.19222222222223,32.60916666666667],[-96.07527777777777,32.5425],[-95.93166666666667,32.459722222222226],[-95.78444444444445,32.38166666666667],[-95.63777777777779,32.30333333333333],[-95.49166666666667,32.223888888888894],[-95.46861111111112,32.20861111111111],[-95.20222222222222,32.06527777777777],[-95.17694444444444,32.049166666666665],[-95.05777777777777,31.985833333333336],[-95.05777777777777,31.985833333333336],[-95.03166666666667,31.96972222222222],[-94.91250000000001,31.905555555555555],[-94.91250000000001,31.905555555555555],[-94.74,31.810000000000002],[-94.59805555555555,31.729166666666664],[-94.47972222222222,31.662777777777777],[-94.45305555555557,31.6475],[-94.33583333333333,31.58277777777778],[-94.30777777777777,31.56722222222222],[-94.04888888888888,31.42027777777778],[-94.02083333333333,31.405555555555555],[-94.02083333333333,31.405555555555555],[-93.8786111111111,31.32472222222222],[-93.76444444444445,31.25722222222222],[-93.63027777777778,31.18638888888889],[-93.58777777777777,31.17138888888889],[-93.32777777777777,31.063055555555557],[-93.32777777777777,31.063055555555557],[-93.31305555555555,31.05777777777778],[-93.16166666666668,30.994444444444447],[-93.0275,30.938333333333333],[-92.84944444444444,30.8625],[-92.73055555555555,30.811944444444446],[-92.70166666666667,30.799722222222226],[-92.55305555555556,30.736666666666668],[-92.43333333333334,30.684722222222224],[-91.81611111111111,30.411666666666665],[-91.56361111111111,30.289166666666667],[-91.41944444444445,30.220277777777778],[-91.41944444444445,30.220277777777778],[-91.27361111111111,30.150277777777777],[-91.2425,30.139166666666664],[-91.12916666666666,30.080833333333334],[-91.12916666666666,30.080833333333334],[-90.98388888888888,30.011944444444445],[-90.92444444444445,29.98638888888889],[-90.83888888888889,29.941944444444445],[-90.62472222222222,29.86277777777778],[-90.46472222222222,29.825],[-90.46472222222222,29.825],[-90.30722222222222,29.787222222222223],[-89.99027777777778,29.710277777777776],[-89.89694444444446,29.686944444444446],[-89.73833333333333,29.648055555555555],[-89.67444444444445,29.633888888888887],[-89.51888888888888,29.59611111111111],[-89.42305555555556,29.57138888888889],[-89.42305555555556,29.57138888888889],[-89.36222222222221,29.55638888888889],[-89.2038888888889,29.5175],[-89.10777777777777,29.491944444444446],[-88.79138888888889,29.41361111111111],[-88.72944444444444,29.399444444444445],[-88.57166666666666,29.35777777777778],[-88.41194444444444,29.316944444444445],[-88.25138888888888,29.276666666666667],[-88.0911111111111,29.235833333333336],[-87.99333333333334,29.209166666666665],[-87.94916666666667,29.196944444444444],[-87.83333333333333,29.166944444444447],[-87.83333333333333,29.166944444444447],[-87.7875,29.155277777777776],[-87.67305555555556,29.124166666666667],[-87.5961111111111,29.10527777777778],[-87.43527777777778,29.063055555555557],[-86.95166666666667,28.934166666666666],[-86.66194444444444,28.85527777777778],[-86.1825,28.723333333333333],[-86.02305555555556,28.68],[-86.02305555555556,28.68],[-85.94888888888889,28.65888888888889],[-85.7911111111111,28.615833333333335],[-85.7063888888889,28.590833333333332],[-85.63055555555555,28.57],[-85.54805555555555,28.54638888888889],[-85.39055555555557,28.501666666666665],[-85.31527777777778,28.479999999999997],[-85.16000000000001,28.436944444444446],[-85.01638888888888,28.395],[-85.01638888888888,28.395],[-85.005,28.3925],[-84.86194444444443,28.35138888888889],[-84.55583333333333,28.264444444444443],[-84.39194444444445,28.21611111111111],[-84.23944444444444,28.171111111111113],[-84.06861111111111,28.12027777777778],[-83.91444444444446,28.074444444444445],[-83.78972222222222,28.03805555555556],[-83.63833333333334,27.992222222222225],[-83.60888888888888,27.983888888888888],[-83.46333333333334,27.94],[-83.46333333333334,27.94],[-83.3236111111111,27.898611111111112],[-83.18111111111112,27.88222222222222],[-83.03611111111111,27.879166666666666],[-82.89500000000001,27.88138888888889],[-82.6438888888889,27.880833333333335],[-82.37972222222221,27.88861111111111],[-82.26444444444445,27.935277777777777],[-82.26083333333334,27.936666666666667],[-82.26083333333334,27.936666666666667],[-82.11666666666666,28],[-82.03583333333333,28.02722222222222],[-81.835,28.109166666666667],[-81.73333333333333,28.15],[-81.74194444444444,28.153333333333332],[-81.56527777777778,28.2375],[-81.48166666666667,28.281388888888888],[-81.48583333333333,28.283333333333335],[-81.42500000000001,28.415277777777778],[-81.405,28.61416666666667],[-81.28361111111111,28.613055555555558],[-81.28305555555555,28.428611111111113]],"type":"LineString"}
}
