{
  "id": 2014881339,
  "type": "Feature",
  "properties": {
    "geom:area": 0,
    "geom:bbox": "-122.363889,37.631944,-87.557222,42.563333",
    "geom:latitude": 41.31891407253563,
    "geom:longitude": -105.00847255740102,
    "src:alt_label": "swim-path",
    "src:geom": "swim",
    "swim:altitudes": [
      "006",
      "098",
      "098",
      "196",
      "196",
      "219",
      "255",
      "255",
      "308",
      "330C",
      "330C",
      "330C",
      "330C",
      "330C",
      "330C",
      "330C",
      "330C",
      "330C",
      "330C",
      "330C",
      "330C",
      "330C",
      "330C",
      "330C",
      "330C",
      "330C",
      "329C",
      "330C",
      "330C",
      "330C",
      "329C",
      "330C",
      "330C",
      "330C",
      "330C",
      "330C",
      "330C",
      "330C",
      "330C",
      "330C",
      "330C",
      "330C",
      "330C",
      "330C",
      "330C",
      "330C",
      "330C",
      "330C",
      "330C",
      "330C",
      "330C",
      "330C",
      "330C",
      "330C",
      "330C",
      "330C",
      "330C",
      "330C",
      "330C",
      "333",
      "336",
      "350C",
      "350C",
      "350C",
      "350C",
      "350C",
      "350C",
      "350C",
      "350C",
      "350C",
      "350C",
      "350C",
      "350C",
      "350C",
      "350C",
      "350C",
      "350C",
      "350C",
      "350C",
      "350C",
      "350C",
      "350C",
      "350C",
      "350C",
      "350C",
      "350C",
      "350C",
      "350C",
      "349C",
      "349C",
      "350C",
      "350C",
      "350C",
      "350C",
      "350C",
      "350C",
      "350C",
      "350C",
      "350C",
      "350C",
      "350C",
      "350C",
      "350C",
      "350C",
      "350C",
      "350C",
      "350C",
      "350C",
      "350C",
      "350C",
      "350C",
      "350C",
      "350C",
      "350C",
      "350C",
      "350C",
      "350C",
      "350C",
      "350C",
      "350C",
      "328",
      "324",
      "314",
      "310C",
      "310C",
      "310C",
      "310C",
      "310C",
      "310C",
      "310C",
      "310C",
      "310C",
      "310C",
      "310C",
      "310C",
      "310C",
      "310C",
      "310C",
      "310C",
      "310C",
      "310C",
      "310C",
      "310",
      "310",
      "272",
      "272",
      "200",
      "180",
      "142",
      "142",
      "124",
      "110",
      "111",
      "108",
      "108",
      "097",
      "097",
      "087",
      "087",
      "077",
      "040",
      "041",
      "041",
      "032",
      "021",
      "012"
    ],
    "swim:geom": "path",
    "swim:speeds": [
      168,
      295,
      295,
      454,
      454,
      472,
      515,
      515,
      538,
      542,
      553,
      552,
      552,
      550,
      547,
      547,
      546,
      547,
      546,
      553,
      555,
      553,
      553,
      553,
      552,
      551,
      551,
      551,
      551,
      551,
      552,
      561,
      560,
      560,
      560,
      561,
      560,
      560,
      560,
      560,
      563,
      563,
      563,
      564,
      564,
      562,
      562,
      561,
      560,
      560,
      559,
      553,
      552,
      553,
      555,
      554,
      554,
      554,
      555,
      556,
      556,
      558,
      560,
      560,
      561,
      560,
      560,
      559,
      559,
      558,
      560,
      561,
      561,
      562,
      561,
      561,
      559,
      559,
      553,
      550,
      550,
      551,
      552,
      554,
      554,
      552,
      550,
      547,
      544,
      544,
      535,
      537,
      536,
      531,
      531,
      530,
      533,
      531,
      528,
      528,
      518,
      511,
      504,
      502,
      503,
      504,
      504,
      488,
      488,
      486,
      488,
      488,
      482,
      482,
      499,
      502,
      503,
      503,
      509,
      509,
      519,
      515,
      514,
      511,
      512,
      513,
      513,
      513,
      514,
      514,
      514,
      515,
      517,
      518,
      520,
      521,
      525,
      526,
      526,
      526,
      526,
      527,
      528,
      528,
      522,
      522,
      475,
      464,
      438,
      440,
      408,
      376,
      375,
      352,
      352,
      322,
      326,
      312,
      315,
      299,
      259,
      213,
      213,
      188,
      169,
      150
    ],
    "swim:timestamps": [
      1772080605,
      1772080785,
      1772080785,
      1772081025,
      1772081025,
      1772081085,
      1772081205,
      1772081205,
      1772081386,
      1772081506,
      1772081527,
      1772081647,
      1772081647,
      1772081707,
      1772081806,
      1772081806,
      1772081827,
      1772081866,
      1772081887,
      1772082046,
      1772082067,
      1772082406,
      1772082428,
      1772082548,
      1772082587,
      1772082647,
      1772082668,
      1772082707,
      1772082728,
      1772082728,
      1772082767,
      1772083052,
      1772083112,
      1772083112,
      1772083353,
      1772083413,
      1772083533,
      1772083533,
      1772083713,
      1772083773,
      1772083893,
      1772083893,
      1772084013,
      1772084133,
      1772084254,
      1772084314,
      1772084314,
      1772084374,
      1772084434,
      1772084434,
      1772084494,
      1772084614,
      1772084674,
      1772084687,
      1772084734,
      1772084747,
      1772084794,
      1772084794,
      1772084854,
      1772084914,
      1772084927,
      1772084987,
      1772085047,
      1772085094,
      1772085107,
      1772085167,
      1772085167,
      1772085214,
      1772085214,
      1772085334,
      1772085407,
      1772085455,
      1772085527,
      1772085575,
      1772085635,
      1772085647,
      1772085695,
      1772085695,
      1772085767,
      1772085815,
      1772085827,
      1772085875,
      1772085887,
      1772085935,
      1772085935,
      1772086067,
      1772086127,
      1772086188,
      1772086248,
      1772086248,
      1772086368,
      1772086488,
      1772086668,
      1772086968,
      1772086968,
      1772087028,
      1772087208,
      1772087268,
      1772087328,
      1772087328,
      1772087448,
      1772087555,
      1772087628,
      1772087688,
      1772087735,
      1772087748,
      1772087855,
      1772087988,
      1772087988,
      1772088048,
      1772088108,
      1772088108,
      1772088275,
      1772088288,
      1772088815,
      1772088935,
      1772089055,
      1772089055,
      1772089355,
      1772089415,
      1772089596,
      1772089620,
      1772089680,
      1772089776,
      1772089800,
      1772089956,
      1772090016,
      1772090076,
      1772090100,
      1772090100,
      1772090196,
      1772090221,
      1772090341,
      1772090376,
      1772090436,
      1772090461,
      1772090581,
      1772090616,
      1772090616,
      1772090641,
      1772090676,
      1772090736,
      1772090796,
      1772090856,
      1772091001,
      1772091001,
      1772091181,
      1772091241,
      1772091351,
      1772091361,
      1772091411,
      1772091591,
      1772091601,
      1772091711,
      1772091711,
      1772091771,
      1772091781,
      1772091831,
      1772091841,
      1772091901,
      1772092081,
      1772092141,
      1772092141,
      1772092251,
      1772092321,
      1772092381
    ],
    "wof:geomhash": "8d5cf61c6b63357daba05cb8e9944784",
    "wof:id": 2014881339,
    "wof:repo": "sfomuseum-data-flights-2026-02"
  },
  "bbox": [
    -122.36388888888888,
    37.63194444444444,
    -87.55722222222222,
    42.56333333333333
  ],
  "geometry": {"coordinates":[[-122.36388888888888,37.63194444444444],[-122.17305555555556,37.76361111111111],[-122.17305555555556,37.76361111111111],[-121.76833333333333,38.083333333333336],[-121.76833333333333,38.083333333333336],[-121.64250000000001,38.16722222222222],[-121.37083333333332,38.34722222222222],[-121.37083333333332,38.34722222222222],[-120.93361111111112,38.61638888888889],[-120.6275,38.79555555555555],[-120.55138888888888,38.82166666666667],[-120.18055555555556,38.92027777777778],[-120.18055555555556,38.92027777777778],[-119.99638888888889,38.970555555555556],[-119.7,39.051111111111105],[-119.7,39.051111111111105],[-119.62833333333333,39.06944444444445],[-119.51694444444445,39.1],[-119.44250000000001,39.11805555555556],[-118.92888888888889,39.253055555555555],[-118.88388888888889,39.263888888888886],[-117.80388888888889,39.536944444444444],[-117.72833333333334,39.555277777777775],[-117.365,39.64388888888889],[-117.24888888888889,39.67194444444444],[-117.06138888888889,39.71666666666667],[-116.98944444444444,39.73388888888889],[-116.87305555555555,39.76166666666666],[-116.80138888888888,39.77861111111111],[-116.80138888888888,39.77861111111111],[-116.68388888888889,39.80611111111111],[-115.7625,40.01833333333333],[-115.56888888888888,40.06166666666666],[-115.56888888888888,40.06166666666666],[-114.79416666666667,40.231944444444444],[-114.59305555555555,40.275],[-114.20166666666667,40.35805555555556],[-114.20166666666667,40.35805555555556],[-113.61277777777777,40.480000000000004],[-113.41638888888889,40.519999999999996],[-113.01777777777778,40.599444444444444],[-113.01777777777778,40.599444444444444],[-112.61916666666666,40.67777777777778],[-112.21972222222223,40.754444444444445],[-111.78916666666666,40.83555555555556],[-111.59166666666667,40.871944444444445],[-111.59166666666667,40.871944444444445],[-111.3938888888889,40.90833333333333],[-111.19722222222222,40.94416666666666],[-111.19722222222222,40.94416666666666],[-110.99972222222222,40.97944444444445],[-110.60277777777777,41.04944444444444],[-110.40111111111112,41.084722222222226],[-110.3586111111111,41.092222222222226],[-110.20111111111112,41.119166666666665],[-110.16111111111111,41.12583333333333],[-110.00138888888888,41.153055555555554],[-110.00138888888888,41.153055555555554],[-109.80194444444444,41.186388888888885],[-109.60333333333332,41.219166666666666],[-109.56194444444444,41.226111111111116],[-109.36222222222221,41.25888888888889],[-109.16333333333334,41.29111111111111],[-109.00694444444444,41.31638888888889],[-108.96833333333333,41.322500000000005],[-108.76944444444445,41.353611111111114],[-108.76944444444445,41.353611111111114],[-108.6086111111111,41.37916666666667],[-108.6086111111111,41.37916666666667],[-108.20694444444445,41.44083333333333],[-107.96638888888889,41.47694444444445],[-107.80138888888888,41.50138888888889],[-107.55583333333333,41.5375],[-107.39166666666668,41.561388888888885],[-107.18916666666667,41.590833333333336],[-107.14833333333334,41.59638888888889],[-106.98472222222222,41.61944444444445],[-106.98472222222222,41.61944444444445],[-106.74694444444445,41.65277777777778],[-106.57333333333332,41.67638888888889],[-106.5436111111111,41.68055555555555],[-106.3736111111111,41.703611111111115],[-106.33305555555555,41.70916666666667],[-106.16888888888889,41.73083333333334],[-106.16888888888889,41.73083333333334],[-105.73138888888889,41.788333333333334],[-105.52944444444444,41.814166666666665],[-105.33222222222221,41.83916666666667],[-105.13361111111112,41.86361111111111],[-105.13361111111112,41.86361111111111],[-104.74527777777777,41.91083333333333],[-104.35111111111111,41.95722222222223],[-103.76277777777777,42.02388888888889],[-102.78444444444445,42.12861111111111],[-102.78444444444445,42.12861111111111],[-102.58749999999999,42.14833333333333],[-101.98055555555555,42.206944444444446],[-101.78472222222221,42.22555555555556],[-101.58805555555556,42.243611111111115],[-101.58805555555556,42.243611111111115],[-101.20027777777779,42.27861111111111],[-100.87027777777777,42.306666666666665],[-100.63694444444445,42.325833333333335],[-100.44833333333334,42.34138888888889],[-100.30277777777778,42.35333333333333],[-100.2625,42.35666666666667],[-99.92500000000001,42.382777777777775],[-99.52361111111111,42.41277777777778],[-99.52361111111111,42.41277777777778],[-99.34027777777777,42.42611111111111],[-99.155,42.43888888888888],[-99.155,42.43888888888888],[-98.64444444444445,42.473055555555554],[-98.6111111111111,42.474722222222226],[-97.03583333333333,42.533055555555556],[-96.65694444444445,42.54361111111111],[-96.2775,42.54972222222222],[-96.2775,42.54972222222222],[-95.31861111111111,42.559999999999995],[-95.12638888888888,42.56166666666666],[-94.53694444444444,42.56333333333333],[-94.45611111111111,42.56305555555555],[-94.26388888888889,42.56333333333333],[-93.95805555555556,42.5625],[-93.88027777777778,42.56194444444444],[-93.3786111111111,42.55777777777777],[-93.18555555555555,42.55583333333333],[-92.99388888888889,42.552499999999995],[-92.91777777777779,42.55027777777777],[-92.91777777777779,42.55027777777777],[-92.60722222222222,42.54083333333333],[-92.53138888888888,42.53861111111111],[-92.14305555555556,42.526666666666664],[-92.02416666666666,42.524166666666666],[-91.83027777777778,42.525277777777774],[-91.75583333333333,42.525555555555556],[-91.365,42.526944444444446],[-91.24638888888889,42.526944444444446],[-91.24638888888889,42.526944444444446],[-91.16888888888889,42.526944444444446],[-91.05027777777778,42.526944444444446],[-90.85277777777777,42.526666666666664],[-90.65277777777779,42.525555555555556],[-90.455,42.52388888888889],[-89.98388888888888,42.52055555555555],[-89.98388888888888,42.52055555555555],[-89.43666666666667,42.47694444444445],[-89.26555555555555,42.455555555555556],[-88.93333333333334,42.416666666666664],[-88.93944444444445,42.41444444444444],[-88.78333333333333,42.4],[-88.38333333333334,42.333333333333336],[-88.37777777777777,42.33444444444444],[-88.16666666666667,42.2],[-88.16666666666667,42.2],[-88.06666666666666,42.15],[-88.05611111111111,42.13666666666666],[-87.95,42.11666666666667],[-87.94055555555556,42.11805555555556],[-87.82972222222222,42.10777777777778],[-87.55722222222222,42.04055555555556],[-87.58527777777778,41.98555555555556],[-87.58527777777778,41.98555555555556],[-87.71666666666667,41.96666666666667],[-87.795,41.969166666666666],[-87.85111111111111,41.969166666666666]],"type":"LineString"}
}
