{
  "id": 2014798079,
  "type": "Feature",
  "properties": {
    "geom:area": 0,
    "geom:bbox": "-122.368920,37.624920,-121.267070,37.966930",
    "geom:latitude": 37.79733388064897,
    "geom:longitude": -121.85641921783854,
    "src:alt_label": "swim-approach",
    "src:geom": "swim",
    "swim:elevations": [
      4133,
      4094,
      3825,
      3638,
      3391,
      3321,
      3254,
      3115,
      3048,
      3048,
      2881,
      2839,
      2772,
      2743,
      2743,
      2743,
      2743,
      2743,
      2743,
      2743,
      2723,
      2710,
      2653,
      2561,
      2438,
      2438,
      2438,
      2437,
      2436,
      2438,
      2438,
      2323,
      2117,
      1917,
      1689,
      1574,
      1525,
      1378,
      1268,
      1187,
      962,
      945,
      945,
      849,
      819,
      739,
      549,
      433,
      369,
      246,
      136,
      113,
      91,
      0
    ],
    "swim:geom": "approach",
    "swim:timestamps": [
      1771188358,
      1771188364,
      1771188407,
      1771188429,
      1771188462,
      1771188472,
      1771188482,
      1771188500,
      1771188534,
      1771188546,
      1771188598,
      1771188608,
      1771188621,
      1771188646,
      1771188655,
      1771188676,
      1771188709,
      1771188735,
      1771188773,
      1771188804,
      1771188838,
      1771188843,
      1771188857,
      1771188879,
      1771188924,
      1771188942,
      1771188987,
      1771189002,
      1771189014,
      1771189027,
      1771189042,
      1771189075,
      1771189107,
      1771189131,
      1771189163,
      1771189178,
      1771189185,
      1771189205,
      1771189220,
      1771189239,
      1771189282,
      1771189312,
      1771189332,
      1771189372,
      1771189381,
      1771189393,
      1771189438,
      1771189466,
      1771189483,
      1771189514,
      1771189548,
      1771189556,
      1771189562,
      1771189583
    ],
    "wof:geomhash": "7c39adcbb4a4ff738d8ffa09571e4ca9",
    "wof:id": 2014798079,
    "wof:repo": "sfomuseum-data-flights-2026-02"
  },
  "bbox": [
    -122.36892,
    37.62492,
    -121.26707,
    37.96693
  ],
  "geometry": {"coordinates":[[-121.26707,37.63847],[-121.27315,37.64632],[-121.33135,37.68558],[-121.37002,37.69664],[-121.42461,37.71191],[-121.4411,37.71649],[-121.45759,37.72114],[-121.48806,37.72989],[-121.54335,37.74587],[-121.56267,37.75135],[-121.64567,37.774],[-121.66116,37.77836],[-121.68199,37.78419],[-121.72006,37.79467],[-121.73365,37.79836],[-121.76393,37.8069],[-121.79902,37.83405],[-121.81906,37.86047],[-121.84912,37.89877],[-121.87325,37.9303],[-121.90437,37.96315],[-121.91045,37.96539],[-121.92799,37.96693],[-121.95028,37.95588],[-121.94912,37.91425],[-121.94435,37.89726],[-121.9457,37.85721],[-121.96052,37.84876],[-121.97489,37.84468],[-121.99167,37.84429],[-122.01037,37.84535],[-122.04999,37.84841],[-122.0849,37.8509],[-122.11005,37.85164],[-122.1422,37.84812],[-122.15809,37.84614],[-122.16521,37.84529],[-122.18441,37.84041],[-122.19798,37.8351],[-122.21407,37.8284],[-122.24631,37.80929],[-122.25904,37.79021],[-122.26797,37.7766],[-122.28571,37.74982],[-122.28983,37.74368],[-122.29522,37.73563],[-122.31546,37.70511],[-122.3274,37.6872],[-122.33351,37.67796],[-122.3443,37.66177],[-122.3561,37.64393],[-122.35895,37.63969],[-122.36116,37.63653],[-122.36892,37.62492]],"type":"LineString"}
}
