{
  "id": 2014723411,
  "type": "Feature",
  "properties": {
    "geom:area": 0,
    "geom:bbox": "-122.527260,37.631140,-122.047480,38.515070",
    "geom:latitude": 38.03824173767116,
    "geom:longitude": -122.30512208311798,
    "src:alt_label": "swim-takeoff",
    "src:geom": "swim",
    "swim:elevations": [
      244,
      637,
      871,
      1008,
      1250,
      1619,
      2094,
      2175,
      2698,
      2962,
      3200,
      3229,
      3239,
      3601,
      3728,
      4054,
      4579,
      4893,
      5050,
      5256,
      5522,
      6090,
      6380,
      6525
    ],
    "swim:geom": "takeoff",
    "swim:timestamps": [
      1770313400,
      1770313434,
      1770313455,
      1770313488,
      1770313517,
      1770313556,
      1770313588,
      1770313599,
      1770313641,
      1770313665,
      1770313692,
      1770313704,
      1770313717,
      1770313765,
      1770313779,
      1770313807,
      1770313856,
      1770313886,
      1770313901,
      1770313925,
      1770313956,
      1770314001,
      1770314034,
      1770314054
    ],
    "wof:geomhash": "486ef0df790685f7fb0660b74f73e4e2",
    "wof:id": 2014723411,
    "wof:repo": "sfomuseum-data-flights-2026-02"
  },
  "bbox": [
    -122.52726,
    37.63114,
    -122.04748,
    38.51507
  ],
  "geometry": {"coordinates":[[-122.40469,37.63114],[-122.43744,37.64541],[-122.45856,37.65478],[-122.4939,37.66974],[-122.52374,37.69151],[-122.52726,37.74165],[-122.52522,37.78529],[-122.51822,37.79932],[-122.46105,37.8302],[-122.42712,37.84914],[-122.40285,37.8832],[-122.39267,37.8993],[-122.38061,37.9189],[-122.33367,37.99399],[-122.31874,38.01689],[-122.2895,38.06244],[-122.23526,38.14648],[-122.20182,38.19827],[-122.18501,38.22421],[-122.1582,38.26578],[-122.1231,38.32188],[-122.08593,38.41002],[-122.0622,38.47457],[-122.04748,38.51507]],"type":"LineString"}
}
