{
  "id": 2014859075,
  "type": "Feature",
  "properties": {
    "geom:area": 0,
    "geom:bbox": "-122.463056,33.533333,-84.200000,39.480833",
    "geom:latitude": 38.16904151405704,
    "geom:longitude": -102.78652596561687,
    "src:alt_label": "swim-path",
    "src:geom": "swim",
    "swim:altitudes": [
      "011",
      "011",
      "032",
      "089",
      "089",
      "089",
      "104",
      "118",
      "118",
      "118",
      "147",
      "196",
      "218",
      "218",
      "240",
      "240",
      "259",
      "276",
      "276",
      "289",
      "307",
      "307",
      "307",
      "328C",
      "330C",
      "350C",
      "350C",
      "350C",
      "350C",
      "350C",
      "350C",
      "350C",
      "350C",
      "350C",
      "350C",
      "350C",
      "350C",
      "350C",
      "350C",
      "350C",
      "350C",
      "350C",
      "350C",
      "350C",
      "350C",
      "350C",
      "350C",
      "350C",
      "350C",
      "350C",
      "350C",
      "350C",
      "350C",
      "350C",
      "350C",
      "350C",
      "350C",
      "350C",
      "350C",
      "350C",
      "350C",
      "350C",
      "350C",
      "350C",
      "350C",
      "350C",
      "350C",
      "350C",
      "350C",
      "350C",
      "350C",
      "350C",
      "350C",
      "350C",
      "350C",
      "350C",
      "350C",
      "350C",
      "350C",
      "350C",
      "350C",
      "350C",
      "350C",
      "350C",
      "350C",
      "350C",
      "350C",
      "350C",
      "350C",
      "350C",
      "350C",
      "350C",
      "350C",
      "350C",
      "350C",
      "350C",
      "350C",
      "350C",
      "350C",
      "350C",
      "350C",
      "350C",
      "350C",
      "350C",
      "350C",
      "350C",
      "350C",
      "350C",
      "350C",
      "350C",
      "350C",
      "350C",
      "350C",
      "350C",
      "350C",
      "350C",
      "350C",
      "350C",
      "350C",
      "350C",
      "350C",
      "350C",
      "350C",
      "350C",
      "350C",
      "350C",
      "350C",
      "350C",
      "350C",
      "350C",
      "350C",
      "350C",
      "350C",
      "350C",
      "350C",
      "350C",
      "350C",
      "350C",
      "350C",
      "350C",
      "350C",
      "350C",
      "350C",
      "350C",
      "350C",
      "350C",
      "350C",
      "350C",
      "350C",
      "350C",
      "350C",
      "350C",
      "350C",
      "350C",
      "350C",
      "350C",
      "350C",
      "350C",
      "350C",
      "350C",
      "350C",
      "350C",
      "350C",
      "350C",
      "350C",
      "350C",
      "350C",
      "350C",
      "350C",
      "350C",
      "350C",
      "350C",
      "350C",
      "350C",
      "350C",
      "350C",
      "350C",
      "350C",
      "350C",
      "350C",
      "350C",
      "350C",
      "350C",
      "350C",
      "350C",
      "350C",
      "350C",
      "350C",
      "350C",
      "350C",
      "350C",
      "350C",
      "350C",
      "350C",
      "350C",
      "350C",
      "350C",
      "350C",
      "350C",
      "350C",
      "350C",
      "350C",
      "350C",
      "350C",
      "350C",
      "350C",
      "350C",
      "350C",
      "350C",
      "350C",
      "350C",
      "350C",
      "350C",
      "350C",
      "350C",
      "350C",
      "350C",
      "350C",
      "350C",
      "350C",
      "350C",
      "350C",
      "350C",
      "350C",
      "350C",
      "350C",
      "350C",
      "350C",
      "330C",
      "330C",
      "330C",
      "330C",
      "254",
      "250",
      "206",
      "206",
      "170",
      "143",
      "130",
      "120",
      "117",
      "117",
      "089",
      "033",
      "014",
      "014"
    ],
    "swim:geom": "path",
    "swim:speeds": [
      181,
      181,
      181,
      294,
      294,
      294,
      325,
      388,
      388,
      388,
      407,
      453,
      473,
      473,
      488,
      488,
      502,
      518,
      518,
      538,
      551,
      551,
      551,
      547,
      544,
      534,
      533,
      533,
      533,
      533,
      533,
      532,
      532,
      532,
      533,
      533,
      536,
      536,
      536,
      540,
      540,
      541,
      541,
      543,
      543,
      543,
      544,
      544,
      544,
      544,
      544,
      545,
      544,
      544,
      545,
      545,
      545,
      545,
      545,
      547,
      547,
      547,
      547,
      547,
      547,
      548,
      548,
      549,
      549,
      549,
      549,
      549,
      549,
      549,
      548,
      543,
      548,
      548,
      547,
      548,
      548,
      548,
      548,
      547,
      548,
      548,
      548,
      548,
      548,
      549,
      549,
      549,
      550,
      550,
      550,
      550,
      550,
      549,
      549,
      549,
      549,
      549,
      551,
      551,
      551,
      551,
      552,
      552,
      551,
      551,
      550,
      550,
      551,
      551,
      551,
      551,
      551,
      552,
      552,
      552,
      552,
      552,
      552,
      547,
      547,
      547,
      547,
      548,
      548,
      551,
      562,
      562,
      567,
      567,
      567,
      567,
      569,
      569,
      568,
      568,
      572,
      572,
      573,
      575,
      575,
      580,
      580,
      579,
      579,
      579,
      579,
      580,
      582,
      582,
      582,
      582,
      582,
      583,
      584,
      584,
      585,
      585,
      587,
      589,
      591,
      591,
      592,
      592,
      596,
      596,
      603,
      603,
      604,
      604,
      606,
      610,
      610,
      610,
      609,
      609,
      610,
      610,
      610,
      610,
      610,
      608,
      608,
      608,
      608,
      608,
      607,
      605,
      601,
      601,
      597,
      597,
      597,
      595,
      594,
      593,
      591,
      590,
      590,
      590,
      590,
      589,
      588,
      588,
      589,
      589,
      589,
      588,
      588,
      588,
      591,
      592,
      592,
      592,
      592,
      592,
      593,
      595,
      595,
      591,
      589,
      585,
      596,
      596,
      590,
      604,
      605,
      593,
      561,
      561,
      489,
      489,
      446,
      414,
      405,
      376,
      304,
      304,
      265,
      171,
      136,
      136
    ],
    "swim:timestamps": [
      1771792060,
      1771792060,
      1771792120,
      1771792300,
      1771792300,
      1771792300,
      1771792360,
      1771792421,
      1771792421,
      1771792421,
      1771792481,
      1771792601,
      1771792661,
      1771792661,
      1771792721,
      1771792721,
      1771792781,
      1771792841,
      1771792841,
      1771792901,
      1771792961,
      1771792961,
      1771792961,
      1771793021,
      1771793081,
      1771793202,
      1771793262,
      1771793262,
      1771793299,
      1771793322,
      1771793322,
      1771793502,
      1771793502,
      1771793600,
      1771793682,
      1771793682,
      1771793720,
      1771793720,
      1771793720,
      1771793900,
      1771793900,
      1771793983,
      1771793983,
      1771794103,
      1771794140,
      1771794140,
      1771794200,
      1771794200,
      1771794261,
      1771794261,
      1771794283,
      1771794321,
      1771794343,
      1771794343,
      1771794381,
      1771794403,
      1771794463,
      1771794463,
      1771794463,
      1771794921,
      1771794921,
      1771795042,
      1771795042,
      1771795162,
      1771795162,
      1771795282,
      1771795282,
      1771795402,
      1771795402,
      1771795462,
      1771795462,
      1771795642,
      1771795642,
      1771795642,
      1771795702,
      1771795745,
      1771795763,
      1771795823,
      1771795865,
      1771795883,
      1771795925,
      1771795925,
      1771795925,
      1771796003,
      1771796045,
      1771796063,
      1771796105,
      1771796105,
      1771796123,
      1771796165,
      1771796183,
      1771796183,
      1771796363,
      1771796406,
      1771796406,
      1771796406,
      1771796423,
      1771796466,
      1771796526,
      1771796526,
      1771796544,
      1771796586,
      1771796664,
      1771796706,
      1771796724,
      1771796724,
      1771796886,
      1771796886,
      1771797187,
      1771797187,
      1771797247,
      1771797247,
      1771797307,
      1771797367,
      1771797367,
      1771797667,
      1771797667,
      1771797788,
      1771797788,
      1771798028,
      1771798028,
      1771798028,
      1771798061,
      1771798181,
      1771798181,
      1771798241,
      1771798241,
      1771798268,
      1771798268,
      1771798361,
      1771798388,
      1771798421,
      1771798449,
      1771798481,
      1771798541,
      1771798541,
      1771798629,
      1771798629,
      1771798722,
      1771798782,
      1771798809,
      1771798809,
      1771798869,
      1771798929,
      1771798929,
      1771799022,
      1771799022,
      1771799142,
      1771799142,
      1771799142,
      1771799230,
      1771799262,
      1771799382,
      1771799382,
      1771799410,
      1771799410,
      1771799443,
      1771799503,
      1771799530,
      1771799530,
      1771799563,
      1771799563,
      1771799623,
      1771799683,
      1771799743,
      1771799743,
      1771799803,
      1771799803,
      1771800043,
      1771800043,
      1771800104,
      1771800104,
      1771800164,
      1771800164,
      1771800284,
      1771800524,
      1771800524,
      1771800524,
      1771800584,
      1771800644,
      1771800692,
      1771800692,
      1771800692,
      1771800752,
      1771800752,
      1771800764,
      1771800945,
      1771800945,
      1771800992,
      1771800992,
      1771801005,
      1771801065,
      1771801232,
      1771801232,
      1771801305,
      1771801305,
      1771801352,
      1771801365,
      1771801426,
      1771801486,
      1771801533,
      1771801593,
      1771801606,
      1771801653,
      1771801653,
      1771801666,
      1771801726,
      1771801833,
      1771801893,
      1771801953,
      1771801953,
      1771802013,
      1771802013,
      1771802026,
      1771802194,
      1771802207,
      1771802207,
      1771802254,
      1771802267,
      1771802267,
      1771802314,
      1771802434,
      1771802434,
      1771802659,
      1771802719,
      1771802959,
      1771803080,
      1771803080,
      1771803275,
      1771803335,
      1771803560,
      1771803575,
      1771803801,
      1771803816,
      1771803996,
      1771803996,
      1771804125,
      1771804233,
      1771804323,
      1771804594,
      1771804690,
      1771804690,
      1771804834,
      1771805056,
      1771805290,
      1771805290
    ],
    "wof:geomhash": "44308ea30188ddbaa881d0caff3339d0",
    "wof:id": 2014859075,
    "wof:repo": "sfomuseum-data-flights-2026-02"
  },
  "bbox": [
    -122.46305555555556,
    33.53333333333333,
    -84.2,
    39.48083333333334
  ],
  "geometry": {"coordinates":[[-122.40305555555557,37.6325],[-122.40305555555557,37.6325],[-122.46055555555556,37.656388888888884],[-122.46305555555556,37.82777777777778],[-122.46305555555556,37.82777777777778],[-122.46305555555556,37.82777777777778],[-122.36027777777777,37.8575],[-122.23611111111111,37.89083333333333],[-122.23611111111111,37.89083333333333],[-122.23611111111111,37.89083333333333],[-122.1036111111111,37.92666666666666],[-121.81194444444444,38.00416666666667],[-121.65944444444445,38.04416666666666],[-121.65944444444445,38.04416666666666],[-121.49694444444445,38.08694444444445],[-121.49694444444445,38.08694444444445],[-121.33194444444445,38.12972222222222],[-121.16083333333334,38.17361111111111],[-121.16083333333334,38.17361111111111],[-120.97916666666667,38.21388888888889],[-120.79055555555556,38.240833333333335],[-120.79055555555556,38.240833333333335],[-120.79055555555556,38.240833333333335],[-120.60194444444444,38.26722222222222],[-120.41250000000001,38.29333333333333],[-120.00083333333333,38.349444444444444],[-119.81527777777778,38.37416666666667],[-119.81527777777778,38.37416666666667],[-119.71611111111112,38.38583333333333],[-119.63,38.39861111111111],[-119.63,38.39861111111111],[-119.085,38.468333333333334],[-119.085,38.468333333333334],[-118.7911111111111,38.50416666666667],[-118.53055555555555,38.53666666666666],[-118.53055555555555,38.53666666666666],[-118.4225,38.54972222222222],[-118.4225,38.54972222222222],[-118.4225,38.54972222222222],[-117.85305555555556,38.61666666666667],[-117.85305555555556,38.61666666666667],[-117.58111111111111,38.6475],[-117.58111111111111,38.6475],[-117.19611111111111,38.69305555555555],[-117.08,38.71138888888889],[-117.08,38.71138888888889],[-116.88944444444445,38.740833333333335],[-116.88944444444445,38.740833333333335],[-116.69638888888889,38.7675],[-116.69638888888889,38.7675],[-116.61666666666666,38.776666666666664],[-116.50611111111111,38.788333333333334],[-116.42611111111111,38.796388888888885],[-116.42611111111111,38.796388888888885],[-116.31222222222222,38.8075],[-116.23,38.815555555555555],[-116.03694444444444,38.83361111111111],[-116.03694444444444,38.83361111111111],[-116.03694444444444,38.83361111111111],[-114.57944444444443,38.963055555555556],[-114.57944444444443,38.963055555555556],[-114.18972222222223,38.99444444444445],[-114.18972222222223,38.99444444444445],[-113.80277777777778,39.02444444444444],[-113.80277777777778,39.02444444444444],[-113.4113888888889,39.05361111111111],[-113.4113888888889,39.05361111111111],[-113.02083333333333,39.081388888888895],[-113.02083333333333,39.081388888888895],[-112.825,39.094722222222224],[-112.825,39.094722222222224],[-112.23861111111111,39.132777777777775],[-112.23861111111111,39.132777777777775],[-112.23861111111111,39.132777777777775],[-112.04166666666667,39.14472222222222],[-111.9263888888889,39.153055555555554],[-111.84888888888888,39.156388888888884],[-111.65277777777779,39.16777777777777],[-111.50583333333333,39.17666666666666],[-111.455,39.178888888888885],[-111.31222222222222,39.18666666666666],[-111.31222222222222,39.18666666666666],[-111.31222222222222,39.18666666666666],[-111.07583333333334,39.19916666666666],[-110.92055555555557,39.20722222222223],[-110.87916666666666,39.20944444444445],[-110.72583333333334,39.216944444444444],[-110.72583333333334,39.216944444444444],[-110.68472222222222,39.21888888888889],[-110.52777777777777,39.22666666666667],[-110.48861111111111,39.228611111111114],[-110.48861111111111,39.228611111111114],[-109.9,39.25472222222222],[-109.745,39.26111111111111],[-109.745,39.26111111111111],[-109.745,39.26111111111111],[-109.70444444444445,39.26277777777778],[-109.54916666666666,39.26888888888889],[-109.35472222222222,39.27638888888889],[-109.35472222222222,39.27638888888889],[-109.31361111111111,39.27777777777778],[-109.16027777777778,39.28333333333333],[-108.92194444444445,39.291666666666664],[-108.76916666666666,39.29666666666667],[-108.68861111111111,39.299166666666665],[-108.68861111111111,39.299166666666665],[-108.15333333333334,39.315],[-108.15333333333334,39.315],[-107.17277777777778,39.33722222222222],[-107.17277777777778,39.33722222222222],[-107.00083333333333,39.34027777777778],[-107.00083333333333,39.34027777777778],[-106.80499999999999,39.343611111111116],[-106.60527777777777,39.34638888888889],[-106.60527777777777,39.34638888888889],[-105.60194444444444,39.35583333333334],[-105.60194444444444,39.35583333333334],[-105.20694444444445,39.35722222222223],[-105.20694444444445,39.35722222222223],[-104.42722222222223,39.36972222222222],[-104.42722222222223,39.36972222222222],[-104.42722222222223,39.36972222222222],[-104.32166666666666,39.38194444444444],[-103.93722222222223,39.4225],[-103.93722222222223,39.4225],[-103.74111111111111,39.445277777777775],[-103.74111111111111,39.445277777777775],[-103.65361111111112,39.45583333333334],[-103.65361111111112,39.45583333333334],[-103.34722222222221,39.48083333333334],[-103.25805555555556,39.48083333333334],[-103.14500000000001,39.472500000000004],[-103.01555555555555,39.46361111111111],[-102.94,39.458333333333336],[-102.73805555555556,39.44305555555555],[-102.73805555555556,39.44305555555555],[-102.40555555555557,39.416666666666664],[-102.40555555555557,39.416666666666664],[-102.12555555555555,39.39361111111111],[-101.9213888888889,39.376111111111115],[-101.80777777777777,39.36611111111111],[-101.80777777777777,39.36611111111111],[-101.60277777777777,39.34805555555556],[-101.39805555555556,39.32972222222222],[-101.39805555555556,39.32972222222222],[-101.10277777777777,39.302499999999995],[-101.10277777777777,39.302499999999995],[-100.68722222222223,39.263333333333335],[-100.68722222222223,39.263333333333335],[-100.68722222222223,39.263333333333335],[-100.37388888888889,39.2325],[-100.27361111111111,39.222500000000004],[-99.86805555555554,39.18111111111111],[-99.86805555555554,39.18111111111111],[-99.73333333333333,39.16694444444444],[-99.73333333333333,39.16694444444444],[-99.65361111111112,39.15861111111111],[-99.43777777777778,39.135555555555555],[-99.31722222222221,39.1225],[-99.31722222222221,39.1225],[-99.22777777777777,39.11277777777778],[-99.22777777777777,39.11277777777778],[-99.02027777777778,39.08972222222222],[-98.80972222222222,39.066111111111105],[-98.59888888888888,39.04194444444444],[-98.59888888888888,39.04194444444444],[-98.3913888888889,39.01777777777777],[-98.3913888888889,39.01777777777777],[-97.57277777777777,38.91277777777778],[-97.57277777777777,38.91277777777778],[-97.3411111111111,38.858333333333334],[-97.3411111111111,38.858333333333334],[-97.13388888888889,38.80833333333333],[-97.13388888888889,38.80833333333333],[-96.7175,38.706944444444446],[-95.88944444444445,38.499722222222225],[-95.88944444444445,38.499722222222225],[-95.88944444444445,38.499722222222225],[-95.68555555555555,38.4475],[-95.48305555555555,38.39527777777778],[-95.34527777777777,38.358333333333334],[-95.34527777777777,38.358333333333334],[-95.34527777777777,38.358333333333334],[-95.13722222222223,38.305277777777775],[-95.13722222222223,38.305277777777775],[-95.07777777777777,38.28944444444444],[-94.46972222222223,38.1275],[-94.46972222222223,38.1275],[-94.30499999999999,38.08305555555556],[-94.30499999999999,38.08305555555556],[-94.26916666666666,38.07333333333334],[-94.07138888888889,38.019444444444446],[-93.49916666666667,37.88527777777778],[-93.49916666666667,37.88527777777778],[-93.29527777777777,37.836111111111116],[-93.29527777777777,37.836111111111116],[-93.09972222222221,37.7875],[-93.05277777777778,37.778055555555554],[-92.85499999999999,37.73027777777778],[-92.66888888888889,37.684999999999995],[-92.50694444444444,37.64555555555555],[-92.31166666666667,37.597500000000004],[-92.27055555555556,37.587500000000006],[-92.11361111111111,37.54861111111111],[-92.11361111111111,37.54861111111111],[-92.07583333333334,37.53916666666667],[-91.87972222222221,37.49],[-91.52583333333334,37.400555555555556],[-91.33194444444445,37.35111111111111],[-91.13583333333334,37.300555555555555],[-91.13583333333334,37.300555555555555],[-90.93916666666667,37.24944444444444],[-90.93916666666667,37.24944444444444],[-90.90083333333334,37.239444444444445],[-90.34805555555555,37.093333333333334],[-90.3111111111111,37.08361111111111],[-90.3111111111111,37.08361111111111],[-90.15333333333334,37.04111111111111],[-90.11277777777777,37.030277777777776],[-90.11277777777777,37.030277777777776],[-89.95694444444445,36.98861111111111],[-89.55749999999999,36.89138888888889],[-89.55749999999999,36.89138888888889],[-88.83972222222222,36.711666666666666],[-88.64722222222223,36.66222222222222],[-87.88055555555555,36.46222222222222],[-87.5175,36.32055555555556],[-87.5175,36.32055555555556],[-87.02111111111111,35.9925],[-86.83305555555555,35.86694444444444],[-86.25972222222222,35.480000000000004],[-86.2,35.434999999999995],[-85.75555555555556,34.98111111111111],[-85.73277777777778,34.95722222222223],[-85.41666666666667,34.62305555555555],[-85.41666666666667,34.62305555555555],[-85.2,34.4],[-85.05111111111111,34.2325],[-84.91666666666667,34.1],[-84.65333333333334,33.67638888888889],[-84.55,33.53333333333333],[-84.55,33.53333333333333],[-84.35333333333332,33.536944444444444],[-84.2,33.6],[-84.4,33.61666666666667],[-84.4,33.61666666666667]],"type":"LineString"}
}
