{
  "id": 2014714115,
  "type": "Feature",
  "properties": {
    "geom:area": 0,
    "geom:bbox": "-122.386100,37.635000,-121.436420,38.514530",
    "geom:latitude": 38.12115897783952,
    "geom:longitude": -122.01479600617387,
    "src:alt_label": "swim-takeoff",
    "src:geom": "swim",
    "swim:elevations": [
      305,
      664,
      1037,
      1075,
      1156,
      1336,
      1632,
      1713,
      2313,
      2615,
      2788,
      3102,
      3164,
      3328,
      3468,
      3631,
      3754,
      4004,
      4391,
      4604,
      4738,
      5025,
      5319,
      5508,
      5655,
      5755,
      5976,
      6038,
      6228,
      6376
    ],
    "swim:geom": "takeoff",
    "swim:timestamps": [
      1770246791,
      1770246815,
      1770246859,
      1770246868,
      1770246886,
      1770246928,
      1770246955,
      1770246961,
      1770247005,
      1770247030,
      1770247048,
      1770247078,
      1770247088,
      1770247121,
      1770247151,
      1770247190,
      1770247217,
      1770247247,
      1770247286,
      1770247313,
      1770247329,
      1770247365,
      1770247405,
      1770247432,
      1770247447,
      1770247462,
      1770247495,
      1770247504,
      1770247535,
      1770247564
    ],
    "wof:geomhash": "30c9fcb61d78442acb205dc28102ab2e",
    "wof:id": 2014714115,
    "wof:repo": "sfomuseum-data-flights-2026-02"
  },
  "bbox": [
    -122.3861,
    37.635,
    -121.43642,
    38.51453
  ],
  "geometry": {"coordinates":[[-122.36169,37.635],[-122.34611,37.6497],[-122.31492,37.67578],[-122.30989,37.68283],[-122.309,37.70006],[-122.33425,37.74348],[-122.35235,37.77629],[-122.35608,37.78376],[-122.38311,37.83846],[-122.3861,37.87218],[-122.38496,37.89704],[-122.37718,37.93807],[-122.3679,37.94952],[-122.31877,37.97932],[-122.27015,38.00936],[-122.20165,38.05166],[-122.15052,38.08304],[-122.09191,38.11873],[-122.0148,38.16561],[-121.96013,38.19878],[-121.9272,38.21867],[-121.85359,38.2631],[-121.77075,38.31285],[-121.71488,38.34644],[-121.68359,38.3652],[-121.65229,38.38395],[-121.58291,38.42539],[-121.56387,38.43677],[-121.49792,38.47666],[-121.43642,38.51453]],"type":"LineString"}
}
