{
  "id": 2014703893,
  "type": "Feature",
  "properties": {
    "geom:area": 0,
    "geom:bbox": "-122.357250,37.491940,-121.250570,37.613510",
    "geom:latitude": 37.54666752172196,
    "geom:longitude": -121.80876714922775,
    "src:alt_label": "swim-approach",
    "src:geom": "swim",
    "swim:elevations": [
      4810,
      4615,
      4416,
      4085,
      3838,
      3570,
      3413,
      3069,
      3051,
      2779,
      2466,
      2275,
      2108,
      2014,
      1841,
      1677,
      1442,
      1395,
      1009,
      850,
      758,
      729,
      625,
      471,
      292,
      281,
      72,
      0
    ],
    "swim:geom": "approach",
    "swim:timestamps": [
      1770121072,
      1770121095,
      1770121118,
      1770121157,
      1770121189,
      1770121224,
      1770121244,
      1770121288,
      1770121291,
      1770121330,
      1770121376,
      1770121401,
      1770121427,
      1770121449,
      1770121490,
      1770121513,
      1770121557,
      1770121563,
      1770121614,
      1770121637,
      1770121667,
      1770121674,
      1770121696,
      1770121723,
      1770121767,
      1770121775,
      1770121823,
      1770121838
    ],
    "wof:geomhash": "98c38ed5bd11ef083b3487c69c99aaf5",
    "wof:id": 2014703893,
    "wof:repo": "sfomuseum-data-flights-2026-02"
  },
  "bbox": [
    -122.35725,
    37.49194,
    -121.25057,
    37.61351
  ],
  "geometry": {"coordinates":[[-121.25057,37.59437],[-121.29704,37.58864],[-121.34405,37.58347],[-121.42046,37.57466],[-121.48151,37.56754],[-121.54551,37.56007],[-121.58136,37.55592],[-121.65832,37.54255],[-121.66338,37.54135],[-121.72774,37.52607],[-121.80181,37.50838],[-121.84249,37.49865],[-121.8844,37.49194],[-121.91909,37.49225],[-121.98156,37.49492],[-122.01499,37.50368],[-122.07294,37.52242],[-122.08057,37.52489],[-122.1444,37.54546],[-122.17244,37.5545],[-122.20743,37.56577],[-122.21422,37.56795],[-122.23761,37.57557],[-122.26645,37.5846],[-122.3044,37.5957],[-122.31049,37.59747],[-122.34689,37.60915],[-122.35725,37.61351]],"type":"LineString"}
}
