{
  "id": 2014839795,
  "type": "Feature",
  "properties": {
    "geom:area": 0,
    "geom:bbox": "-122.758240,37.332470,-122.119960,38.514640",
    "geom:latitude": 37.81267466223202,
    "geom:longitude": -122.45983970061712,
    "src:alt_label": "swim-approach",
    "src:geom": "swim",
    "swim:elevations": [
      7637,
      7446,
      7286,
      7197,
      7121,
      6816,
      6547,
      6273,
      6228,
      6118,
      5691,
      5425,
      5168,
      4937,
      4786,
      4622,
      4603,
      4336,
      3943,
      3784,
      3511,
      3374,
      3354,
      3353,
      3353,
      3353,
      3353,
      3353,
      3339,
      3073,
      2974,
      2519,
      2440,
      2358,
      1957,
      1831,
      1829,
      1809,
      1525,
      1372,
      1235,
      1203,
      1065,
      946,
      844,
      721,
      637,
      505,
      379,
      255,
      87,
      28
    ],
    "swim:geom": "approach",
    "swim:timestamps": [
      1771588370,
      1771588407,
      1771588438,
      1771588455,
      1771588470,
      1771588528,
      1771588556,
      1771588586,
      1771588590,
      1771588602,
      1771588649,
      1771588677,
      1771588705,
      1771588732,
      1771588751,
      1771588767,
      1771588771,
      1771588801,
      1771588847,
      1771588867,
      1771588901,
      1771588947,
      1771588961,
      1771588985,
      1771589033,
      1771589047,
      1771589075,
      1771589105,
      1771589148,
      1771589189,
      1771589202,
      1771589248,
      1771589267,
      1771589282,
      1771589338,
      1771589364,
      1771589389,
      1771589407,
      1771589452,
      1771589473,
      1771589504,
      1771589520,
      1771589550,
      1771589592,
      1771589633,
      1771589656,
      1771589675,
      1771589704,
      1771589730,
      1771589765,
      1771589811,
      1771589823
    ],
    "wof:geomhash": "a461fa98802006168ecc9bcb1490cf39",
    "wof:id": 2014839795,
    "wof:repo": "sfomuseum-data-flights-2026-02"
  },
  "bbox": [
    -122.75824,
    37.33247,
    -122.11996,
    38.51464
  ],
  "geometry": {"coordinates":[[-122.46906,38.51464],[-122.52283,38.46194],[-122.56696,38.41934],[-122.59088,38.39622],[-122.61123,38.37644],[-122.69241,38.29755],[-122.73075,38.26023],[-122.75754,38.21308],[-122.75824,38.20626],[-122.75641,38.18693],[-122.73287,38.10889],[-122.72006,38.06206],[-122.70781,38.01788],[-122.69553,37.9766],[-122.6866,37.9462],[-122.6794,37.92137],[-122.67763,37.91519],[-122.64883,37.87545],[-122.58888,37.82014],[-122.56429,37.79666],[-122.5229,37.75745],[-122.47072,37.70832],[-122.45561,37.69394],[-122.42918,37.66903],[-122.38264,37.6252],[-122.36922,37.6126],[-122.34909,37.58474],[-122.33307,37.55261],[-122.30773,37.50784],[-122.30766,37.46419],[-122.31137,37.45006],[-122.32328,37.40072],[-122.32842,37.37941],[-122.32597,37.36242],[-122.26229,37.33247],[-122.22825,37.33854],[-122.19602,37.34612],[-122.17436,37.35227],[-122.14536,37.39251],[-122.13535,37.41352],[-122.12107,37.44307],[-122.11996,37.45992],[-122.13595,37.48717],[-122.16169,37.52329],[-122.20119,37.54546],[-122.22344,37.55495],[-122.24068,37.56225],[-122.2672,37.57343],[-122.28709,37.58177],[-122.31351,37.59282],[-122.34676,37.60677],[-122.35544,37.61048]],"type":"LineString"}
}
