{
  "id": 2014844413,
  "type": "Feature",
  "properties": {
    "geom:area": 0,
    "geom:bbox": "-122.451200,36.735510,-121.270030,37.714390",
    "geom:latitude": 37.246454390064336,
    "geom:longitude": -121.93281792847517,
    "src:alt_label": "swim-takeoff",
    "src:geom": "swim",
    "swim:elevations": [
      122,
      360,
      756,
      1245,
      1594,
      2195,
      2711,
      3104,
      3282,
      4097,
      4387,
      4909,
      5751,
      5998,
      6383,
      6967,
      7365,
      7668,
      7744,
      8226,
      8585,
      8817,
      9247,
      9373,
      9487,
      9636,
      10073,
      10246,
      10727,
      10985,
      11124,
      11190
    ],
    "swim:geom": "takeoff",
    "swim:timestamps": [
      1771650535,
      1771650553,
      1771650591,
      1771650623,
      1771650650,
      1771650686,
      1771650717,
      1771650738,
      1771650750,
      1771650804,
      1771650822,
      1771650846,
      1771650897,
      1771650916,
      1771650941,
      1771650983,
      1771651016,
      1771651043,
      1771651052,
      1771651097,
      1771651130,
      1771651151,
      1771651194,
      1771651207,
      1771651221,
      1771651240,
      1771651285,
      1771651299,
      1771651342,
      1771651363,
      1771651378,
      1771651384
    ],
    "wof:geomhash": "fe72c3d14714ef20b8b91550534a0baf",
    "wof:id": 2014844413,
    "wof:repo": "sfomuseum-data-flights-2026-02"
  },
  "bbox": [
    -122.4512,
    36.73551,
    -121.27003,
    37.71439
  ],
  "geometry": {"coordinates":[[-122.36992,37.62731],[-122.36478,37.64028],[-122.3623,37.67559],[-122.37523,37.70632],[-122.41148,37.71439],[-122.44628,37.68616],[-122.4512,37.6494],[-122.44958,37.62297],[-122.43908,37.60975],[-122.3639,37.55623],[-122.33738,37.53693],[-122.30159,37.51063],[-122.22371,37.45285],[-122.19291,37.42993],[-122.15223,37.39955],[-122.08026,37.34608],[-122.0213,37.30206],[-121.97143,37.26474],[-121.95432,37.25206],[-121.86681,37.18723],[-121.80136,37.13772],[-121.75872,37.10572],[-121.6719,37.03956],[-121.64468,37.01916],[-121.61487,36.99721],[-121.57466,36.96627],[-121.47799,36.89351],[-121.44835,36.87082],[-121.35766,36.80187],[-121.31366,36.76878],[-121.28248,36.7449],[-121.27003,36.73551]],"type":"LineString"}
}
