{
  "id": 2014719529,
  "type": "Feature",
  "properties": {
    "geom:area": 0,
    "geom:bbox": "-123.242620,37.875970,-122.648560,38.508110",
    "geom:latitude": 38.19224619988738,
    "geom:longitude": -122.94535574885637,
    "src:alt_label": "swim-approach",
    "src:geom": "swim",
    "swim:elevations": [
      5608,
      5529,
      5486,
      5413,
      5305,
      5224,
      5036,
      4933,
      4800,
      4630,
      4525,
      4438,
      4265,
      4267,
      4267,
      4267,
      4267,
      4218
    ],
    "swim:geom": "approach",
    "swim:timestamps": [
      1770362122,
      1770362139,
      1770362154,
      1770362183,
      1770362208,
      1770362230,
      1770362270,
      1770362292,
      1770362319,
      1770362357,
      1770362382,
      1770362401,
      1770362446,
      1770362478,
      1770362512,
      1770362524,
      1770362573,
      1770362593
    ],
    "wof:geomhash": "4f2842dfec8d203fcf28d016a3eb0bfd",
    "wof:id": 2014719529,
    "wof:repo": "sfomuseum-data-flights-2026-02"
  },
  "bbox": [
    -123.24262,
    37.87597,
    -122.64856,
    38.50811
  ],
  "geometry": {"coordinates":[[-123.24262,38.50811],[-123.2192,38.48402],[-123.19885,38.46328],[-123.16089,38.42352],[-123.12771,38.38775],[-123.10051,38.35874],[-123.0492,38.30397],[-123.02061,38.27336],[-122.98641,38.23668],[-122.93898,38.18593],[-122.9085,38.15324],[-122.88513,38.12805],[-122.83019,38.06902],[-122.79026,38.026],[-122.74937,37.98177],[-122.73479,37.96595],[-122.67532,37.90221],[-122.64856,37.87597]],"type":"LineString"}
}
