{
  "id": 2014908259,
  "type": "Feature",
  "properties": {
    "geom:area": 0,
    "geom:bbox": "-122.366667,37.633333,-75.046944,41.941667",
    "geom:latitude": 41.13590194405468,
    "geom:longitude": -99.02283934027842,
    "src:alt_label": "swim-path",
    "src:geom": "swim",
    "swim:altitudes": [
      "006",
      "006",
      "051",
      "118",
      "118",
      "159",
      "179",
      "179",
      "199",
      "199",
      "199",
      "245",
      "245",
      "268",
      "277",
      "277",
      "278",
      "278",
      "313",
      "313",
      "322",
      "330C",
      "330C",
      "330C",
      "330C",
      "330C",
      "330C",
      "330C",
      "330C",
      "330C",
      "330C",
      "330C",
      "330C",
      "330C",
      "330C",
      "330C",
      "330C",
      "330C",
      "330C",
      "330C",
      "330C",
      "330C",
      "330C",
      "330C",
      "330C",
      "330C",
      "330C",
      "330C",
      "330C",
      "330C",
      "330C",
      "330C",
      "330C",
      "330C",
      "330C",
      "330C",
      "330C",
      "331C",
      "330C",
      "330C",
      "330C",
      "330C",
      "330C",
      "330C",
      "330C",
      "330C",
      "330C",
      "330C",
      "330C",
      "330C",
      "330C",
      "330C",
      "330C",
      "330C",
      "330C",
      "330C",
      "330C",
      "330C",
      "330C",
      "330C",
      "330C",
      "330C",
      "330C",
      "330C",
      "330C",
      "330C",
      "330C",
      "330C",
      "330C",
      "330C",
      "330C",
      "330C",
      "330C",
      "330C",
      "330C",
      "331C",
      "331C",
      "331C",
      "331C",
      "330C",
      "330C",
      "330C",
      "330C",
      "330C",
      "330C",
      "330C",
      "330C",
      "330C",
      "331C",
      "330C",
      "330C",
      "331C",
      "331C",
      "330C",
      "330C",
      "330C",
      "330C",
      "330C",
      "330C",
      "330C",
      "330C",
      "330C",
      "330C",
      "330C",
      "330C",
      "330C",
      "330C",
      "330C",
      "330C",
      "330C",
      "330C",
      "330C",
      "330C",
      "330C",
      "330C",
      "330C",
      "330C",
      "330C",
      "330C",
      "330C",
      "330C",
      "330C",
      "330C",
      "330C",
      "330C",
      "330C",
      "330C",
      "330C",
      "330C",
      "330C",
      "330C",
      "330C",
      "330C",
      "330C",
      "330C",
      "330C",
      "330C",
      "330C",
      "330C",
      "330C",
      "330C",
      "330C",
      "330C",
      "330C",
      "330C",
      "330C",
      "330C",
      "330C",
      "330C",
      "330C",
      "330C",
      "330C",
      "330C",
      "330C",
      "330C",
      "330C",
      "330C",
      "330C",
      "330C",
      "330C",
      "330C",
      "330C",
      "330C",
      "330C",
      "330C",
      "330C",
      "330C",
      "330C",
      "330C",
      "330C",
      "330C",
      "330C",
      "330C",
      "330C",
      "330C",
      "330C",
      "330C",
      "330C",
      "330C",
      "330C",
      "330C",
      "330C",
      "330C",
      "330C",
      "330C",
      "330C",
      "330C",
      "330C",
      "330C",
      "330C",
      "330C",
      "330C",
      "330C",
      "330C",
      "330C",
      "330C",
      "330C",
      "330C",
      "330C",
      "330C",
      "330C",
      "330C",
      "330C",
      "330C",
      "330C",
      "330C",
      "330C",
      "330C",
      "330C",
      "330C",
      "330C",
      "330C",
      "330C",
      "330C",
      "330C",
      "330C",
      "330C",
      "330C",
      "330C",
      "330C",
      "330C",
      "331C",
      "331C",
      "331C",
      "330C",
      "330C",
      "330C",
      "330C",
      "330C",
      "330C",
      "330C",
      "330C",
      "330C",
      "330C",
      "330C",
      "330C",
      "330C",
      "330C",
      "330C",
      "330C",
      "330C",
      "330C",
      "330C",
      "330C",
      "330C",
      "330C",
      "330C",
      "330C",
      "330C",
      "330C",
      "330",
      "330",
      "324",
      "311",
      "311",
      "311",
      "282",
      "282",
      "278",
      "278",
      "264",
      "264",
      "252C",
      "245",
      "245",
      "218",
      "218",
      "205",
      "205",
      "204",
      "204",
      "136",
      "133",
      "133",
      "133",
      "122",
      "120",
      "120",
      "120",
      "100",
      "100",
      "093",
      "093",
      "080",
      "074",
      "073",
      "061",
      "061",
      "061",
      "060",
      "060",
      "023",
      "023",
      "023",
      "020",
      "005",
      "80"
    ],
    "swim:geom": "path",
    "swim:speeds": [
      174,
      174,
      259,
      358,
      358,
      404,
      421,
      421,
      433,
      433,
      433,
      472,
      472,
      504,
      524,
      524,
      515,
      515,
      524,
      524,
      518,
      514,
      512,
      512,
      511,
      511,
      515,
      515,
      519,
      517,
      513,
      513,
      509,
      509,
      508,
      507,
      506,
      506,
      507,
      507,
      507,
      511,
      511,
      506,
      506,
      505,
      505,
      501,
      501,
      504,
      504,
      504,
      505,
      505,
      511,
      511,
      511,
      512,
      508,
      510,
      510,
      513,
      514,
      514,
      514,
      511,
      511,
      511,
      511,
      513,
      513,
      513,
      513,
      516,
      516,
      517,
      517,
      518,
      518,
      521,
      521,
      521,
      521,
      521,
      521,
      528,
      528,
      520,
      520,
      520,
      523,
      523,
      517,
      524,
      524,
      531,
      531,
      530,
      530,
      528,
      528,
      528,
      525,
      523,
      523,
      519,
      519,
      519,
      527,
      526,
      526,
      528,
      528,
      521,
      521,
      520,
      520,
      519,
      519,
      515,
      515,
      517,
      517,
      517,
      517,
      517,
      517,
      518,
      518,
      518,
      519,
      523,
      523,
      527,
      527,
      527,
      527,
      527,
      526,
      527,
      527,
      527,
      527,
      527,
      528,
      529,
      529,
      529,
      528,
      528,
      528,
      529,
      529,
      529,
      530,
      530,
      530,
      530,
      530,
      532,
      532,
      535,
      535,
      535,
      535,
      536,
      535,
      536,
      536,
      536,
      534,
      534,
      534,
      534,
      535,
      535,
      535,
      536,
      536,
      536,
      536,
      536,
      536,
      536,
      535,
      535,
      536,
      536,
      536,
      536,
      536,
      538,
      538,
      539,
      539,
      539,
      539,
      539,
      539,
      539,
      539,
      541,
      541,
      542,
      542,
      542,
      542,
      543,
      543,
      543,
      543,
      541,
      541,
      538,
      538,
      538,
      537,
      537,
      537,
      527,
      527,
      527,
      524,
      523,
      518,
      517,
      518,
      516,
      516,
      517,
      517,
      517,
      517,
      515,
      515,
      515,
      516,
      518,
      518,
      521,
      521,
      522,
      522,
      522,
      521,
      516,
      516,
      512,
      512,
      512,
      511,
      511,
      505,
      505,
      503,
      503,
      500,
      500,
      500,
      500,
      498,
      497,
      497,
      497,
      497,
      497,
      497,
      498,
      497,
      497,
      496,
      495,
      491,
      491,
      491,
      491,
      493,
      493,
      491,
      491,
      481,
      481,
      471,
      469,
      469,
      449,
      449,
      445,
      445,
      444,
      444,
      397,
      394,
      394,
      394,
      384,
      383,
      383,
      383,
      324,
      324,
      321,
      321,
      311,
      307,
      311,
      291,
      291,
      291,
      244,
      244,
      163,
      163,
      163,
      156,
      135,
      131
    ],
    "swim:timestamps": [
      1772289000,
      1772289000,
      1772289132,
      1772289313,
      1772289313,
      1772289433,
      1772289493,
      1772289493,
      1772289553,
      1772289553,
      1772289553,
      1772289733,
      1772289733,
      1772289853,
      1772289907,
      1772289907,
      1772289913,
      1772289913,
      1772290087,
      1772290087,
      1772290147,
      1772290213,
      1772290327,
      1772290327,
      1772290333,
      1772290333,
      1772290508,
      1772290573,
      1772290748,
      1772290754,
      1772290874,
      1772290874,
      1772290934,
      1772290934,
      1772290994,
      1772291054,
      1772291108,
      1772291108,
      1772291234,
      1772291234,
      1772291234,
      1772291409,
      1772291409,
      1772291469,
      1772291469,
      1772291534,
      1772291534,
      1772291709,
      1772291709,
      1772291829,
      1772291829,
      1772291829,
      1772291889,
      1772291889,
      1772292130,
      1772292130,
      1772292130,
      1772292190,
      1772292430,
      1772292550,
      1772292550,
      1772292610,
      1772292670,
      1772292670,
      1772292730,
      1772292850,
      1772292850,
      1772292911,
      1772292911,
      1772293031,
      1772293031,
      1772293091,
      1772293091,
      1772293271,
      1772293271,
      1772293391,
      1772293391,
      1772293511,
      1772293511,
      1772293632,
      1772293632,
      1772293692,
      1772293692,
      1772293752,
      1772293752,
      1772293992,
      1772293992,
      1772294292,
      1772294298,
      1772294298,
      1772294473,
      1772294473,
      1772294533,
      1772294653,
      1772294653,
      1772294833,
      1772294833,
      1772294839,
      1772294839,
      1772294893,
      1772294899,
      1772294899,
      1772294953,
      1772295019,
      1772295019,
      1772295139,
      1772295139,
      1772295139,
      1772295379,
      1772295439,
      1772295439,
      1772295499,
      1772295499,
      1772295740,
      1772295740,
      1772295800,
      1772295800,
      1772295860,
      1772295860,
      1772296040,
      1772296040,
      1772296096,
      1772296096,
      1772296156,
      1772296216,
      1772296216,
      1772296216,
      1772296456,
      1772296456,
      1772296456,
      1772296516,
      1772296636,
      1772296636,
      1772296696,
      1772296696,
      1772296696,
      1772296757,
      1772296757,
      1772296817,
      1772296937,
      1772296937,
      1772297117,
      1772297117,
      1772297117,
      1772297237,
      1772297297,
      1772297297,
      1772297297,
      1772297538,
      1772297538,
      1772297538,
      1772297658,
      1772297658,
      1772297658,
      1772297838,
      1772297838,
      1772297838,
      1772297898,
      1772297898,
      1772298018,
      1772298018,
      1772298138,
      1772298198,
      1772298198,
      1772298198,
      1772298258,
      1772298319,
      1772298368,
      1772298368,
      1772298368,
      1772298548,
      1772298548,
      1772298679,
      1772298679,
      1772298789,
      1772298789,
      1772298849,
      1772298909,
      1772298909,
      1772299039,
      1772299100,
      1772299100,
      1772299160,
      1772299209,
      1772299220,
      1772299220,
      1772299269,
      1772299280,
      1772299329,
      1772299340,
      1772299340,
      1772299389,
      1772299389,
      1772299450,
      1772299460,
      1772299510,
      1772299520,
      1772299580,
      1772299640,
      1772299640,
      1772299640,
      1772299870,
      1772299870,
      1772299930,
      1772299930,
      1772299990,
      1772299990,
      1772300291,
      1772300291,
      1772300531,
      1772300531,
      1772300591,
      1772300591,
      1772300771,
      1772300771,
      1772300771,
      1772300831,
      1772300831,
      1772300892,
      1772301012,
      1772301012,
      1772301012,
      1772301065,
      1772301072,
      1772301192,
      1772301252,
      1772301306,
      1772301312,
      1772301312,
      1772301492,
      1772301613,
      1772301613,
      1772301613,
      1772301726,
      1772301726,
      1772301726,
      1772301853,
      1772301907,
      1772301913,
      1772301967,
      1772301967,
      1772302027,
      1772302027,
      1772302027,
      1772302087,
      1772302147,
      1772302147,
      1772302267,
      1772302267,
      1772302267,
      1772302327,
      1772302327,
      1772302447,
      1772302447,
      1772302565,
      1772302565,
      1772302794,
      1772302794,
      1772302794,
      1772302914,
      1772302974,
      1772302985,
      1772302985,
      1772302985,
      1772303034,
      1772303046,
      1772303094,
      1772303106,
      1772303154,
      1772303154,
      1772303274,
      1772303286,
      1772303395,
      1772303455,
      1772303455,
      1772303455,
      1772303575,
      1772303575,
      1772303586,
      1772303586,
      1772303646,
      1772303646,
      1772303695,
      1772303755,
      1772303755,
      1772303875,
      1772303875,
      1772303935,
      1772303935,
      1772303947,
      1772303947,
      1772304236,
      1772304247,
      1772304247,
      1772304247,
      1772304296,
      1772304307,
      1772304307,
      1772304307,
      1772304536,
      1772304536,
      1772304596,
      1772304596,
      1772304767,
      1772304827,
      1772304837,
      1772304893,
      1772304893,
      1772304893,
      1772305017,
      1772305017,
      1772305257,
      1772305257,
      1772305257,
      1772305317,
      1772305438,
      1772305498
    ],
    "wof:geomhash": "52cfbd454333328b8278e6c3ce40a99c",
    "wof:id": 2014908259,
    "wof:repo": "sfomuseum-data-flights-2026-02"
  },
  "bbox": [
    -122.36666666666666,
    37.63333333333333,
    -75.04694444444445,
    41.94166666666666
  ],
  "geometry": {"coordinates":[[-122.36666666666666,37.63333333333333],[-122.36666666666666,37.63333333333333],[-122.33333333333333,37.73916666666667],[-122.33305555555555,37.971111111111114],[-122.33305555555555,37.971111111111114],[-122.11666666666666,38.10333333333333],[-121.99916666666667,38.17472222222222],[-121.99916666666667,38.17472222222222],[-121.87916666666666,38.24722222222222],[-121.87916666666666,38.24722222222222],[-121.87916666666666,38.24722222222222],[-121.50361111111111,38.47277777777778],[-121.50361111111111,38.47277777777778],[-121.21305555555556,38.650277777777774],[-121.08722222222222,38.72638888888889],[-121.08722222222222,38.72638888888889],[-121.06805555555555,38.738055555555555],[-121.06805555555555,38.738055555555555],[-120.64277777777778,38.990833333333335],[-120.64277777777778,38.990833333333335],[-120.4975,39.07805555555556],[-120.32805555555555,39.18],[-120.06,39.336111111111116],[-120.06,39.336111111111116],[-120.02722222222222,39.35666666666667],[-120.02722222222222,39.35666666666667],[-119.61472222222221,39.59583333333334],[-119.43333333333334,39.70055555555556],[-119.00861111111111,39.93694444444444],[-119.00722222222223,39.937777777777775],[-118.68611111111112,40.081944444444446],[-118.68611111111112,40.081944444444446],[-118.5225,40.15138888888889],[-118.5225,40.15138888888889],[-118.36222222222221,40.21888888888889],[-118.20055555555555,40.28666666666666],[-118.03583333333333,40.338055555555556],[-118.03583333333333,40.338055555555556],[-117.67722222222223,40.413888888888884],[-117.67722222222223,40.413888888888884],[-117.67722222222223,40.413888888888884],[-117.13611111111112,40.52583333333333],[-117.13611111111112,40.52583333333333],[-116.95722222222223,40.56222222222222],[-116.95722222222223,40.56222222222222],[-116.77638888888889,40.60916666666667],[-116.77638888888889,40.60916666666667],[-116.25722222222223,40.74916666666667],[-116.25722222222223,40.74916666666667],[-115.90944444444445,40.84138888888889],[-115.90944444444445,40.84138888888889],[-115.90944444444445,40.84138888888889],[-115.73194444444445,40.88777777777778],[-115.73194444444445,40.88777777777778],[-115.02361111111111,41.07027777777778],[-115.02361111111111,41.07027777777778],[-115.02361111111111,41.07027777777778],[-114.84416666666667,41.11555555555556],[-114.1613888888889,41.28527777777778],[-113.79972222222221,41.3675],[-113.79972222222221,41.3675],[-113.61222222222221,41.38972222222222],[-113.42500000000001,41.41166666666666],[-113.42500000000001,41.41166666666666],[-113.23777777777778,41.433055555555555],[-112.86194444444443,41.474722222222226],[-112.86194444444443,41.474722222222226],[-112.67611111111111,41.495],[-112.67611111111111,41.495],[-112.29694444444445,41.53527777777778],[-112.29694444444445,41.53527777777778],[-112.10888888888888,41.55472222222222],[-112.10888888888888,41.55472222222222],[-111.53444444444445,41.60194444444445],[-111.53444444444445,41.60194444444445],[-111.15111111111112,41.630833333333335],[-111.15111111111112,41.630833333333335],[-110.7525,41.659444444444446],[-110.7525,41.659444444444446],[-110.36805555555554,41.68583333333333],[-110.36805555555554,41.68583333333333],[-110.17472222222223,41.698611111111106],[-110.17472222222223,41.698611111111106],[-109.97944444444444,41.711111111111116],[-109.97944444444444,41.711111111111116],[-109.19111111111111,41.742222222222225],[-109.19111111111111,41.742222222222225],[-108.21305555555556,41.753055555555555],[-108.21305555555556,41.753055555555555],[-108.21305555555556,41.753055555555555],[-107.63805555555557,41.755833333333335],[-107.63805555555557,41.755833333333335],[-107.4375,41.763888888888886],[-107.05,41.78361111111111],[-107.05,41.78361111111111],[-106.48583333333333,41.81083333333333],[-106.48583333333333,41.81083333333333],[-106.4525,41.81222222222222],[-106.4525,41.81222222222222],[-106.28888888888889,41.819722222222225],[-106.25083333333333,41.82138888888889],[-106.25083333333333,41.82138888888889],[-106.0961111111111,41.82805555555556],[-105.86694444444444,41.83722222222222],[-105.86694444444444,41.83722222222222],[-105.48222222222222,41.85194444444445],[-105.48222222222222,41.85194444444445],[-105.48222222222222,41.85194444444445],[-104.70666666666666,41.87777777777778],[-104.51222222222222,41.88111111111111],[-104.51222222222222,41.88111111111111],[-104.315,41.88444444444444],[-104.315,41.88444444444444],[-103.5436111111111,41.89388888888889],[-103.5436111111111,41.89388888888889],[-103.35194444444444,41.894999999999996],[-103.35194444444444,41.894999999999996],[-103.15944444444445,41.895833333333336],[-103.15944444444445,41.895833333333336],[-102.58527777777778,41.896388888888886],[-102.58527777777778,41.896388888888886],[-102.42,41.89722222222222],[-102.42,41.89722222222222],[-102.2286111111111,41.89555555555555],[-102.03527777777778,41.894444444444446],[-102.03527777777778,41.894444444444446],[-102.03527777777778,41.894444444444446],[-101.26166666666667,41.88777777777778],[-101.26166666666667,41.88777777777778],[-101.26166666666667,41.88777777777778],[-101.06833333333333,41.884166666666665],[-100.67472222222223,41.87833333333333],[-100.67472222222223,41.87833333333333],[-100.47805555555556,41.87361111111111],[-100.47805555555556,41.87361111111111],[-100.47805555555556,41.87361111111111],[-100.28388888888888,41.87222222222222],[-100.28388888888888,41.87222222222222],[-100.08305555555555,41.87722222222222],[-99.69055555555556,41.885555555555555],[-99.69055555555556,41.885555555555555],[-99.0975,41.89555555555555],[-99.0975,41.89555555555555],[-99.0975,41.89555555555555],[-98.6975,41.900555555555556],[-98.49972222222222,41.902499999999996],[-98.49972222222222,41.902499999999996],[-98.49972222222222,41.902499999999996],[-97.71527777777779,41.91972222222222],[-97.71527777777779,41.91972222222222],[-97.71527777777779,41.91972222222222],[-97.31944444444444,41.92666666666666],[-97.31944444444444,41.92666666666666],[-97.31944444444444,41.92666666666666],[-96.72583333333334,41.93444444444444],[-96.72583333333334,41.93444444444444],[-96.72583333333334,41.93444444444444],[-96.52888888888889,41.936388888888885],[-96.52888888888889,41.936388888888885],[-96.12888888888888,41.93944444444444],[-96.12888888888888,41.93944444444444],[-95.72416666666666,41.941111111111105],[-95.52333333333333,41.94138888888889],[-95.52333333333333,41.94138888888889],[-95.52333333333333,41.94138888888889],[-95.325,41.94138888888889],[-95.12555555555555,41.94083333333333],[-94.95722222222223,41.94166666666666],[-94.95722222222223,41.94166666666666],[-94.95722222222223,41.94166666666666],[-94.36416666666666,41.93722222222222],[-94.36416666666666,41.93722222222222],[-93.93,41.93277777777777],[-93.93,41.93277777777777],[-93.56888888888888,41.92805555555555],[-93.56888888888888,41.92805555555555],[-93.36888888888888,41.925],[-93.17055555555557,41.921388888888885],[-93.17055555555557,41.921388888888885],[-92.7286111111111,41.9125],[-92.53222222222222,41.908055555555556],[-92.53222222222222,41.908055555555556],[-92.33444444444444,41.903055555555554],[-92.17472222222223,41.89888888888889],[-92.13472222222222,41.897777777777776],[-92.13472222222222,41.897777777777776],[-91.97722222222222,41.89333333333333],[-91.93694444444445,41.89194444444444],[-91.77972222222222,41.88638888888889],[-91.73972222222223,41.882777777777775],[-91.73972222222223,41.882777777777775],[-91.58222222222221,41.86555555555556],[-91.58222222222221,41.86555555555556],[-91.38305555555554,41.843611111111116],[-91.3436111111111,41.83916666666667],[-91.18527777777778,41.82166666666667],[-91.1463888888889,41.81722222222223],[-90.94861111111112,41.794444444444444],[-90.75138888888888,41.77166666666667],[-90.75138888888888,41.77166666666667],[-90.75138888888888,41.77166666666667],[-89.98861111111111,41.67972222222222],[-89.98861111111111,41.67972222222222],[-89.78833333333333,41.65472222222222],[-89.78833333333333,41.65472222222222],[-89.5886111111111,41.629444444444445],[-89.5886111111111,41.629444444444445],[-88.59833333333333,41.49888888888889],[-88.59833333333333,41.49888888888889],[-87.83,41.39138888888889],[-87.83,41.39138888888889],[-87.63444444444445,41.363055555555555],[-87.63444444444445,41.363055555555555],[-87.05055555555555,41.27638888888889],[-87.05055555555555,41.27638888888889],[-87.05055555555555,41.27638888888889],[-86.8561111111111,41.246944444444445],[-86.8561111111111,41.246944444444445],[-86.6363888888889,41.213055555555556],[-86.25611111111111,41.17111111111111],[-86.25611111111111,41.17111111111111],[-86.25611111111111,41.17111111111111],[-86.1036111111111,41.16277777777778],[-86.06638888888888,41.160555555555554],[-85.6888888888889,41.138888888888886],[-85.50222222222222,41.12777777777778],[-85.35472222222222,41.11888888888889],[-85.31444444444445,41.11638888888889],[-85.31444444444445,41.11638888888889],[-84.74944444444445,41.07972222222222],[-84.37583333333333,41.05416666666667],[-84.37583333333333,41.05416666666667],[-84.37583333333333,41.05416666666667],[-84.03305555555555,41.029444444444444],[-84.03305555555555,41.029444444444444],[-84.03305555555555,41.029444444444444],[-83.62333333333332,40.99861111111111],[-83.4538888888889,40.98527777777778],[-83.42916666666667,40.98361111111111],[-83.26361111111112,40.97027777777778],[-83.26361111111112,40.97027777777778],[-83.06861111111111,40.95444444444445],[-83.06861111111111,40.95444444444445],[-83.06861111111111,40.95444444444445],[-82.88111111111111,40.93888888888888],[-82.69305555555556,40.92305555555555],[-82.69305555555556,40.92305555555555],[-82.32444444444444,40.89111111111111],[-82.32444444444444,40.89111111111111],[-82.32444444444444,40.89111111111111],[-82.14,40.874722222222225],[-82.14,40.874722222222225],[-81.77694444444444,40.84138888888889],[-81.77694444444444,40.84138888888889],[-81.41222222222223,40.806666666666665],[-81.41222222222223,40.806666666666665],[-80.73305555555555,40.73888888888889],[-80.73305555555555,40.73888888888889],[-80.73305555555555,40.73888888888889],[-80.33722222222222,40.69694444444444],[-80.15777777777778,40.67805555555555],[-80.11999999999999,40.674166666666665],[-80.11999999999999,40.674166666666665],[-80.11999999999999,40.674166666666665],[-79.97888888888889,40.65861111111111],[-79.94277777777778,40.655],[-79.79916666666666,40.63916666666667],[-79.76138888888889,40.635],[-79.6211111111111,40.61805555555556],[-79.6211111111111,40.61805555555556],[-79.26416666666667,40.57833333333333],[-79.22833333333334,40.573888888888895],[-78.91222222222223,40.536944444444444],[-78.73777777777778,40.51583333333333],[-78.73777777777778,40.51583333333333],[-78.73777777777778,40.51583333333333],[-78.38861111111112,40.473333333333336],[-78.38861111111112,40.473333333333336],[-78.34805555555555,40.468333333333334],[-78.34805555555555,40.468333333333334],[-78.17888888888889,40.447222222222216],[-78.17888888888889,40.447222222222216],[-78.04527777777777,40.43055555555555],[-77.8775,40.40888888888889],[-77.8775,40.40888888888889],[-77.53999999999999,40.362500000000004],[-77.53999999999999,40.362500000000004],[-77.38027777777778,40.33861111111111],[-77.38027777777778,40.33861111111111],[-77.36472222222221,40.33638888888889],[-77.36472222222221,40.33638888888889],[-76.64333333333335,40.225833333333334],[-76.615,40.22138888888889],[-76.615,40.22138888888889],[-76.615,40.22138888888889],[-76.50222222222222,40.20388888888889],[-76.47972222222222,40.20027777777778],[-76.47972222222222,40.20027777777778],[-76.47972222222222,40.20027777777778],[-76.0038888888889,40.12388888888889],[-76.0038888888889,40.12388888888889],[-75.8863888888889,40.10472222222222],[-75.8863888888889,40.10472222222222],[-75.56666666666666,40.06666666666667],[-75.45,40.06666666666667],[-75.44222222222223,40.06777777777778],[-75.33333333333333,40.06666666666667],[-75.33333333333333,40.06666666666667],[-75.33333333333333,40.06666666666667],[-75.155,40.04111111111111],[-75.155,40.04111111111111],[-75.04694444444445,39.91],[-75.04694444444445,39.91],[-75.04694444444445,39.91],[-75.10277777777777,39.89888888888889],[-75.19666666666667,39.88027777777778],[-75.23583333333333,39.8725]],"type":"LineString"}
}
