{
  "id": 2014781371,
  "type": "Feature",
  "properties": {
    "geom:area": 0,
    "geom:bbox": "-122.380000,37.490000,-70.800000,44.000000",
    "geom:latitude": 41.84631477386851,
    "geom:longitude": -96.50961691488662,
    "src:alt_label": "swim-route",
    "src:geom": "swim",
    "swim:geom": "route",
    "wof:geomhash": "9c4385419c19dfca567c412d050346bb",
    "wof:id": 2014781371,
    "wof:repo": "sfomuseum-data-flights-2026-02"
  },
  "bbox": [
    -122.38,
    37.49,
    -70.8,
    44
  ],
  "geometry": {"coordinates":[[-71.01,42.36],[-70.98,42.41],[-70.98,42.42],[-70.97,42.44],[-70.96,42.44],[-70.95,42.44],[-70.93,42.45],[-70.92,42.45],[-70.86,42.46],[-70.85,42.46],[-70.85,42.46],[-70.8,42.51],[-70.81,42.55],[-70.83,42.58],[-71.05,42.68],[-71.15,42.72],[-71.2,42.75],[-71.28,42.78],[-71.37,42.8],[-71.45,42.82],[-71.82,42.91],[-71.89,42.92],[-72.79,43.12],[-72.94,43.15],[-73.09,43.19],[-73.69,43.31],[-74.31,43.44],[-74.77,43.53],[-76.08,43.78],[-76.6,43.88],[-76.61,43.88],[-77.33,43.93],[-78.1,43.98],[-78.78,43.99],[-79.26,44],[-79.38,43.98],[-79.45,44],[-80,44],[-80.4,44],[-80.78,44],[-82.2,43.98],[-82.2,43.98],[-82.2,43.98],[-83.49,43.96],[-86.2,43.85],[-87.3,43.79],[-87.61,43.77],[-90.72,43.53],[-90.94,43.51],[-91.27,43.48],[-91.4,43.48],[-92.46,43.37],[-93.56,43.25],[-94,43.19],[-94.77,43.09],[-95.18,43.04],[-95.32,43.03],[-96.22,42.9],[-96.25,42.9],[-96.79,42.82],[-97.07,42.78],[-97.93,42.65],[-97.95,42.65],[-98.22,42.6],[-98.62,42.54],[-98.81,42.51],[-99.12,42.46],[-99.31,42.43],[-99.36,42.41],[-99.44,42.41],[-100.7,42.18],[-101.26,42.08],[-101.77,41.98],[-102.03,41.93],[-102.07,41.92],[-102.28,41.88],[-102.8,41.77],[-103.01,41.73],[-103.33,41.67],[-103.53,41.62],[-104.27,41.46],[-104.57,41.39],[-105.73,41.13],[-105.89,41.09],[-106.5,40.95],[-109.15,40.27],[-109.25,40.24],[-110.16,39.99],[-110.61,39.86],[-111.43,39.63],[-112.51,39.3],[-113.32,39.12],[-116.2,38.42],[-117.27,38.14],[-117.77,38],[-118.76,37.9],[-119.1,37.86],[-119.12,37.85],[-119.38,37.82],[-119.72,37.78],[-119.82,37.77],[-119.92,37.76],[-120.02,37.75],[-120.31,37.71],[-120.4,37.7],[-120.4,37.7],[-120.57,37.68],[-120.69,37.67],[-120.75,37.66],[-120.79,37.65],[-120.8,37.65],[-120.96,37.63],[-121,37.63],[-121.01,37.63],[-121.07,37.62],[-121.17,37.61],[-121.26,37.59],[-121.39,37.58],[-121.41,37.58],[-121.6,37.55],[-121.61,37.55],[-121.62,37.55],[-121.72,37.53],[-121.8,37.51],[-121.88,37.49],[-121.89,37.49],[-122.01,37.53],[-122.08,37.54],[-122.18,37.57],[-122.18,37.57],[-122.28,37.59],[-122.33,37.61],[-122.36,37.61],[-122.38,37.62]],"type":"LineString"}
}
