{
  "id": 2014819471,
  "type": "Feature",
  "properties": {
    "geom:area": 0,
    "geom:bbox": "-122.545260,36.733370,-121.572990,37.664310",
    "geom:latitude": 37.22546223740631,
    "geom:longitude": -122.12816735409372,
    "src:alt_label": "swim-takeoff",
    "src:geom": "swim",
    "swim:elevations": [
      183,
      685,
      1087,
      1188,
      1563,
      2021,
      2345,
      2555,
      3237,
      3562,
      3936,
      4874,
      4930,
      4993,
      5465,
      5916,
      6035,
      6456,
      6548,
      6834,
      6903,
      7160,
      7222,
      7362,
      7584,
      7741,
      8077,
      8297,
      8439,
      8667,
      8926,
      9020,
      9345,
      9413,
      9450
    ],
    "swim:geom": "takeoff",
    "swim:timestamps": [
      1771328308,
      1771328334,
      1771328368,
      1771328383,
      1771328404,
      1771328440,
      1771328458,
      1771328470,
      1771328511,
      1771328529,
      1771328551,
      1771328607,
      1771328613,
      1771328629,
      1771328665,
      1771328696,
      1771328705,
      1771328743,
      1771328753,
      1771328781,
      1771328790,
      1771328816,
      1771328822,
      1771328834,
      1771328853,
      1771328892,
      1771328931,
      1771328955,
      1771328970,
      1771328995,
      1771329026,
      1771329040,
      1771329086,
      1771329098,
      1771329124
    ],
    "wof:geomhash": "f4dd2cdc60b86fbd4369e104d6772261",
    "wof:id": 2014819471,
    "wof:repo": "sfomuseum-data-flights-2026-02"
  },
  "bbox": [
    -122.54526,
    36.73337,
    -121.57299,
    37.66431
  ],
  "geometry": {"coordinates":[[-122.38556,37.62319],[-122.40762,37.63304],[-122.43653,37.64559],[-122.4521,37.65269],[-122.47689,37.66392],[-122.52353,37.66431],[-122.54076,37.64915],[-122.54526,37.63521],[-122.52407,37.58514],[-122.51206,37.56243],[-122.49845,37.53622],[-122.44957,37.46896],[-122.4419,37.46255],[-122.41979,37.44401],[-122.37002,37.40283],[-122.3252,37.36627],[-122.31021,37.35428],[-122.25246,37.30699],[-122.23736,37.29424],[-122.19409,37.25774],[-122.17967,37.24552],[-122.13648,37.20928],[-122.12661,37.20104],[-122.10674,37.18438],[-122.07495,37.15769],[-122.00771,37.10102],[-121.93788,37.0426],[-121.89233,37.00433],[-121.86505,36.9815],[-121.8178,36.94202],[-121.7602,36.89267],[-121.7347,36.87124],[-121.64655,36.79586],[-121.62351,36.77629],[-121.57299,36.73337]],"type":"LineString"}
}
