{
  "id": 2014845217,
  "type": "Feature",
  "properties": {
    "geom:area": 0,
    "geom:bbox": "-122.380000,33.640000,-84.040000,38.520000",
    "geom:latitude": 36.46174084157053,
    "geom:longitude": -102.98988514608988,
    "src:alt_label": "swim-route",
    "src:geom": "swim",
    "swim:geom": "route",
    "wof:geomhash": "2c5956bee710cfcde913052a29f20108",
    "wof:id": 2014845217,
    "wof:repo": "sfomuseum-data-flights-2026-02"
  },
  "bbox": [
    -122.38,
    33.64,
    -84.04,
    38.52
  ],
  "geometry": {"coordinates":[[-122.38,37.62],[-122.28,37.68],[-122.27,37.69],[-122.27,37.69],[-122.21,37.72],[-122.21,37.72],[-122.2,37.72],[-122.18,37.73],[-122.18,37.74],[-122.16,37.75],[-122.12,37.76],[-122.11,37.77],[-122,37.83],[-121.93,37.84],[-121.73,37.88],[-121.7,37.88],[-121.65,37.89],[-121.58,37.91],[-121.43,37.93],[-121.34,37.95],[-121.32,37.95],[-121.2,37.97],[-121.16,37.98],[-121.1,37.99],[-121.09,37.99],[-120.83,38.03],[-120.73,38.05],[-120.64,38.06],[-120.58,38.07],[-120.54,38.08],[-120.31,38.11],[-120.09,38.14],[-119.67,38.21],[-119.18,38.27],[-119.02,38.3],[-118.28,38.39],[-117.65,38.48],[-117.29,38.52],[-117.29,38.52],[-117.28,38.52],[-117.22,38.52],[-114.33,38.4],[-113.95,38.31],[-113.49,38.2],[-112.57,37.97],[-112,37.83],[-111.78,37.79],[-111.19,37.7],[-111.06,37.68],[-110,37.5],[-109.14,37.31],[-108.06,37.06],[-106.94,36.92],[-106.32,36.84],[-105.68,36.75],[-105.46,36.72],[-105.34,36.7],[-105.32,36.7],[-104.98,36.65],[-104.57,36.59],[-104,36.5],[-103.42,36.47],[-102.85,36.43],[-102.76,36.42],[-101.8,36.28],[-100.74,36.12],[-100,36],[-99.31,35.93],[-98.78,35.88],[-98.39,35.83],[-97.76,35.75],[-96.62,35.59],[-96,35.5],[-95,35.44],[-94.27,35.39],[-93.76,35.35],[-93.24,35.31],[-91.13,35.13],[-89.98,35.02],[-89.54,34.95],[-88.37,34.78],[-88.34,34.78],[-88.29,34.77],[-87.43,34.63],[-87.1,34.57],[-87,34.55],[-86.94,34.54],[-86.71,34.48],[-86.15,34.34],[-85.75,34.23],[-85.4,34.14],[-85.05,34.05],[-84.92,33.92],[-84.9,33.9],[-84.88,33.88],[-84.8,33.81],[-84.72,33.73],[-84.58,33.73],[-84.43,33.73],[-84.39,33.73],[-84.31,33.73],[-84.14,33.73],[-84.05,33.73],[-84.04,33.73],[-84.22,33.69],[-84.32,33.66],[-84.41,33.64],[-84.43,33.64]],"type":"LineString"}
}
