{
  "id": 2014893367,
  "type": "Feature",
  "properties": {
    "geom:area": 0,
    "geom:bbox": "-122.466944,33.952500,-118.283333,37.683333",
    "geom:latitude": 35.741335432460325,
    "geom:longitude": -120.35656769260535,
    "src:alt_label": "swim-path",
    "src:geom": "swim",
    "swim:altitudes": [
      "024",
      "024",
      "024",
      "098",
      "098",
      "098",
      "098",
      "204",
      "204",
      "204",
      "204",
      "258",
      "258",
      "273",
      "273",
      "273",
      "330C",
      "330C",
      "330C",
      "330C",
      "330C",
      "330C",
      "330C",
      "330C",
      "330C",
      "330C",
      "330",
      "330",
      "330",
      "330",
      "330",
      "330",
      "265",
      "246",
      "225",
      "219",
      "219",
      "148",
      "148",
      "148",
      "148",
      "123",
      "095",
      "095",
      "064",
      "064",
      "048",
      "048",
      "019",
      "019",
      "015",
      "015",
      "002"
    ],
    "swim:geom": "path",
    "swim:speeds": [
      221,
      221,
      221,
      294,
      294,
      294,
      294,
      427,
      427,
      427,
      427,
      475,
      475,
      484,
      484,
      484,
      464,
      464,
      464,
      464,
      461,
      464,
      464,
      464,
      464,
      456,
      455,
      455,
      454,
      454,
      454,
      454,
      444,
      429,
      412,
      404,
      404,
      375,
      375,
      375,
      375,
      359,
      303,
      303,
      251,
      251,
      232,
      232,
      196,
      196,
      169,
      169,
      158
    ],
    "swim:timestamps": [
      1772163950,
      1772163950,
      1772163950,
      1772164135,
      1772164135,
      1772164135,
      1772164135,
      1772164430,
      1772164430,
      1772164430,
      1772164430,
      1772164611,
      1772164611,
      1772164671,
      1772164671,
      1772164671,
      1772164971,
      1772164971,
      1772164971,
      1772164971,
      1772165091,
      1772165272,
      1772165272,
      1772165272,
      1772165272,
      1772165452,
      1772165517,
      1772165517,
      1772165632,
      1772165632,
      1772165632,
      1772165632,
      1772165877,
      1772165933,
      1772165997,
      1772166011,
      1772166011,
      1772166233,
      1772166233,
      1772166233,
      1772166233,
      1772166317,
      1772166473,
      1772166473,
      1772166654,
      1772166654,
      1772166737,
      1772166737,
      1772166894,
      1772166894,
      1772166916,
      1772166916,
      1772167014
    ],
    "wof:geomhash": "ba286e68039f44a1ab31f355a59e6c31",
    "wof:id": 2014893367,
    "wof:repo": "sfomuseum-data-flights-2026-02"
  },
  "bbox": [
    -122.46694444444445,
    33.9525,
    -118.28333333333333,
    37.68333333333333
  ],
  "geometry": {"coordinates":[[-122.36666666666666,37.68333333333333],[-122.36666666666666,37.68333333333333],[-122.36666666666666,37.68333333333333],[-122.46694444444445,37.52333333333333],[-122.46694444444445,37.52333333333333],[-122.46694444444445,37.52333333333333],[-122.46694444444445,37.52333333333333],[-122.00916666666667,37.14138888888889],[-122.00916666666667,37.14138888888889],[-122.00916666666667,37.14138888888889],[-122.00916666666667,37.14138888888889],[-121.64666666666668,36.87222222222222],[-121.64666666666668,36.87222222222222],[-121.5225,36.77861111111111],[-121.5225,36.77861111111111],[-121.5225,36.77861111111111],[-120.915,36.32916666666667],[-120.915,36.32916666666667],[-120.915,36.32916666666667],[-120.915,36.32916666666667],[-120.67527777777778,36.16166666666666],[-120.31305555555555,35.90611111111111],[-120.31305555555555,35.90611111111111],[-120.31305555555555,35.90611111111111],[-120.31305555555555,35.90611111111111],[-120.05027777777778,35.58972222222222],[-119.96527777777779,35.477222222222224],[-119.96527777777779,35.477222222222224],[-119.80222222222221,35.265],[-119.80222222222221,35.265],[-119.80222222222221,35.265],[-119.80222222222221,35.265],[-119.42500000000001,34.85805555555556],[-119.34388888888888,34.76694444444444],[-119.25944444444444,34.670833333333334],[-119.23333333333333,34.65],[-119.23333333333333,34.65],[-118.95805555555556,34.325],[-118.95805555555556,34.325],[-118.95805555555556,34.325],[-118.95805555555556,34.325],[-118.85,34.21666666666667],[-118.66666666666667,34.03527777777778],[-118.66666666666667,34.03527777777778],[-118.39083333333333,34.02111111111111],[-118.39083333333333,34.02111111111111],[-118.28333333333333,34.03333333333333],[-118.28333333333333,34.03333333333333],[-118.29333333333334,33.963055555555556],[-118.29333333333334,33.963055555555556],[-118.31666666666666,33.96666666666667],[-118.31666666666666,33.96666666666667],[-118.39861111111112,33.9525]],"type":"LineString"}
}
