{
  "id": 2014856773,
  "type": "Feature",
  "properties": {
    "geom:area": 0,
    "geom:bbox": "-122.344260,36.721250,-121.877740,37.605910",
    "geom:latitude": 37.20189332263678,
    "geom:longitude": -122.06542404193654,
    "src:alt_label": "swim-approach",
    "src:geom": "swim",
    "swim:elevations": [
      5195,
      5052,
      5034,
      4853,
      4491,
      4356,
      3964,
      3731,
      3608,
      3437,
      3199,
      3114,
      2964,
      2848,
      2658,
      2466,
      2364,
      2227,
      1924,
      1801,
      1644,
      1578,
      1534,
      1326,
      1101,
      970,
      723,
      648,
      591,
      397,
      260,
      244,
      111
    ],
    "swim:geom": "approach",
    "swim:timestamps": [
      1771749975,
      1771749988,
      1771749991,
      1771750009,
      1771750046,
      1771750060,
      1771750102,
      1771750126,
      1771750141,
      1771750160,
      1771750193,
      1771750219,
      1771750250,
      1771750271,
      1771750316,
      1771750347,
      1771750366,
      1771750388,
      1771750434,
      1771750457,
      1771750493,
      1771750509,
      1771750516,
      1771750549,
      1771750579,
      1771750602,
      1771750646,
      1771750658,
      1771750667,
      1771750705,
      1771750739,
      1771750743,
      1771750775
    ],
    "wof:geomhash": "38c8149fc57d3bbcb6fa62ce14bb5429",
    "wof:id": 2014856773,
    "wof:repo": "sfomuseum-data-flights-2026-02"
  },
  "bbox": [
    -122.34426,
    36.72125,
    -121.87774,
    37.60591
  ],
  "geometry": {"coordinates":[[-121.87774,36.72125],[-121.8904,36.74198],[-121.89283,36.74687],[-121.90403,36.77706],[-121.92157,36.83937],[-121.92813,36.86287],[-121.94764,36.93256],[-121.96048,36.97085],[-121.9693,36.99372],[-121.98058,37.02284],[-122.00036,37.07337],[-122.01479,37.11034],[-122.03155,37.15297],[-122.04197,37.1798],[-122.06379,37.23463],[-122.07735,37.27041],[-122.08527,37.29031],[-122.0946,37.31294],[-122.11329,37.36096],[-122.1227,37.38568],[-122.13558,37.4241],[-122.14142,37.44114],[-122.14402,37.44851],[-122.1595,37.48265],[-122.17902,37.51063],[-122.19374,37.53144],[-122.23028,37.55734],[-122.24205,37.56249],[-122.24998,37.566],[-122.28488,37.58095],[-122.31341,37.59278],[-122.3175,37.59446],[-122.34426,37.60591]],"type":"LineString"}
}
