{
  "id": 2014848303,
  "type": "Feature",
  "properties": {
    "geom:area": 0,
    "geom:bbox": "-127.696389,37.450000,-122.131667,40.011667",
    "geom:latitude": 38.92009053068035,
    "geom:longitude": -124.68487295105784,
    "src:alt_label": "swim-path",
    "src:geom": "swim",
    "swim:altitudes": [
      "410",
      "410",
      "410",
      "410",
      "410",
      "410",
      "410",
      "410",
      "398",
      "372",
      "347",
      "286",
      "248",
      "193",
      "174",
      "138",
      "125",
      "110",
      "110C",
      "043",
      "040",
      "038",
      "030",
      "022",
      "004",
      "110"
    ],
    "swim:geom": "path",
    "swim:speeds": [
      567,
      540,
      515,
      514,
      514,
      515,
      515,
      515,
      518,
      514,
      517,
      471,
      443,
      403,
      397,
      332,
      303,
      282,
      285,
      237,
      230,
      211,
      198,
      180,
      154,
      145
    ],
    "swim:timestamps": [
      1771773858,
      1771774098,
      1771774218,
      1771774338,
      1771774398,
      1771774579,
      1771774639,
      1771774699,
      1771775059,
      1771775119,
      1771775179,
      1771775359,
      1771775479,
      1771775660,
      1771775720,
      1771775841,
      1771775901,
      1771776015,
      1771776080,
      1771776327,
      1771776380,
      1771776387,
      1771776447,
      1771776507,
      1771776627,
      1771776680
    ],
    "wof:geomhash": "5220eda5df3cc4a49bf5d9ff43a02ff5",
    "wof:id": 2014848303,
    "wof:repo": "sfomuseum-data-flights-2026-02"
  },
  "bbox": [
    -127.69638888888889,
    37.45,
    -122.13166666666666,
    40.01166666666666
  ],
  "geometry": {"coordinates":[[-127.69638888888889,40.01166666666666],[-126.89777777777779,39.9575],[-126.56027777777777,39.8325],[-126.23194444444445,39.70111111111111],[-126.06944444444444,39.63527777777778],[-125.5786111111111,39.434999999999995],[-125.4088888888889,39.365],[-125.24694444444445,39.297777777777775],[-124.285,38.88611111111111],[-124.12972222222221,38.79222222222222],[-123.98222222222222,38.70388888888889],[-123.57305555555556,38.45611111111111],[-123.32333333333332,38.30305555555555],[-122.97555555555556,38.088055555555556],[-122.86694444444444,38.02055555555555],[-122.65,37.88333333333333],[-122.58333333333333,37.81666666666667],[-122.46666666666667,37.7],[-122.40333333333334,37.64472222222222],[-122.16666666666667,37.45],[-122.13166666666666,37.47888888888889],[-122.13333333333334,37.5],[-122.18333333333334,37.53333333333333],[-122.23333333333333,37.56666666666667],[-122.33333333333333,37.6],[-122.37194444444444,37.61972222222222]],"type":"LineString"}
}
