{
  "id": 2014713703,
  "type": "Feature",
  "properties": {
    "geom:area": 0,
    "geom:bbox": "-122.366440,37.628420,-121.246270,38.168740",
    "geom:latitude": 37.99578767262697,
    "geom:longitude": -121.88317942629115,
    "src:alt_label": "swim-takeoff",
    "src:geom": "swim",
    "swim:elevations": [
      152,
      497,
      591,
      868,
      938,
      1441,
      1995,
      2614,
      2709,
      3201,
      3355,
      4080,
      4339,
      4611,
      4972,
      5381,
      5600,
      5758,
      6076,
      6554,
      6648,
      7194,
      7464,
      7647,
      7900,
      8058,
      8241,
      8543
    ],
    "swim:geom": "takeoff",
    "swim:timestamps": [
      1770275007,
      1770275032,
      1770275041,
      1770275067,
      1770275073,
      1770275118,
      1770275155,
      1770275187,
      1770275193,
      1770275233,
      1770275257,
      1770275308,
      1770275328,
      1770275352,
      1770275376,
      1770275402,
      1770275424,
      1770275439,
      1770275475,
      1770275514,
      1770275523,
      1770275574,
      1770275604,
      1770275624,
      1770275658,
      1770275676,
      1770275704,
      1770275745
    ],
    "wof:geomhash": "a4e6fd978d59a372c14310dbd432cd7a",
    "wof:id": 2014713703,
    "wof:repo": "sfomuseum-data-flights-2026-02"
  },
  "bbox": [
    -122.36644,
    37.62842,
    -121.24627,
    38.16874
  ],
  "geometry": {"coordinates":[[-122.36644,37.62842],[-122.35028,37.643],[-122.34216,37.64725],[-122.316,37.66153],[-122.3098,37.66505],[-122.26887,37.70495],[-122.25701,37.75431],[-122.24743,37.79759],[-122.24565,37.80572],[-122.2334,37.86185],[-122.22449,37.8998],[-122.19398,37.98143],[-122.16183,38.00169],[-122.11366,38.01275],[-122.06387,38.02221],[-122.01035,38.03215],[-121.96527,38.04043],[-121.93408,38.04609],[-121.85689,38.05999],[-121.7717,38.07554],[-121.75268,38.07899],[-121.64047,38.09904],[-121.57543,38.11073],[-121.52923,38.11899],[-121.45115,38.133],[-121.40885,38.13991],[-121.3447,38.15126],[-121.24627,38.16874]],"type":"LineString"}
}
