{
  "id": 2014758667,
  "type": "Feature",
  "properties": {
    "geom:area": 0,
    "geom:bbox": "-122.355620,37.539100,-121.248670,37.929170",
    "geom:latitude": 37.704516403193686,
    "geom:longitude": -121.79994777439421,
    "src:alt_label": "swim-takeoff",
    "src:geom": "swim",
    "swim:elevations": [
      363,
      489,
      562,
      622,
      667,
      755,
      1172,
      1657,
      2011,
      2462,
      2748,
      2860,
      3082,
      3452,
      3815,
      3892,
      4046,
      4202,
      4322,
      4373,
      4702,
      4909,
      4943,
      5183,
      5257,
      5564,
      5635
    ],
    "swim:geom": "takeoff",
    "swim:timestamps": [
      1770770064,
      1770770079,
      1770770094,
      1770770103,
      1770770115,
      1770770130,
      1770770174,
      1770770210,
      1770770235,
      1770770270,
      1770770298,
      1770770307,
      1770770328,
      1770770367,
      1770770397,
      1770770409,
      1770770448,
      1770770488,
      1770770509,
      1770770524,
      1770770572,
      1770770604,
      1770770610,
      1770770652,
      1770770664,
      1770770696,
      1770770704
    ],
    "wof:geomhash": "173c52666b457bf89322a34c9ba8aecc",
    "wof:id": 2014758667,
    "wof:repo": "sfomuseum-data-flights-2026-02"
  },
  "bbox": [
    -122.35562,
    37.5391,
    -121.24867,
    37.92917
  ],
  "geometry": {"coordinates":[[-122.35562,37.61038],[-122.34398,37.60535],[-122.33075,37.60005],[-122.32214,37.5969],[-122.30975,37.59244],[-122.29291,37.58631],[-122.23756,37.56596],[-122.19039,37.54833],[-122.1545,37.5391],[-122.09976,37.55569],[-122.05817,37.57485],[-122.04417,37.58121],[-122.01125,37.59614],[-121.94853,37.62425],[-121.89905,37.64658],[-121.87923,37.65552],[-121.80975,37.68674],[-121.73351,37.7206],[-121.69003,37.73928],[-121.65827,37.75295],[-121.55269,37.79866],[-121.48186,37.8292],[-121.46826,37.83511],[-121.37116,37.87678],[-121.3431,37.88876],[-121.26744,37.92118],[-121.24867,37.92917]],"type":"LineString"}
}
