{
  "id": 2014708413,
  "type": "Feature",
  "properties": {
    "geom:area": 0,
    "geom:bbox": "-122.368810,37.624780,-121.246380,38.425280",
    "geom:latitude": 38.036347373266885,
    "geom:longitude": -121.81749841990236,
    "src:alt_label": "swim-takeoff",
    "src:geom": "swim",
    "swim:elevations": [
      122,
      152,
      913,
      1201,
      1400,
      1409,
      1709,
      1926,
      2271,
      2823,
      2965,
      3377,
      3508,
      3697,
      3722,
      3902,
      4610,
      4835,
      5193,
      5230,
      5586,
      5793,
      6007,
      6196,
      6435,
      6687
    ],
    "swim:geom": "takeoff",
    "swim:timestamps": [
      1770138207,
      1770138210,
      1770138261,
      1770138297,
      1770138328,
      1770138333,
      1770138364,
      1770138377,
      1770138401,
      1770138447,
      1770138462,
      1770138505,
      1770138532,
      1770138567,
      1770138572,
      1770138611,
      1770138686,
      1770138709,
      1770138747,
      1770138751,
      1770138807,
      1770138831,
      1770138865,
      1770138891,
      1770138926,
      1770138946
    ],
    "wof:geomhash": "3375c49e3b54519e9ec875cd7f41b07a",
    "wof:id": 2014708413,
    "wof:repo": "sfomuseum-data-flights-2026-02"
  },
  "bbox": [
    -122.36881,
    37.62478,
    -121.24638,
    38.42528
  ],
  "geometry": {"coordinates":[[-122.36881,37.62478],[-122.36786,37.62631],[-122.33184,37.6529],[-122.30082,37.66982],[-122.27033,37.68825],[-122.26477,37.69154],[-122.22567,37.71247],[-122.21053,37.72283],[-122.18932,37.74634],[-122.14513,37.79368],[-122.12928,37.81125],[-122.08544,37.86017],[-122.04986,37.892],[-121.9931,37.9305],[-121.98474,37.93627],[-121.91716,37.98228],[-121.77421,38.07897],[-121.73,38.10868],[-121.65728,38.15758],[-121.64942,38.16285],[-121.53784,38.23751],[-121.48889,38.27018],[-121.41991,38.31616],[-121.3643,38.35302],[-121.29052,38.39796],[-121.24638,38.42528]],"type":"LineString"}
}
