{
  "id": 2014864747,
  "type": "Feature",
  "properties": {
    "geom:area": 0,
    "geom:bbox": "-122.348210,37.492380,-121.270460,37.609680",
    "geom:latitude": 37.5453353702411,
    "geom:longitude": -121.81389698934046,
    "src:alt_label": "swim-approach",
    "src:geom": "swim",
    "swim:elevations": [
      5043,
      4800,
      4584,
      4438,
      4159,
      3759,
      3587,
      3564,
      3311,
      3076,
      2885,
      2860,
      2713,
      2652,
      2378,
      2152,
      1984,
      1944,
      1742,
      1645,
      1482,
      1182,
      1010,
      919,
      881,
      761,
      644,
      507,
      332,
      210,
      180,
      81
    ],
    "swim:geom": "approach",
    "swim:timestamps": [
      1771865482,
      1771865506,
      1771865525,
      1771865540,
      1771865567,
      1771865608,
      1771865637,
      1771865641,
      1771865685,
      1771865714,
      1771865742,
      1771865749,
      1771865779,
      1771865794,
      1771865826,
      1771865858,
      1771865907,
      1771865916,
      1771865962,
      1771865974,
      1771866000,
      1771866045,
      1771866070,
      1771866082,
      1771866117,
      1771866139,
      1771866158,
      1771866189,
      1771866230,
      1771866264,
      1771866272,
      1771866302
    ],
    "wof:geomhash": "d997f46d088e84e48c467d6fcca73c68",
    "wof:id": 2014864747,
    "wof:repo": "sfomuseum-data-flights-2026-02"
  },
  "bbox": [
    -122.34821,
    37.49238,
    -121.27046,
    37.60968
  ],
  "geometry": {"coordinates":[[-121.27046,37.59192],[-121.31475,37.58656],[-121.35023,37.58275],[-121.37786,37.57963],[-121.42783,37.57379],[-121.50271,37.5651],[-121.55414,37.559],[-121.56088,37.55822],[-121.63039,37.5495],[-121.67398,37.53897],[-121.71587,37.52906],[-121.72508,37.52682],[-121.76717,37.51676],[-121.78671,37.51209],[-121.82821,37.50204],[-121.87021,37.49238],[-121.93453,37.49281],[-121.94536,37.49307],[-122.00287,37.49968],[-122.0173,37.50428],[-122.04782,37.5142],[-122.10304,37.53213],[-122.13297,37.54177],[-122.14807,37.54672],[-122.18706,37.5593],[-122.21147,37.56717],[-122.23108,37.57355],[-122.26129,37.58318],[-122.29519,37.59288],[-122.32008,37.59954],[-122.32672,37.60135],[-122.34821,37.60968]],"type":"LineString"}
}
