{
  "id": 2014715229,
  "type": "Feature",
  "properties": {
    "geom:area": 0,
    "geom:bbox": "-122.603310,36.719130,-122.361310,37.705820",
    "geom:latitude": 37.26074601480802,
    "geom:longitude": -122.5080349700593,
    "src:alt_label": "swim-takeoff",
    "src:geom": "swim",
    "swim:elevations": [
      122,
      677,
      1032,
      1258,
      1338,
      1538,
      1703,
      2086,
      2303,
      2960,
      3347,
      3462,
      4229,
      4452,
      4618,
      4732,
      5422,
      5458,
      6002,
      6460,
      6860,
      7049,
      7099,
      7180,
      7348,
      7584,
      7705,
      7764,
      7908
    ],
    "swim:geom": "takeoff",
    "swim:timestamps": [
      1770196762,
      1770196798,
      1770196824,
      1770196853,
      1770196862,
      1770196879,
      1770196893,
      1770196911,
      1770196925,
      1770196968,
      1770197008,
      1770197016,
      1770197066,
      1770197083,
      1770197095,
      1770197102,
      1770197151,
      1770197163,
      1770197202,
      1770197238,
      1770197271,
      1770197301,
      1770197318,
      1770197349,
      1770197377,
      1770197415,
      1770197434,
      1770197443,
      1770197473
    ],
    "wof:geomhash": "4adbc5e30fb98b8666805f8a8a0cb574",
    "wof:id": 2014715229,
    "wof:repo": "sfomuseum-data-flights-2026-02"
  },
  "bbox": [
    -122.60331,
    36.71913,
    -122.36131,
    37.70582
  ],
  "geometry": {"coordinates":[[-122.36811,37.63],[-122.36292,37.65761],[-122.36131,37.67932],[-122.37686,37.7024],[-122.38823,37.70582],[-122.41221,37.70358],[-122.43184,37.69391],[-122.44639,37.67448],[-122.44873,37.65781],[-122.44518,37.60213],[-122.45988,37.54574],[-122.46359,37.53254],[-122.48167,37.45483],[-122.48734,37.42732],[-122.49116,37.40847],[-122.4935,37.39582],[-122.50499,37.31453],[-122.50906,37.29428],[-122.52311,37.22826],[-122.53487,37.16684],[-122.54517,37.11065],[-122.55501,37.05639],[-122.56047,37.02607],[-122.57134,36.96588],[-122.58184,36.90812],[-122.59627,36.83043],[-122.60331,36.79223],[-122.60122,36.77283],[-122.5637,36.71913]],"type":"LineString"}
}
