{
  "id": 2014894767,
  "type": "Feature",
  "properties": {
    "geom:area": 0,
    "geom:bbox": "-123.470450,37.420230,-122.406760,37.670850",
    "geom:latitude": 37.55793932890964,
    "geom:longitude": -122.93677566430352,
    "src:alt_label": "swim-takeoff",
    "src:geom": "swim",
    "swim:elevations": [
      361,
      750,
      1019,
      1100,
      1237,
      1449,
      1958,
      2000,
      2734,
      2969,
      3288,
      3416,
      3683,
      3728,
      4152,
      4277,
      4837,
      5058,
      5184,
      5337,
      5662,
      5836,
      6064,
      6138,
      6289
    ],
    "swim:geom": "takeoff",
    "swim:timestamps": [
      1772098526,
      1772098557,
      1772098583,
      1772098593,
      1772098615,
      1772098643,
      1772098677,
      1772098681,
      1772098733,
      1772098750,
      1772098794,
      1772098823,
      1772098858,
      1772098869,
      1772098914,
      1772098923,
      1772098968,
      1772098992,
      1772099006,
      1772099023,
      1772099064,
      1772099091,
      1772099115,
      1772099121,
      1772099139
    ],
    "wof:geomhash": "7934fcea4dd9f176df131550a06027f5",
    "wof:id": 2014894767,
    "wof:repo": "sfomuseum-data-flights-2026-02"
  },
  "bbox": [
    -123.47045,
    37.42023,
    -122.40676,
    37.67085
  ],
  "geometry": {"coordinates":[[-122.40676,37.63152],[-122.43636,37.64501],[-122.4622,37.65619],[-122.47219,37.66051],[-122.49677,37.67085],[-122.53651,37.66773],[-122.58569,37.65335],[-122.59148,37.65177],[-122.66709,37.63197],[-122.69193,37.62559],[-122.75886,37.60806],[-122.81003,37.59473],[-122.87608,37.57755],[-122.89698,37.5721],[-122.98891,37.54787],[-123.00838,37.54277],[-123.09916,37.51909],[-123.15084,37.50544],[-123.18048,37.49752],[-123.21576,37.48812],[-123.3052,37.46425],[-123.3628,37.44898],[-123.41759,37.43441],[-123.43093,37.43083],[-123.47045,37.42023]],"type":"LineString"}
}
