{
  "id": 2014721551,
  "type": "Feature",
  "properties": {
    "geom:area": 0,
    "geom:bbox": "-122.462020,36.723840,-121.446020,37.707130",
    "geom:latitude": 37.211007617467956,
    "geom:longitude": -122.05100951816529,
    "src:alt_label": "swim-takeoff",
    "src:geom": "swim",
    "swim:elevations": [
      402,
      592,
      770,
      929,
      1264,
      2050,
      2259,
      3037,
      3245,
      3754,
      3966,
      4530,
      4838,
      5434,
      5806,
      6326,
      6472,
      7165,
      7358,
      7745,
      7845,
      8244,
      8567,
      8929,
      9005,
      9395,
      9455,
      9533,
      9663,
      9755,
      9976,
      10286
    ],
    "swim:geom": "takeoff",
    "swim:timestamps": [
      1770357833,
      1770357865,
      1770357884,
      1770357904,
      1770357933,
      1770357986,
      1770358000,
      1770358044,
      1770358056,
      1770358103,
      1770358122,
      1770358162,
      1770358183,
      1770358223,
      1770358245,
      1770358281,
      1770358293,
      1770358337,
      1770358350,
      1770358377,
      1770358387,
      1770358422,
      1770358455,
      1770358494,
      1770358500,
      1770358558,
      1770358579,
      1770358600,
      1770358639,
      1770358650,
      1770358684,
      1770358721
    ],
    "wof:geomhash": "dc5f3fa0876a0ae99feaa4168e056ec9",
    "wof:id": 2014721551,
    "wof:repo": "sfomuseum-data-flights-2026-02"
  },
  "bbox": [
    -122.46202,
    36.72384,
    -121.44602,
    37.70713
  ],
  "geometry": {"coordinates":[[-122.3613,37.64806],[-122.36117,37.67625],[-122.36666,37.69565],[-122.38929,37.70713],[-122.42741,37.69496],[-122.44209,37.63201],[-122.44509,37.6157],[-122.45842,37.562],[-122.46202,37.54769],[-122.4619,37.48689],[-122.44163,37.46259],[-122.38526,37.42226],[-122.35221,37.39914],[-122.29106,37.35463],[-122.25699,37.3296],[-122.19978,37.28742],[-122.18057,37.27327],[-122.10957,37.22078],[-122.089,37.2055],[-122.04608,37.17355],[-122.03059,37.16203],[-121.97332,37.11938],[-121.92038,37.07996],[-121.85529,37.03157],[-121.84526,37.02422],[-121.74746,36.95134],[-121.71079,36.92395],[-121.67302,36.89551],[-121.60206,36.84239],[-121.58121,36.82631],[-121.5163,36.77713],[-121.44602,36.72384]],"type":"LineString"}
}
