{
  "id": 2014811249,
  "type": "Feature",
  "properties": {
    "geom:area": 0,
    "geom:bbox": "-122.363110,37.632690,-121.263910,38.069280",
    "geom:latitude": 37.86066934860551,
    "geom:longitude": -121.81862788393698,
    "src:alt_label": "swim-takeoff",
    "src:geom": "swim",
    "swim:elevations": [
      274,
      445,
      699,
      1548,
      1808,
      2296,
      2756,
      2893,
      3307,
      3769,
      3834,
      3870,
      3962,
      4421,
      4673,
      5122,
      5205,
      5869,
      5902,
      6177,
      6313,
      6624,
      6960,
      7348
    ],
    "swim:geom": "takeoff",
    "swim:timestamps": [
      1771260796,
      1771260813,
      1771260841,
      1771260907,
      1771260923,
      1771260953,
      1771260985,
      1771260995,
      1771261039,
      1771261072,
      1771261078,
      1771261081,
      1771261090,
      1771261132,
      1771261156,
      1771261197,
      1771261207,
      1771261258,
      1771261261,
      1771261288,
      1771261300,
      1771261331,
      1771261373,
      1771261425
    ],
    "wof:geomhash": "d2836b55af6c9ddeb626243d337b51c5",
    "wof:id": 2014811249,
    "wof:repo": "sfomuseum-data-flights-2026-02"
  },
  "bbox": [
    -122.36311,
    37.63269,
    -121.26391,
    38.06928
  ],
  "geometry": {"coordinates":[[-122.36311,37.63269],[-122.34901,37.64336],[-122.31995,37.65979],[-122.23813,37.70544],[-122.21638,37.71666],[-122.17303,37.73908],[-122.12747,37.76286],[-122.11232,37.77061],[-122.04406,37.80589],[-121.98654,37.82876],[-121.97506,37.83158],[-121.96918,37.83277],[-121.95132,37.83602],[-121.86555,37.85185],[-121.81534,37.86126],[-121.72912,37.87736],[-121.70832,37.88275],[-121.60544,37.92402],[-121.59944,37.9264],[-121.54475,37.94824],[-121.52049,37.95816],[-121.45803,37.98428],[-121.3724,38.02125],[-121.26391,38.06928]],"type":"LineString"}
}
