{
  "id": 2014787271,
  "type": "Feature",
  "properties": {
    "geom:area": 0,
    "geom:bbox": "-122.380000,25.800000,-80.290000,38.120000",
    "geom:latitude": 34.99584046843968,
    "geom:longitude": -100.16676463292333,
    "src:alt_label": "swim-route",
    "src:geom": "swim",
    "swim:geom": "route",
    "wof:geomhash": "855cc4ad164a69ce14e813d535b2ca6b",
    "wof:id": 2014787271,
    "wof:repo": "sfomuseum-data-flights-2026-02"
  },
  "bbox": [
    -122.38,
    25.8,
    -80.29,
    38.12
  ],
  "geometry": {"coordinates":[[-80.29,25.8],[-80.38,25.81],[-80.39,25.81],[-80.4,25.81],[-80.4,25.81],[-80.45,25.85],[-80.45,25.86],[-80.45,25.86],[-80.49,25.93],[-80.49,25.96],[-80.51,26.12],[-80.51,26.19],[-80.59,26.26],[-80.72,26.37],[-80.76,26.41],[-80.77,26.41],[-80.86,26.49],[-80.96,26.58],[-81.01,26.62],[-81.12,26.72],[-81.18,26.76],[-81.24,26.82],[-81.34,26.9],[-81.36,26.93],[-81.51,27.05],[-81.59,27.19],[-81.64,27.28],[-81.66,27.31],[-81.67,27.33],[-82.1,28.07],[-82.11,28.07],[-83.32,29.01],[-83.79,29.38],[-84.23,29.71],[-84.3,29.78],[-84.43,29.88],[-84.72,30.1],[-85.27,30.5],[-85.59,30.73],[-86.72,31.54],[-86.98,31.73],[-87.45,32.05],[-88.04,32.45],[-88.12,32.5],[-89.21,33.23],[-89.44,33.38],[-90.02,33.76],[-90.22,33.88],[-90.96,34.01],[-91.12,34.17],[-91.24,34.24],[-91.46,34.3],[-91.56,34.45],[-91.66,34.52],[-91.94,34.56],[-92.02,34.73],[-92.57,34.88],[-92.99,34.98],[-93.49,35.11],[-93.56,35.12],[-94.02,35.24],[-94.24,35.29],[-95,35.47],[-96.23,35.75],[-97.75,36.07],[-99.71,36.46],[-102.05,36.87],[-103.67,37.13],[-103.7,37.14],[-105.72,37.43],[-106.23,37.49],[-107.79,37.68],[-108.93,37.81],[-109.08,37.82],[-110.63,37.94],[-112.45,38.05],[-114,38.12],[-114.12,38.11],[-116.09,38.07],[-117.22,38.03],[-117.77,38],[-118.76,37.9],[-119.1,37.86],[-119.2,37.85],[-119.55,37.8],[-120.11,37.74],[-120.2,37.72],[-120.39,37.7],[-120.4,37.7],[-120.58,37.68],[-120.65,37.67],[-120.69,37.67],[-120.75,37.66],[-120.94,37.64],[-120.96,37.63],[-120.99,37.64],[-121.22,37.68],[-121.24,37.69],[-121.33,37.7],[-121.5,37.73],[-121.55,37.74],[-121.56,37.74],[-121.7,37.77],[-121.71,37.77],[-121.77,37.78],[-121.98,37.82],[-121.99,37.82],[-122.01,37.83],[-122.04,37.83],[-122.08,37.84],[-122.21,37.86],[-122.23,37.84],[-122.26,37.79],[-122.28,37.77],[-122.28,37.76],[-122.33,37.69],[-122.38,37.62]],"type":"LineString"}
}
