{
  "id": 2014798177,
  "type": "Feature",
  "properties": {
    "geom:area": 0,
    "geom:bbox": "-122.368940,37.623050,-121.270230,37.832410",
    "geom:latitude": 37.76436812626471,
    "geom:longitude": -121.85873816692686,
    "src:alt_label": "swim-approach",
    "src:geom": "swim",
    "swim:elevations": [
      4047,
      3776,
      3537,
      3371,
      3257,
      3178,
      3101,
      3048,
      3048,
      3048,
      2954,
      2788,
      2745,
      2743,
      2743,
      2743,
      2711,
      2656,
      2652,
      2616,
      2579,
      2498,
      2431,
      2189,
      2121,
      1770,
      1489,
      1316,
      1210,
      1166,
      1103,
      1093,
      1036,
      821,
      686,
      587,
      543,
      475,
      408,
      321,
      213,
      89,
      179
    ],
    "swim:geom": "approach",
    "swim:timestamps": [
      1771200138,
      1771200170,
      1771200200,
      1771200221,
      1771200236,
      1771200247,
      1771200262,
      1771200296,
      1771200326,
      1771200347,
      1771200371,
      1771200390,
      1771200406,
      1771200428,
      1771200447,
      1771200460,
      1771200497,
      1771200529,
      1771200547,
      1771200589,
      1771200598,
      1771200609,
      1771200627,
      1771200657,
      1771200666,
      1771200708,
      1771200741,
      1771200759,
      1771200778,
      1771200793,
      1771200806,
      1771200815,
      1771200845,
      1771200896,
      1771200926,
      1771200950,
      1771200960,
      1771200975,
      1771200993,
      1771201014,
      1771201042,
      1771201074,
      1771201104
    ],
    "wof:geomhash": "774c27d2503954bdc6a75549b8bdd322",
    "wof:id": 2014798177,
    "wof:repo": "sfomuseum-data-flights-2026-02"
  },
  "bbox": [
    -122.36894,
    37.62305,
    -121.27023,
    37.83241
  ],
  "geometry": {"coordinates":[[-121.27023,37.69108],[-121.3263,37.7014],[-121.37966,37.71108],[-121.41659,37.71785],[-121.4429,37.72269],[-121.46194,37.72617],[-121.48738,37.73085],[-121.54362,37.74093],[-121.59124,37.74971],[-121.62492,37.75588],[-121.6635,37.76286],[-121.69463,37.76846],[-121.71918,37.77306],[-121.75207,37.77889],[-121.78123,37.78382],[-121.80113,37.78742],[-121.85824,37.79803],[-121.9039,37.80622],[-121.92784,37.81048],[-121.98298,37.82018],[-121.99476,37.82227],[-122.01026,37.82502],[-122.03364,37.82926],[-122.07204,37.83241],[-122.08348,37.83224],[-122.13636,37.83183],[-122.17795,37.83171],[-122.20071,37.82976],[-122.21856,37.81948],[-122.23102,37.81091],[-122.24162,37.80372],[-122.24802,37.79932],[-122.26536,37.78056],[-122.28812,37.74619],[-122.30126,37.72651],[-122.31055,37.71246],[-122.3148,37.70614],[-122.32092,37.697],[-122.32785,37.68657],[-122.3356,37.67521],[-122.34617,37.65926],[-122.35836,37.64065],[-122.36894,37.62305]],"type":"LineString"}
}
