{
  "id": 2014807569,
  "type": "Feature",
  "properties": {
    "geom:area": 0,
    "geom:bbox": "-122.349167,37.496389,-74.278889,40.800000",
    "geom:latitude": 39.71556038526196,
    "geom:longitude": -98.34164076787594,
    "src:alt_label": "swim-path",
    "src:geom": "swim",
    "swim:altitudes": [
      "086",
      "086",
      "086",
      "086",
      "086",
      "086",
      "164",
      "164",
      "164",
      "180",
      "180",
      "180",
      "180",
      "180",
      "197",
      "215",
      "261",
      "261",
      "261",
      "261",
      "261",
      "261",
      "320C",
      "320C",
      "320C",
      "320C",
      "320C",
      "320C",
      "320C",
      "320C",
      "320C",
      "320C",
      "320C",
      "320C",
      "320C",
      "320C",
      "320C",
      "320C",
      "320C",
      "320C",
      "320C",
      "320C",
      "320C",
      "320C",
      "320C",
      "320C",
      "320C",
      "320C",
      "320C",
      "320C",
      "320C",
      "320C",
      "320C",
      "320C",
      "320C",
      "320C",
      "320C",
      "320C",
      "320C",
      "320C",
      "320C",
      "320C",
      "320C",
      "320C",
      "320C",
      "320C",
      "320C",
      "320C",
      "320C",
      "320C",
      "320C",
      "320C",
      "320C",
      "320C",
      "320C",
      "320C",
      "320C",
      "320C",
      "320C",
      "320C",
      "320C",
      "320C",
      "320C",
      "320C",
      "320C",
      "320C",
      "320C",
      "320C",
      "320C",
      "320C",
      "320C",
      "320C",
      "320C",
      "320C",
      "320C",
      "320C",
      "320C",
      "320C",
      "320C",
      "320C",
      "320C",
      "320C",
      "320C",
      "320C",
      "320C",
      "320C",
      "320C",
      "320C",
      "320C",
      "320C",
      "320C",
      "320C",
      "320C",
      "320C",
      "320C",
      "320C",
      "320C",
      "320C",
      "320C",
      "320C",
      "320C",
      "320C",
      "320C",
      "320C",
      "320C",
      "320C",
      "320C",
      "320C",
      "320C",
      "320C",
      "320C",
      "320C",
      "320C",
      "320C",
      "320C",
      "320C",
      "320C",
      "320C",
      "320C",
      "320C",
      "320C",
      "320C",
      "320C",
      "320C",
      "320C",
      "320C",
      "320C",
      "320C",
      "320C",
      "320C",
      "320C",
      "320C",
      "320C",
      "320C",
      "320C",
      "320C",
      "320C",
      "320C",
      "320C",
      "320C",
      "320C",
      "320C",
      "320C",
      "320C",
      "320C",
      "320C",
      "320C",
      "320C",
      "320C",
      "320C",
      "320C",
      "320C",
      "320C",
      "320C",
      "320C",
      "320C",
      "320C",
      "320C",
      "320C",
      "320C",
      "320C",
      "320C",
      "320C",
      "320C",
      "320C",
      "320C",
      "320C",
      "320C",
      "320C",
      "320C",
      "320C",
      "320C",
      "320C",
      "320C",
      "320C",
      "320C",
      "320C",
      "320C",
      "320C",
      "320C",
      "320C",
      "320C",
      "320C",
      "320C",
      "320C",
      "320C",
      "320C",
      "320C",
      "320C",
      "320C",
      "320C",
      "320C",
      "320C",
      "320C",
      "320C",
      "320C",
      "320C",
      "320C",
      "320C",
      "320C",
      "320C",
      "320C",
      "320C",
      "320C",
      "320C",
      "320C",
      "320C",
      "320C",
      "320C",
      "320C",
      "320C",
      "320C",
      "320C",
      "320C",
      "320C",
      "320C",
      "320C",
      "320C",
      "320C",
      "320C",
      "320C",
      "320C",
      "320C",
      "320C",
      "320C",
      "320C",
      "320C",
      "320C",
      "320C",
      "320C",
      "320C",
      "320C",
      "320C",
      "320C",
      "320C",
      "320C",
      "320C",
      "320C",
      "320C",
      "320C",
      "320C",
      "320C",
      "320C",
      "320C",
      "320C",
      "320C",
      "320C",
      "320C",
      "320C",
      "320C",
      "320C",
      "320C",
      "320C",
      "320C",
      "320C",
      "320C",
      "320C",
      "320C",
      "320C",
      "320C",
      "320C",
      "320C",
      "320C",
      "320C",
      "320C",
      "320C",
      "320C",
      "320C",
      "320C",
      "320C",
      "320C",
      "320C",
      "320C",
      "320C",
      "320C",
      "320C",
      "320C",
      "320C",
      "320C",
      "320C",
      "320C",
      "320C",
      "320C",
      "320C",
      "320C",
      "320C",
      "320C",
      "320C",
      "320C",
      "320C",
      "320C",
      "320C",
      "320C",
      "320C",
      "320C",
      "320C",
      "320C",
      "320C",
      "320C",
      "320C",
      "320C",
      "320C",
      "320C",
      "320C",
      "320C",
      "320C",
      "320C",
      "320C",
      "320C",
      "320C",
      "320C",
      "320C",
      "320C",
      "320C",
      "320C",
      "320C",
      "320C",
      "320C",
      "320C",
      "320C",
      "320C",
      "320C",
      "320C",
      "320C",
      "320C",
      "320C",
      "320C",
      "320C",
      "320C",
      "320C",
      "320C",
      "320C",
      "320C",
      "320C",
      "320C",
      "320C",
      "320C",
      "320C",
      "320C",
      "320C",
      "320C",
      "320C",
      "320C",
      "320C",
      "320C",
      "320C",
      "320C",
      "320C",
      "320C",
      "320C",
      "320C",
      "320C",
      "320C",
      "320C",
      "320C",
      "320C",
      "320C",
      "320C",
      "320C",
      "320C",
      "320C",
      "320C",
      "320C",
      "320C",
      "320C",
      "320C",
      "320C",
      "320C",
      "320C",
      "320C",
      "320C",
      "320C",
      "320C",
      "320C",
      "320C",
      "320C",
      "320C",
      "320C",
      "320C",
      "320C",
      "320C",
      "320C",
      "320C",
      "320C",
      "320C",
      "320C",
      "320C",
      "320C",
      "320C",
      "320C",
      "320C",
      "320C",
      "320C",
      "320C",
      "320C",
      "320C",
      "320C",
      "320C",
      "320C",
      "320C",
      "320C",
      "320C",
      "320C",
      "320C",
      "320C",
      "320C",
      "320C",
      "320C",
      "320C",
      "320C",
      "320C",
      "323",
      "323",
      "323",
      "323",
      "345",
      "345",
      "365",
      "376",
      "376",
      "380C",
      "380C",
      "380C",
      "380C",
      "380C",
      "380C",
      "380C",
      "380C",
      "380C",
      "380C",
      "380C",
      "380C",
      "380C",
      "380C",
      "380C",
      "380C",
      "380C",
      "380C",
      "380C",
      "380C",
      "380C",
      "380C",
      "380C",
      "380C",
      "380C",
      "380C",
      "380C",
      "380C",
      "380C",
      "380C",
      "380C",
      "380C",
      "380C",
      "380C",
      "380C",
      "380C",
      "380C",
      "380C",
      "380C",
      "380C",
      "380C",
      "380C",
      "380C",
      "358",
      "340C",
      "340C",
      "340C",
      "340C",
      "340C",
      "340C",
      "340C",
      "340C",
      "340C",
      "340C",
      "340C",
      "340C",
      "340C",
      "340C",
      "340C",
      "340C",
      "340C",
      "340C",
      "340C",
      "340C",
      "340C",
      "340C",
      "340C",
      "340C",
      "340C",
      "340C",
      "340C",
      "340C",
      "340C",
      "340C",
      "340C",
      "340C",
      "340C",
      "340C",
      "340C",
      "340C",
      "340C",
      "340C",
      "340C",
      "340C",
      "340C",
      "340C",
      "340C",
      "340C",
      "340C",
      "340C",
      "340C",
      "340C",
      "340C",
      "340C",
      "340C",
      "340C",
      "340C",
      "340C",
      "340C",
      "340C",
      "340C",
      "340C",
      "340C",
      "340C",
      "340C",
      "340C",
      "340C",
      "340C",
      "340C",
      "340C",
      "340C",
      "340C",
      "340C",
      "340C",
      "340C",
      "340C",
      "340C",
      "340C",
      "340",
      "340",
      "340",
      "236",
      "236",
      "198",
      "144",
      "121",
      "080",
      "080",
      "080",
      "059",
      "005",
      "005",
      "003"
    ],
    "swim:geom": "path",
    "swim:speeds": [
      253,
      253,
      253,
      253,
      253,
      253,
      366,
      366,
      366,
      376,
      376,
      376,
      376,
      376,
      385,
      400,
      428,
      428,
      428,
      428,
      428,
      428,
      392,
      392,
      392,
      387,
      387,
      387,
      387,
      386,
      385,
      385,
      385,
      385,
      385,
      385,
      385,
      385,
      385,
      386,
      386,
      386,
      387,
      387,
      387,
      387,
      387,
      378,
      378,
      378,
      378,
      378,
      377,
      377,
      377,
      376,
      376,
      376,
      376,
      377,
      377,
      377,
      377,
      380,
      380,
      377,
      378,
      379,
      379,
      379,
      379,
      378,
      378,
      378,
      378,
      378,
      378,
      378,
      378,
      378,
      378,
      378,
      378,
      378,
      378,
      378,
      378,
      378,
      378,
      378,
      378,
      378,
      380,
      380,
      381,
      381,
      381,
      381,
      382,
      382,
      382,
      383,
      383,
      383,
      384,
      384,
      384,
      385,
      385,
      385,
      386,
      387,
      387,
      387,
      387,
      387,
      388,
      388,
      388,
      388,
      388,
      388,
      389,
      389,
      389,
      390,
      390,
      392,
      392,
      392,
      393,
      394,
      394,
      395,
      395,
      396,
      362,
      362,
      397,
      397,
      398,
      398,
      398,
      398,
      401,
      401,
      398,
      398,
      398,
      398,
      395,
      395,
      395,
      394,
      394,
      394,
      394,
      391,
      391,
      390,
      390,
      390,
      390,
      390,
      389,
      389,
      389,
      387,
      387,
      387,
      386,
      386,
      389,
      389,
      390,
      390,
      390,
      390,
      391,
      391,
      391,
      391,
      391,
      391,
      391,
      391,
      392,
      392,
      391,
      391,
      391,
      391,
      391,
      392,
      392,
      391,
      391,
      391,
      391,
      392,
      391,
      391,
      391,
      391,
      391,
      391,
      391,
      391,
      391,
      391,
      391,
      392,
      392,
      392,
      392,
      392,
      392,
      392,
      392,
      392,
      392,
      392,
      392,
      392,
      392,
      393,
      393,
      393,
      392,
      392,
      392,
      392,
      393,
      393,
      393,
      395,
      397,
      397,
      397,
      399,
      399,
      399,
      399,
      399,
      399,
      400,
      400,
      400,
      400,
      401,
      401,
      401,
      400,
      400,
      400,
      400,
      400,
      400,
      400,
      400,
      400,
      400,
      400,
      400,
      403,
      403,
      404,
      404,
      404,
      405,
      405,
      405,
      403,
      403,
      405,
      406,
      406,
      404,
      404,
      407,
      408,
      408,
      408,
      408,
      407,
      407,
      407,
      407,
      407,
      407,
      407,
      407,
      407,
      407,
      407,
      407,
      407,
      407,
      408,
      408,
      408,
      408,
      408,
      408,
      408,
      408,
      408,
      408,
      408,
      409,
      409,
      410,
      410,
      410,
      410,
      410,
      411,
      412,
      412,
      412,
      413,
      413,
      413,
      413,
      413,
      413,
      413,
      413,
      413,
      413,
      411,
      411,
      411,
      410,
      410,
      410,
      410,
      410,
      409,
      409,
      408,
      408,
      408,
      408,
      407,
      407,
      406,
      406,
      406,
      406,
      406,
      406,
      405,
      405,
      405,
      405,
      405,
      405,
      405,
      405,
      405,
      405,
      405,
      404,
      404,
      404,
      404,
      404,
      404,
      405,
      405,
      405,
      405,
      405,
      405,
      407,
      407,
      407,
      407,
      407,
      407,
      406,
      405,
      405,
      404,
      404,
      404,
      404,
      405,
      405,
      405,
      405,
      405,
      405,
      403,
      399,
      399,
      399,
      399,
      399,
      391,
      391,
      391,
      391,
      394,
      394,
      394,
      397,
      397,
      397,
      401,
      401,
      401,
      402,
      402,
      404,
      404,
      403,
      403,
      403,
      403,
      401,
      399,
      399,
      399,
      399,
      400,
      400,
      400,
      400,
      400,
      401,
      401,
      401,
      401,
      399,
      399,
      371,
      364,
      364,
      359,
      359,
      359,
      359,
      376,
      353,
      359,
      352,
      352,
      352,
      353,
      353,
      353,
      353,
      353,
      353,
      353,
      358,
      360,
      360,
      360,
      360,
      360,
      355,
      358,
      358,
      358,
      359,
      358,
      358,
      358,
      358,
      358,
      358,
      361,
      365,
      365,
      362,
      358,
      358,
      359,
      357,
      357,
      362,
      356,
      358,
      358,
      356,
      356,
      356,
      356,
      353,
      360,
      360,
      345,
      346,
      346,
      346,
      355,
      350,
      348,
      347,
      347,
      345,
      344,
      344,
      344,
      346,
      347,
      350,
      354,
      355,
      355,
      349,
      349,
      348,
      348,
      348,
      348,
      343,
      343,
      343,
      355,
      361,
      362,
      369,
      369,
      380,
      380,
      380,
      378,
      378,
      378,
      393,
      397,
      397,
      397,
      397,
      397,
      400,
      409,
      409,
      409,
      413,
      412,
      411,
      411,
      407,
      405,
      405,
      406,
      409,
      409,
      426,
      430,
      431,
      426,
      427,
      425,
      418,
      414,
      336,
      336,
      334,
      265,
      264,
      231,
      231,
      231,
      209,
      126,
      126,
      127
    ],
    "swim:timestamps": [
      1771295469,
      1771295469,
      1771295469,
      1771295469,
      1771295469,
      1771295469,
      1771295709,
      1771295709,
      1771295709,
      1771295769,
      1771295769,
      1771295769,
      1771295769,
      1771295769,
      1771295830,
      1771295890,
      1771296070,
      1771296070,
      1771296070,
      1771296070,
      1771296070,
      1771296070,
      1771296490,
      1771296490,
      1771296490,
      1771296551,
      1771296551,
      1771296551,
      1771296551,
      1771296611,
      1771296671,
      1771296671,
      1771296671,
      1771296671,
      1771296671,
      1771296791,
      1771296791,
      1771296791,
      1771296791,
      1771296911,
      1771296911,
      1771296911,
      1771296971,
      1771296971,
      1771296971,
      1771296971,
      1771296971,
      1771297151,
      1771297151,
      1771297151,
      1771297151,
      1771297151,
      1771297211,
      1771297211,
      1771297211,
      1771297332,
      1771297332,
      1771297332,
      1771297332,
      1771297363,
      1771297363,
      1771297391,
      1771297391,
      1771297423,
      1771297423,
      1771297511,
      1771297572,
      1771297603,
      1771297603,
      1771297603,
      1771297603,
      1771297632,
      1771297632,
      1771297663,
      1771297692,
      1771297692,
      1771297692,
      1771297723,
      1771297723,
      1771297723,
      1771297723,
      1771297783,
      1771297904,
      1771297904,
      1771297904,
      1771297904,
      1771297904,
      1771298024,
      1771298024,
      1771298024,
      1771298024,
      1771298024,
      1771298204,
      1771298204,
      1771298264,
      1771298264,
      1771298264,
      1771298264,
      1771298353,
      1771298353,
      1771298353,
      1771298413,
      1771298413,
      1771298413,
      1771298444,
      1771298444,
      1771298444,
      1771298473,
      1771298473,
      1771298473,
      1771298533,
      1771298593,
      1771298593,
      1771298593,
      1771298593,
      1771298593,
      1771298685,
      1771298685,
      1771298685,
      1771298833,
      1771298833,
      1771298833,
      1771298894,
      1771298894,
      1771298894,
      1771298925,
      1771298925,
      1771299014,
      1771299014,
      1771299045,
      1771299105,
      1771299165,
      1771299165,
      1771299194,
      1771299194,
      1771299225,
      1771299264,
      1771299264,
      1771299285,
      1771299285,
      1771299345,
      1771299345,
      1771299374,
      1771299374,
      1771299444,
      1771299444,
      1771299526,
      1771299526,
      1771299526,
      1771299555,
      1771299684,
      1771299684,
      1771299684,
      1771299744,
      1771299744,
      1771299744,
      1771299744,
      1771299826,
      1771299826,
      1771299865,
      1771299865,
      1771299865,
      1771299925,
      1771299925,
      1771299946,
      1771299985,
      1771299985,
      1771300105,
      1771300105,
      1771300105,
      1771300165,
      1771300165,
      1771300427,
      1771300446,
      1771300487,
      1771300487,
      1771300547,
      1771300547,
      1771300607,
      1771300607,
      1771300627,
      1771300667,
      1771300667,
      1771300687,
      1771300687,
      1771300687,
      1771300705,
      1771300705,
      1771300747,
      1771300807,
      1771300807,
      1771300807,
      1771300807,
      1771300826,
      1771300826,
      1771300847,
      1771300847,
      1771300886,
      1771300886,
      1771300927,
      1771300946,
      1771300946,
      1771300946,
      1771301066,
      1771301066,
      1771301066,
      1771301066,
      1771301107,
      1771301167,
      1771301167,
      1771301167,
      1771301186,
      1771301186,
      1771301227,
      1771301227,
      1771301287,
      1771301287,
      1771301287,
      1771301287,
      1771301306,
      1771301306,
      1771301306,
      1771301468,
      1771301468,
      1771301468,
      1771301528,
      1771301588,
      1771301588,
      1771301666,
      1771301666,
      1771301666,
      1771301666,
      1771301709,
      1771301709,
      1771301709,
      1771301829,
      1771301889,
      1771301889,
      1771301889,
      1771301949,
      1771301949,
      1771301949,
      1771301949,
      1771301967,
      1771301967,
      1771302027,
      1771302027,
      1771302069,
      1771302069,
      1771302087,
      1771302087,
      1771302087,
      1771302189,
      1771302207,
      1771302207,
      1771302327,
      1771302327,
      1771302327,
      1771302387,
      1771302387,
      1771302387,
      1771302490,
      1771302490,
      1771302490,
      1771302671,
      1771302671,
      1771302731,
      1771302731,
      1771302731,
      1771302788,
      1771302788,
      1771302788,
      1771302809,
      1771302809,
      1771302848,
      1771302908,
      1771302908,
      1771302990,
      1771302990,
      1771303089,
      1771303110,
      1771303110,
      1771303110,
      1771303110,
      1771303149,
      1771303209,
      1771303209,
      1771303288,
      1771303288,
      1771303329,
      1771303329,
      1771303350,
      1771303350,
      1771303410,
      1771303410,
      1771303410,
      1771303410,
      1771303410,
      1771303470,
      1771303530,
      1771303530,
      1771303590,
      1771303590,
      1771303650,
      1771303650,
      1771303650,
      1771303691,
      1771303710,
      1771303710,
      1771303770,
      1771303770,
      1771303812,
      1771303812,
      1771303812,
      1771303830,
      1771303830,
      1771303869,
      1771303890,
      1771303929,
      1771303929,
      1771303950,
      1771303950,
      1771303950,
      1771303990,
      1771304010,
      1771304010,
      1771304050,
      1771304050,
      1771304050,
      1771304050,
      1771304130,
      1771304130,
      1771304130,
      1771304191,
      1771304230,
      1771304251,
      1771304251,
      1771304251,
      1771304371,
      1771304371,
      1771304431,
      1771304431,
      1771304431,
      1771304431,
      1771304471,
      1771304471,
      1771304491,
      1771304531,
      1771304551,
      1771304551,
      1771304551,
      1771304551,
      1771304653,
      1771304713,
      1771304713,
      1771304731,
      1771304731,
      1771304791,
      1771304791,
      1771304791,
      1771304851,
      1771304851,
      1771304851,
      1771304890,
      1771304911,
      1771304911,
      1771304950,
      1771304950,
      1771304950,
      1771305014,
      1771305014,
      1771305031,
      1771305031,
      1771305031,
      1771305072,
      1771305271,
      1771305271,
      1771305271,
      1771305331,
      1771305331,
      1771305331,
      1771305451,
      1771305511,
      1771305511,
      1771305572,
      1771305572,
      1771305572,
      1771305572,
      1771305623,
      1771305632,
      1771305632,
      1771305632,
      1771305632,
      1771305692,
      1771305743,
      1771305803,
      1771305803,
      1771305803,
      1771305803,
      1771305803,
      1771305923,
      1771305923,
      1771305932,
      1771305932,
      1771306104,
      1771306104,
      1771306104,
      1771306172,
      1771306172,
      1771306172,
      1771306284,
      1771306284,
      1771306284,
      1771306292,
      1771306292,
      1771306412,
      1771306412,
      1771306464,
      1771306464,
      1771306464,
      1771306464,
      1771306584,
      1771306644,
      1771306644,
      1771306704,
      1771306704,
      1771306824,
      1771306824,
      1771306824,
      1771306824,
      1771306824,
      1771307004,
      1771307004,
      1771307004,
      1771307004,
      1771307076,
      1771307076,
      1771307124,
      1771307185,
      1771307185,
      1771307245,
      1771307245,
      1771307245,
      1771307245,
      1771307256,
      1771307365,
      1771307376,
      1771307485,
      1771307485,
      1771307485,
      1771307676,
      1771307676,
      1771307676,
      1771307676,
      1771307676,
      1771307796,
      1771307796,
      1771307845,
      1771307905,
      1771307905,
      1771307905,
      1771307905,
      1771307905,
      1771307916,
      1771307976,
      1771307976,
      1771307976,
      1771308025,
      1771308036,
      1771308085,
      1771308085,
      1771308085,
      1771308157,
      1771308157,
      1771308385,
      1771308446,
      1771308446,
      1771308577,
      1771308626,
      1771308626,
      1771308637,
      1771308686,
      1771308686,
      1771308877,
      1771309046,
      1771309057,
      1771309057,
      1771309286,
      1771309286,
      1771309358,
      1771309358,
      1771309478,
      1771309586,
      1771309586,
      1771309766,
      1771309826,
      1771309838,
      1771309838,
      1771309958,
      1771310127,
      1771310198,
      1771310247,
      1771310258,
      1771310307,
      1771310367,
      1771310498,
      1771310498,
      1771310619,
      1771310667,
      1771310679,
      1771310739,
      1771310787,
      1771310787,
      1771310967,
      1771311039,
      1771311207,
      1771311267,
      1771311267,
      1771311267,
      1771311639,
      1771311639,
      1771311639,
      1771311940,
      1771312000,
      1771312060,
      1771312240,
      1771312240,
      1771312420,
      1771312420,
      1771312420,
      1771312540,
      1771312540,
      1771312540,
      1771313080,
      1771313200,
      1771313200,
      1771313200,
      1771313260,
      1771313260,
      1771313380,
      1771313500,
      1771313500,
      1771313500,
      1771313614,
      1771313674,
      1771313741,
      1771313741,
      1771313794,
      1771313854,
      1771313854,
      1771314154,
      1771314274,
      1771314274,
      1771314521,
      1771314574,
      1771314755,
      1771314995,
      1771315055,
      1771315175,
      1771315235,
      1771315295,
      1771315740,
      1771315740,
      1771315860,
      1771316039,
      1771316135,
      1771316340,
      1771316340,
      1771316340,
      1771316495,
      1771316880,
      1771316880,
      1771316916
    ],
    "wof:geomhash": "77a442133e509b54614b8d309e1fc66d",
    "wof:id": 2014807569,
    "wof:repo": "sfomuseum-data-flights-2026-02"
  },
  "bbox": [
    -122.34916666666666,
    37.49638888888889,
    -74.27888888888889,
    40.8
  ],
  "geometry": {"coordinates":[[-74.27888888888889,40.782777777777774],[-74.27888888888889,40.782777777777774],[-74.27888888888889,40.782777777777774],[-74.27888888888889,40.782777777777774],[-74.27888888888889,40.782777777777774],[-74.27888888888889,40.782777777777774],[-74.75916666666667,40.79222222222222],[-74.75916666666667,40.79222222222222],[-74.75916666666667,40.79222222222222],[-74.89555555555556,40.79611111111111],[-74.89555555555556,40.79611111111111],[-74.89555555555556,40.79611111111111],[-74.89555555555556,40.79611111111111],[-74.89555555555556,40.79611111111111],[-75.03333333333333,40.8],[-75.18277777777779,40.794999999999995],[-75.60916666666667,40.68083333333333],[-75.60916666666667,40.68083333333333],[-75.60916666666667,40.68083333333333],[-75.60916666666667,40.68083333333333],[-75.60916666666667,40.68083333333333],[-75.60916666666667,40.68083333333333],[-76.5586111111111,40.333333333333336],[-76.5586111111111,40.333333333333336],[-76.5586111111111,40.333333333333336],[-76.71194444444444,40.31055555555555],[-76.71194444444444,40.31055555555555],[-76.71194444444444,40.31055555555555],[-76.71194444444444,40.31055555555555],[-76.84833333333333,40.29],[-76.97638888888889,40.27027777777778],[-76.97638888888889,40.27027777777778],[-76.97638888888889,40.27027777777778],[-76.97638888888889,40.27027777777778],[-76.97638888888889,40.27027777777778],[-77.25222222222222,40.22777777777778],[-77.25222222222222,40.22777777777778],[-77.25222222222222,40.22777777777778],[-77.25222222222222,40.22777777777778],[-77.51805555555555,40.18583333333333],[-77.51805555555555,40.18583333333333],[-77.51805555555555,40.18583333333333],[-77.67166666666667,40.16138888888889],[-77.67166666666667,40.16138888888889],[-77.67166666666667,40.16138888888889],[-77.67166666666667,40.16138888888889],[-77.67166666666667,40.16138888888889],[-78.08749999999999,40.13805555555555],[-78.08749999999999,40.13805555555555],[-78.08749999999999,40.13805555555555],[-78.08749999999999,40.13805555555555],[-78.08749999999999,40.13805555555555],[-78.2238888888889,40.13944444444444],[-78.2238888888889,40.13944444444444],[-78.2238888888889,40.13944444444444],[-78.49583333333334,40.14138888888889],[-78.49583333333334,40.14138888888889],[-78.49583333333334,40.14138888888889],[-78.49583333333334,40.14138888888889],[-78.55749999999999,40.14194444444444],[-78.55749999999999,40.14194444444444],[-78.6061111111111,40.14194444444444],[-78.6061111111111,40.14194444444444],[-78.7038888888889,40.1425],[-78.7038888888889,40.1425],[-78.87666666666667,40.143055555555556],[-79.01805555555555,40.14333333333333],[-79.10777777777777,40.14361111111111],[-79.10777777777777,40.14361111111111],[-79.10777777777777,40.14361111111111],[-79.10777777777777,40.14361111111111],[-79.15277777777779,40.14361111111111],[-79.15277777777779,40.14361111111111],[-79.24861111111112,40.14555555555555],[-79.2925,40.14694444444444],[-79.2925,40.14694444444444],[-79.2925,40.14694444444444],[-79.38361111111112,40.149166666666666],[-79.38361111111112,40.149166666666666],[-79.38361111111112,40.149166666666666],[-79.38361111111112,40.149166666666666],[-79.52111111111111,40.15222222222222],[-79.7961111111111,40.1575],[-79.7961111111111,40.1575],[-79.7961111111111,40.1575],[-79.7961111111111,40.1575],[-79.7961111111111,40.1575],[-80.07083333333333,40.1625],[-80.07083333333333,40.1625],[-80.07083333333333,40.1625],[-80.07083333333333,40.1625],[-80.07083333333333,40.1625],[-80.47944444444444,40.16861111111111],[-80.47944444444444,40.16861111111111],[-80.61861111111111,40.17055555555555],[-80.61861111111111,40.17055555555555],[-80.61861111111111,40.17055555555555],[-80.61861111111111,40.17055555555555],[-80.81222222222222,40.1725],[-80.81222222222222,40.1725],[-80.81222222222222,40.1725],[-80.95361111111112,40.17388888888889],[-80.95361111111112,40.17388888888889],[-80.95361111111112,40.17388888888889],[-81.03666666666666,40.17388888888889],[-81.03666666666666,40.17388888888889],[-81.03666666666666,40.17388888888889],[-81.10499999999999,40.17305555555555],[-81.10499999999999,40.17305555555555],[-81.10499999999999,40.17305555555555],[-81.24444444444444,40.171388888888885],[-81.38722222222223,40.16972222222222],[-81.38722222222223,40.16972222222222],[-81.38722222222223,40.16972222222222],[-81.38722222222223,40.16972222222222],[-81.38722222222223,40.16972222222222],[-81.60138888888888,40.16694444444444],[-81.60138888888888,40.16694444444444],[-81.60138888888888,40.16694444444444],[-81.94888888888889,40.177499999999995],[-81.94888888888889,40.177499999999995],[-81.94888888888889,40.177499999999995],[-82.08972222222222,40.18194444444444],[-82.08972222222222,40.18194444444444],[-82.08972222222222,40.18194444444444],[-82.1738888888889,40.18444444444444],[-82.1738888888889,40.18444444444444],[-82.375,40.190555555555555],[-82.375,40.190555555555555],[-82.45916666666668,40.19277777777778],[-82.60222222222221,40.19694444444444],[-82.74416666666667,40.20055555555556],[-82.74416666666667,40.20055555555556],[-82.80333333333333,40.20194444444445],[-82.80333333333333,40.20194444444445],[-82.88666666666667,40.20416666666667],[-82.96111111111111,40.205555555555556],[-82.96111111111111,40.205555555555556],[-83.03055555555555,40.20722222222223],[-83.03055555555555,40.20722222222223],[-83.1738888888889,40.21055555555556],[-83.1738888888889,40.21055555555556],[-83.23333333333333,40.211666666666666],[-83.23333333333333,40.211666666666666],[-83.39555555555556,40.215],[-83.39555555555556,40.215],[-83.60583333333332,40.22416666666667],[-83.60583333333332,40.22416666666667],[-83.60583333333332,40.22416666666667],[-83.66166666666668,40.2275],[-83.96861111111112,40.24277777777778],[-83.96861111111112,40.24277777777778],[-83.96861111111112,40.24277777777778],[-84.11166666666666,40.249722222222225],[-84.11166666666666,40.249722222222225],[-84.11166666666666,40.249722222222225],[-84.11166666666666,40.249722222222225],[-84.31527777777778,40.25944444444445],[-84.31527777777778,40.25944444444445],[-84.41611111111112,40.26416666666667],[-84.41611111111112,40.26416666666667],[-84.41611111111112,40.26416666666667],[-84.55583333333333,40.27055555555555],[-84.55583333333333,40.27055555555555],[-84.59333333333333,40.27222222222222],[-84.69611111111111,40.276666666666664],[-84.69611111111111,40.276666666666664],[-84.97527777777778,40.288333333333334],[-84.97527777777778,40.288333333333334],[-84.97527777777778,40.288333333333334],[-85.11638888888888,40.29416666666666],[-85.11638888888888,40.29416666666666],[-85.73333333333333,40.31666666666667],[-85.7775,40.31861111111112],[-85.87694444444443,40.32166666666667],[-85.87694444444443,40.32166666666667],[-86.01611111111112,40.32611111111112],[-86.01611111111112,40.32611111111112],[-86.15777777777778,40.330555555555556],[-86.15777777777778,40.330555555555556],[-86.17583333333334,40.331388888888895],[-86.3,40.334722222222226],[-86.3,40.334722222222226],[-86.31777777777778,40.33527777777778],[-86.31777777777778,40.33527777777778],[-86.31777777777778,40.33527777777778],[-86.38361111111112,40.33722222222222],[-86.38361111111112,40.33722222222222],[-86.46083333333334,40.33916666666667],[-86.6036111111111,40.343333333333334],[-86.6036111111111,40.343333333333334],[-86.6036111111111,40.343333333333334],[-86.6036111111111,40.343333333333334],[-86.66777777777779,40.345],[-86.66777777777779,40.345],[-86.72666666666667,40.34638888888889],[-86.72666666666667,40.34638888888889],[-86.80916666666667,40.34861111111111],[-86.80916666666667,40.34861111111111],[-86.88944444444445,40.350833333333334],[-86.94888888888889,40.35194444444445],[-86.94888888888889,40.35194444444445],[-86.94888888888889,40.35194444444445],[-87.23222222222222,40.358333333333334],[-87.23222222222222,40.358333333333334],[-87.23222222222222,40.358333333333334],[-87.23222222222222,40.358333333333334],[-87.34444444444443,40.36055555555556],[-87.48444444444445,40.36333333333334],[-87.48444444444445,40.36333333333334],[-87.48444444444445,40.36333333333334],[-87.525,40.36416666666667],[-87.525,40.36416666666667],[-87.62833333333333,40.36611111111111],[-87.62833333333333,40.36611111111111],[-87.77111111111111,40.368611111111115],[-87.77111111111111,40.368611111111115],[-87.77111111111111,40.368611111111115],[-87.77111111111111,40.368611111111115],[-87.81055555555555,40.369166666666665],[-87.81055555555555,40.369166666666665],[-87.81055555555555,40.369166666666665],[-88.19805555555556,40.374722222222225],[-88.19805555555556,40.374722222222225],[-88.19805555555556,40.374722222222225],[-88.34138888888889,40.376666666666665],[-88.48333333333333,40.378055555555555],[-88.48333333333333,40.378055555555555],[-88.65444444444445,40.37972222222222],[-88.65444444444445,40.37972222222222],[-88.65444444444445,40.37972222222222],[-88.65444444444445,40.37972222222222],[-88.76916666666666,40.380833333333335],[-88.76916666666666,40.380833333333335],[-88.76916666666666,40.380833333333335],[-89.06,40.382777777777775],[-89.20361111111112,40.38333333333333],[-89.20361111111112,40.38333333333333],[-89.20361111111112,40.38333333333333],[-89.35055555555554,40.38388888888889],[-89.35055555555554,40.38388888888889],[-89.35055555555554,40.38388888888889],[-89.35055555555554,40.38388888888889],[-89.37944444444443,40.38388888888889],[-89.37944444444443,40.38388888888889],[-89.52555555555556,40.38444444444444],[-89.52555555555556,40.38444444444444],[-89.61527777777778,40.38444444444444],[-89.61527777777778,40.38444444444444],[-89.6738888888889,40.38444444444444],[-89.6738888888889,40.38444444444444],[-89.6738888888889,40.38444444444444],[-89.90805555555556,40.384166666666665],[-89.96833333333333,40.38388888888889],[-89.96833333333333,40.38388888888889],[-90.26083333333334,40.38305555555556],[-90.26083333333334,40.38305555555556],[-90.26083333333334,40.38305555555556],[-90.40555555555557,40.382222222222225],[-90.40555555555557,40.382222222222225],[-90.40555555555557,40.382222222222225],[-90.6413888888889,40.38055555555555],[-90.6413888888889,40.38055555555555],[-90.6413888888889,40.38055555555555],[-91.08083333333333,40.37583333333333],[-91.08083333333333,40.37583333333333],[-91.22833333333334,40.37416666666667],[-91.22833333333334,40.37416666666667],[-91.22833333333334,40.37416666666667],[-91.37666666666667,40.371944444444445],[-91.37666666666667,40.371944444444445],[-91.37666666666667,40.371944444444445],[-91.42861111111111,40.370555555555555],[-91.42861111111111,40.370555555555555],[-91.52333333333333,40.36972222222222],[-91.6713888888889,40.367222222222225],[-91.6713888888889,40.367222222222225],[-91.87138888888889,40.363055555555555],[-91.87138888888889,40.363055555555555],[-92.11472222222221,40.35888888888889],[-92.16833333333334,40.35777777777778],[-92.16833333333334,40.35777777777778],[-92.16833333333334,40.35777777777778],[-92.16833333333334,40.35777777777778],[-92.26361111111112,40.355555555555554],[-92.41222222222223,40.352222222222224],[-92.41222222222223,40.352222222222224],[-92.60277777777777,40.347500000000004],[-92.60277777777777,40.347500000000004],[-92.71944444444445,40.344722222222224],[-92.71944444444445,40.344722222222224],[-92.77722222222222,40.34305555555556],[-92.77722222222222,40.34305555555556],[-92.92277777777778,40.33888888888889],[-92.92277777777778,40.33888888888889],[-92.92277777777778,40.33888888888889],[-92.92277777777778,40.33888888888889],[-92.92277777777778,40.33888888888889],[-93.07055555555556,40.334722222222226],[-93.21888888888888,40.33027777777778],[-93.21888888888888,40.33027777777778],[-93.36722222222221,40.325833333333335],[-93.36722222222221,40.325833333333335],[-93.51694444444445,40.32083333333334],[-93.51694444444445,40.32083333333334],[-93.51694444444445,40.32083333333334],[-93.60527777777777,40.31805555555556],[-93.66416666666667,40.31583333333333],[-93.66416666666667,40.31583333333333],[-93.81361111111111,40.31055555555555],[-93.81361111111111,40.31055555555555],[-93.90361111111112,40.3075],[-93.90361111111112,40.3075],[-93.90361111111112,40.3075],[-93.96305555555556,40.305277777777775],[-93.96305555555556,40.305277777777775],[-94.05333333333333,40.301944444444445],[-94.11222222222221,40.29972222222222],[-94.20527777777778,40.295833333333334],[-94.20527777777778,40.295833333333334],[-94.2611111111111,40.29388888888889],[-94.2611111111111,40.29388888888889],[-94.2611111111111,40.29388888888889],[-94.3536111111111,40.29],[-94.41194444444444,40.28777777777778],[-94.41194444444444,40.28777777777778],[-94.50194444444445,40.28388888888889],[-94.50194444444445,40.28388888888889],[-94.50194444444445,40.28388888888889],[-94.50194444444445,40.28388888888889],[-94.70944444444444,40.275277777777774],[-94.70944444444444,40.275277777777774],[-94.70944444444444,40.275277777777774],[-94.85722222222222,40.26861111111111],[-94.94666666666667,40.26444444444444],[-95.00638888888889,40.261944444444445],[-95.00638888888889,40.261944444444445],[-95.00638888888889,40.261944444444445],[-95.30222222222221,40.24777777777778],[-95.30222222222221,40.24777777777778],[-95.45111111111112,40.24055555555556],[-95.45111111111112,40.24055555555556],[-95.45111111111112,40.24055555555556],[-95.45111111111112,40.24055555555556],[-95.53472222222221,40.23638888888889],[-95.53472222222221,40.23638888888889],[-95.59888888888888,40.23305555555556],[-95.68222222222222,40.228611111111114],[-95.74638888888889,40.22527777777778],[-95.74638888888889,40.22527777777778],[-95.74638888888889,40.22527777777778],[-95.74638888888889,40.22527777777778],[-95.97361111111111,40.213055555555556],[-96.12083333333332,40.205000000000005],[-96.12083333333332,40.205000000000005],[-96.18611111111112,40.20166666666667],[-96.18611111111112,40.20166666666667],[-96.33194444444445,40.2025],[-96.33194444444445,40.2025],[-96.33194444444445,40.2025],[-96.48083333333334,40.20527777777778],[-96.48083333333334,40.20527777777778],[-96.48083333333334,40.20527777777778],[-96.5586111111111,40.20666666666667],[-96.62583333333333,40.20777777777778],[-96.62583333333333,40.20777777777778],[-96.705,40.20916666666667],[-96.705,40.20916666666667],[-96.705,40.20916666666667],[-96.85111111111111,40.211111111111116],[-96.85111111111111,40.211111111111116],[-96.92166666666667,40.21222222222222],[-96.92166666666667,40.21222222222222],[-96.92166666666667,40.21222222222222],[-96.99805555555555,40.213055555555556],[-97.50222222222222,40.218611111111116],[-97.50222222222222,40.218611111111116],[-97.50222222222222,40.218611111111116],[-97.65166666666667,40.219722222222224],[-97.65166666666667,40.219722222222224],[-97.65166666666667,40.219722222222224],[-97.94638888888889,40.22166666666667],[-98.0936111111111,40.22222222222222],[-98.0936111111111,40.22222222222222],[-98.24055555555556,40.222500000000004],[-98.24055555555556,40.222500000000004],[-98.24055555555556,40.222500000000004],[-98.24055555555556,40.222500000000004],[-98.35749999999999,40.22277777777778],[-98.38833333333334,40.22277777777778],[-98.38833333333334,40.22277777777778],[-98.38833333333334,40.22277777777778],[-98.38833333333334,40.22277777777778],[-98.535,40.22277777777778],[-98.6525,40.22277777777778],[-98.7975,40.222500000000004],[-98.7975,40.222500000000004],[-98.7975,40.222500000000004],[-98.7975,40.222500000000004],[-98.7975,40.222500000000004],[-99.07972222222222,40.22138888888889],[-99.07972222222222,40.22138888888889],[-99.1111111111111,40.221111111111114],[-99.1111111111111,40.221111111111114],[-99.51055555555556,40.218333333333334],[-99.51055555555556,40.218333333333334],[-99.51055555555556,40.218333333333334],[-99.68611111111112,40.21666666666667],[-99.68611111111112,40.21666666666667],[-99.68611111111112,40.21666666666667],[-99.94972222222222,40.21361111111111],[-99.94972222222222,40.21361111111111],[-99.94972222222222,40.21361111111111],[-99.98,40.21333333333334],[-99.98,40.21333333333334],[-100.26972222222223,40.20916666666667],[-100.26972222222223,40.20916666666667],[-100.39055555555557,40.20722222222223],[-100.39055555555557,40.20722222222223],[-100.39055555555557,40.20722222222223],[-100.39055555555557,40.20722222222223],[-100.68194444444445,40.20027777777778],[-100.82722222222222,40.19305555555555],[-100.82722222222222,40.19305555555555],[-100.97194444444445,40.186388888888885],[-100.97194444444445,40.186388888888885],[-101.2625,40.1725],[-101.2625,40.1725],[-101.2625,40.1725],[-101.2625,40.1725],[-101.2625,40.1725],[-101.69888888888889,40.14972222222222],[-101.69888888888889,40.14972222222222],[-101.69888888888889,40.14972222222222],[-101.69888888888889,40.14972222222222],[-101.87055555555555,40.13944444444444],[-101.87055555555555,40.13944444444444],[-101.98,40.13444444444444],[-102.10944444444443,40.12722222222222],[-102.10944444444443,40.12722222222222],[-102.23861111111111,40.11972222222222],[-102.23861111111111,40.11972222222222],[-102.23861111111111,40.11972222222222],[-102.23861111111111,40.11972222222222],[-102.27055555555556,40.11361111111111],[-102.49416666666667,40.10444444444445],[-102.5225,40.10027777777778],[-102.75194444444445,40.08861111111111],[-102.75194444444445,40.08861111111111],[-102.75194444444445,40.08861111111111],[-103.15333333333334,40.06083333333333],[-103.15333333333334,40.06083333333333],[-103.15333333333334,40.06083333333333],[-103.15333333333334,40.06083333333333],[-103.15333333333334,40.06083333333333],[-103.40666666666667,40.04527777777778],[-103.40666666666667,40.04527777777778],[-103.51444444444445,40.038333333333334],[-103.64555555555556,40.028888888888886],[-103.64555555555556,40.028888888888886],[-103.64555555555556,40.028888888888886],[-103.64555555555556,40.028888888888886],[-103.64555555555556,40.028888888888886],[-103.66944444444445,40.02583333333333],[-103.8,40.0175],[-103.8,40.0175],[-103.8,40.0175],[-103.9025,40.010555555555555],[-103.93027777777779,40.007777777777775],[-104.02944444444444,40.00138888888889],[-104.02944444444444,40.00138888888889],[-104.02944444444444,40.00138888888889],[-104.1863888888889,39.98888888888889],[-104.1863888888889,39.98888888888889],[-104.67333333333333,39.95194444444445],[-104.80472222222222,39.94138888888889],[-104.80472222222222,39.94138888888889],[-105.06972222222223,39.91972222222222],[-105.18916666666667,39.90972222222222],[-105.18916666666667,39.90972222222222],[-105.22305555555556,39.905833333333334],[-105.31583333333333,39.89861111111111],[-105.31583333333333,39.89861111111111],[-105.74194444444444,39.86083333333333],[-106.08805555555556,39.83027777777778],[-106.12416666666665,39.82666666666667],[-106.12416666666665,39.82666666666667],[-106.59527777777777,39.78194444444444],[-106.59527777777777,39.78194444444444],[-106.76027777777777,39.763888888888886],[-106.76027777777777,39.763888888888886],[-107.00972222222222,39.735],[-107.24055555555556,39.71],[-107.24055555555556,39.71],[-107.58888888888889,39.66972222222222],[-107.71888888888888,39.654444444444444],[-107.75944444444444,39.649166666666666],[-107.75944444444444,39.649166666666666],[-108.00722222222223,39.62],[-108.3475,39.57833333333333],[-108.50777777777778,39.558611111111105],[-108.60666666666665,39.54611111111111],[-108.6325,39.54277777777778],[-108.73222222222222,39.53],[-108.83083333333333,39.5175],[-109.10277777777777,39.48222222222223],[-109.10277777777777,39.48222222222223],[-109.3475,39.45],[-109.44555555555556,39.43694444444444],[-109.47111111111111,39.43333333333333],[-109.59722222222221,39.41638888888889],[-109.69611111111111,39.403055555555554],[-109.69611111111111,39.403055555555554],[-110.07,39.35194444444445],[-110.21805555555555,39.33222222222223],[-110.56027777777777,39.28527777777778],[-110.6825,39.26833333333333],[-110.6825,39.26833333333333],[-110.6825,39.26833333333333],[-111.44888888888889,39.15888888888889],[-111.44888888888889,39.15888888888889],[-111.44888888888889,39.15888888888889],[-112.05944444444444,39.06805555555556],[-112.18777777777778,39.04833333333333],[-112.31416666666667,39.028888888888886],[-112.69972222222222,38.968611111111116],[-112.69972222222222,38.968611111111116],[-113.09472222222222,38.905833333333334],[-113.09472222222222,38.905833333333334],[-113.09472222222222,38.905833333333334],[-113.35666666666665,38.863055555555555],[-113.35666666666665,38.863055555555555],[-113.35666666666665,38.863055555555555],[-114.5586111111111,38.659166666666664],[-114.83138888888888,38.611111111111114],[-114.83138888888888,38.611111111111114],[-114.83138888888888,38.611111111111114],[-114.97055555555556,38.586111111111116],[-114.97055555555556,38.586111111111116],[-115.24666666666667,38.53638888888889],[-115.52,38.48638888888889],[-115.52,38.48638888888889],[-115.52,38.48638888888889],[-115.80916666666667,38.44194444444444],[-115.94722222222222,38.406666666666666],[-116.08638888888889,38.38055555555555],[-116.08638888888889,38.38055555555555],[-116.22694444444444,38.353611111111114],[-116.36638888888888,38.32666666666667],[-116.36638888888888,38.32666666666667],[-117.05555555555556,38.16916666666666],[-117.32055555555556,38.10777777777778],[-117.32055555555556,38.10777777777778],[-117.91000000000001,37.98833333333334],[-118.03416666666666,37.97555555555556],[-118.4863888888889,37.92666666666666],[-119.08999999999999,37.85861111111111],[-119.23833333333333,37.84138888888889],[-119.53527777777778,37.80638888888888],[-119.68,37.788888888888884],[-119.82472222222222,37.771388888888886],[-120.81666666666666,37.65],[-120.81666666666666,37.65],[-121.05,37.61666666666667],[-121.36666666666666,37.583333333333336],[-121.49361111111111,37.566111111111105],[-121.8,37.516666666666666],[-121.8,37.516666666666666],[-121.8,37.516666666666666],[-121.97361111111111,37.49638888888889],[-122.33333333333333,37.6],[-122.33333333333333,37.6],[-122.34916666666666,37.61]],"type":"LineString"}
}
