{
  "id": 2014790179,
  "type": "Feature",
  "properties": {
    "date:cessation_lower": "2026-02-14",
    "date:cessation_upper": "2026-02-14",
    "date:inception_lower": "2026-02-15",
    "date:inception_upper": "2026-02-15",
    "edtf:cessation": "2026-02-14T09:44:06-08:00",
    "edtf:inception": "2026-02-15T00:38:38Z",
    "flysfo:actual_timestamp": -1,
    "flysfo:airline": "UA",
    "flysfo:base_airline": "",
    "flysfo:base_flight_number": "4471",
    "flysfo:date": "2026-02-14",
    "flysfo:estimated_timestamp": 1771120020,
    "flysfo:event": "A",
    "flysfo:flight_number": "UA2117",
    "flysfo:gate": "D8",
    "flysfo:journey": "SAN-SFO",
    "flysfo:scheduled_timestamp": 1771120020,
    "flysfo:timestamp": 1771120020,
    "geom:area": 0,
    "geom:bbox": "-122.370943,32.733534,-117.185927,37.617990",
    "geom:latitude": 35.175762,
    "geom:longitude": -119.778435,
    "iata:airline": "UA",
    "iata:base_airline": "",
    "icao:aircraft": "B738",
    "icao:airline": "UAL",
    "icao:base_airline": "ACA",
    "lbl:latitude": 37.617421,
    "lbl:longitude": -122.380916,
    "sfomuseum:aircraft_id": 1159289871,
    "sfomuseum:airline_id": 1159285413,
    "sfomuseum:arrival_id": 102527513,
    "sfomuseum:base_flight_id": "20260214-A-ACA-4471",
    "sfomuseum:departure_id": 102528997,
    "sfomuseum:flight_id": "20260214-A-UAL-2117",
    "sfomuseum:flight_number": [
      "UAL2117",
      "UA2117"
    ],
    "sfomuseum:placetype": "flight",
    "src:geom": "flysfo",
    "src:geom_alt": [
      "swim-route",
      "swim-path",
      "swim-approach"
    ],
    "swim:tail_number": "N86534",
    "wof:belongsto": [
      1947304067,
      102527513,
      1947304595,
      102191575,
      85633793,
      102087579,
      85922583,
      554784711,
      85688637,
      1947304617,
      1947304591,
      102085387
    ],
    "wof:concordances": {
      "swim:gufi": "KL835307UX"
    },
    "wof:country": "US",
    "wof:created": 1771171635,
    "wof:geomhash": "d1d4873ced1d6ea3128e45b0b2070718",
    "wof:hierarchy": [
      {
        "building_id": 1947304067,
        "campus_id": 102527513,
        "concourse_id": 1947304595,
        "continent_id": 102191575,
        "country_id": 85633793,
        "county_id": 102087579,
        "custom_id": 2014790179,
        "flight_id": 2014790179,
        "locality_id": 85922583,
        "postalcode_id": 554784711,
        "region_id": 85688637,
        "venue_id": 1947304617,
        "wing_id": 1947304591
      },
      {
        "building_id": 1947304067,
        "campus_id": 102527513,
        "concourse_id": 1947304595,
        "continent_id": 102191575,
        "country_id": 85633793,
        "county_id": 102085387,
        "custom_id": 2014790179,
        "flight_id": 2014790179,
        "region_id": 85688637,
        "venue_id": 1947304617,
        "wing_id": 1947304591
      }
    ],
    "wof:id": 2014790179,
    "wof:involves": [
      1159289871,
      102527513,
      102528997,
      1159285413,
      1947304617,
      1159283597
    ],
    "wof:lastmodified": 1771172179,
    "wof:name": "UA2117 (SAN-SFO)",
    "wof:parent_id": 1947304617,
    "wof:placetype": "custom",
    "wof:placetype_alt": [
      "flight"
    ],
    "wof:repo": "sfomuseum-data-flights-2026-02",
    "wof:superseded_by": [],
    "wof:supersedes": []
  },
  "bbox": [
    -122.370943,
    32.733534,
    -117.185927,
    37.61799
  ],
  "geometry": {"coordinates":[[-117.185927,32.733534],[-122.370943,37.61799]],"type":"MultiPoint"}
}
