{
  "id": 2014907297,
  "type": "Feature",
  "properties": {
    "geom:area": 0,
    "geom:bbox": "-122.326070,37.491160,-121.291640,37.602070",
    "geom:latitude": 37.542939972877534,
    "geom:longitude": -121.81313005089753,
    "src:alt_label": "swim-approach",
    "src:geom": "swim",
    "swim:elevations": [
      4810,
      4592,
      4239,
      4056,
      3685,
      3301,
      3226,
      3105,
      2893,
      2762,
      2508,
      2346,
      2175,
      2101,
      1906,
      1801,
      1704,
      1471,
      1168,
      1148,
      976,
      790,
      526,
      418,
      342,
      176
    ],
    "swim:geom": "approach",
    "swim:timestamps": [
      1772283089,
      1772283109,
      1772283141,
      1772283159,
      1772283194,
      1772283235,
      1772283267,
      1772283283,
      1772283323,
      1772283342,
      1772283388,
      1772283418,
      1772283443,
      1772283455,
      1772283502,
      1772283527,
      1772283541,
      1772283577,
      1772283625,
      1772283632,
      1772283662,
      1772283692,
      1772283743,
      1772283767,
      1772283782,
      1772283822
    ],
    "wof:geomhash": "086bcde1584e6c83d6133e4d0a89e8b0",
    "wof:id": 2014907297,
    "wof:repo": "sfomuseum-data-flights-2026-02"
  },
  "bbox": [
    -122.32607,
    37.49116,
    -121.29164,
    37.60207
  ],
  "geometry": {"coordinates":[[-121.29164,37.58874],[-121.32959,37.58482],[-121.39105,37.57813],[-121.42439,37.57429],[-121.48827,37.56681],[-121.56308,37.55811],[-121.61634,37.55204],[-121.64208,37.54681],[-121.70251,37.53201],[-121.73019,37.5253],[-121.79612,37.50987],[-121.83911,37.49967],[-121.87204,37.49229],[-121.88983,37.49116],[-121.95857,37.4932],[-121.99358,37.49649],[-122.01217,37.5025],[-122.06082,37.51827],[-122.12181,37.53808],[-122.1302,37.54077],[-122.16705,37.55273],[-122.20314,37.56427],[-122.25868,37.58225],[-122.28116,37.58879],[-122.29343,37.59244],[-122.32607,37.60207]],"type":"LineString"}
}
