{
  "id": 2014829265,
  "type": "Feature",
  "properties": {
    "geom:area": 0,
    "geom:bbox": "-122.338056,37.516667,-87.898333,42.648889",
    "geom:latitude": 40.9402764883107,
    "geom:longitude": -105.20056487790609,
    "src:alt_label": "swim-path",
    "src:geom": "swim",
    "swim:altitudes": [
      "035",
      "035",
      "035",
      "063",
      "063",
      "094",
      "094",
      "094",
      "168",
      "251",
      "251",
      "290",
      "290",
      "290",
      "290",
      "306",
      "320",
      "320",
      "335",
      "335",
      "335",
      "340C",
      "340C",
      "340C",
      "340C",
      "340C",
      "340C",
      "340C",
      "340C",
      "340C",
      "340C",
      "340C",
      "340C",
      "340C",
      "342",
      "342",
      "360C",
      "360C",
      "360C",
      "360C",
      "360C",
      "360C",
      "360C",
      "360C",
      "360C",
      "360C",
      "360C",
      "360C",
      "360C",
      "360C",
      "360C",
      "360C",
      "360C",
      "360C",
      "360C",
      "360C",
      "360C",
      "360C",
      "360C",
      "360C",
      "360C",
      "360C",
      "360C",
      "360C",
      "360C",
      "360C",
      "360C",
      "360C",
      "360C",
      "360C",
      "360C",
      "360C",
      "360C",
      "360C",
      "360C",
      "360C",
      "360C",
      "360C",
      "360C",
      "360C",
      "360C",
      "360C",
      "360C",
      "360C",
      "360C",
      "360C",
      "360C",
      "360C",
      "360C",
      "360C",
      "360C",
      "360C",
      "360C",
      "360C",
      "360C",
      "360C",
      "360C",
      "360C",
      "360C",
      "360C",
      "360C",
      "360C",
      "360C",
      "360C",
      "360C",
      "360C",
      "360C",
      "360C",
      "360C",
      "360C",
      "360C",
      "360C",
      "360C",
      "360C",
      "360C",
      "360C",
      "360C",
      "360C",
      "360C",
      "360C",
      "360C",
      "360C",
      "360C",
      "360C",
      "360C",
      "360C",
      "360C",
      "360C",
      "360C",
      "360C",
      "360C",
      "360C",
      "360C",
      "360C",
      "360C",
      "360C",
      "360C",
      "360C",
      "360C",
      "360C",
      "360C",
      "360C",
      "360C",
      "360C",
      "360C",
      "360C",
      "360C",
      "360C",
      "360C",
      "360C",
      "360C",
      "360C",
      "360C",
      "360C",
      "360C",
      "360C",
      "360C",
      "360C",
      "360C",
      "360C",
      "360C",
      "360C",
      "360C",
      "360C",
      "360C",
      "360C",
      "360",
      "354",
      "354",
      "343",
      "327",
      "327",
      "320C",
      "320C",
      "320C",
      "320C",
      "320C",
      "320C",
      "320C",
      "320C",
      "320C",
      "320C",
      "320C",
      "320C",
      "320C",
      "320C",
      "320C",
      "320C",
      "320C",
      "320C",
      "320C",
      "320C",
      "320C",
      "320C",
      "320C",
      "320C",
      "320C",
      "320C",
      "320C",
      "320C",
      "320C",
      "320C",
      "320C",
      "320C",
      "320C",
      "320C",
      "320C",
      "320C",
      "320C",
      "320C",
      "320C",
      "320C",
      "320C",
      "320C",
      "320C",
      "320C",
      "320C",
      "320C",
      "320C",
      "320C",
      "320C",
      "320C",
      "320C",
      "320C",
      "320C",
      "320C",
      "320C",
      "320C",
      "320C",
      "320C",
      "320C",
      "320",
      "300C",
      "202",
      "189",
      "115",
      "082",
      "036",
      "014",
      "004"
    ],
    "swim:geom": "path",
    "swim:speeds": [
      279,
      279,
      279,
      279,
      279,
      284,
      284,
      284,
      355,
      400,
      400,
      381,
      381,
      381,
      381,
      376,
      376,
      376,
      376,
      376,
      376,
      382,
      384,
      384,
      384,
      385,
      385,
      387,
      389,
      389,
      389,
      391,
      393,
      393,
      401,
      401,
      403,
      404,
      405,
      405,
      406,
      406,
      406,
      406,
      406,
      405,
      405,
      405,
      405,
      404,
      404,
      404,
      404,
      404,
      407,
      407,
      411,
      411,
      412,
      412,
      409,
      407,
      407,
      407,
      407,
      407,
      404,
      404,
      404,
      403,
      403,
      406,
      407,
      407,
      408,
      407,
      406,
      408,
      408,
      408,
      414,
      416,
      415,
      415,
      416,
      415,
      416,
      416,
      416,
      417,
      417,
      417,
      417,
      415,
      415,
      415,
      415,
      414,
      415,
      415,
      414,
      415,
      415,
      415,
      415,
      413,
      414,
      415,
      415,
      415,
      415,
      413,
      413,
      412,
      407,
      407,
      411,
      409,
      407,
      409,
      409,
      409,
      409,
      409,
      409,
      411,
      412,
      414,
      414,
      414,
      414,
      413,
      413,
      413,
      412,
      412,
      413,
      413,
      414,
      416,
      416,
      416,
      413,
      416,
      416,
      412,
      411,
      411,
      412,
      412,
      412,
      412,
      411,
      412,
      412,
      412,
      412,
      412,
      412,
      412,
      412,
      412,
      412,
      412,
      412,
      411,
      411,
      411,
      411,
      408,
      397,
      397,
      398,
      398,
      398,
      397,
      397,
      396,
      395,
      395,
      396,
      397,
      398,
      398,
      397,
      397,
      397,
      410,
      413,
      415,
      415,
      415,
      417,
      418,
      418,
      419,
      417,
      417,
      414,
      415,
      415,
      415,
      417,
      417,
      423,
      428,
      429,
      429,
      429,
      429,
      429,
      429,
      429,
      429,
      417,
      415,
      410,
      404,
      404,
      404,
      404,
      414,
      414,
      428,
      448,
      448,
      438,
      423,
      423,
      393,
      388,
      379,
      378,
      335,
      327,
      271,
      243,
      167,
      124,
      125
    ],
    "swim:timestamps": [
      1771558153,
      1771558153,
      1771558153,
      1771558213,
      1771558213,
      1771558273,
      1771558273,
      1771558273,
      1771558453,
      1771558633,
      1771558633,
      1771558753,
      1771558753,
      1771558753,
      1771558753,
      1771558813,
      1771558873,
      1771558873,
      1771558933,
      1771558933,
      1771558933,
      1771559039,
      1771559159,
      1771559159,
      1771559159,
      1771559174,
      1771559174,
      1771559234,
      1771559294,
      1771559294,
      1771559339,
      1771559354,
      1771559399,
      1771559414,
      1771559474,
      1771559474,
      1771559579,
      1771559594,
      1771559639,
      1771559654,
      1771559699,
      1771559714,
      1771559714,
      1771559759,
      1771559759,
      1771559834,
      1771559879,
      1771559879,
      1771559879,
      1771560014,
      1771560014,
      1771560120,
      1771560120,
      1771560135,
      1771560420,
      1771560435,
      1771560600,
      1771560615,
      1771560720,
      1771560780,
      1771560900,
      1771561080,
      1771561080,
      1771561261,
      1771561261,
      1771561261,
      1771561501,
      1771561501,
      1771561501,
      1771561681,
      1771561681,
      1771562041,
      1771562101,
      1771562101,
      1771562221,
      1771562342,
      1771562582,
      1771562642,
      1771562642,
      1771562642,
      1771562822,
      1771562923,
      1771563002,
      1771563043,
      1771563173,
      1771563404,
      1771563464,
      1771563482,
      1771563482,
      1771563584,
      1771563704,
      1771563764,
      1771563764,
      1771563944,
      1771563953,
      1771563953,
      1771563953,
      1771564004,
      1771564014,
      1771564014,
      1771564064,
      1771564074,
      1771564074,
      1771564074,
      1771564134,
      1771564185,
      1771564245,
      1771564254,
      1771564365,
      1771564365,
      1771564365,
      1771564425,
      1771564425,
      1771564614,
      1771564665,
      1771564665,
      1771564674,
      1771564734,
      1771564785,
      1771564854,
      1771564854,
      1771564854,
      1771564915,
      1771564975,
      1771564975,
      1771565085,
      1771565146,
      1771565206,
      1771565206,
      1771565215,
      1771565215,
      1771565266,
      1771565266,
      1771565335,
      1771565386,
      1771565386,
      1771565455,
      1771565515,
      1771565566,
      1771565635,
      1771565635,
      1771565635,
      1771565686,
      1771565695,
      1771565695,
      1771565755,
      1771565816,
      1771565816,
      1771565926,
      1771566176,
      1771566176,
      1771566176,
      1771566356,
      1771566527,
      1771566527,
      1771566587,
      1771566587,
      1771566647,
      1771566707,
      1771566716,
      1771566767,
      1771566776,
      1771566776,
      1771566837,
      1771566897,
      1771566947,
      1771566957,
      1771567007,
      1771567007,
      1771567077,
      1771567257,
      1771567257,
      1771567377,
      1771567377,
      1771567377,
      1771567497,
      1771567497,
      1771567557,
      1771567737,
      1771567737,
      1771567857,
      1771567917,
      1771568038,
      1771568038,
      1771568158,
      1771568158,
      1771568158,
      1771568518,
      1771568578,
      1771568638,
      1771568638,
      1771568638,
      1771568698,
      1771568758,
      1771568758,
      1771568878,
      1771569178,
      1771569178,
      1771569359,
      1771569479,
      1771569585,
      1771569585,
      1771569599,
      1771569599,
      1771569839,
      1771569945,
      1771569959,
      1771570005,
      1771570019,
      1771570079,
      1771570079,
      1771570185,
      1771570199,
      1771570199,
      1771570366,
      1771570426,
      1771570486,
      1771570606,
      1771570606,
      1771570619,
      1771570619,
      1771570666,
      1771570666,
      1771570679,
      1771570726,
      1771570726,
      1771570786,
      1771570799,
      1771570799,
      1771570906,
      1771571086,
      1771571206,
      1771571506,
      1771572081,
      1771572135,
      1771572453,
      1771572615,
      1771572947,
      1771573095,
      1771573187
    ],
    "wof:geomhash": "b87de090e32caec1546cfc887bdb03c6",
    "wof:id": 2014829265,
    "wof:repo": "sfomuseum-data-flights-2026-02"
  },
  "bbox": [
    -122.33805555555556,
    37.516666666666666,
    -87.89833333333334,
    42.64888888888889
  ],
  "geometry": {"coordinates":[[-87.89833333333334,42.0575],[-87.89833333333334,42.0575],[-87.89833333333334,42.0575],[-88.00138888888888,42.07],[-88.00138888888888,42.07],[-88.10499999999999,42.081944444444446],[-88.10499999999999,42.081944444444446],[-88.10499999999999,42.081944444444446],[-88.42444444444445,42.19166666666666],[-88.68194444444445,42.434999999999995],[-88.68194444444445,42.434999999999995],[-88.89750000000001,42.57972222222222],[-88.89750000000001,42.57972222222222],[-88.89750000000001,42.57972222222222],[-88.89750000000001,42.57972222222222],[-89.03416666666666,42.60305555555556],[-89.17444444444445,42.60666666666667],[-89.17444444444445,42.60666666666667],[-89.3175,42.61027777777778],[-89.3175,42.61027777777778],[-89.3175,42.61027777777778],[-89.57888888888888,42.61611111111111],[-89.86916666666666,42.62222222222222],[-89.86916666666666,42.62222222222222],[-89.86916666666666,42.62222222222222],[-89.89833333333334,42.62361111111111],[-89.89833333333334,42.62361111111111],[-90.0436111111111,42.626666666666665],[-90.1913888888889,42.629444444444445],[-90.1913888888889,42.629444444444445],[-90.30944444444444,42.63166666666667],[-90.33944444444444,42.63194444444444],[-90.4588888888889,42.634166666666665],[-90.48777777777778,42.63444444444444],[-90.64,42.63666666666666],[-90.64,42.63666666666666],[-90.91333333333334,42.64055555555556],[-90.94416666666667,42.64083333333333],[-91.0675,42.64222222222222],[-91.09666666666666,42.6425],[-91.21972222222223,42.64361111111111],[-91.24972222222222,42.64388888888889],[-91.24972222222222,42.64388888888889],[-91.37333333333332,42.64555555555555],[-91.37333333333332,42.64555555555555],[-91.56,42.64666666666667],[-91.6863888888889,42.64722222222222],[-91.6863888888889,42.64722222222222],[-91.6863888888889,42.64722222222222],[-92.02222222222223,42.64861111111111],[-92.02222222222223,42.64861111111111],[-92.2675,42.64861111111111],[-92.2675,42.64861111111111],[-92.32777777777777,42.64888888888889],[-93.03416666666666,42.64611111111111],[-93.09305555555555,42.64555555555555],[-93.49666666666667,42.6425],[-93.56,42.641666666666666],[-93.80777777777777,42.638888888888886],[-93.96388888888889,42.636944444444445],[-94.26888888888888,42.63166666666667],[-94.75111111111111,42.6225],[-94.75111111111111,42.6225],[-95.21055555555556,42.61194444444445],[-95.21055555555556,42.61194444444445],[-95.21055555555556,42.61194444444445],[-95.81777777777778,42.595],[-95.81777777777778,42.595],[-95.81777777777778,42.595],[-96.27,42.580000000000005],[-96.27,42.580000000000005],[-97.17944444444444,42.54472222222222],[-97.33305555555555,42.53805555555555],[-97.33305555555555,42.53805555555555],[-97.63861111111112,42.524166666666666],[-97.93166666666667,42.51027777777778],[-98.56972222222223,42.47666666666667],[-98.72444444444444,42.47138888888889],[-98.72444444444444,42.47138888888889],[-98.72444444444444,42.47138888888889],[-99.18972222222223,42.48361111111111],[-99.43916666666667,42.489444444444445],[-99.65777777777778,42.493611111111115],[-99.75111111111111,42.49527777777778],[-100.08722222222222,42.49888888888889],[-100.67444444444445,42.48277777777778],[-100.82944444444443,42.470555555555556],[-100.89861111111112,42.45888888888889],[-100.89861111111112,42.45888888888889],[-101.13444444444445,42.42027777777778],[-101.4413888888889,42.36833333333333],[-101.59194444444444,42.34277777777778],[-101.59194444444444,42.34277777777778],[-102.04416666666667,42.265],[-102.06222222222222,42.26027777777778],[-102.06222222222222,42.26027777777778],[-102.06222222222222,42.26027777777778],[-102.19555555555556,42.238055555555555],[-102.2125,42.23277777777778],[-102.2125,42.23277777777778],[-102.36333333333333,42.20861111111111],[-102.36472222222221,42.20638888888889],[-102.36472222222221,42.20638888888889],[-102.36472222222221,42.20638888888889],[-102.51333333333334,42.18055555555555],[-102.66388888888889,42.15472222222222],[-102.815,42.12694444444445],[-102.81388888888888,42.126666666666665],[-103.11583333333333,42.07194444444445],[-103.11583333333333,42.07194444444445],[-103.11583333333333,42.07194444444445],[-103.26416666666667,42.04416666666666],[-103.26416666666667,42.04416666666666],[-103.70777777777778,41.96],[-103.85472222222222,41.93194444444444],[-103.85472222222222,41.93194444444444],[-103.85416666666666,41.931666666666665],[-104.00138888888888,41.90416666666667],[-104.14833333333334,41.875277777777775],[-104.29416666666667,41.84722222222222],[-104.29416666666667,41.84722222222222],[-104.29416666666667,41.84722222222222],[-104.44,41.81722222222223],[-104.58694444444444,41.78805555555555],[-104.58694444444444,41.78805555555555],[-104.88666666666667,41.72805555555556],[-105.03583333333333,41.69777777777777],[-105.18472222222222,41.66722222222222],[-105.18472222222222,41.66722222222222],[-105.18555555555555,41.66722222222222],[-105.18555555555555,41.66722222222222],[-105.33305555555555,41.63638888888889],[-105.33305555555555,41.63638888888889],[-105.48027777777779,41.60583333333334],[-105.62638888888888,41.57527777777778],[-105.62638888888888,41.57527777777778],[-105.77361111111111,41.54361111111111],[-105.91416666666667,41.51416666666667],[-106.06888888888888,41.481388888888894],[-106.21027777777778,41.44944444444444],[-106.21027777777778,41.44944444444444],[-106.21027777777778,41.44944444444444],[-106.36527777777778,41.41722222222222],[-106.35777777777777,41.41694444444444],[-106.35777777777777,41.41694444444444],[-106.53222222222222,41.380833333333335],[-106.67611111111111,41.34916666666667],[-106.67611111111111,41.34916666666667],[-106.94,41.29055555555556],[-107.55138888888888,41.151944444444446],[-107.55138888888888,41.151944444444446],[-107.55138888888888,41.151944444444446],[-107.98694444444445,41.05083333333333],[-108.3913888888889,40.95527777777778],[-108.3913888888889,40.95527777777778],[-108.535,40.920833333333334],[-108.535,40.920833333333334],[-108.67916666666667,40.88611111111111],[-108.82416666666666,40.85111111111111],[-108.82666666666667,40.85055555555556],[-108.96805555555555,40.81583333333333],[-108.97055555555556,40.81527777777777],[-108.97055555555556,40.81527777777777],[-109.11333333333333,40.780277777777776],[-109.27805555555555,40.739444444444445],[-109.39972222222222,40.70916666666667],[-109.41888888888889,40.70444444444445],[-109.53305555555555,40.67583333333333],[-109.53305555555555,40.67583333333333],[-109.70055555555555,40.63388888888889],[-110.11194444444443,40.52916666666667],[-110.11194444444443,40.52916666666667],[-110.38861111111112,40.4575],[-110.38861111111112,40.4575],[-110.38861111111112,40.4575],[-110.64722222222223,40.390277777777776],[-110.64722222222223,40.390277777777776],[-110.78388888888888,40.35416666666667],[-111.19027777777778,40.24611111111111],[-111.19027777777778,40.24611111111111],[-111.4625,40.172777777777775],[-111.60027777777778,40.135555555555555],[-111.87305555555555,40.06055555555555],[-111.87305555555555,40.06055555555555],[-112.14416666666668,39.98555555555556],[-112.14416666666668,39.98555555555556],[-112.14416666666668,39.98555555555556],[-112.9675,39.7525],[-113.115,39.709722222222226],[-113.25638888888889,39.66916666666666],[-113.25638888888889,39.66916666666666],[-113.25638888888889,39.66916666666666],[-113.39555555555556,39.62861111111111],[-113.53777777777778,39.58694444444445],[-113.53777777777778,39.58694444444445],[-113.81805555555555,39.50388888888889],[-114.51194444444444,39.29527777777778],[-114.51194444444444,39.29527777777778],[-114.92555555555556,39.16833333333333],[-115.20194444444445,39.08222222222223],[-115.4525,39.00416666666667],[-115.4525,39.00416666666667],[-115.48777777777778,38.9925],[-115.48777777777778,38.9925],[-116.04527777777777,38.81472222222222],[-116.3025,38.73166666666667],[-116.32916666666667,38.723055555555554],[-116.44277777777778,38.68583333333333],[-116.47027777777778,38.67666666666666],[-116.6111111111111,38.63055555555555],[-116.6111111111111,38.63055555555555],[-116.86333333333333,38.54722222222222],[-116.88972222222223,38.53861111111111],[-116.88972222222223,38.53861111111111],[-117.275,38.40972222222222],[-117.40777777777778,38.365],[-117.53999999999999,38.32027777777778],[-117.79888888888888,38.231944444444444],[-117.79888888888888,38.231944444444444],[-117.82444444444444,38.223055555555554],[-117.82444444444444,38.223055555555554],[-117.92611111111111,38.183055555555555],[-117.92611111111111,38.183055555555555],[-117.94638888888889,38.165],[-118.00222222222222,38.074444444444445],[-118.00222222222222,38.074444444444445],[-118.07722222222222,37.96611111111111],[-118.09916666666666,37.95305555555556],[-118.09916666666666,37.95305555555556],[-118.34416666666667,37.91861111111111],[-118.75611111111111,37.8775],[-119.01555555555555,37.85111111111111],[-119.67666666666668,37.780833333333334],[-120.9,37.63333333333333],[-121.01666666666667,37.63333333333333],[-121.55,37.56666666666667],[-121.78333333333333,37.516666666666666],[-122.16555555555556,37.532777777777774],[-122.28333333333333,37.583333333333336],[-122.33805555555556,37.605555555555554]],"type":"LineString"}
}
