{
  "id": 2014819671,
  "type": "Feature",
  "properties": {
    "geom:area": 0,
    "geom:bbox": "-122.552920,36.723610,-121.322300,37.670120",
    "geom:latitude": 37.20109136470917,
    "geom:longitude": -122.02752577566451,
    "src:alt_label": "swim-takeoff",
    "src:geom": "swim",
    "swim:elevations": [
      213,
      636,
      838,
      1386,
      1812,
      1991,
      2450,
      2927,
      3223,
      3449,
      3667,
      4220,
      4444,
      4951,
      5186,
      5710,
      5819,
      6173,
      6404,
      6724,
      6876,
      7112,
      7239,
      7532,
      7847,
      7963,
      8226,
      8328,
      8412,
      8670,
      8843
    ],
    "swim:geom": "takeoff",
    "swim:timestamps": [
      1771370085,
      1771370112,
      1771370136,
      1771370179,
      1771370211,
      1771370226,
      1771370256,
      1771370286,
      1771370305,
      1771370323,
      1771370352,
      1771370397,
      1771370414,
      1771370453,
      1771370469,
      1771370516,
      1771370531,
      1771370575,
      1771370597,
      1771370628,
      1771370646,
      1771370670,
      1771370689,
      1771370723,
      1771370757,
      1771370776,
      1771370815,
      1771370832,
      1771370880,
      1771370938,
      1771370961
    ],
    "wof:geomhash": "bb1ca1e41e0f204e0f958d1dc9e4017f",
    "wof:id": 2014819671,
    "wof:repo": "sfomuseum-data-flights-2026-02"
  },
  "bbox": [
    -122.55292,
    36.72361,
    -121.3223,
    37.67012
  ],
  "geometry": {"coordinates":[[-122.38247,37.62175],[-122.40343,37.63062],[-122.42435,37.64025],[-122.46624,37.65864],[-122.5034,37.67012],[-122.52391,37.6666],[-122.55292,37.63928],[-122.54326,37.60005],[-122.52951,37.57657],[-122.51509,37.55346],[-122.48898,37.51315],[-122.42675,37.4582],[-122.40158,37.4386],[-122.3422,37.39029],[-122.31882,37.371],[-122.24775,37.31118],[-122.22406,37.29217],[-122.14965,37.23661],[-122.10753,37.21092],[-122.04775,37.17389],[-122.01229,37.15189],[-121.96425,37.12234],[-121.9259,37.09884],[-121.8543,37.05482],[-121.78348,37.01082],[-121.74253,36.98553],[-121.65851,36.9338],[-121.62226,36.91126],[-121.51476,36.84371],[-121.37771,36.75842],[-121.3223,36.72361]],"type":"LineString"}
}
