{
  "id": 2014815907,
  "type": "Feature",
  "properties": {
    "geom:area": 0,
    "geom:bbox": "-122.770000,37.620000,-75.240000,43.190000",
    "geom:latitude": 41.80854382003314,
    "geom:longitude": -99.44416116066095,
    "src:alt_label": "swim-route",
    "src:geom": "swim",
    "swim:geom": "route",
    "wof:geomhash": "e73f1ed522a82fb4027088c0e6e5fd78",
    "wof:id": 2014815907,
    "wof:repo": "sfomuseum-data-flights-2026-02"
  },
  "bbox": [
    -122.77,
    37.62,
    -75.24,
    43.19
  ],
  "geometry": {"coordinates":[[-75.24,39.87],[-75.29,39.93],[-75.32,39.96],[-75.35,39.99],[-75.37,40.02],[-75.4,40.04],[-75.42,40.07],[-75.45,40.1],[-75.46,40.11],[-75.48,40.13],[-75.5,40.15],[-75.5,40.16],[-75.55,40.21],[-75.56,40.22],[-75.57,40.23],[-75.7,40.32],[-75.71,40.32],[-75.73,40.34],[-75.8,40.38],[-75.88,40.43],[-75.89,40.44],[-76.37,40.52],[-76.52,40.54],[-76.58,40.55],[-76.6,40.55],[-76.61,40.55],[-76.67,40.56],[-76.69,40.56],[-76.79,40.56],[-76.95,40.55],[-76.99,40.55],[-77,40.55],[-77.05,40.56],[-77.05,40.56],[-77.15,40.58],[-77.16,40.58],[-77.59,40.65],[-78.03,40.73],[-79.17,40.92],[-80.88,41.18],[-82.16,41.36],[-82.47,41.52],[-82.79,41.7],[-82.8,41.7],[-83.1,41.86],[-83.46,42.05],[-83.82,42.18],[-85,42.45],[-87,42.87],[-87.89,43.04],[-88,43.06],[-88.05,43.07],[-88.11,43.07],[-88.24,43.08],[-88.3,43.08],[-88.55,43.09],[-88.88,43.1],[-89.87,43.14],[-89.93,43.14],[-90.35,43.15],[-91,43.17],[-91.28,43.17],[-91.87,43.18],[-94,43.19],[-96,43.16],[-96.31,43.15],[-99.71,43.02],[-99.86,43.01],[-101.85,42.88],[-102.44,42.83],[-103.53,42.74],[-103.56,42.74],[-104.67,42.63],[-105.39,42.56],[-105.59,42.54],[-105.85,42.51],[-106.2,42.47],[-106.95,42.38],[-107.12,42.36],[-108.28,42.21],[-110.3,41.93],[-110.87,41.84],[-111.13,41.8],[-111.93,41.67],[-112.72,41.53],[-114.46,41.21],[-114.74,41.16],[-115.02,41.1],[-118.29,40.41],[-118.37,40.39],[-119.42,39.96],[-120.51,39.56],[-120.99,39.38],[-121.1,39.34],[-121.1,39.33],[-121.56,39.07],[-121.64,39.02],[-121.79,38.93],[-121.95,38.84],[-122,38.8],[-122.24,38.66],[-122.28,38.64],[-122.44,38.54],[-122.68,38.31],[-122.69,38.3],[-122.77,38.22],[-122.75,38.16],[-122.7,38],[-122.69,37.95],[-122.67,37.9],[-122.65,37.87],[-122.59,37.82],[-122.58,37.81],[-122.53,37.77],[-122.51,37.74],[-122.5,37.74],[-122.5,37.73],[-122.44,37.68],[-122.37,37.62],[-122.38,37.62]],"type":"LineString"}
}
