{
  "id": 2014798215,
  "type": "Feature",
  "properties": {
    "geom:area": 0,
    "geom:bbox": "-123.302690,36.977220,-122.258160,37.835850",
    "geom:latitude": 37.41703946489242,
    "geom:longitude": -122.67286220839796,
    "src:alt_label": "swim-approach",
    "src:geom": "swim",
    "swim:elevations": [
      3810,
      3490,
      3319,
      3231,
      3173,
      3119,
      3044,
      2905,
      2773,
      2724,
      2602,
      2436,
      2438,
      2438,
      2427,
      2403,
      2267,
      2091,
      2073,
      1870,
      1829,
      1829,
      1829,
      1829,
      1829,
      1829,
      1829,
      1829,
      1829,
      1829,
      1829,
      1829,
      1829,
      1829,
      1829,
      1829,
      1767,
      1671,
      1525,
      1498,
      1407,
      1300,
      1219,
      1138,
      1097,
      977,
      809,
      690,
      549,
      528,
      336,
      227,
      86,
      86
    ],
    "swim:geom": "approach",
    "swim:timestamps": [
      1771163181,
      1771163213,
      1771163244,
      1771163275,
      1771163294,
      1771163319,
      1771163347,
      1771163374,
      1771163398,
      1771163408,
      1771163431,
      1771163464,
      1771163491,
      1771163546,
      1771163565,
      1771163572,
      1771163601,
      1771163636,
      1771163641,
      1771163695,
      1771163712,
      1771163732,
      1771163757,
      1771163780,
      1771163802,
      1771163845,
      1771163868,
      1771163905,
      1771163922,
      1771163961,
      1771163985,
      1771164011,
      1771164056,
      1771164069,
      1771164081,
      1771164092,
      1771164134,
      1771164156,
      1771164198,
      1771164233,
      1771164257,
      1771164285,
      1771164328,
      1771164347,
      1771164357,
      1771164380,
      1771164416,
      1771164442,
      1771164476,
      1771164480,
      1771164536,
      1771164564,
      1771164598,
      1771164620
    ],
    "wof:geomhash": "333efb8188078b642ee0e24b6f39348a",
    "wof:id": 2014798215,
    "wof:repo": "sfomuseum-data-flights-2026-02"
  },
  "bbox": [
    -123.30269,
    36.97722,
    -122.25816,
    37.83585
  ],
  "geometry": {"coordinates":[[-123.30269,36.97722],[-123.24478,37.01426],[-123.18879,37.05044],[-123.1358,37.08472],[-123.104,37.1051],[-123.06429,37.13032],[-123.02274,37.15648],[-122.98392,37.18098],[-122.94838,37.20346],[-122.93451,37.21218],[-122.90326,37.23223],[-122.86212,37.26268],[-122.82801,37.27775],[-122.75458,37.27461],[-122.72926,37.27309],[-122.72005,37.27253],[-122.68101,37.27002],[-122.63517,37.26937],[-122.6294,37.27113],[-122.57065,37.30741],[-122.56317,37.32731],[-122.55656,37.34985],[-122.54814,37.37809],[-122.54108,37.40067],[-122.53388,37.42407],[-122.5205,37.46845],[-122.51351,37.4916],[-122.50297,37.52967],[-122.49839,37.54722],[-122.48621,37.58691],[-122.47862,37.61102],[-122.47016,37.63807],[-122.45661,37.6839],[-122.45269,37.69649],[-122.44716,37.70858],[-122.4406,37.71878],[-122.4135,37.7562],[-122.39921,37.77519],[-122.37226,37.81177],[-122.34031,37.8355],[-122.31398,37.83585],[-122.28645,37.82945],[-122.25896,37.80781],[-122.25816,37.79346],[-122.26146,37.78634],[-122.27175,37.77074],[-122.28825,37.74601],[-122.29995,37.72848],[-122.31363,37.70788],[-122.31513,37.70565],[-122.33618,37.67399],[-122.34666,37.6582],[-122.36001,37.63812],[-122.36833,37.6242]],"type":"LineString"}
}
