{
  "id": 2014780255,
  "type": "Feature",
  "properties": {
    "geom:area": 0,
    "geom:bbox": "-122.801160,37.462460,-122.149590,38.494780",
    "geom:latitude": 37.84697306092173,
    "geom:longitude": -122.51585077802152,
    "src:alt_label": "swim-approach",
    "src:geom": "swim",
    "swim:elevations": [
      7692,
      7445,
      7190,
      6707,
      6497,
      6162,
      6134,
      5898,
      5717,
      5397,
      5257,
      4883,
      4634,
      4317,
      4118,
      3828,
      3570,
      3352,
      3353,
      3353,
      3353,
      3353,
      3322,
      3125,
      2721,
      2495,
      2352,
      2066,
      1804,
      1512,
      1233,
      1028,
      939,
      822,
      706,
      564,
      392,
      302,
      184,
      52,
      27
    ],
    "swim:geom": "approach",
    "swim:timestamps": [
      1771019841,
      1771019866,
      1771019890,
      1771019938,
      1771019961,
      1771019995,
      1771019998,
      1771020026,
      1771020047,
      1771020084,
      1771020102,
      1771020136,
      1771020160,
      1771020194,
      1771020215,
      1771020247,
      1771020276,
      1771020327,
      1771020355,
      1771020373,
      1771020417,
      1771020442,
      1771020456,
      1771020489,
      1771020534,
      1771020556,
      1771020568,
      1771020596,
      1771020623,
      1771020655,
      1771020678,
      1771020716,
      1771020743,
      1771020772,
      1771020802,
      1771020827,
      1771020860,
      1771020881,
      1771020917,
      1771020955,
      1771020960
    ],
    "wof:geomhash": "68b6bc6ce7917f349c6dd551bf5999f2",
    "wof:id": 2014780255,
    "wof:repo": "sfomuseum-data-flights-2026-02"
  },
  "bbox": [
    -122.80116,
    37.46246,
    -122.14959,
    38.49478
  ],
  "geometry": {"coordinates":[[-122.80116,38.49478],[-122.79541,38.45199],[-122.79024,38.40987],[-122.7799,38.32731],[-122.77505,38.28826],[-122.76818,38.23187],[-122.76737,38.22694],[-122.75504,38.18169],[-122.7453,38.14741],[-122.72811,38.08817],[-122.7194,38.05846],[-122.70268,38.00096],[-122.69097,37.96097],[-122.67211,37.90642],[-122.64766,37.87508],[-122.60456,37.8343],[-122.56724,37.79927],[-122.50366,37.73958],[-122.47123,37.70841],[-122.45134,37.68882],[-122.40214,37.64262],[-122.37539,37.61642],[-122.36375,37.59974],[-122.34131,37.56426],[-122.31304,37.5177],[-122.29664,37.49741],[-122.28201,37.49092],[-122.24671,37.47841],[-122.21357,37.46673],[-122.17349,37.46246],[-122.15343,37.48006],[-122.14959,37.51735],[-122.17314,37.53527],[-122.20307,37.54854],[-122.23222,37.56123],[-122.25668,37.57134],[-122.28565,37.58346],[-122.30086,37.58987],[-122.32543,37.60024],[-122.3525,37.61159],[-122.35556,37.61288]],"type":"LineString"}
}
