{
  "id": 2014816247,
  "type": "Feature",
  "properties": {
    "geom:area": 0,
    "geom:bbox": "-122.348640,37.491630,-121.252600,37.610020",
    "geom:latitude": 37.542177137586485,
    "geom:longitude": -121.80750252307699,
    "src:alt_label": "swim-approach",
    "src:geom": "swim",
    "swim:elevations": [
      4526,
      4447,
      4042,
      3856,
      3637,
      3408,
      3273,
      3106,
      3108,
      3039,
      2969,
      2799,
      2743,
      2586,
      2414,
      2207,
      2084,
      1991,
      1870,
      1757,
      1599,
      1373,
      1328,
      1252,
      1064,
      998,
      794,
      758,
      600,
      507,
      332,
      274,
      146,
      85
    ],
    "swim:geom": "approach",
    "swim:timestamps": [
      1771334034,
      1771334045,
      1771334097,
      1771334123,
      1771334148,
      1771334182,
      1771334200,
      1771334244,
      1771334250,
      1771334278,
      1771334292,
      1771334331,
      1771334346,
      1771334379,
      1771334416,
      1771334457,
      1771334485,
      1771334504,
      1771334532,
      1771334576,
      1771334603,
      1771334638,
      1771334644,
      1771334672,
      1771334717,
      1771334742,
      1771334785,
      1771334795,
      1771334830,
      1771334852,
      1771334903,
      1771334923,
      1771334957,
      1771334971
    ],
    "wof:geomhash": "7a7145b7e3ef503c3fe5b3aff2eae9a9",
    "wof:id": 2014816247,
    "wof:repo": "sfomuseum-data-flights-2026-02"
  },
  "bbox": [
    -122.34864,
    37.49163,
    -121.2526,
    37.61002
  ],
  "geometry": {"coordinates":[[-121.2526,37.59409],[-121.27071,37.59162],[-121.35531,37.58214],[-121.39686,37.57746],[-121.43719,37.5728],[-121.48966,37.56662],[-121.51873,37.5632],[-121.58353,37.55562],[-121.59181,37.55465],[-121.62892,37.54952],[-121.64629,37.54565],[-121.69534,37.53391],[-121.71466,37.52929],[-121.75766,37.51902],[-121.80363,37.50802],[-121.85497,37.49574],[-121.89072,37.49163],[-121.91524,37.49291],[-121.95291,37.49522],[-122.00844,37.49857],[-122.04111,37.50045],[-122.0813,37.50265],[-122.08891,37.50319],[-122.1178,37.51255],[-122.15814,37.5298],[-122.17866,37.53846],[-122.2143,37.5535],[-122.22313,37.55719],[-122.25213,37.56945],[-122.26913,37.57652],[-122.30287,37.59087],[-122.31544,37.59644],[-122.33887,37.60601],[-122.34864,37.61002]],"type":"LineString"}
}
