{
  "id": 2014819609,
  "type": "Feature",
  "properties": {
    "geom:area": 0,
    "geom:bbox": "-122.223056,37.766389,-110.095556,43.824444",
    "geom:latitude": 41.02155193667109,
    "geom:longitude": -115.90805296504332,
    "src:alt_label": "swim-path",
    "src:geom": "swim",
    "swim:altitudes": [
      "094",
      "094",
      "094",
      "113",
      "113",
      "113",
      "288",
      "288",
      "288",
      "288",
      "310C",
      "310C",
      "310C",
      "310C",
      "310C",
      "310C",
      "310C",
      "310C",
      "310C",
      "311C",
      "311C",
      "311C",
      "310C",
      "310C",
      "310C",
      "309C",
      "310C",
      "310C",
      "310C",
      "310C",
      "310C",
      "310C",
      "310C",
      "310C",
      "310C",
      "310C",
      "310C",
      "310C",
      "310C",
      "310C",
      "310C",
      "310C",
      "310C",
      "310C",
      "311C",
      "311C",
      "311C",
      "310C",
      "310C",
      "310C",
      "310C",
      "310C",
      "310C",
      "310C",
      "310C",
      "310C",
      "310C",
      "310C",
      "310C",
      "310C",
      "310C",
      "310C",
      "310C",
      "310C",
      "310C",
      "310C",
      "310C",
      "309C",
      "310C",
      "310C",
      "310C",
      "310C",
      "310C",
      "310C",
      "310C",
      "310C",
      "310C",
      "310C",
      "310C",
      "310C",
      "310C",
      "310C",
      "310C",
      "310C",
      "310C",
      "310C",
      "310C",
      "310C",
      "310C",
      "310C",
      "310C",
      "311C",
      "311C",
      "311C",
      "311C",
      "310C",
      "310C",
      "310C",
      "310C",
      "310C",
      "310C",
      "310C",
      "310C",
      "310C",
      "310C",
      "310C",
      "310C",
      "310C",
      "310C",
      "310C",
      "311C",
      "311C",
      "311C",
      "311C",
      "311C",
      "310C",
      "310C",
      "310C",
      "310C",
      "306",
      "306",
      "297",
      "297",
      "287",
      "287",
      "287",
      "287",
      "287",
      "260",
      "260",
      "260",
      "249",
      "249",
      "249",
      "249",
      "230",
      "230",
      "230",
      "219",
      "219",
      "219",
      "219",
      "219",
      "202",
      "202",
      "190",
      "190",
      "160C",
      "160C",
      "160C",
      "160C",
      "160C",
      "160C",
      "160C",
      "160",
      "160",
      "140",
      "140",
      "140",
      "140",
      "140",
      "140",
      "133",
      "133",
      "121",
      "121",
      "098",
      "098",
      "098",
      "092",
      "092",
      "092",
      "077",
      "077",
      "070",
      "070",
      "064",
      "064",
      "064",
      "064"
    ],
    "swim:geom": "path",
    "swim:speeds": [
      301,
      301,
      301,
      357,
      357,
      357,
      499,
      499,
      499,
      499,
      527,
      527,
      527,
      527,
      535,
      543,
      543,
      543,
      544,
      549,
      549,
      543,
      537,
      537,
      537,
      542,
      534,
      534,
      534,
      534,
      531,
      532,
      532,
      528,
      528,
      528,
      531,
      531,
      531,
      527,
      527,
      527,
      528,
      528,
      529,
      529,
      529,
      529,
      529,
      529,
      529,
      529,
      529,
      528,
      528,
      528,
      528,
      528,
      527,
      527,
      527,
      527,
      524,
      524,
      523,
      523,
      523,
      518,
      517,
      517,
      517,
      517,
      521,
      521,
      521,
      520,
      520,
      520,
      520,
      520,
      520,
      506,
      506,
      506,
      504,
      504,
      504,
      505,
      505,
      505,
      505,
      503,
      503,
      503,
      503,
      501,
      501,
      501,
      501,
      501,
      499,
      504,
      504,
      504,
      511,
      513,
      513,
      513,
      513,
      513,
      518,
      518,
      518,
      518,
      518,
      517,
      517,
      517,
      514,
      508,
      508,
      506,
      506,
      507,
      507,
      507,
      507,
      507,
      473,
      473,
      473,
      468,
      468,
      468,
      468,
      458,
      458,
      458,
      433,
      433,
      433,
      433,
      433,
      357,
      357,
      323,
      323,
      301,
      300,
      300,
      300,
      276,
      276,
      276,
      256,
      256,
      218,
      218,
      218,
      227,
      227,
      227,
      221,
      221,
      210,
      210,
      193,
      193,
      193,
      187,
      187,
      187,
      143,
      143,
      137,
      137,
      137,
      137,
      137,
      137
    ],
    "swim:timestamps": [
      1771357466,
      1771357466,
      1771357466,
      1771357526,
      1771357526,
      1771357526,
      1771358006,
      1771358006,
      1771358006,
      1771358006,
      1771358154,
      1771358154,
      1771358186,
      1771358186,
      1771358246,
      1771358367,
      1771358367,
      1771358367,
      1771358395,
      1771358515,
      1771358515,
      1771358575,
      1771358607,
      1771358607,
      1771358607,
      1771358635,
      1771358667,
      1771358667,
      1771358695,
      1771358695,
      1771358727,
      1771358755,
      1771358755,
      1771358787,
      1771358787,
      1771358787,
      1771358815,
      1771358815,
      1771358815,
      1771358847,
      1771358847,
      1771358847,
      1771358875,
      1771358875,
      1771358967,
      1771358967,
      1771358967,
      1771358995,
      1771359056,
      1771359056,
      1771359176,
      1771359176,
      1771359176,
      1771359268,
      1771359296,
      1771359296,
      1771359296,
      1771359296,
      1771359356,
      1771359356,
      1771359356,
      1771359356,
      1771359476,
      1771359476,
      1771359508,
      1771359508,
      1771359508,
      1771359568,
      1771359628,
      1771359628,
      1771359628,
      1771359628,
      1771359777,
      1771359777,
      1771359777,
      1771359837,
      1771359837,
      1771359837,
      1771359837,
      1771359837,
      1771359837,
      1771360077,
      1771360077,
      1771360077,
      1771360197,
      1771360197,
      1771360197,
      1771360257,
      1771360257,
      1771360257,
      1771360257,
      1771360437,
      1771360437,
      1771360437,
      1771360437,
      1771360558,
      1771360558,
      1771360558,
      1771360558,
      1771360558,
      1771360618,
      1771360738,
      1771360738,
      1771360738,
      1771360798,
      1771360858,
      1771360858,
      1771360858,
      1771360858,
      1771360858,
      1771360978,
      1771360978,
      1771360978,
      1771361038,
      1771361038,
      1771361098,
      1771361098,
      1771361098,
      1771361158,
      1771361279,
      1771361279,
      1771361339,
      1771361339,
      1771361399,
      1771361399,
      1771361399,
      1771361399,
      1771361399,
      1771361579,
      1771361579,
      1771361579,
      1771361759,
      1771361759,
      1771361759,
      1771361759,
      1771361879,
      1771361879,
      1771361879,
      1771361940,
      1771361940,
      1771361940,
      1771361940,
      1771361940,
      1771362060,
      1771362060,
      1771362120,
      1771362120,
      1771362240,
      1771362300,
      1771362300,
      1771362300,
      1771362360,
      1771362360,
      1771362360,
      1771362420,
      1771362420,
      1771362540,
      1771362540,
      1771362540,
      1771362600,
      1771362600,
      1771362600,
      1771362660,
      1771362660,
      1771362721,
      1771362721,
      1771362841,
      1771362841,
      1771362841,
      1771362901,
      1771362901,
      1771362901,
      1771363021,
      1771363021,
      1771363081,
      1771363081,
      1771363141,
      1771363141,
      1771363141,
      1771363141
    ],
    "wof:geomhash": "ad38db9b672f890f7e28e57b15fbffd7",
    "wof:id": 2014819609,
    "wof:repo": "sfomuseum-data-flights-2026-02"
  },
  "bbox": [
    -122.22305555555556,
    37.76638888888889,
    -110.09555555555555,
    43.824444444444445
  ],
  "geometry": {"coordinates":[[-122.22305555555556,37.76638888888889],[-122.22305555555556,37.76638888888889],[-122.22305555555556,37.76638888888889],[-122.16916666666667,37.84916666666667],[-122.16916666666667,37.84916666666667],[-122.16916666666667,37.84916666666667],[-121.3236111111111,38.583333333333336],[-121.3236111111111,38.583333333333336],[-121.3236111111111,38.583333333333336],[-121.3236111111111,38.583333333333336],[-120.95861111111111,38.80027777777777],[-120.95861111111111,38.80027777777777],[-120.87277777777777,38.855555555555554],[-120.87277777777777,38.855555555555554],[-120.72083333333333,38.946666666666665],[-120.41055555555556,39.13138888888889],[-120.41055555555556,39.13138888888889],[-120.41055555555556,39.13138888888889],[-120.34583333333333,39.1675],[-120.03194444444445,39.35194444444445],[-120.03194444444445,39.35194444444445],[-119.87805555555555,39.44222222222222],[-119.785,39.49777777777778],[-119.785,39.49777777777778],[-119.785,39.49777777777778],[-119.72333333333333,39.53194444444444],[-119.63138888888888,39.586666666666666],[-119.63138888888888,39.586666666666666],[-119.57111111111111,39.620555555555555],[-119.57111111111111,39.620555555555555],[-119.4775,39.675555555555555],[-119.41861111111112,39.70916666666667],[-119.41861111111112,39.70916666666667],[-119.32388888888889,39.763333333333335],[-119.32388888888889,39.763333333333335],[-119.32388888888889,39.763333333333335],[-119.26555555555555,39.79666666666667],[-119.26555555555555,39.79666666666667],[-119.26555555555555,39.79666666666667],[-119.17111111111112,39.85055555555556],[-119.17111111111112,39.85055555555556],[-119.17111111111112,39.85055555555556],[-119.1125,39.88388888888889],[-119.1125,39.88388888888889],[-118.84805555555555,40.01277777777778],[-118.84805555555555,40.01277777777778],[-118.84805555555555,40.01277777777778],[-118.78194444444445,40.04138888888889],[-118.61527777777778,40.11194444444445],[-118.61527777777778,40.11194444444445],[-118.28,40.25361111111111],[-118.28,40.25361111111111],[-118.28,40.25361111111111],[-118.00194444444445,40.36083333333333],[-117.93555555555555,40.38361111111111],[-117.93555555555555,40.38361111111111],[-117.93555555555555,40.38361111111111],[-117.93555555555555,40.38361111111111],[-117.7611111111111,40.44305555555555],[-117.7611111111111,40.44305555555555],[-117.7611111111111,40.44305555555555],[-117.7611111111111,40.44305555555555],[-117.41166666666668,40.56111111111111],[-117.41166666666668,40.56111111111111],[-117.33999999999999,40.585],[-117.33999999999999,40.585],[-117.33999999999999,40.585],[-117.13055555555555,40.65472222222222],[-116.95333333333333,40.71361111111111],[-116.95333333333333,40.71361111111111],[-116.95333333333333,40.71361111111111],[-116.95333333333333,40.71361111111111],[-116.53138888888888,40.85166666666667],[-116.53138888888888,40.85166666666667],[-116.53138888888888,40.85166666666667],[-116.3561111111111,40.90861111111111],[-116.3561111111111,40.90861111111111],[-116.3561111111111,40.90861111111111],[-116.3561111111111,40.90861111111111],[-116.3561111111111,40.90861111111111],[-116.3561111111111,40.90861111111111],[-115.66694444444445,41.12833333333333],[-115.66694444444445,41.12833333333333],[-115.66694444444445,41.12833333333333],[-115.325,41.23527777777778],[-115.325,41.23527777777778],[-115.325,41.23527777777778],[-115.14944444444446,41.28972222222222],[-115.14944444444446,41.28972222222222],[-115.14944444444446,41.28972222222222],[-115.14944444444446,41.28972222222222],[-114.625,41.45],[-114.625,41.45],[-114.625,41.45],[-114.625,41.45],[-114.28277777777778,41.55305555555555],[-114.28277777777778,41.55305555555555],[-114.28277777777778,41.55305555555555],[-114.28277777777778,41.55305555555555],[-114.28277777777778,41.55305555555555],[-114.11083333333333,41.60416666666667],[-113.77027777777778,41.71666666666667],[-113.77027777777778,41.71666666666667],[-113.77027777777778,41.71666666666667],[-113.60916666666667,41.79333333333333],[-113.44638888888889,41.87],[-113.44638888888889,41.87],[-113.44638888888889,41.87],[-113.44638888888889,41.87],[-113.44638888888889,41.87],[-113.11722222222221,42.02388888888889],[-113.11722222222221,42.02388888888889],[-113.11722222222221,42.02388888888889],[-112.95138888888889,42.100833333333334],[-112.95138888888889,42.100833333333334],[-112.78805555555556,42.17611111111111],[-112.78805555555556,42.17611111111111],[-112.78805555555556,42.17611111111111],[-112.62583333333333,42.25083333333333],[-112.30138888888888,42.39861111111111],[-112.30138888888888,42.39861111111111],[-112.13833333333334,42.472500000000004],[-112.13833333333334,42.472500000000004],[-111.97777777777777,42.544444444444444],[-111.97777777777777,42.544444444444444],[-111.97777777777777,42.544444444444444],[-111.97777777777777,42.544444444444444],[-111.97777777777777,42.544444444444444],[-111.52944444444444,42.74388888888889],[-111.52944444444444,42.74388888888889],[-111.52944444444444,42.74388888888889],[-111.08749999999999,42.955000000000005],[-111.08749999999999,42.955000000000005],[-111.08749999999999,42.955000000000005],[-111.08749999999999,42.955000000000005],[-110.87138888888889,43.15277777777778],[-110.87138888888889,43.15277777777778],[-110.87138888888889,43.15277777777778],[-110.75833333333334,43.255833333333335],[-110.75833333333334,43.255833333333335],[-110.75833333333334,43.255833333333335],[-110.75833333333334,43.255833333333335],[-110.75833333333334,43.255833333333335],[-110.54666666666667,43.39222222222222],[-110.54666666666667,43.39222222222222],[-110.44166666666668,43.440555555555555],[-110.44166666666668,43.440555555555555],[-110.24333333333334,43.529444444444444],[-110.14722222222223,43.57277777777778],[-110.14722222222223,43.57277777777778],[-110.14722222222223,43.57277777777778],[-110.10138888888888,43.64083333333333],[-110.10138888888888,43.64083333333333],[-110.10138888888888,43.64083333333333],[-110.09555555555555,43.71361111111111],[-110.09555555555555,43.71361111111111],[-110.23527777777778,43.783055555555556],[-110.23527777777778,43.783055555555556],[-110.23527777777778,43.783055555555556],[-110.31083333333333,43.8175],[-110.31083333333333,43.8175],[-110.31083333333333,43.8175],[-110.38833333333334,43.824444444444445],[-110.38833333333334,43.824444444444445],[-110.4825,43.81805555555556],[-110.4825,43.81805555555556],[-110.61722222222221,43.78444444444444],[-110.61722222222221,43.78444444444444],[-110.61722222222221,43.78444444444444],[-110.66222222222223,43.745555555555555],[-110.66222222222223,43.745555555555555],[-110.66222222222223,43.745555555555555],[-110.70583333333333,43.67305555555555],[-110.70583333333333,43.67305555555555],[-110.72305555555556,43.63777777777778],[-110.72305555555556,43.63777777777778],[-110.73694444444445,43.60777777777778],[-110.73694444444445,43.60777777777778],[-110.73694444444445,43.60777777777778],[-110.73694444444445,43.60777777777778]],"type":"LineString"}
}
