{
  "id": 2014876277,
  "type": "Feature",
  "properties": {
    "geom:area": 0,
    "geom:bbox": "-122.365890,37.629080,-122.114350,38.478780",
    "geom:latitude": 38.01961010315057,
    "geom:longitude": -122.18060150284204,
    "src:alt_label": "swim-takeoff",
    "src:geom": "swim",
    "swim:elevations": [
      152,
      292,
      888,
      993,
      1183,
      1607,
      1832,
      2002,
      2204,
      2621,
      3127,
      3410,
      3692,
      4200,
      4420,
      4686,
      5089,
      5332,
      5739,
      6046,
      6326,
      6435,
      6577,
      6794,
      7222
    ],
    "swim:geom": "takeoff",
    "swim:timestamps": [
      1771924258,
      1771924272,
      1771924317,
      1771924323,
      1771924352,
      1771924388,
      1771924405,
      1771924418,
      1771924429,
      1771924458,
      1771924487,
      1771924509,
      1771924535,
      1771924583,
      1771924602,
      1771924615,
      1771924638,
      1771924660,
      1771924701,
      1771924727,
      1771924749,
      1771924760,
      1771924771,
      1771924790,
      1771924834
    ],
    "wof:geomhash": "1ddfbaf0f7bc66ffb8084dd578faeab7",
    "wof:id": 2014876277,
    "wof:repo": "sfomuseum-data-flights-2026-02"
  },
  "bbox": [
    -122.36589,
    37.62908,
    -122.11435,
    38.47878
  ],
  "geometry": {"coordinates":[[-122.36589,37.62908],[-122.35797,37.63889],[-122.31545,37.66233],[-122.30954,37.66551],[-122.2783,37.6833],[-122.23109,37.70954],[-122.21215,37.72806],[-122.20617,37.74576],[-122.2045,37.76071],[-122.20032,37.80193],[-122.19327,37.84559],[-122.18806,37.87746],[-122.1814,37.92006],[-122.16866,38.00067],[-122.16277,38.03659],[-122.15871,38.06071],[-122.1516,38.10217],[-122.14513,38.14122],[-122.13249,38.21954],[-122.12372,38.27007],[-122.11656,38.31293],[-122.11461,38.33336],[-122.11435,38.3557],[-122.11679,38.3928],[-122.12261,38.47878]],"type":"LineString"}
}
