{
  "id": 2014872773,
  "type": "Feature",
  "properties": {
    "geom:area": 0,
    "geom:bbox": "-122.477050,36.738020,-121.891460,37.880880",
    "geom:latitude": 37.38373367097308,
    "geom:longitude": -122.27619211579406,
    "src:alt_label": "swim-approach",
    "src:geom": "swim",
    "swim:elevations": [
      5793,
      5791,
      5722,
      5448,
      5426,
      5093,
      4782,
      4602,
      4319,
      4155,
      4031,
      3916,
      3648,
      3353,
      3353,
      3353,
      3353,
      3353,
      3330,
      3305,
      3134,
      2928,
      2770,
      2714,
      2621,
      2462,
      2265,
      2150,
      1828,
      1829,
      1829,
      1829,
      1829,
      1768,
      1705,
      1612,
      1498,
      1459,
      1262,
      1085,
      996,
      945,
      945,
      945,
      950,
      919,
      782,
      668,
      579,
      515,
      487,
      382,
      304,
      142,
      32,
      26
    ],
    "swim:geom": "approach",
    "swim:timestamps": [
      1771956867,
      1771956893,
      1771956922,
      1771956957,
      1771956961,
      1771957004,
      1771957043,
      1771957066,
      1771957106,
      1771957127,
      1771957143,
      1771957161,
      1771957191,
      1771957235,
      1771957286,
      1771957310,
      1771957343,
      1771957367,
      1771957408,
      1771957411,
      1771957441,
      1771957492,
      1771957526,
      1771957541,
      1771957558,
      1771957584,
      1771957612,
      1771957628,
      1771957675,
      1771957701,
      1771957722,
      1771957764,
      1771957797,
      1771957824,
      1771957840,
      1771957868,
      1771957893,
      1771957903,
      1771957945,
      1771957978,
      1771957995,
      1771958029,
      1771958066,
      1771958072,
      1771958098,
      1771958112,
      1771958154,
      1771958186,
      1771958209,
      1771958230,
      1771958239,
      1771958270,
      1771958292,
      1771958338,
      1771958368,
      1771958374
    ],
    "wof:geomhash": "b2a6dc7b2e76eb47de87a509eef8f7c9",
    "wof:id": 2014872773,
    "wof:repo": "sfomuseum-data-flights-2026-02"
  },
  "bbox": [
    -122.47705,
    36.73802,
    -121.89146,
    37.88088
  ],
  "geometry": {"coordinates":[[-121.89146,36.73802],[-121.92073,36.76702],[-121.95313,36.7978],[-121.99199,36.83469],[-121.99654,36.83907],[-122.04562,36.88574],[-122.08975,36.92766],[-122.11489,36.95143],[-122.15777,36.99191],[-122.17975,37.01274],[-122.1972,37.02925],[-122.21544,37.04658],[-122.24804,37.07754],[-122.29204,37.12389],[-122.31712,37.19049],[-122.32838,37.22345],[-122.34332,37.2673],[-122.35422,37.29926],[-122.37274,37.35274],[-122.37428,37.35727],[-122.38742,37.3956],[-122.40838,37.45608],[-122.4216,37.49428],[-122.42733,37.51084],[-122.43362,37.52892],[-122.44367,37.55772],[-122.45388,37.58794],[-122.46005,37.60594],[-122.47705,37.65616],[-122.46762,37.68368],[-122.45291,37.70508],[-122.42329,37.74881],[-122.4002,37.78324],[-122.38137,37.81151],[-122.37061,37.82804],[-122.35189,37.85746],[-122.32879,37.87829],[-122.31632,37.88088],[-122.2675,37.87177],[-122.23494,37.8596],[-122.23213,37.84713],[-122.24003,37.8219],[-122.25437,37.79587],[-122.25712,37.79204],[-122.26818,37.77607],[-122.27386,37.76766],[-122.29025,37.74307],[-122.30166,37.72596],[-122.30959,37.71391],[-122.31708,37.70292],[-122.32026,37.69821],[-122.33058,37.68229],[-122.33787,37.67125],[-122.35426,37.64662],[-122.36549,37.62987],[-122.36756,37.6266]],"type":"LineString"}
}
