{
  "id": 2014863987,
  "type": "Feature",
  "properties": {
    "geom:area": 0,
    "geom:bbox": "-127.110000,37.272500,-122.150000,38.525278",
    "geom:latitude": 37.794217207122685,
    "geom:longitude": -124.48944062650412,
    "src:alt_label": "swim-path",
    "src:geom": "swim",
    "swim:altitudes": [
      "410C",
      "410C",
      "410C",
      "410C",
      "410C",
      "410C",
      "410",
      "410",
      "410C",
      "410C",
      "410",
      "410",
      "410C",
      "410",
      "410",
      "410",
      "410",
      "410",
      "410",
      "410",
      "410",
      "410",
      "410",
      "410",
      "343",
      "343",
      "318",
      "287",
      "287",
      "287",
      "287",
      "287",
      "287",
      "222",
      "222",
      "222",
      "222",
      "180",
      "180",
      "180",
      "180",
      "180",
      "180",
      "159",
      "159",
      "139",
      "139",
      "120",
      "109",
      "102C",
      "102C",
      "102C",
      "102C",
      "098C",
      "098C",
      "092",
      "091",
      "091",
      "089",
      "089",
      "085",
      "085",
      "085",
      "085",
      "085",
      "085",
      "081",
      "081",
      "072",
      "072",
      "068",
      "068",
      "043",
      "043",
      "043",
      "040",
      "040",
      "040",
      "011",
      "011",
      "009",
      "009",
      "003",
      "003",
      "001",
      "001",
      "001",
      "001"
    ],
    "swim:geom": "path",
    "swim:speeds": [
      524,
      524,
      524,
      537,
      537,
      537,
      560,
      560,
      546,
      546,
      540,
      540,
      547,
      550,
      548,
      548,
      548,
      553,
      554,
      554,
      554,
      554,
      554,
      554,
      545,
      545,
      519,
      481,
      481,
      481,
      481,
      481,
      481,
      441,
      441,
      441,
      441,
      418,
      418,
      418,
      418,
      418,
      418,
      386,
      386,
      373,
      373,
      361,
      348,
      295,
      295,
      295,
      295,
      302,
      302,
      302,
      298,
      298,
      296,
      296,
      288,
      288,
      288,
      290,
      290,
      290,
      281,
      281,
      267,
      267,
      267,
      267,
      203,
      203,
      203,
      196,
      196,
      196,
      155,
      155,
      158,
      158,
      153,
      153,
      155,
      155,
      155,
      155
    ],
    "swim:timestamps": [
      1771871413,
      1771871413,
      1771871413,
      1771871473,
      1771871473,
      1771871473,
      1771871574,
      1771871574,
      1771871593,
      1771871593,
      1771871634,
      1771871634,
      1771871653,
      1771871694,
      1771871713,
      1771871713,
      1771871713,
      1771871773,
      1771871893,
      1771871893,
      1771871893,
      1771871893,
      1771871893,
      1771871893,
      1771872254,
      1771872254,
      1771872314,
      1771872374,
      1771872374,
      1771872374,
      1771872374,
      1771872374,
      1771872374,
      1771872554,
      1771872554,
      1771872554,
      1771872554,
      1771872674,
      1771872674,
      1771872674,
      1771872674,
      1771872674,
      1771872674,
      1771872734,
      1771872734,
      1771872794,
      1771872794,
      1771872854,
      1771872887,
      1771872975,
      1771872975,
      1771872975,
      1771872975,
      1771873095,
      1771873095,
      1771873133,
      1771873155,
      1771873155,
      1771873193,
      1771873193,
      1771873253,
      1771873253,
      1771873253,
      1771873275,
      1771873275,
      1771873275,
      1771873335,
      1771873335,
      1771873395,
      1771873395,
      1771873433,
      1771873433,
      1771873554,
      1771873554,
      1771873554,
      1771873575,
      1771873575,
      1771873575,
      1771873734,
      1771873734,
      1771873756,
      1771873756,
      1771873794,
      1771873794,
      1771873816,
      1771873816,
      1771873816,
      1771873816
    ],
    "wof:geomhash": "c31a0028ba473a7a1ebac337a0b794d4",
    "wof:id": 2014863987,
    "wof:repo": "sfomuseum-data-flights-2026-02"
  },
  "bbox": [
    -127.11,
    37.2725,
    -122.15,
    38.525277777777774
  ],
  "geometry": {"coordinates":[[-127.11,38.525277777777774],[-127.11,38.525277777777774],[-127.11,38.525277777777774],[-126.94972222222222,38.45166666666667],[-126.94972222222222,38.45166666666667],[-126.94972222222222,38.45166666666667],[-126.61666666666666,38.35],[-126.61666666666666,38.35],[-126.58444444444444,38.345],[-126.58444444444444,38.345],[-126.43333333333334,38.3],[-126.43333333333334,38.3],[-126.40194444444445,38.29527777777778],[-126.25,38.25],[-126.2213888888889,38.245555555555555],[-126.2213888888889,38.245555555555555],[-126.2213888888889,38.245555555555555],[-126.02972222222222,38.192499999999995],[-125.66055555555556,38.08916666666667],[-125.66055555555556,38.08916666666667],[-125.66055555555556,38.08916666666667],[-125.66055555555556,38.08916666666667],[-125.66055555555556,38.08916666666667],[-125.66055555555556,38.08916666666667],[-124.56694444444445,37.774166666666666],[-124.56694444444445,37.774166666666666],[-124.3913888888889,37.722500000000004],[-124.23,37.67444444444444],[-124.23,37.67444444444444],[-124.23,37.67444444444444],[-124.23,37.67444444444444],[-124.23,37.67444444444444],[-124.23,37.67444444444444],[-123.77972222222222,37.53916666666667],[-123.77972222222222,37.53916666666667],[-123.77972222222222,37.53916666666667],[-123.77972222222222,37.53916666666667],[-123.50722222222223,37.45638888888889],[-123.50722222222223,37.45638888888889],[-123.50722222222223,37.45638888888889],[-123.50722222222223,37.45638888888889],[-123.50722222222223,37.45638888888889],[-123.50722222222223,37.45638888888889],[-123.35416666666666,37.40972222222222],[-123.35416666666666,37.40972222222222],[-123.2325,37.37222222222222],[-123.2325,37.37222222222222],[-123.11611111111111,37.336111111111116],[-123.05,37.31666666666667],[-122.9113888888889,37.2725],[-122.9113888888889,37.2725],[-122.9113888888889,37.2725],[-122.9113888888889,37.2725],[-122.71138888888889,37.29333333333333],[-122.71138888888889,37.29333333333333],[-122.65,37.31666666666667],[-122.61138888888888,37.31638888888889],[-122.61138888888888,37.31638888888889],[-122.55,37.333333333333336],[-122.55,37.333333333333336],[-122.45,37.35],[-122.45,37.35],[-122.45,37.35],[-122.41611111111112,37.36138888888889],[-122.41611111111112,37.36138888888889],[-122.41611111111112,37.36138888888889],[-122.32138888888889,37.3775],[-122.32138888888889,37.3775],[-122.22777777777777,37.37361111111111],[-122.22777777777777,37.37361111111111],[-122.16666666666667,37.38333333333333],[-122.16666666666667,37.38333333333333],[-122.15,37.5],[-122.15,37.5],[-122.15,37.5],[-122.16277777777778,37.513888888888886],[-122.16277777777778,37.513888888888886],[-122.16277777777778,37.513888888888886],[-122.3,37.583333333333336],[-122.3,37.583333333333336],[-122.31277777777777,37.5925],[-122.31277777777777,37.5925],[-122.35,37.6],[-122.35,37.6],[-122.35972222222222,37.61222222222222],[-122.35972222222222,37.61222222222222],[-122.35972222222222,37.61222222222222],[-122.35972222222222,37.61222222222222]],"type":"LineString"}
}
