{
  "id": 2014813561,
  "type": "Feature",
  "properties": {
    "geom:area": 0,
    "geom:bbox": "-122.770000,37.620000,-79.630000,45.670000",
    "geom:latitude": 43.37444877199632,
    "geom:longitude": -101.87284348760716,
    "src:alt_label": "swim-route",
    "src:geom": "swim",
    "swim:geom": "route",
    "wof:geomhash": "4dc3349eb01855e8ff44c57ecc51b44c",
    "wof:id": 2014813561,
    "wof:repo": "sfomuseum-data-flights-2026-02"
  },
  "bbox": [
    -122.77,
    37.62,
    -79.63,
    45.67
  ],
  "geometry": {"coordinates":[[-79.63,43.68],[-79.74,43.71],[-79.83,43.73],[-79.93,43.76],[-80.16,43.81],[-80.19,43.82],[-80.19,43.82],[-80.28,43.84],[-80.37,43.87],[-80.42,43.88],[-80.78,43.97],[-80.81,43.97],[-81.07,43.97],[-81.36,43.97],[-81.47,43.97],[-81.63,43.97],[-81.68,43.97],[-81.71,43.97],[-81.83,43.97],[-82.2,43.97],[-82.2,43.97],[-82.38,43.97],[-83.57,43.95],[-83.98,43.94],[-84.39,43.93],[-84.61,43.97],[-85.27,44.08],[-85.76,44.17],[-87.27,44.42],[-87.99,44.52],[-88.19,44.56],[-89.44,44.87],[-90,45],[-90.53,45.07],[-90.78,45.11],[-92.9,45.38],[-94,45.5],[-94.72,45.5],[-96.03,45.48],[-96.14,45.67],[-96.64,45.47],[-96.72,45.43],[-97.83,45.33],[-98.05,45.3],[-101.91,44.82],[-102.08,44.79],[-103.61,44.56],[-104,44.5],[-104.61,44.38],[-105.28,44.25],[-105.61,44.17],[-106.73,43.93],[-107.27,43.8],[-107.85,43.67],[-109.21,43.33],[-109.87,43.17],[-110.1,43.11],[-110.44,43.02],[-111.44,42.75],[-112.55,42.43],[-113.56,42.13],[-114,42],[-114,42],[-114.54,41.81],[-118,40.5],[-118.28,40.4],[-118.49,40.32],[-118.95,40.14],[-119.42,39.96],[-120.51,39.56],[-120.83,39.44],[-121.14,39.25],[-121.5,39.02],[-121.58,38.98],[-121.73,38.88],[-121.85,38.81],[-122.07,38.67],[-122.61,38.33],[-122.62,38.32],[-122.66,38.29],[-122.67,38.29],[-122.77,38.22],[-122.75,38.16],[-122.7,38],[-122.69,37.95],[-122.67,37.9],[-122.65,37.87],[-122.59,37.82],[-122.58,37.81],[-122.53,37.77],[-122.51,37.74],[-122.5,37.74],[-122.5,37.73],[-122.44,37.68],[-122.37,37.62],[-122.38,37.62]],"type":"LineString"}
}
