{
  "id": 2014779523,
  "type": "Feature",
  "properties": {
    "geom:area": 0,
    "geom:bbox": "-122.836620,37.388210,-122.101850,38.430560",
    "geom:latitude": 37.86664107243165,
    "geom:longitude": -122.53706833083378,
    "src:alt_label": "swim-approach",
    "src:geom": "swim",
    "swim:elevations": [
      8412,
      7927,
      7261,
      6803,
      6767,
      6445,
      6289,
      6069,
      6025,
      5565,
      5408,
      5352,
      5275,
      5268,
      5242,
      5179,
      4983,
      4856,
      4521,
      4296,
      4256,
      4045,
      3906,
      3708,
      3502,
      3391,
      3353,
      3353,
      3353,
      3353,
      3353,
      3353,
      3353,
      3353,
      3353,
      3353,
      3353,
      3353,
      3353,
      3353,
      3353,
      3353,
      3353,
      3353,
      3353,
      3353,
      3353,
      3353,
      3353,
      3353,
      3353,
      3353,
      3353,
      3353,
      3353,
      3353,
      3353,
      3353,
      3353,
      3353,
      3353,
      3353,
      3353,
      3353,
      3353,
      3353,
      3227,
      3008,
      2864,
      2740,
      2578,
      2490,
      2374,
      2280,
      1894,
      1838,
      1749,
      1570,
      1273,
      1220,
      1220,
      1219,
      1219,
      1219,
      1219,
      1072,
      884,
      803,
      683,
      624,
      496,
      352,
      220,
      135,
      68,
      25
    ],
    "swim:geom": "approach",
    "swim:timestamps": [
      1771016610,
      1771016651,
      1771016697,
      1771016728,
      1771016731,
      1771016755,
      1771016769,
      1771016787,
      1771016790,
      1771016830,
      1771016873,
      1771016901,
      1771016933,
      1771016936,
      1771016945,
      1771016960,
      1771016993,
      1771017011,
      1771017054,
      1771017086,
      1771017092,
      1771017131,
      1771017147,
      1771017172,
      1771017206,
      1771017221,
      1771017265,
      1771017280,
      1771017300,
      1771017322,
      1771017355,
      1771017374,
      1771017413,
      1771017442,
      1771017460,
      1771017478,
      1771017494,
      1771017533,
      1771017552,
      1771017574,
      1771017607,
      1771017656,
      1771017674,
      1771017681,
      1771017705,
      1771017737,
      1771017771,
      1771017808,
      1771017812,
      1771017837,
      1771017840,
      1771017855,
      1771017895,
      1771017906,
      1771017936,
      1771017964,
      1771017998,
      1771018028,
      1771018072,
      1771018087,
      1771018127,
      1771018151,
      1771018180,
      1771018194,
      1771018202,
      1771018211,
      1771018250,
      1771018279,
      1771018303,
      1771018321,
      1771018344,
      1771018356,
      1771018372,
      1771018385,
      1771018435,
      1771018444,
      1771018477,
      1771018507,
      1771018543,
      1771018552,
      1771018561,
      1771018576,
      1771018615,
      1771018621,
      1771018662,
      1771018696,
      1771018725,
      1771018740,
      1771018765,
      1771018777,
      1771018804,
      1771018841,
      1771018877,
      1771018898,
      1771018914,
      1771018926
    ],
    "wof:geomhash": "fb2553df69bf73ff01ac1d63c357d2a9",
    "wof:id": 2014779523,
    "wof:repo": "sfomuseum-data-flights-2026-02"
  },
  "bbox": [
    -122.83662,
    37.38821,
    -122.10185,
    38.43056
  ],
  "geometry": {"coordinates":[[-122.29978,38.43056],[-122.34567,38.36467],[-122.39711,38.29244],[-122.43115,38.24452],[-122.43519,38.23875],[-122.45994,38.20353],[-122.47472,38.18242],[-122.49367,38.15551],[-122.49747,38.15009],[-122.53871,38.09154],[-122.58055,38.03171],[-122.60652,37.99472],[-122.63289,37.95706],[-122.63531,37.95363],[-122.64248,37.94343],[-122.6542,37.92668],[-122.67904,37.8909],[-122.69358,37.87326],[-122.75097,37.86],[-122.78903,37.88271],[-122.79252,37.88973],[-122.80409,37.93769],[-122.80996,37.95682],[-122.81972,37.98695],[-122.83151,38.02676],[-122.83662,38.04417],[-122.81147,38.08976],[-122.78983,38.09699],[-122.75861,38.09535],[-122.7313,38.07958],[-122.71447,38.03989],[-122.70763,38.0166],[-122.69323,37.96816],[-122.68271,37.93243],[-122.67626,37.9104],[-122.6718,37.88804],[-122.6803,37.86916],[-122.73392,37.85492],[-122.75621,37.86661],[-122.76879,37.89095],[-122.78009,37.92936],[-122.79704,37.98642],[-122.80276,38.00641],[-122.80527,38.01484],[-122.81336,38.04319],[-122.80261,38.07859],[-122.75414,38.08948],[-122.71842,38.05445],[-122.71727,38.05041],[-122.7084,38.01931],[-122.70728,38.0156],[-122.70172,37.99679],[-122.68689,37.94711],[-122.68293,37.93359],[-122.67294,37.89749],[-122.65596,37.86461],[-122.61478,37.83613],[-122.57798,37.80925],[-122.52959,37.76297],[-122.51442,37.7489],[-122.47618,37.71365],[-122.45303,37.69192],[-122.4249,37.66528],[-122.41149,37.6528],[-122.40406,37.64578],[-122.39539,37.63766],[-122.3599,37.60192],[-122.34319,37.57018],[-122.32968,37.54419],[-122.31831,37.52585],[-122.30402,37.5027],[-122.29914,37.49003],[-122.30182,37.47286],[-122.30598,37.45891],[-122.28591,37.40787],[-122.27954,37.39927],[-122.23922,37.38821],[-122.2018,37.39573],[-122.15688,37.40639],[-122.1456,37.40915],[-122.13432,37.41194],[-122.11629,37.41796],[-122.10185,37.45416],[-122.10532,37.45981],[-122.13622,37.49517],[-122.16083,37.52334],[-122.18811,37.54053],[-122.2039,37.54674],[-122.22887,37.55723],[-122.24045,37.56207],[-122.26435,37.57221],[-122.29375,37.58457],[-122.3201,37.59561],[-122.33606,37.60239],[-122.34785,37.60736],[-122.35729,37.61129]],"type":"LineString"}
}
