{
  "id": 2014836337,
  "type": "Feature",
  "properties": {
    "geom:area": 0,
    "geom:bbox": "-122.386430,37.637210,-121.419790,38.075930",
    "geom:latitude": 37.951355939115146,
    "geom:longitude": -122.01693160189272,
    "src:alt_label": "swim-takeoff",
    "src:geom": "swim",
    "swim:elevations": [
      411,
      965,
      1297,
      1584,
      1962,
      2319,
      2451,
      2862,
      3303,
      3726,
      3934,
      4165,
      4739,
      4838,
      5209,
      5502,
      5855,
      6131,
      6436,
      6515,
      6761,
      6893,
      7269,
      7400,
      7739,
      7921,
      8270
    ],
    "swim:geom": "takeoff",
    "swim:timestamps": [
      1771546337,
      1771546373,
      1771546406,
      1771546436,
      1771546463,
      1771546484,
      1771546493,
      1771546520,
      1771546547,
      1771546577,
      1771546607,
      1771546622,
      1771546670,
      1771546676,
      1771546707,
      1771546731,
      1771546767,
      1771546797,
      1771546822,
      1771546828,
      1771546855,
      1771546869,
      1771546908,
      1771546924,
      1771546960,
      1771546982,
      1771547030
    ],
    "wof:geomhash": "c337d086f084b75846f26338cd000715",
    "wof:id": 2014836337,
    "wof:repo": "sfomuseum-data-flights-2026-02"
  },
  "bbox": [
    -122.38643,
    37.63721,
    -121.41979,
    38.07593
  ],
  "geometry": {"coordinates":[[-122.36028,37.63721],[-122.33305,37.6595],[-122.30821,37.68251],[-122.31192,37.71124],[-122.3332,37.73603],[-122.34333,37.75819],[-122.34825,37.76783],[-122.36315,37.79684],[-122.3774,37.82616],[-122.38643,37.86108],[-122.38385,37.90112],[-122.38016,37.92188],[-122.30537,37.96365],[-122.29197,37.96438],[-122.22367,37.97183],[-122.16932,37.97946],[-122.08559,37.98887],[-122.01461,37.99918],[-121.95241,38.00746],[-121.93773,38.00934],[-121.87184,38.01804],[-121.83674,38.02251],[-121.73774,38.03519],[-121.69708,38.04051],[-121.60409,38.05243],[-121.5467,38.05985],[-121.41979,38.07593]],"type":"LineString"}
}
