{
  "id": 2014761451,
  "type": "Feature",
  "properties": {
    "geom:area": 0,
    "geom:bbox": "-122.361120,37.636910,-121.243870,38.125260",
    "geom:latitude": 37.89622365928692,
    "geom:longitude": -121.80980616961001,
    "src:alt_label": "swim-takeoff",
    "src:geom": "swim",
    "swim:elevations": [
      314,
      731,
      1180,
      1296,
      1613,
      1889,
      2499,
      2639,
      2814,
      3080,
      3231,
      3369,
      3805,
      4164,
      4421,
      4764,
      4977,
      5213,
      5683,
      5766,
      6158,
      6507,
      6578,
      6640,
      6987,
      7325
    ],
    "swim:geom": "takeoff",
    "swim:timestamps": [
      1770712553,
      1770712579,
      1770712616,
      1770712633,
      1770712667,
      1770712683,
      1770712725,
      1770712733,
      1770712745,
      1770712764,
      1770712783,
      1770712812,
      1770712845,
      1770712872,
      1770712896,
      1770712921,
      1770712944,
      1770712961,
      1770713004,
      1770713012,
      1770713056,
      1770713095,
      1770713101,
      1770713108,
      1770713147,
      1770713181
    ],
    "wof:geomhash": "8ca57b31650bdc1739fd44ac29d58824",
    "wof:id": 2014761451,
    "wof:repo": "sfomuseum-data-flights-2026-02"
  },
  "bbox": [
    -122.36112,
    37.63691,
    -121.24387,
    38.12526
  ],
  "geometry": {"coordinates":[[-122.36112,37.63691],[-122.34168,37.65334],[-122.30516,37.67171],[-122.28756,37.68031],[-122.24549,37.70174],[-122.22474,37.71288],[-122.16764,37.74253],[-122.15596,37.74866],[-122.13924,37.75734],[-122.11242,37.77136],[-122.0843,37.78575],[-122.03666,37.81027],[-121.97752,37.838],[-121.92712,37.85831],[-121.87917,37.87728],[-121.8286,37.89696],[-121.78237,37.91461],[-121.74567,37.92864],[-121.65503,37.96523],[-121.63746,37.97219],[-121.53936,38.01022],[-121.45116,38.04449],[-121.43607,38.05035],[-121.41972,38.05678],[-121.32778,38.09261],[-121.24387,38.12526]],"type":"LineString"}
}
