{
  "id": 2014856903,
  "type": "Feature",
  "properties": {
    "geom:area": 0,
    "geom:bbox": "-122.364980,37.491170,-121.258030,37.615920",
    "geom:latitude": 37.546812433779124,
    "geom:longitude": -121.81643497279828,
    "src:alt_label": "swim-approach",
    "src:geom": "swim",
    "swim:elevations": [
      5001,
      4696,
      4468,
      4178,
      3994,
      3813,
      3738,
      3666,
      3566,
      3446,
      3294,
      3063,
      2896,
      2758,
      2587,
      2261,
      2111,
      1976,
      1882,
      1824,
      1659,
      1368,
      1262,
      1125,
      999,
      917,
      758,
      612,
      412,
      287,
      224,
      114,
      28,
      61,
      363
    ],
    "swim:geom": "approach",
    "swim:timestamps": [
      1771788049,
      1771788079,
      1771788100,
      1771788127,
      1771788147,
      1771788170,
      1771788198,
      1771788221,
      1771788261,
      1771788296,
      1771788325,
      1771788358,
      1771788385,
      1771788409,
      1771788437,
      1771788476,
      1771788493,
      1771788511,
      1771788534,
      1771788548,
      1771788573,
      1771788627,
      1771788642,
      1771788669,
      1771788692,
      1771788704,
      1771788735,
      1771788768,
      1771788807,
      1771788838,
      1771788851,
      1771788879,
      1771788898,
      1771788901,
      1771788910
    ],
    "wof:geomhash": "ccfacaf015c5f68efdca5c6dfbb7aa5c",
    "wof:id": 2014856903,
    "wof:repo": "sfomuseum-data-flights-2026-02"
  },
  "bbox": [
    -122.36498,
    37.49117,
    -121.25803,
    37.61592
  ],
  "geometry": {"coordinates":[[-121.25803,37.59334],[-121.31272,37.58695],[-121.35175,37.58264],[-121.40242,37.57671],[-121.4383,37.57252],[-121.4809,37.56766],[-121.52764,37.5621],[-121.56538,37.5577],[-121.62497,37.5504],[-121.67096,37.53979],[-121.70661,37.5312],[-121.74795,37.52124],[-121.78222,37.5132],[-121.81206,37.50603],[-121.84726,37.4976],[-121.89507,37.49117],[-121.91792,37.49193],[-121.94278,37.49266],[-121.97196,37.49347],[-121.99011,37.4958],[-122.02126,37.50536],[-122.08542,37.52609],[-122.10383,37.5323],[-122.13628,37.54281],[-122.1617,37.55095],[-122.17463,37.55522],[-122.20738,37.56587],[-122.24066,37.57654],[-122.27719,37.58784],[-122.30397,37.5954],[-122.31495,37.59868],[-122.3387,37.60618],[-122.35407,37.61216],[-122.3566,37.61313],[-122.36498,37.61592]],"type":"LineString"}
}
