{
  "id": 2014832487,
  "type": "Feature",
  "properties": {
    "geom:area": 0,
    "geom:bbox": "-122.333333,33.931667,-118.501111,37.600000",
    "geom:latitude": 35.45163318324459,
    "geom:longitude": -120.72287407732874,
    "src:alt_label": "swim-path",
    "src:geom": "swim",
    "swim:altitudes": [
      "036",
      "065",
      "065",
      "065",
      "102",
      "102",
      "191",
      "191",
      "191",
      "191",
      "191",
      "231",
      "231",
      "300C",
      "300C",
      "300C",
      "300C",
      "300C",
      "300C",
      "300C",
      "300C",
      "300C",
      "300C",
      "300C",
      "300C",
      "300C",
      "300C",
      "300C",
      "300C",
      "300C",
      "300C",
      "300C",
      "300C",
      "300C",
      "300C",
      "300C",
      "300C",
      "300C",
      "300C",
      "300C",
      "300C",
      "300C",
      "300C",
      "300C",
      "300C",
      "300C",
      "299C",
      "299C",
      "299C",
      "300C",
      "300C",
      "300C",
      "300C",
      "300C",
      "297",
      "297",
      "297",
      "287",
      "277",
      "277",
      "277",
      "277",
      "267",
      "267",
      "245",
      "245",
      "245",
      "239",
      "239",
      "239",
      "222",
      "222",
      "222",
      "222",
      "200",
      "200",
      "200",
      "200",
      "200",
      "200",
      "177",
      "177",
      "177",
      "105",
      "104",
      "104",
      "104",
      "096",
      "096",
      "096",
      "083",
      "083",
      "083",
      "083",
      "080",
      "080",
      "080",
      "043",
      "043",
      "043",
      "043",
      "034",
      "034",
      "034",
      "034",
      "019",
      "019",
      "013",
      "012",
      "006"
    ],
    "swim:geom": "path",
    "swim:speeds": [
      196,
      227,
      227,
      227,
      237,
      237,
      310,
      310,
      310,
      310,
      310,
      327,
      327,
      336,
      337,
      337,
      337,
      344,
      344,
      344,
      345,
      347,
      347,
      347,
      348,
      349,
      351,
      351,
      351,
      351,
      331,
      331,
      331,
      331,
      332,
      332,
      352,
      352,
      352,
      352,
      352,
      360,
      370,
      370,
      370,
      370,
      368,
      368,
      368,
      367,
      367,
      368,
      368,
      368,
      368,
      368,
      368,
      347,
      323,
      323,
      320,
      320,
      310,
      310,
      301,
      301,
      301,
      329,
      329,
      329,
      330,
      330,
      330,
      330,
      314,
      314,
      314,
      314,
      314,
      314,
      299,
      299,
      299,
      255,
      258,
      258,
      258,
      250,
      250,
      253,
      248,
      248,
      248,
      248,
      246,
      246,
      246,
      196,
      196,
      196,
      196,
      192,
      192,
      176,
      176,
      121,
      121,
      122,
      124,
      124
    ],
    "swim:timestamps": [
      1771541757,
      1771541817,
      1771541817,
      1771541817,
      1771541877,
      1771541877,
      1771542117,
      1771542117,
      1771542117,
      1771542117,
      1771542117,
      1771542238,
      1771542238,
      1771542538,
      1771542605,
      1771542605,
      1771542605,
      1771542665,
      1771542718,
      1771542718,
      1771542725,
      1771542778,
      1771542778,
      1771542778,
      1771542785,
      1771542838,
      1771542899,
      1771542899,
      1771542899,
      1771542899,
      1771543079,
      1771543079,
      1771543079,
      1771543079,
      1771543266,
      1771543266,
      1771543319,
      1771543319,
      1771543319,
      1771543319,
      1771543319,
      1771543326,
      1771543439,
      1771543439,
      1771543439,
      1771543446,
      1771543506,
      1771543506,
      1771543506,
      1771543559,
      1771543566,
      1771543620,
      1771543620,
      1771543626,
      1771543686,
      1771543686,
      1771543686,
      1771543740,
      1771543800,
      1771543800,
      1771543806,
      1771543806,
      1771543866,
      1771543866,
      1771543987,
      1771543987,
      1771543987,
      1771544047,
      1771544047,
      1771544047,
      1771544167,
      1771544167,
      1771544167,
      1771544167,
      1771544407,
      1771544407,
      1771544407,
      1771544407,
      1771544467,
      1771544467,
      1771544647,
      1771544647,
      1771544647,
      1771544942,
      1771544948,
      1771544948,
      1771544948,
      1771545002,
      1771545002,
      1771545008,
      1771545068,
      1771545068,
      1771545068,
      1771545068,
      1771545128,
      1771545128,
      1771545128,
      1771545308,
      1771545308,
      1771545308,
      1771545308,
      1771545368,
      1771545368,
      1771545428,
      1771545428,
      1771545542,
      1771545542,
      1771545602,
      1771545608,
      1771545662
    ],
    "wof:geomhash": "690fdae137d0a6b7f7ba285ee4875350",
    "wof:id": 2014832487,
    "wof:repo": "sfomuseum-data-flights-2026-02"
  },
  "bbox": [
    -122.33333333333333,
    33.931666666666665,
    -118.50111111111111,
    37.6
  ],
  "geometry": {"coordinates":[[-118.50111111111111,33.942499999999995],[-118.57333333333332,33.9375],[-118.57333333333332,33.9375],[-118.57333333333332,33.9375],[-118.6525,33.931666666666665],[-118.6525,33.931666666666665],[-119.00472222222223,34.02611111111111],[-119.00472222222223,34.02611111111111],[-119.00472222222223,34.02611111111111],[-119.00472222222223,34.02611111111111],[-119.00472222222223,34.02611111111111],[-119.21972222222223,34.05027777777777],[-119.21972222222223,34.05027777777777],[-119.60916666666667,34.346944444444446],[-119.68833333333333,34.42861111111111],[-119.68833333333333,34.42861111111111],[-119.68833333333333,34.42861111111111],[-119.76666666666667,34.50555555555555],[-119.82944444444443,34.56861111111112],[-119.82944444444443,34.56861111111112],[-119.84138888888889,34.580555555555556],[-119.89944444444446,34.638333333333335],[-119.89944444444446,34.638333333333335],[-119.89944444444446,34.638333333333335],[-119.91611111111112,34.655],[-119.97555555555556,34.714444444444446],[-120.05083333333333,34.78944444444444],[-120.05083333333333,34.78944444444444],[-120.05083333333333,34.78944444444444],[-120.05083333333333,34.78944444444444],[-120.34583333333333,34.89805555555556],[-120.34583333333333,34.89805555555556],[-120.34583333333333,34.89805555555556],[-120.34583333333333,34.89805555555556],[-120.69777777777779,34.94027777777777],[-120.69777777777779,34.94027777777777],[-120.79222222222222,34.990833333333335],[-120.79222222222222,34.990833333333335],[-120.79222222222222,34.990833333333335],[-120.79222222222222,34.990833333333335],[-120.79222222222222,34.990833333333335],[-120.79833333333333,34.99916666666667],[-120.89277777777778,35.17861111111111],[-120.89277777777778,35.17861111111111],[-120.89277777777778,35.17861111111111],[-120.89277777777778,35.17861111111111],[-120.94722222222222,35.282222222222224],[-120.94722222222222,35.282222222222224],[-120.94722222222222,35.282222222222224],[-120.99111111111111,35.36527777777778],[-120.99694444444445,35.376666666666665],[-121.04138888888889,35.46083333333333],[-121.04138888888889,35.46083333333333],[-121.03722222222223,35.45277777777778],[-121.08722222222222,35.54805555555556],[-121.08722222222222,35.54805555555556],[-121.08722222222222,35.54805555555556],[-121.13777777777779,35.643055555555556],[-121.19083333333333,35.71388888888889],[-121.19083333333333,35.71388888888889],[-121.19416666666667,35.71555555555556],[-121.19416666666667,35.71555555555556],[-121.2975,35.722500000000004],[-121.2975,35.722500000000004],[-121.49861111111112,35.74305555555556],[-121.49861111111112,35.74305555555556],[-121.49861111111112,35.74305555555556],[-121.53611111111111,35.84055555555556],[-121.53611111111111,35.84055555555556],[-121.53611111111111,35.84055555555556],[-121.57777777777777,36.00861111111111],[-121.57777777777777,36.00861111111111],[-121.57777777777777,36.00861111111111],[-121.57777777777777,36.00861111111111],[-121.66416666666667,36.35416666666667],[-121.66416666666667,36.35416666666667],[-121.66416666666667,36.35416666666667],[-121.66416666666667,36.35416666666667],[-121.68555555555555,36.439722222222215],[-121.68555555555555,36.439722222222215],[-121.83972222222222,36.6725],[-121.83972222222222,36.6725],[-121.83972222222222,36.6725],[-122,37.05],[-121.99416666666667,37.05694444444444],[-121.99416666666667,37.05694444444444],[-121.99416666666667,37.05694444444444],[-122.01666666666667,37.11666666666667],[-122.01666666666667,37.11666666666667],[-122.02027777777778,37.12361111111111],[-122.0461111111111,37.189722222222215],[-122.0461111111111,37.189722222222215],[-122.0461111111111,37.189722222222215],[-122.0461111111111,37.189722222222215],[-122.07166666666666,37.25416666666667],[-122.07166666666666,37.25416666666667],[-122.07166666666666,37.25416666666667],[-122.13722222222223,37.42722222222222],[-122.13722222222223,37.42722222222222],[-122.13722222222223,37.42722222222222],[-122.13722222222223,37.42722222222222],[-122.15472222222223,37.47888888888889],[-122.15472222222223,37.47888888888889],[-122.17305555555556,37.529444444444444],[-122.17305555555556,37.529444444444444],[-122.25,37.56666666666667],[-122.25,37.56666666666667],[-122.28333333333333,37.583333333333336],[-122.29138888888889,37.583333333333336],[-122.33333333333333,37.6]],"type":"LineString"}
}
