{
  "id": 2014860869,
  "type": "Feature",
  "properties": {
    "geom:area": 0,
    "geom:bbox": "-122.380000,37.620000,-104.670000,40.670000",
    "geom:latitude": 39.84321941956013,
    "geom:longitude": -113.55527808061501,
    "src:alt_label": "swim-route",
    "src:geom": "swim",
    "swim:geom": "route",
    "wof:geomhash": "c0b788effa04933d895cadbe8abca8ee",
    "wof:id": 2014860869,
    "wof:repo": "sfomuseum-data-flights-2026-02"
  },
  "bbox": [
    -122.38,
    37.62,
    -104.67,
    40.67
  ],
  "geometry": {"coordinates":[[-122.38,37.62],[-122.28,37.68],[-122.27,37.69],[-122.27,37.69],[-122.21,37.72],[-122.21,37.72],[-122.21,37.73],[-122.19,37.75],[-122.15,37.79],[-122.14,37.8],[-122.07,37.88],[-122.01,37.92],[-121.85,38.02],[-121.85,38.03],[-121.79,38.07],[-121.74,38.1],[-121.62,38.18],[-121.53,38.24],[-121.53,38.25],[-121.44,38.31],[-121.41,38.32],[-121.39,38.34],[-121.35,38.36],[-121.14,38.49],[-121.07,38.54],[-121.01,38.55],[-120.71,38.64],[-120.48,38.71],[-119.65,38.96],[-119.45,39.05],[-117.92,39.47],[-117.35,39.6],[-117.23,39.63],[-117.06,39.68],[-116.48,39.77],[-115.1,39.96],[-114.45,40.06],[-114.28,40.09],[-114.02,40.12],[-113.51,40.19],[-112.73,40.29],[-112.7,40.29],[-111.56,40.42],[-110.64,40.52],[-109.11,40.67],[-109.05,40.67],[-107.68,40.58],[-107.3,40.55],[-107.06,40.53],[-106.53,40.49],[-106.48,40.48],[-106.38,40.47],[-106.18,40.46],[-106.16,40.45],[-106.14,40.45],[-105.99,40.44],[-105.91,40.43],[-105.91,40.43],[-105.77,40.41],[-105.62,40.39],[-105.62,40.39],[-105.61,40.38],[-105.49,40.36],[-105.37,40.35],[-105.36,40.34],[-105.2,40.25],[-105.15,40.22],[-105.08,40.18],[-105.04,40.15],[-105.03,40.14],[-104.89,40.03],[-104.88,40.03],[-104.8,39.97],[-104.81,39.84],[-104.81,39.79],[-104.69,39.85],[-104.67,39.86]],"type":"LineString"}
}
