{
  "id": 2014785913,
  "type": "Feature",
  "properties": {
    "geom:area": 0,
    "geom:bbox": "-122.551667,32.683333,-116.933333,37.650278",
    "geom:latitude": 34.83998049954222,
    "geom:longitude": -120.00783489125462,
    "src:alt_label": "swim-path",
    "src:geom": "swim",
    "swim:altitudes": [
      "050",
      "152",
      "215",
      "277",
      "291",
      "317",
      "330C",
      "330C",
      "330C",
      "330C",
      "330C",
      "330C",
      "330C",
      "330C",
      "330C",
      "330C",
      "330C",
      "330C",
      "330C",
      "330",
      "321",
      "271",
      "249",
      "227",
      "204",
      "154",
      "144",
      "118",
      "108",
      "104",
      "099",
      "076",
      "050",
      "049",
      "047",
      "040",
      "040",
      "033",
      "030",
      "020",
      "009"
    ],
    "swim:geom": "path",
    "swim:speeds": [
      253,
      355,
      382,
      466,
      479,
      482,
      465,
      474,
      475,
      475,
      475,
      476,
      467,
      469,
      480,
      481,
      481,
      481,
      482,
      483,
      483,
      451,
      434,
      417,
      425,
      388,
      384,
      358,
      354,
      331,
      288,
      263,
      252,
      211,
      206,
      198,
      185,
      182,
      175,
      179,
      149
    ],
    "swim:timestamps": [
      1771040514,
      1771040694,
      1771040816,
      1771040996,
      1771041055,
      1771041115,
      1771041415,
      1771041537,
      1771041597,
      1771041655,
      1771041835,
      1771041896,
      1771042256,
      1771042438,
      1771042558,
      1771042679,
      1771042739,
      1771042919,
      1771042979,
      1771043039,
      1771043099,
      1771043279,
      1771043340,
      1771043400,
      1771043460,
      1771043601,
      1771043640,
      1771043722,
      1771043760,
      1771043782,
      1771043842,
      1771043962,
      1771044121,
      1771044181,
      1771044190,
      1771044241,
      1771044250,
      1771044301,
      1771044308,
      1771044361,
      1771044421
    ],
    "wof:geomhash": "a38c9a56a6acdb5c792fbdc3e3d4b7a3",
    "wof:id": 2014785913,
    "wof:repo": "sfomuseum-data-flights-2026-02"
  },
  "bbox": [
    -122.55166666666666,
    32.68333333333333,
    -116.93333333333334,
    37.650277777777774
  ],
  "geometry": {"coordinates":[[-122.51472222222222,37.650277777777774],[-122.53416666666666,37.39083333333333],[-122.55166666666666,37.166666666666664],[-122.43611111111112,36.83166666666667],[-122.36583333333333,36.73583333333333],[-122.28,36.618611111111115],[-121.87583333333333,36.059444444444445],[-121.62277777777777,35.867777777777775],[-121.49472222222222,35.78722222222222],[-121.3875,35.719166666666666],[-121.00472222222223,35.47888888888889],[-120.87194444444444,35.401944444444446],[-120.43861111111111,34.72666666666667],[-120.14527777777778,34.43222222222222],[-119.86388888888888,34.295833333333334],[-119.55499999999999,34.219166666666666],[-119.40055555555556,34.180277777777775],[-118.93916666666667,34.06361111111111],[-118.78277777777778,34.02361111111111],[-118.62833333333333,33.98388888888889],[-118.47361111111111,33.94333333333333],[-118.13138888888888,33.70138888888889],[-118.02194444444444,33.618611111111115],[-117.92111111111112,33.540277777777774],[-117.82222222222222,33.45444444444445],[-117.6,33.25],[-117.55388888888889,33.20416666666667],[-117.45,33.083333333333336],[-117.40777777777778,33.04611111111111],[-117.38333333333334,33.016666666666666],[-117.31666666666666,32.93333333333333],[-117.2,32.833333333333336],[-117.00888888888889,32.75333333333333],[-116.94166666666668,32.72638888888889],[-116.93333333333334,32.71666666666667],[-116.97416666666666,32.690555555555555],[-116.98333333333333,32.68333333333333],[-117.03333333333333,32.69555555555555],[-117.05,32.7],[-117.08888888888889,32.70916666666667],[-117.13861111111112,32.72138888888889]],"type":"LineString"}
}
