{
  "id": 2014701671,
  "type": "Feature",
  "properties": {
    "date:inception_lower": "2026-02-02",
    "date:inception_upper": "2026-02-02",
    "edtf:cessation": "",
    "edtf:inception": "2026-02-02",
    "flysfo:actual_timestamp": -1,
    "flysfo:airline": "UA",
    "flysfo:date": "2026-02-02",
    "flysfo:estimated_timestamp": 1770076920,
    "flysfo:event": "D",
    "flysfo:flight_number": "UA5197",
    "flysfo:gate": "F5",
    "flysfo:journey": "SFO-SMF",
    "flysfo:scheduled_timestamp": 1770075900,
    "flysfo:timestamp": 1770076920,
    "geom:area": 0,
    "geom:bbox": "-122.370943,37.617990,-121.589912,38.685533",
    "geom:latitude": 38.1517615,
    "geom:longitude": -121.98042749999999,
    "iata:airline": "UA",
    "icao:airline": "UAL",
    "lbl:latitude": 37.620164,
    "lbl:longitude": -122.387194,
    "sfomuseum:airline_id": 1159285413,
    "sfomuseum:arrival_id": 102530559,
    "sfomuseum:departure_id": 102527513,
    "sfomuseum:flight_id": "20260202-D-UAL-5197",
    "sfomuseum:flight_number": [
      "UAL5197",
      "UA5197"
    ],
    "sfomuseum:placetype": "flight",
    "src:geom": "flysfo",
    "wof:belongsto": [
      1914600839,
      102527513,
      1914600845,
      102191575,
      85633793,
      102087579,
      85922583,
      554784711,
      85688637,
      1930457221,
      1914600841,
      102085387
    ],
    "wof:country": "US",
    "wof:created": 1770135275,
    "wof:geomhash": "5cb31017412a00ced54cc35c2a74371e",
    "wof:hierarchy": [
      {
        "building_id": 1914600839,
        "campus_id": 102527513,
        "concourse_id": 1914600845,
        "continent_id": 102191575,
        "country_id": 85633793,
        "county_id": 102087579,
        "custom_id": 2014701671,
        "flight_id": 2014701671,
        "locality_id": 85922583,
        "postalcode_id": 554784711,
        "region_id": 85688637,
        "venue_id": 1930457221,
        "wing_id": 1914600841
      },
      {
        "building_id": 1914600839,
        "campus_id": 102527513,
        "concourse_id": 1914600845,
        "continent_id": 102191575,
        "country_id": 85633793,
        "county_id": 102085387,
        "custom_id": 2014701671,
        "flight_id": 2014701671,
        "region_id": 85688637,
        "venue_id": 1930457221,
        "wing_id": 1914600841
      }
    ],
    "wof:id": 2014701671,
    "wof:involves": [
      102530559,
      102527513,
      1159285413,
      1930457221
    ],
    "wof:lastmodified": 1770135275,
    "wof:name": "UA5197 (SFO-SMF)",
    "wof:parent_id": 1930457221,
    "wof:placetype": "custom",
    "wof:placetype_alt": [
      "flight"
    ],
    "wof:repo": "sfomuseum-data-flights-2026-02",
    "wof:superseded_by": [],
    "wof:supersedes": []
  },
  "bbox": [
    -122.370943,
    37.61799,
    -121.589912,
    38.685533
  ],
  "geometry": {"coordinates":[[-122.370943,37.61799],[-121.589912,38.685533]],"type":"MultiPoint"}
}
