{
  "id": 2014840565,
  "type": "Feature",
  "properties": {
    "geom:area": 0,
    "geom:bbox": "-122.356500,37.491360,-121.263370,37.613150",
    "geom:latitude": 37.54610536656542,
    "geom:longitude": -121.81472851019,
    "src:alt_label": "swim-approach",
    "src:geom": "swim",
    "swim:elevations": [
      4858,
      4638,
      4331,
      4140,
      3653,
      3309,
      3234,
      3176,
      3047,
      2803,
      2612,
      2358,
      2144,
      2115,
      1980,
      1878,
      1686,
      1576,
      1461,
      1262,
      1127,
      957,
      792,
      644,
      607,
      502,
      408,
      272,
      149,
      6
    ],
    "swim:geom": "approach",
    "swim:timestamps": [
      1771608659,
      1771608680,
      1771608708,
      1771608724,
      1771608769,
      1771608807,
      1771608830,
      1771608850,
      1771608878,
      1771608912,
      1771608935,
      1771608984,
      1771609018,
      1771609022,
      1771609059,
      1771609089,
      1771609134,
      1771609158,
      1771609176,
      1771609216,
      1771609246,
      1771609276,
      1771609311,
      1771609339,
      1771609350,
      1771609371,
      1771609388,
      1771609418,
      1771609445,
      1771609478
    ],
    "wof:geomhash": "eddf5b8efe00c3942444438f97f6fd00",
    "wof:id": 2014840565,
    "wof:repo": "sfomuseum-data-flights-2026-02"
  },
  "bbox": [
    -122.3565,
    37.49136,
    -121.26337,
    37.61315
  ],
  "geometry": {"coordinates":[[-121.26337,37.5926],[-121.30553,37.58747],[-121.36179,37.58137],[-121.39388,37.57771],[-121.48227,37.56752],[-121.55234,37.55936],[-121.59417,37.55443],[-121.62758,37.54987],[-121.6715,37.53944],[-121.72363,37.52734],[-121.75965,37.51855],[-121.83063,37.50164],[-121.8778,37.49173],[-121.88356,37.49136],[-121.93254,37.49243],[-121.96683,37.49333],[-122.01626,37.50386],[-122.04141,37.51197],[-122.06001,37.51799],[-122.10309,37.53199],[-122.13454,37.5422],[-122.16645,37.55264],[-122.20186,37.5639],[-122.23092,37.57338],[-122.24195,37.57703],[-122.262,37.5834],[-122.27896,37.58808],[-122.30716,37.5964],[-122.33015,37.60322],[-122.3565,37.61315]],"type":"LineString"}
}
