{
  "id": 2014756187,
  "type": "Feature",
  "properties": {
    "geom:area": 0,
    "geom:bbox": "-122.694240,36.723460,-121.945960,37.740780",
    "geom:latitude": 37.27329927825614,
    "geom:longitude": -122.4395249054321,
    "src:alt_label": "swim-approach",
    "src:geom": "swim",
    "swim:elevations": [
      5448,
      5362,
      5143,
      4924,
      4794,
      4630,
      4449,
      4254,
      4180,
      3825,
      3747,
      3688,
      3602,
      3351,
      3355,
      3048,
      3048,
      3041,
      2900,
      2825,
      2639,
      2559,
      2438,
      2438,
      2198,
      2115,
      2025,
      1996,
      1888,
      1864,
      1829,
      1829,
      1829,
      1826,
      1829,
      1829,
      1829,
      1829,
      1829,
      1829,
      1829,
      1829,
      1829,
      1630,
      1498,
      1314,
      1137,
      1067,
      1067,
      1067,
      1067,
      1023,
      882,
      837,
      640,
      518,
      492,
      414,
      312,
      181,
      125,
      0
    ],
    "swim:geom": "approach",
    "swim:timestamps": [
      1770758608,
      1770758617,
      1770758647,
      1770758676,
      1770758695,
      1770758727,
      1770758756,
      1770758785,
      1770758796,
      1770758843,
      1770758855,
      1770758870,
      1770758894,
      1770758936,
      1770758945,
      1770758996,
      1770759005,
      1770759017,
      1770759038,
      1770759052,
      1770759084,
      1770759096,
      1770759135,
      1770759159,
      1770759207,
      1770759219,
      1770759231,
      1770759240,
      1770759264,
      1770759276,
      1770759327,
      1770759345,
      1770759363,
      1770759403,
      1770759418,
      1770759421,
      1770759447,
      1770759473,
      1770759489,
      1770759530,
      1770759561,
      1770759570,
      1770759576,
      1770759612,
      1770759649,
      1770759685,
      1770759717,
      1770759747,
      1770759767,
      1770759795,
      1770759801,
      1770759825,
      1770759861,
      1770759873,
      1770759924,
      1770759957,
      1770759966,
      1770759988,
      1770760013,
      1770760046,
      1770760064,
      1770760097
    ],
    "wof:geomhash": "b2ef02fc287d92a67e8f81d2c308ab3d",
    "wof:id": 2014756187,
    "wof:repo": "sfomuseum-data-flights-2026-02"
  },
  "bbox": [
    -122.69424,
    36.72346,
    -121.94596,
    37.74078
  ],
  "geometry": {"coordinates":[[-121.94596,36.72346],[-121.95852,36.73189],[-122.00031,36.76],[-122.04013,36.78675],[-122.06577,36.80373],[-122.1096,36.83254],[-122.14878,36.85846],[-122.18844,36.8854],[-122.20316,36.89541],[-122.26541,36.93781],[-122.28156,36.94873],[-122.30158,36.96227],[-122.33231,36.98311],[-122.38418,37.01823],[-122.39512,37.02564],[-122.4589,37.06693],[-122.47001,37.07411],[-122.48488,37.0837],[-122.51109,37.10062],[-122.52901,37.11213],[-122.56838,37.13769],[-122.57976,37.15021],[-122.58523,37.19845],[-122.58019,37.22793],[-122.56984,37.28766],[-122.5673,37.30256],[-122.56491,37.31762],[-122.56314,37.32898],[-122.55821,37.35849],[-122.55552,37.37288],[-122.53849,37.42809],[-122.52922,37.44475],[-122.51982,37.46136],[-122.5279,37.50073],[-122.54395,37.51062],[-122.54741,37.51227],[-122.57696,37.5262],[-122.60566,37.53898],[-122.61973,37.55109],[-122.63884,37.5916],[-122.6534,37.62154],[-122.65765,37.62989],[-122.66041,37.63547],[-122.67754,37.66986],[-122.69424,37.70367],[-122.69299,37.73383],[-122.6667,37.74078],[-122.64139,37.73596],[-122.62423,37.73289],[-122.60213,37.72677],[-122.59758,37.72488],[-122.58004,37.71657],[-122.55388,37.70444],[-122.54528,37.70026],[-122.50967,37.68335],[-122.48739,37.67275],[-122.48132,37.66982],[-122.4658,37.66266],[-122.44879,37.65452],[-122.42602,37.64354],[-122.4135,37.6376],[-122.38916,37.62653]],"type":"LineString"}
}
