{
  "id": 2014910971,
  "type": "Feature",
  "properties": {
    "geom:area": 0,
    "geom:bbox": "-122.525850,37.629500,-121.251520,37.959130",
    "geom:latitude": 37.8646781680316,
    "geom:longitude": -121.98631766938294,
    "src:alt_label": "swim-takeoff",
    "src:geom": "swim",
    "swim:elevations": [
      258,
      750,
      819,
      1157,
      1391,
      1732,
      1962,
      2343,
      2644,
      2796,
      2825,
      3041,
      3195,
      3461,
      3671,
      3898,
      4135,
      4254,
      4554,
      4646,
      4872,
      5024,
      5275,
      5388,
      5671,
      5886,
      5996,
      6250,
      6294,
      6474,
      6571,
      7013,
      7250
    ],
    "swim:geom": "takeoff",
    "swim:timestamps": [
      1772322076,
      1772322118,
      1772322124,
      1772322169,
      1772322202,
      1772322231,
      1772322249,
      1772322272,
      1772322296,
      1772322308,
      1772322311,
      1772322328,
      1772322350,
      1772322381,
      1772322400,
      1772322424,
      1772322454,
      1772322474,
      1772322501,
      1772322508,
      1772322535,
      1772322553,
      1772322579,
      1772322591,
      1772322628,
      1772322652,
      1772322667,
      1772322704,
      1772322713,
      1772322737,
      1772322751,
      1772322808,
      1772322835
    ],
    "wof:geomhash": "95ec96ed5b292977b7e2590464cdfd50",
    "wof:id": 2014910971,
    "wof:repo": "sfomuseum-data-flights-2026-02"
  },
  "bbox": [
    -122.52585,
    37.6295,
    -121.25152,
    37.95913
  ],
  "geometry": {"coordinates":[[-122.3998,37.6295],[-122.43817,37.64538],[-122.44374,37.64775],[-122.48874,37.66713],[-122.52338,37.69288],[-122.52521,37.72926],[-122.52585,37.75331],[-122.52526,37.78461],[-122.50359,37.81145],[-122.48581,37.8199],[-122.48092,37.8215],[-122.45429,37.82959],[-122.41611,37.83911],[-122.35482,37.84719],[-122.31776,37.85159],[-122.26774,37.85744],[-122.20368,37.86498],[-122.15888,37.87041],[-122.0974,37.87775],[-122.08035,37.87978],[-122.01768,37.88722],[-121.97515,37.8923],[-121.91259,37.89966],[-121.88321,37.90311],[-121.79403,37.91298],[-121.73381,37.91782],[-121.69606,37.92086],[-121.6002,37.92887],[-121.57689,37.93084],[-121.51413,37.9363],[-121.47791,37.93943],[-121.32414,37.95286],[-121.25152,37.95913]],"type":"LineString"}
}
