{
  "id": 2014898783,
  "type": "Feature",
  "properties": {
    "geom:area": 0,
    "geom:bbox": "-168.180000,-33.930000,153.310000,37.620000",
    "geom:latitude": -10.095955853140243,
    "geom:longitude": -27.759751189261067,
    "src:alt_label": "swim-route",
    "src:geom": "swim",
    "swim:geom": "route",
    "wof:geomhash": "209ec85faa79b09a21be92356c5c2479",
    "wof:id": 2014898783,
    "wof:repo": "sfomuseum-data-flights-2026-02"
  },
  "bbox": [
    -168.18,
    -33.93,
    153.31,
    37.62
  ],
  "geometry": {"coordinates":[[[151.17,-33.93],[153.31,-32.69]],[[-168.18,1.4],[-166.86,2.79],[-164.88,4.88],[-163.55,6.27],[-152.53,17.21],[-145.8,23.1],[-142.63,25.62],[-134.07,31.6],[-131.8,32.98],[-127.87,35.18],[-126.09,35.73],[-126.07,35.74],[-124.76,36.18],[-124.46,36.37],[-124.21,36.53],[-124.12,36.58],[-124.07,36.62],[-123.86,36.75],[-123.8,36.78],[-123.57,36.93],[-123.56,36.93],[-123.52,36.96],[-123.3,37.09],[-123.13,37.19],[-122.96,37.24],[-122.86,37.26],[-122.84,37.26],[-122.84,37.26],[-122.76,37.28],[-122.71,37.29],[-122.66,37.3],[-122.63,37.31],[-122.5,37.34],[-122.44,37.36],[-122.29,37.39],[-122.28,37.39],[-122.31,37.46],[-122.34,37.54],[-122.37,37.6],[-122.37,37.61],[-122.38,37.62]]],"type":"MultiLineString"}
}
