{
  "id": 2014776529,
  "type": "Feature",
  "properties": {
    "geom:area": 0,
    "geom:bbox": "-122.380000,37.620000,-74.170000,41.950000",
    "geom:latitude": 40.52730151480576,
    "geom:longitude": -98.3118880784526,
    "src:alt_label": "swim-route",
    "src:geom": "swim",
    "swim:geom": "route",
    "wof:geomhash": "8e19b5e38b27a7c3f5dfa6a122a226d6",
    "wof:id": 2014776529,
    "wof:repo": "sfomuseum-data-flights-2026-02"
  },
  "bbox": [
    -122.38,
    37.62,
    -74.17,
    41.95
  ],
  "geometry": {"coordinates":[[-122.38,37.62],[-122.27,37.69],[-122.26,37.69],[-122.26,37.69],[-122.21,37.72],[-122.2,37.73],[-122.2,37.73],[-122.17,37.74],[-122.17,37.74],[-122.16,37.75],[-122.11,37.77],[-122.1,37.78],[-122,37.83],[-121.93,37.84],[-121.73,37.88],[-121.7,37.88],[-121.63,37.9],[-121.53,37.91],[-121.34,37.95],[-121.33,37.95],[-121.12,37.99],[-121.1,37.99],[-120.98,38.01],[-120.95,38.02],[-120.86,38.03],[-120.55,38.08],[-120.46,38.09],[-120.44,38.09],[-120.34,38.11],[-120.23,38.12],[-119.93,38.17],[-119.79,38.19],[-119.18,38.27],[-119.01,38.3],[-117.6,38.49],[-117.54,38.49],[-117.29,38.55],[-117,38.61],[-116.72,38.66],[-116.65,38.66],[-114.79,39.02],[-113.32,39.29],[-113.25,39.3],[-112.98,39.34],[-112.7,39.38],[-110.22,39.73],[-110.06,39.75],[-109.75,39.79],[-108.46,39.93],[-107,40.07],[-106.47,40.12],[-106.38,40.12],[-105.94,40.16],[-105.41,40.2],[-105.06,40.23],[-104.65,40.26],[-104.26,40.28],[-103.82,40.31],[-102.95,40.36],[-102.43,40.39],[-100.92,40.45],[-99.55,40.68],[-99.05,40.75],[-98.76,40.8],[-95.9,41.19],[-93.65,41.44],[-93.62,41.44],[-93.51,41.45],[-93.29,41.47],[-93.22,41.48],[-92.05,41.58],[-91.27,41.65],[-88.55,41.82],[-87.01,41.93],[-87,41.93],[-84.92,41.95],[-84.81,41.95],[-82.89,41.94],[-82.41,41.93],[-81.83,41.92],[-81.23,41.86],[-80.73,41.82],[-80.58,41.8],[-79.21,41.66],[-79.1,41.65],[-78.9,41.62],[-78.61,41.59],[-77.97,41.51],[-77.86,41.5],[-77.69,41.47],[-77.36,41.43],[-77.28,41.41],[-76.88,41.35],[-76.77,41.34],[-76.48,41.26],[-76.23,41.19],[-75.96,41.12],[-75.61,41.02],[-75.58,41.01],[-75.55,41.01],[-75.5,40.99],[-75.34,40.94],[-75.27,40.93],[-75.11,40.88],[-74.92,40.83],[-74.92,40.83],[-74.88,40.82],[-74.87,40.82],[-74.81,40.81],[-74.76,40.8],[-74.71,40.79],[-74.7,40.79],[-74.65,40.78],[-74.61,40.77],[-74.49,40.75],[-74.44,40.74],[-74.38,40.73],[-74.27,40.71],[-74.17,40.69]],"type":"LineString"}
}
