{
  "id": 2014730899,
  "type": "Feature",
  "properties": {
    "geom:area": 0,
    "geom:bbox": "-122.515560,36.733350,-121.470120,37.708730",
    "geom:latitude": 37.23136364264275,
    "geom:longitude": -122.09511628580556,
    "src:alt_label": "swim-takeoff",
    "src:geom": "swim",
    "swim:elevations": [
      122,
      244,
      727,
      1163,
      1380,
      1805,
      2173,
      2945,
      3045,
      3386,
      3734,
      4109,
      4315,
      4727,
      4855,
      5183,
      5438,
      5800,
      6110,
      6196,
      6547,
      6835,
      6985,
      7270,
      7546,
      7988,
      8045,
      8228,
      8230,
      7992,
      7825
    ],
    "swim:geom": "takeoff",
    "swim:timestamps": [
      1770385195,
      1770385202,
      1770385238,
      1770385280,
      1770385309,
      1770385341,
      1770385362,
      1770385408,
      1770385416,
      1770385454,
      1770385476,
      1770385516,
      1770385553,
      1770385588,
      1770385599,
      1770385634,
      1770385670,
      1770385705,
      1770385733,
      1770385741,
      1770385782,
      1770385818,
      1770385836,
      1770385875,
      1770385910,
      1770385933,
      1770385958,
      1770385984,
      1770386019,
      1770386069,
      1770386084
    ],
    "wof:geomhash": "4eb011abe9a7ec2e4665e16be0c46ca0",
    "wof:id": 2014730899,
    "wof:repo": "sfomuseum-data-flights-2026-02"
  },
  "bbox": [
    -122.51556,
    36.73335,
    -121.47012,
    37.70873
  ],
  "geometry": {"coordinates":[[-122.37128,37.62553],[-122.36867,37.62961],[-122.3645,37.65907],[-122.3697,37.69523],[-122.4054,37.70873],[-122.45062,37.70484],[-122.46837,37.6826],[-122.4865,37.62597],[-122.48948,37.61622],[-122.50564,37.56505],[-122.51556,37.53453],[-122.49751,37.47729],[-122.43954,37.43532],[-122.38083,37.39359],[-122.36211,37.38043],[-122.301,37.3368],[-122.2374,37.29108],[-122.174,37.24527],[-122.12469,37.20972],[-122.109,37.19855],[-122.03568,37.14563],[-121.96912,37.09745],[-121.93563,37.07324],[-121.86211,37.01995],[-121.79703,36.97261],[-121.7518,36.93956],[-121.70524,36.9066],[-121.65621,36.87035],[-121.59099,36.82234],[-121.49913,36.75481],[-121.47012,36.73335]],"type":"LineString"}
}
