{
  "id": 2014910069,
  "type": "Feature",
  "properties": {
    "geom:area": 0,
    "geom:bbox": "-122.385550,37.640360,-121.245140,38.087890",
    "geom:latitude": 37.964161884997964,
    "geom:longitude": -121.93231221556151,
    "src:alt_label": "swim-takeoff",
    "src:geom": "swim",
    "swim:elevations": [
      452,
      618,
      809,
      1187,
      1503,
      1592,
      1684,
      1808,
      2104,
      2226,
      2858,
      3245,
      3361,
      3480,
      3869,
      4074,
      4178,
      4308,
      4418,
      4508,
      4906,
      5026,
      5230,
      5415,
      5643,
      6027,
      6152,
      6312,
      6616,
      6697,
      6785
    ],
    "swim:geom": "takeoff",
    "swim:timestamps": [
      1772322175,
      1772322196,
      1772322231,
      1772322266,
      1772322290,
      1772322296,
      1772322305,
      1772322314,
      1772322347,
      1772322360,
      1772322409,
      1772322444,
      1772322454,
      1772322468,
      1772322504,
      1772322535,
      1772322559,
      1772322582,
      1772322594,
      1772322610,
      1772322658,
      1772322679,
      1772322713,
      1772322734,
      1772322761,
      1772322808,
      1772322826,
      1772322844,
      1772322888,
      1772322906,
      1772322918
    ],
    "wof:geomhash": "cf4698b2fb01b018bd6091c557bd2167",
    "wof:id": 2014910069,
    "wof:repo": "sfomuseum-data-flights-2026-02"
  },
  "bbox": [
    -122.38555,
    37.64036,
    -121.24514,
    38.08789
  ],
  "geometry": {"coordinates":[[-122.35518,37.64036],[-122.33813,37.6551],[-122.31118,37.68483],[-122.32487,37.72498],[-122.34059,37.75214],[-122.34439,37.75915],[-122.34997,37.76971],[-122.35542,37.78049],[-122.37449,37.82008],[-122.3827,37.83693],[-122.38555,37.90282],[-122.35553,37.9443],[-122.33913,37.95033],[-122.31433,37.95515],[-122.24866,37.96761],[-122.1896,37.97966],[-122.1407,37.98808],[-122.09053,37.98894],[-122.06369,37.98884],[-122.02722,37.98883],[-121.91744,38.00073],[-121.86653,38.00741],[-121.78081,38.01837],[-121.72758,38.0252],[-121.65972,38.03432],[-121.53811,38.05027],[-121.49098,38.05639],[-121.44512,38.06238],[-121.32631,38.07754],[-121.27779,38.08372],[-121.24514,38.08789]],"type":"LineString"}
}
