{
  "id": 2014839133,
  "type": "Feature",
  "properties": {
    "geom:area": 0,
    "geom:bbox": "-122.035000,34.670556,-119.834167,37.161944",
    "geom:latitude": 35.83193881522649,
    "geom:longitude": -121.03358844504952,
    "src:alt_label": "swim-path",
    "src:geom": "swim",
    "swim:altitudes": [
      "300C",
      "300C",
      "300",
      "294",
      "100"
    ],
    "swim:geom": "path",
    "swim:speeds": [
      375,
      374,
      380,
      380,
      283
    ],
    "swim:timestamps": [
      1771653292,
      1771653833,
      1771654313,
      1771654487,
      1771655154
    ],
    "wof:geomhash": "d105c2eb00787d19c69c68fdcaf4e897",
    "wof:id": 2014839133,
    "wof:repo": "sfomuseum-data-flights-2026-02"
  },
  "bbox": [
    -122.035,
    34.67055555555555,
    -119.83416666666666,
    37.161944444444444
  ],
  "geometry": {"coordinates":[[-119.83416666666666,34.67055555555555],[-120.62444444444444,35.325],[-121.28055555555555,35.97888888888889],[-121.5,36.25],[-122.035,37.161944444444444]],"type":"LineString"}
}
