{
  "id": 2014890907,
  "type": "Feature",
  "properties": {
    "geom:area": 0,
    "geom:bbox": "-122.313611,29.942778,-95.433611,37.595000",
    "geom:latitude": 32.82762424194536,
    "geom:longitude": -109.38662034010154,
    "src:alt_label": "swim-path",
    "src:geom": "swim",
    "swim:altitudes": [
      "046",
      "046",
      "046",
      "046",
      "049",
      "049",
      "091",
      "091",
      "098",
      "115",
      "115",
      "115",
      "141",
      "141",
      "141",
      "191",
      "191",
      "191",
      "191",
      "220",
      "220",
      "220",
      "220",
      "234",
      "234",
      "234",
      "248",
      "248",
      "248",
      "248",
      "248",
      "248",
      "290",
      "290",
      "290",
      "290",
      "290",
      "300C",
      "300C",
      "300C",
      "300C",
      "300C",
      "300C",
      "300C",
      "300C",
      "300C",
      "300C",
      "300C",
      "300C",
      "300C",
      "300C",
      "300C",
      "300C",
      "300C",
      "300C",
      "300C",
      "300C",
      "300C",
      "300C",
      "300C",
      "300C",
      "300C",
      "300C",
      "300C",
      "300C",
      "300C",
      "300C",
      "300C",
      "300C",
      "300C",
      "300C",
      "300C",
      "300C",
      "300C",
      "300C",
      "300C",
      "300C",
      "300C",
      "300C",
      "300C",
      "300C",
      "300C",
      "300C",
      "300C",
      "300C",
      "300C",
      "300C",
      "300C",
      "300C",
      "300C",
      "300C",
      "300C",
      "300C",
      "300C",
      "300C",
      "300C",
      "300C",
      "300C",
      "300C",
      "300C",
      "300C",
      "300C",
      "300C",
      "300C",
      "300C",
      "300C",
      "300C",
      "300C",
      "300C",
      "300C",
      "300C",
      "300C",
      "300C",
      "300C",
      "300C",
      "300C",
      "300C",
      "300C",
      "300C",
      "300C",
      "300C",
      "300C",
      "300C",
      "300C",
      "300C",
      "300C",
      "300C",
      "300C",
      "300C",
      "300C",
      "300C",
      "300C",
      "300C",
      "300C",
      "300C",
      "300C",
      "300C",
      "300C",
      "300C",
      "300C",
      "300C",
      "300C",
      "300C",
      "300C",
      "300C",
      "300C",
      "300C",
      "300C",
      "300C",
      "300C",
      "300C",
      "300C",
      "300C",
      "300C",
      "300C",
      "300C",
      "300C",
      "300C",
      "300C",
      "300C",
      "300C",
      "300C",
      "300C",
      "300C",
      "300C",
      "300C",
      "300C",
      "300C",
      "300C",
      "300C",
      "300C",
      "300C",
      "300C",
      "300C",
      "300C",
      "300C",
      "300C",
      "300C",
      "300C",
      "300C",
      "300C",
      "300C",
      "300C",
      "300C",
      "300C",
      "300C",
      "300C",
      "300C",
      "300C",
      "300C",
      "300C",
      "300C",
      "300C",
      "300C",
      "300C",
      "300C",
      "300C",
      "300C",
      "300C",
      "300C",
      "300C",
      "300C",
      "300C",
      "300C",
      "300C",
      "300C",
      "300C",
      "300C",
      "300C",
      "300C",
      "300C",
      "300C",
      "300C",
      "300C",
      "300C",
      "300C",
      "300C",
      "300C",
      "300C",
      "300C",
      "300C",
      "300C",
      "300C",
      "300C",
      "300C",
      "300C",
      "300C",
      "300C",
      "300C",
      "300C",
      "300C",
      "300C",
      "300C",
      "300C",
      "300C",
      "300C",
      "300C",
      "300C",
      "300C",
      "300C",
      "300C",
      "300C",
      "300C",
      "300C",
      "300C",
      "300C",
      "300C",
      "300C",
      "300C",
      "300C",
      "300C",
      "300C",
      "300C",
      "300C",
      "300C",
      "300C",
      "300C",
      "300C",
      "300C",
      "300C",
      "300C",
      "300C",
      "300C",
      "300C",
      "300C",
      "300C",
      "300C",
      "300C",
      "300C",
      "300C",
      "300C",
      "300C",
      "300C",
      "300C",
      "300C",
      "300C",
      "300C",
      "300C",
      "300C",
      "300C",
      "300C",
      "300C",
      "300C",
      "300C",
      "300C",
      "300C",
      "300C",
      "300C",
      "300C",
      "300C",
      "300C",
      "300C",
      "300C",
      "300C",
      "300C",
      "300C",
      "300C",
      "300C",
      "300C",
      "300C",
      "300C",
      "300C",
      "300C",
      "300C",
      "300C",
      "300C",
      "300C",
      "300C",
      "300C",
      "300C",
      "300C",
      "300C",
      "300C",
      "300C",
      "300C",
      "300C",
      "300C",
      "300C",
      "300C",
      "300C",
      "300C",
      "300C",
      "300C",
      "300C",
      "300C",
      "300C",
      "300C",
      "300C",
      "300C",
      "300C",
      "300C",
      "300C",
      "300C",
      "300C",
      "300C",
      "300C",
      "300C",
      "300C",
      "300C",
      "300C",
      "300C",
      "300C",
      "300C",
      "300C",
      "300C",
      "300C",
      "300C",
      "300C",
      "300C",
      "300C",
      "300C",
      "300C",
      "300C",
      "300C",
      "300C",
      "300C",
      "300C",
      "300C",
      "300C",
      "300C",
      "300C",
      "300C",
      "300C",
      "300C",
      "300C",
      "300C",
      "300C",
      "300C",
      "300C",
      "300C",
      "300C",
      "300C",
      "300C",
      "300C",
      "300C",
      "300C",
      "300C",
      "300C",
      "300C",
      "300C",
      "300C",
      "300C",
      "300C",
      "300C",
      "300C",
      "300C",
      "300C",
      "300C",
      "300C",
      "300C",
      "300C",
      "300C",
      "300C",
      "300C",
      "300C",
      "300C",
      "300C",
      "300C",
      "300C",
      "300C",
      "300C",
      "300C",
      "300C",
      "300C",
      "300C",
      "300C",
      "300C",
      "300C",
      "300C",
      "300C",
      "300C",
      "300C",
      "300C",
      "300C",
      "300C",
      "300C",
      "300C",
      "300C",
      "300C",
      "300C",
      "300C",
      "300C",
      "300C",
      "300C",
      "300C",
      "300C",
      "300C",
      "300C",
      "300C",
      "300C",
      "300C",
      "300C",
      "300C",
      "300C",
      "300C",
      "300C",
      "300C",
      "300C",
      "300C",
      "300C",
      "300C",
      "300C",
      "300C",
      "300C",
      "300C",
      "300C",
      "300C",
      "300C",
      "300C",
      "300C",
      "300C",
      "300C",
      "300C",
      "300C",
      "300C",
      "300C",
      "300C",
      "300C",
      "300C",
      "300C",
      "300C",
      "300C",
      "300C",
      "300C",
      "300C",
      "300C",
      "300C",
      "300C",
      "300C",
      "300C",
      "300C",
      "300C",
      "300C",
      "300C",
      "300C",
      "300C",
      "300C",
      "300C",
      "300C",
      "300C",
      "300C",
      "300C",
      "300C",
      "300C",
      "300C",
      "300C",
      "300C",
      "300C",
      "300C",
      "300C",
      "300",
      "300",
      "300",
      "300",
      "300",
      "300",
      "300",
      "271",
      "271",
      "271",
      "271",
      "237",
      "237",
      "237",
      "237",
      "216",
      "216",
      "216",
      "196",
      "196",
      "196",
      "186",
      "186",
      "186",
      "177",
      "177",
      "169",
      "169",
      "169",
      "169",
      "152",
      "152",
      "152",
      "122",
      "122",
      "117",
      "113",
      "113",
      "113",
      "103",
      "103",
      "100",
      "100",
      "100",
      "100",
      "100",
      "100",
      "100",
      "066",
      "060",
      "060",
      "060",
      "060",
      "060",
      "056",
      "056",
      "056",
      "056",
      "056",
      "056",
      "040",
      "040",
      "030",
      "030",
      "030",
      "030",
      "030",
      "026",
      "023",
      "023",
      "023",
      "023",
      "017",
      "017",
      "008",
      "008",
      "008"
    ],
    "swim:geom": "path",
    "swim:speeds": [
      223,
      223,
      223,
      223,
      234,
      234,
      266,
      266,
      276,
      278,
      278,
      278,
      284,
      284,
      284,
      384,
      384,
      384,
      384,
      401,
      401,
      401,
      401,
      411,
      411,
      411,
      413,
      413,
      413,
      413,
      413,
      413,
      417,
      417,
      417,
      417,
      417,
      411,
      411,
      411,
      411,
      411,
      405,
      405,
      405,
      405,
      405,
      405,
      405,
      406,
      406,
      406,
      406,
      408,
      408,
      408,
      408,
      408,
      408,
      408,
      408,
      405,
      405,
      405,
      405,
      405,
      405,
      405,
      403,
      403,
      403,
      403,
      403,
      403,
      403,
      403,
      403,
      404,
      404,
      404,
      407,
      407,
      407,
      407,
      406,
      406,
      406,
      406,
      406,
      405,
      405,
      406,
      406,
      407,
      407,
      407,
      407,
      407,
      408,
      412,
      412,
      412,
      412,
      412,
      412,
      412,
      412,
      413,
      413,
      413,
      413,
      414,
      414,
      414,
      414,
      414,
      414,
      414,
      413,
      413,
      413,
      413,
      413,
      413,
      413,
      412,
      412,
      412,
      410,
      410,
      409,
      409,
      409,
      409,
      408,
      408,
      408,
      407,
      407,
      407,
      406,
      406,
      406,
      406,
      406,
      406,
      406,
      406,
      406,
      406,
      406,
      406,
      406,
      406,
      406,
      406,
      406,
      405,
      405,
      405,
      405,
      405,
      405,
      408,
      408,
      408,
      408,
      408,
      408,
      408,
      408,
      408,
      408,
      407,
      407,
      407,
      407,
      406,
      406,
      406,
      406,
      406,
      405,
      405,
      405,
      404,
      404,
      403,
      403,
      402,
      402,
      402,
      402,
      402,
      407,
      407,
      407,
      407,
      408,
      408,
      409,
      409,
      409,
      409,
      409,
      409,
      409,
      409,
      409,
      409,
      409,
      409,
      409,
      406,
      406,
      406,
      406,
      406,
      406,
      406,
      406,
      406,
      406,
      406,
      407,
      407,
      406,
      406,
      406,
      406,
      406,
      406,
      406,
      406,
      406,
      406,
      406,
      408,
      408,
      408,
      409,
      409,
      409,
      409,
      409,
      409,
      406,
      406,
      406,
      406,
      406,
      406,
      405,
      405,
      405,
      405,
      407,
      407,
      407,
      404,
      406,
      406,
      406,
      404,
      404,
      404,
      404,
      404,
      404,
      404,
      406,
      406,
      404,
      404,
      404,
      404,
      405,
      405,
      403,
      403,
      403,
      403,
      403,
      403,
      403,
      402,
      402,
      402,
      402,
      402,
      402,
      401,
      402,
      402,
      402,
      402,
      401,
      401,
      402,
      401,
      401,
      402,
      402,
      402,
      401,
      401,
      401,
      400,
      400,
      400,
      400,
      400,
      400,
      400,
      400,
      400,
      400,
      399,
      399,
      399,
      399,
      398,
      398,
      398,
      398,
      397,
      397,
      397,
      397,
      397,
      396,
      396,
      397,
      397,
      398,
      398,
      398,
      398,
      398,
      398,
      398,
      398,
      398,
      398,
      398,
      399,
      399,
      399,
      399,
      399,
      399,
      399,
      399,
      399,
      399,
      399,
      399,
      399,
      397,
      397,
      397,
      397,
      397,
      397,
      397,
      398,
      398,
      398,
      398,
      398,
      398,
      398,
      398,
      399,
      399,
      399,
      399,
      398,
      398,
      398,
      398,
      401,
      401,
      401,
      401,
      401,
      401,
      401,
      402,
      402,
      401,
      401,
      401,
      401,
      401,
      400,
      400,
      400,
      400,
      400,
      400,
      400,
      400,
      400,
      398,
      398,
      398,
      398,
      401,
      401,
      403,
      403,
      403,
      403,
      403,
      403,
      403,
      403,
      400,
      400,
      400,
      400,
      400,
      400,
      400,
      400,
      400,
      400,
      400,
      401,
      402,
      402,
      402,
      402,
      402,
      402,
      403,
      403,
      403,
      403,
      403,
      403,
      403,
      404,
      404,
      404,
      404,
      404,
      404,
      404,
      404,
      404,
      404,
      403,
      403,
      403,
      403,
      403,
      403,
      403,
      403,
      403,
      403,
      403,
      403,
      403,
      403,
      403,
      404,
      404,
      404,
      404,
      404,
      405,
      405,
      405,
      405,
      405,
      405,
      405,
      405,
      405,
      406,
      406,
      406,
      406,
      406,
      407,
      407,
      407,
      407,
      407,
      407,
      407,
      407,
      407,
      407,
      394,
      394,
      394,
      394,
      378,
      378,
      378,
      378,
      375,
      375,
      375,
      365,
      365,
      365,
      357,
      357,
      357,
      356,
      356,
      356,
      356,
      356,
      356,
      349,
      349,
      349,
      289,
      289,
      260,
      242,
      242,
      242,
      243,
      243,
      230,
      230,
      230,
      230,
      227,
      227,
      227,
      227,
      222,
      222,
      222,
      215,
      215,
      185,
      185,
      185,
      185,
      185,
      185,
      183,
      183,
      181,
      185,
      185,
      185,
      185,
      188,
      186,
      186,
      186,
      186,
      187,
      187,
      162,
      162,
      162
    ],
    "swim:timestamps": [
      1772113575,
      1772113575,
      1772113575,
      1772113575,
      1772113584,
      1772113584,
      1772113756,
      1772113756,
      1772113768,
      1772113816,
      1772113816,
      1772113816,
      1772113876,
      1772113876,
      1772113876,
      1772114116,
      1772114116,
      1772114116,
      1772114116,
      1772114236,
      1772114236,
      1772114236,
      1772114236,
      1772114297,
      1772114297,
      1772114297,
      1772114357,
      1772114357,
      1772114357,
      1772114357,
      1772114357,
      1772114357,
      1772114537,
      1772114537,
      1772114537,
      1772114537,
      1772114537,
      1772114717,
      1772114717,
      1772114717,
      1772114717,
      1772114717,
      1772115018,
      1772115078,
      1772115078,
      1772115078,
      1772115078,
      1772115078,
      1772115078,
      1772115138,
      1772115138,
      1772115138,
      1772115138,
      1772115258,
      1772115258,
      1772115258,
      1772115378,
      1772115378,
      1772115378,
      1772115378,
      1772115378,
      1772115679,
      1772115679,
      1772115679,
      1772115679,
      1772115679,
      1772115679,
      1772115679,
      1772115979,
      1772115979,
      1772115979,
      1772115979,
      1772115979,
      1772116039,
      1772116039,
      1772116039,
      1772116039,
      1772116099,
      1772116099,
      1772116099,
      1772116280,
      1772116280,
      1772116280,
      1772116280,
      1772116340,
      1772116340,
      1772116340,
      1772116400,
      1772116400,
      1772116423,
      1772116423,
      1772116483,
      1772116483,
      1772116520,
      1772116520,
      1772116520,
      1772116520,
      1772116520,
      1772116540,
      1772116600,
      1772116600,
      1772116600,
      1772116600,
      1772116700,
      1772116700,
      1772116700,
      1772116700,
      1772116721,
      1772116721,
      1772116781,
      1772116781,
      1772116820,
      1772116841,
      1772116841,
      1772116881,
      1772116881,
      1772116881,
      1772116881,
      1772116941,
      1772116941,
      1772116941,
      1772116961,
      1772116961,
      1772117021,
      1772117021,
      1772117121,
      1772117121,
      1772117141,
      1772117241,
      1772117241,
      1772117261,
      1772117261,
      1772117261,
      1772117261,
      1772117301,
      1772117301,
      1772117321,
      1772117361,
      1772117361,
      1772117361,
      1772117421,
      1772117421,
      1772117442,
      1772117442,
      1772117442,
      1772117502,
      1772117502,
      1772117502,
      1772117682,
      1772117682,
      1772117682,
      1772117742,
      1772117742,
      1772117742,
      1772117742,
      1772117862,
      1772117862,
      1772117922,
      1772117922,
      1772117922,
      1772117922,
      1772117922,
      1772117922,
      1772118043,
      1772118043,
      1772118043,
      1772118043,
      1772118103,
      1772118103,
      1772118103,
      1772118103,
      1772118163,
      1772118163,
      1772118223,
      1772118223,
      1772118223,
      1772118223,
      1772118283,
      1772118283,
      1772118283,
      1772118283,
      1772118283,
      1772118343,
      1772118343,
      1772118343,
      1772118403,
      1772118403,
      1772118583,
      1772118583,
      1772118643,
      1772118643,
      1772118643,
      1772118643,
      1772118643,
      1772118764,
      1772118764,
      1772118764,
      1772118764,
      1772118824,
      1772118824,
      1772118884,
      1772118884,
      1772118884,
      1772118884,
      1772118884,
      1772119004,
      1772119004,
      1772119004,
      1772119004,
      1772119064,
      1772119064,
      1772119064,
      1772119064,
      1772119244,
      1772119244,
      1772119244,
      1772119244,
      1772119244,
      1772119244,
      1772119425,
      1772119425,
      1772119425,
      1772119425,
      1772119425,
      1772119545,
      1772119545,
      1772119605,
      1772119605,
      1772119605,
      1772119605,
      1772119905,
      1772119905,
      1772119905,
      1772119905,
      1772119905,
      1772119966,
      1772119966,
      1772120146,
      1772120146,
      1772120146,
      1772120206,
      1772120206,
      1772120206,
      1772120206,
      1772120206,
      1772120206,
      1772120446,
      1772120446,
      1772120446,
      1772120446,
      1772120446,
      1772120446,
      1772120567,
      1772120567,
      1772120567,
      1772120567,
      1772120612,
      1772120612,
      1772120612,
      1772120747,
      1772120793,
      1772120793,
      1772120793,
      1772120807,
      1772120807,
      1772120867,
      1772120927,
      1772120927,
      1772120927,
      1772120927,
      1772120973,
      1772120973,
      1772120987,
      1772121107,
      1772121107,
      1772121107,
      1772121153,
      1772121153,
      1772121213,
      1772121213,
      1772121213,
      1772121213,
      1772121228,
      1772121228,
      1772121228,
      1772121274,
      1772121274,
      1772121274,
      1772121274,
      1772121274,
      1772121274,
      1772121528,
      1772121574,
      1772121574,
      1772121574,
      1772121574,
      1772121588,
      1772121588,
      1772121648,
      1772121694,
      1772121694,
      1772121708,
      1772121708,
      1772121708,
      1772121814,
      1772121814,
      1772121814,
      1772121829,
      1772121829,
      1772121935,
      1772121935,
      1772121935,
      1772121995,
      1772121995,
      1772122055,
      1772122055,
      1772122055,
      1772122115,
      1772122115,
      1772122115,
      1772122129,
      1772122175,
      1772122189,
      1772122189,
      1772122189,
      1772122235,
      1772122235,
      1772122235,
      1772122235,
      1772122235,
      1772122295,
      1772122295,
      1772122355,
      1772122355,
      1772122475,
      1772122475,
      1772122475,
      1772122475,
      1772122490,
      1772122550,
      1772122550,
      1772122550,
      1772122550,
      1772122550,
      1772122550,
      1772122716,
      1772122716,
      1772122716,
      1772122716,
      1772122716,
      1772122776,
      1772122776,
      1772122776,
      1772122956,
      1772122956,
      1772122956,
      1772122956,
      1772122956,
      1772123136,
      1772123136,
      1772123136,
      1772123136,
      1772123136,
      1772123196,
      1772123196,
      1772123317,
      1772123317,
      1772123317,
      1772123317,
      1772123317,
      1772123377,
      1772123377,
      1772123377,
      1772123437,
      1772123437,
      1772123437,
      1772123437,
      1772123557,
      1772123557,
      1772123557,
      1772123557,
      1772123737,
      1772123737,
      1772123737,
      1772123737,
      1772123737,
      1772123797,
      1772123797,
      1772123857,
      1772123857,
      1772123918,
      1772123918,
      1772123918,
      1772123918,
      1772123918,
      1772124098,
      1772124098,
      1772124098,
      1772124098,
      1772124158,
      1772124158,
      1772124158,
      1772124158,
      1772124158,
      1772124278,
      1772124278,
      1772124278,
      1772124278,
      1772124398,
      1772124398,
      1772124458,
      1772124458,
      1772124458,
      1772124505,
      1772124505,
      1772124505,
      1772124505,
      1772124505,
      1772124625,
      1772124625,
      1772124625,
      1772124639,
      1772124639,
      1772124699,
      1772124699,
      1772124699,
      1772124746,
      1772124746,
      1772124746,
      1772124819,
      1772124866,
      1772124866,
      1772124866,
      1772124879,
      1772124879,
      1772124879,
      1772124926,
      1772124926,
      1772124926,
      1772124939,
      1772124939,
      1772124939,
      1772124939,
      1772125046,
      1772125046,
      1772125046,
      1772125059,
      1772125059,
      1772125106,
      1772125106,
      1772125106,
      1772125106,
      1772125106,
      1772125240,
      1772125240,
      1772125240,
      1772125240,
      1772125300,
      1772125300,
      1772125300,
      1772125300,
      1772125406,
      1772125406,
      1772125420,
      1772125420,
      1772125420,
      1772125420,
      1772125420,
      1772125527,
      1772125527,
      1772125527,
      1772125527,
      1772125527,
      1772125587,
      1772125587,
      1772125587,
      1772125587,
      1772125587,
      1772125587,
      1772125660,
      1772125660,
      1772125660,
      1772125767,
      1772125767,
      1772125767,
      1772125767,
      1772125767,
      1772125780,
      1772125780,
      1772125780,
      1772125947,
      1772125947,
      1772125947,
      1772125947,
      1772125947,
      1772125963,
      1772125963,
      1772126084,
      1772126084,
      1772126084,
      1772126084,
      1772126188,
      1772126188,
      1772126188,
      1772126188,
      1772126248,
      1772126248,
      1772126248,
      1772126308,
      1772126308,
      1772126308,
      1772126330,
      1772126330,
      1772126330,
      1772126368,
      1772126368,
      1772126389,
      1772126389,
      1772126389,
      1772126389,
      1772126444,
      1772126444,
      1772126444,
      1772126569,
      1772126569,
      1772126608,
      1772126630,
      1772126630,
      1772126630,
      1772126668,
      1772126668,
      1772126690,
      1772126690,
      1772126690,
      1772126690,
      1772126744,
      1772126744,
      1772126744,
      1772126870,
      1772126909,
      1772126909,
      1772126909,
      1772126929,
      1772126929,
      1772126969,
      1772126969,
      1772126969,
      1772126969,
      1772126969,
      1772126969,
      1772127050,
      1772127050,
      1772127089,
      1772127110,
      1772127110,
      1772127110,
      1772127110,
      1772127149,
      1772127169,
      1772127169,
      1772127169,
      1772127169,
      1772127209,
      1772127209,
      1772127269,
      1772127269,
      1772127269
    ],
    "wof:geomhash": "b85bd45905d1bfcd7b02f7f3a2f8b5bf",
    "wof:id": 2014890907,
    "wof:repo": "sfomuseum-data-flights-2026-02"
  },
  "bbox": [
    -122.31361111111111,
    29.942777777777778,
    -95.43361111111112,
    37.595
  ],
  "geometry": {"coordinates":[[-95.43361111111112,29.942777777777778],[-95.43361111111112,29.942777777777778],[-95.43361111111112,29.942777777777778],[-95.43361111111112,29.942777777777778],[-95.44666666666667,29.945833333333333],[-95.44666666666667,29.945833333333333],[-95.67083333333333,29.984722222222224],[-95.67083333333333,29.984722222222224],[-95.69250000000001,29.98888888888889],[-95.75555555555556,30.003333333333334],[-95.75555555555556,30.003333333333334],[-95.75555555555556,30.003333333333334],[-95.84527777777777,30.022777777777776],[-95.84527777777777,30.022777777777776],[-95.84527777777777,30.022777777777776],[-96.24805555555555,30.099444444444444],[-96.24805555555555,30.099444444444444],[-96.24805555555555,30.099444444444444],[-96.24805555555555,30.099444444444444],[-96.49027777777778,30.13611111111111],[-96.49027777777778,30.13611111111111],[-96.49027777777778,30.13611111111111],[-96.49027777777778,30.13611111111111],[-96.62138888888889,30.15611111111111],[-96.62138888888889,30.15611111111111],[-96.62138888888889,30.15611111111111],[-96.75361111111111,30.176111111111112],[-96.75361111111111,30.176111111111112],[-96.75361111111111,30.176111111111112],[-96.75361111111111,30.176111111111112],[-96.75361111111111,30.176111111111112],[-96.75361111111111,30.176111111111112],[-97.15027777777779,30.235],[-97.15027777777779,30.235],[-97.15027777777779,30.235],[-97.15027777777779,30.235],[-97.15027777777779,30.235],[-97.5436111111111,30.293055555555558],[-97.5436111111111,30.293055555555558],[-97.5436111111111,30.293055555555558],[-97.5436111111111,30.293055555555558],[-97.5436111111111,30.293055555555558],[-98.18055555555556,30.415277777777778],[-98.30749999999999,30.441666666666666],[-98.30749999999999,30.441666666666666],[-98.30749999999999,30.441666666666666],[-98.30749999999999,30.441666666666666],[-98.30749999999999,30.441666666666666],[-98.30749999999999,30.441666666666666],[-98.43444444444445,30.467777777777776],[-98.43444444444445,30.467777777777776],[-98.43444444444445,30.467777777777776],[-98.43444444444445,30.467777777777776],[-98.69250000000001,30.520555555555553],[-98.69250000000001,30.520555555555553],[-98.69250000000001,30.520555555555553],[-98.94916666666667,30.572222222222223],[-98.94916666666667,30.572222222222223],[-98.94916666666667,30.572222222222223],[-98.94916666666667,30.572222222222223],[-98.94916666666667,30.572222222222223],[-99.595,30.7],[-99.595,30.7],[-99.595,30.7],[-99.595,30.7],[-99.595,30.7],[-99.595,30.7],[-99.595,30.7],[-100.22583333333334,30.82138888888889],[-100.22583333333334,30.82138888888889],[-100.22583333333334,30.82138888888889],[-100.22583333333334,30.82138888888889],[-100.22583333333334,30.82138888888889],[-100.35444444444444,30.84583333333333],[-100.35444444444444,30.84583333333333],[-100.35444444444444,30.84583333333333],[-100.35444444444444,30.84583333333333],[-100.48083333333334,30.869444444444444],[-100.48083333333334,30.869444444444444],[-100.48083333333334,30.869444444444444],[-100.86611111111111,30.941111111111113],[-100.86611111111111,30.941111111111113],[-100.86611111111111,30.941111111111113],[-100.86611111111111,30.941111111111113],[-100.99333333333334,30.964444444444442],[-100.99333333333334,30.964444444444442],[-100.99333333333334,30.964444444444442],[-101.12166666666666,30.98777777777778],[-101.12166666666666,30.98777777777778],[-101.15972222222223,30.994722222222222],[-101.15972222222223,30.994722222222222],[-101.28861111111111,31.018055555555556],[-101.28861111111111,31.018055555555556],[-101.36555555555555,31.03222222222222],[-101.36555555555555,31.03222222222222],[-101.36555555555555,31.03222222222222],[-101.36555555555555,31.03222222222222],[-101.36555555555555,31.03222222222222],[-101.41916666666667,31.041666666666668],[-101.55111111111111,31.065],[-101.55111111111111,31.065],[-101.55111111111111,31.065],[-101.55111111111111,31.065],[-101.76027777777777,31.102222222222224],[-101.76027777777777,31.102222222222224],[-101.76027777777777,31.102222222222224],[-101.76027777777777,31.102222222222224],[-101.81194444444444,31.11138888888889],[-101.81194444444444,31.11138888888889],[-101.94444444444444,31.134722222222223],[-101.94444444444444,31.134722222222223],[-102.02277777777778,31.148611111111112],[-102.07222222222222,31.15722222222222],[-102.07222222222222,31.15722222222222],[-102.15555555555557,31.17138888888889],[-102.15555555555557,31.17138888888889],[-102.15555555555557,31.17138888888889],[-102.15555555555557,31.17138888888889],[-102.28805555555556,31.194444444444446],[-102.28805555555556,31.194444444444446],[-102.28805555555556,31.194444444444446],[-102.33361111111111,31.2025],[-102.33361111111111,31.2025],[-102.46555555555555,31.224999999999998],[-102.46555555555555,31.224999999999998],[-102.68916666666667,31.263055555555557],[-102.68916666666667,31.263055555555557],[-102.74138888888889,31.271666666666665],[-102.94944444444445,31.30666666666667],[-102.94944444444445,31.30666666666667],[-103.0025,31.315555555555555],[-103.0025,31.315555555555555],[-103.0025,31.315555555555555],[-103.0025,31.315555555555555],[-103.07944444444443,31.328333333333333],[-103.07944444444443,31.328333333333333],[-103.13083333333333,31.336666666666666],[-103.20777777777778,31.349444444444444],[-103.20777777777778,31.349444444444444],[-103.20777777777778,31.349444444444444],[-103.33166666666666,31.369722222222222],[-103.33166666666666,31.369722222222222],[-103.38833333333334,31.378888888888888],[-103.38833333333334,31.378888888888888],[-103.38833333333334,31.378888888888888],[-103.51888888888888,31.400277777777777],[-103.51888888888888,31.400277777777777],[-103.51888888888888,31.400277777777777],[-103.90555555555557,31.46222222222222],[-103.90555555555557,31.46222222222222],[-103.90555555555557,31.46222222222222],[-104.03416666666666,31.482499999999998],[-104.03416666666666,31.482499999999998],[-104.03416666666666,31.482499999999998],[-104.03416666666666,31.482499999999998],[-104.29305555555555,31.523055555555555],[-104.29305555555555,31.523055555555555],[-104.42111111111112,31.54277777777778],[-104.42111111111112,31.54277777777778],[-104.42111111111112,31.54277777777778],[-104.42111111111112,31.54277777777778],[-104.42111111111112,31.54277777777778],[-104.42111111111112,31.54277777777778],[-104.68333333333334,31.583055555555557],[-104.68333333333334,31.583055555555557],[-104.68333333333334,31.583055555555557],[-104.68333333333334,31.583055555555557],[-104.81194444444444,31.602777777777778],[-104.81194444444444,31.602777777777778],[-104.81194444444444,31.602777777777778],[-104.81194444444444,31.602777777777778],[-104.94277777777778,31.622222222222224],[-104.94277777777778,31.622222222222224],[-105.07194444444444,31.641666666666666],[-105.07194444444444,31.641666666666666],[-105.07194444444444,31.641666666666666],[-105.07194444444444,31.641666666666666],[-105.19972222222222,31.660555555555554],[-105.19972222222222,31.660555555555554],[-105.19972222222222,31.660555555555554],[-105.19972222222222,31.660555555555554],[-105.19972222222222,31.660555555555554],[-105.33055555555555,31.68],[-105.33055555555555,31.68],[-105.33055555555555,31.68],[-105.45861111111111,31.698611111111113],[-105.45861111111111,31.698611111111113],[-105.86333333333333,31.756944444444443],[-105.86333333333333,31.756944444444443],[-105.99277777777777,31.775277777777777],[-105.99277777777777,31.775277777777777],[-105.99277777777777,31.775277777777777],[-105.99277777777777,31.775277777777777],[-105.99277777777777,31.775277777777777],[-106.25583333333333,31.811944444444446],[-106.25583333333333,31.811944444444446],[-106.25583333333333,31.811944444444446],[-106.25583333333333,31.811944444444446],[-106.39,31.836666666666666],[-106.39,31.836666666666666],[-106.52055555555556,31.861944444444447],[-106.52055555555556,31.861944444444447],[-106.52055555555556,31.861944444444447],[-106.52055555555556,31.861944444444447],[-106.52055555555556,31.861944444444447],[-106.75333333333333,31.906388888888888],[-106.75333333333333,31.906388888888888],[-106.75333333333333,31.906388888888888],[-106.75333333333333,31.906388888888888],[-106.88555555555556,31.93138888888889],[-106.88555555555556,31.93138888888889],[-106.88555555555556,31.93138888888889],[-106.88555555555556,31.93138888888889],[-107.27638888888889,32.00472222222222],[-107.27638888888889,32.00472222222222],[-107.27638888888889,32.00472222222222],[-107.27638888888889,32.00472222222222],[-107.27638888888889,32.00472222222222],[-107.27638888888889,32.00472222222222],[-107.66777777777779,32.07666666666667],[-107.66777777777779,32.07666666666667],[-107.66777777777779,32.07666666666667],[-107.66777777777779,32.07666666666667],[-107.66777777777779,32.07666666666667],[-107.92972222222222,32.12416666666667],[-107.92972222222222,32.12416666666667],[-108.05888888888889,32.1475],[-108.05888888888889,32.1475],[-108.05888888888889,32.1475],[-108.05888888888889,32.1475],[-108.7175,32.263333333333335],[-108.7175,32.263333333333335],[-108.7175,32.263333333333335],[-108.7175,32.263333333333335],[-108.7175,32.263333333333335],[-108.84833333333333,32.28583333333333],[-108.84833333333333,32.28583333333333],[-109.24416666666667,32.35333333333333],[-109.24416666666667,32.35333333333333],[-109.24416666666667,32.35333333333333],[-109.37638888888888,32.37555555555556],[-109.37638888888888,32.37555555555556],[-109.37638888888888,32.37555555555556],[-109.37638888888888,32.37555555555556],[-109.37638888888888,32.37555555555556],[-109.37638888888888,32.37555555555556],[-109.89777777777779,32.484722222222224],[-109.89777777777779,32.484722222222224],[-109.89777777777779,32.484722222222224],[-109.89777777777779,32.484722222222224],[-109.89777777777779,32.484722222222224],[-109.89777777777779,32.484722222222224],[-110.14305555555556,32.56916666666667],[-110.14305555555556,32.56916666666667],[-110.14305555555556,32.56916666666667],[-110.14305555555556,32.56916666666667],[-110.24,32.6],[-110.24,32.6],[-110.24,32.6],[-110.51472222222222,32.69611111111111],[-110.61027777777777,32.72694444444445],[-110.61027777777777,32.72694444444445],[-110.61027777777777,32.72694444444445],[-110.63861111111112,32.73833333333334],[-110.63861111111112,32.73833333333334],[-110.76277777777777,32.780277777777776],[-110.88666666666667,32.82194444444445],[-110.88666666666667,32.82194444444445],[-110.88666666666667,32.82194444444445],[-110.88666666666667,32.82194444444445],[-110.98138888888889,32.852222222222224],[-110.98138888888889,32.852222222222224],[-111.00888888888889,32.863055555555555],[-111.25722222222223,32.94583333333333],[-111.25722222222223,32.94583333333333],[-111.25722222222223,32.94583333333333],[-111.35444444444444,32.97694444444445],[-111.35444444444444,32.97694444444445],[-111.47805555555556,33.01777777777777],[-111.47805555555556,33.01777777777777],[-111.47805555555556,33.01777777777777],[-111.47805555555556,33.01777777777777],[-111.50472222222223,33.027499999999996],[-111.50472222222223,33.027499999999996],[-111.50472222222223,33.027499999999996],[-111.60111111111111,33.058611111111105],[-111.60111111111111,33.058611111111105],[-111.60111111111111,33.058611111111105],[-111.60111111111111,33.058611111111105],[-111.60111111111111,33.058611111111105],[-111.60111111111111,33.058611111111105],[-112.12638888888888,33.230555555555554],[-112.22222222222223,33.260555555555555],[-112.22222222222223,33.260555555555555],[-112.22222222222223,33.260555555555555],[-112.22222222222223,33.260555555555555],[-112.25,33.27027777777778],[-112.25,33.27027777777778],[-112.375,33.31027777777778],[-112.45833333333334,33.336666666666666],[-112.45833333333334,33.336666666666666],[-112.50027777777778,33.35055555555556],[-112.50027777777778,33.35055555555556],[-112.50027777777778,33.35055555555556],[-112.7063888888889,33.41583333333333],[-112.7063888888889,33.41583333333333],[-112.7063888888889,33.41583333333333],[-112.73055555555555,33.42361111111111],[-112.73055555555555,33.42361111111111],[-112.95805555555556,33.47916666666667],[-112.95805555555556,33.47916666666667],[-112.95805555555556,33.47916666666667],[-113.08749999999999,33.50388888888889],[-113.08749999999999,33.50388888888889],[-113.21777777777778,33.528888888888886],[-113.21777777777778,33.528888888888886],[-113.21777777777778,33.528888888888886],[-113.34694444444445,33.55333333333333],[-113.34694444444445,33.55333333333333],[-113.34694444444445,33.55333333333333],[-113.39666666666668,33.562777777777775],[-113.47305555555556,33.57694444444445],[-113.525,33.586666666666666],[-113.525,33.586666666666666],[-113.525,33.586666666666666],[-113.60111111111111,33.600833333333334],[-113.60111111111111,33.600833333333334],[-113.60111111111111,33.600833333333334],[-113.60111111111111,33.600833333333334],[-113.60111111111111,33.600833333333334],[-113.755,33.62972222222222],[-113.755,33.62972222222222],[-113.88666666666667,33.653888888888886],[-113.88666666666667,33.653888888888886],[-114.14361111111111,33.700833333333335],[-114.14361111111111,33.700833333333335],[-114.14361111111111,33.700833333333335],[-114.14361111111111,33.700833333333335],[-114.16583333333334,33.705000000000005],[-114.295,33.72833333333333],[-114.295,33.72833333333333],[-114.295,33.72833333333333],[-114.295,33.72833333333333],[-114.295,33.72833333333333],[-114.295,33.72833333333333],[-114.66000000000001,33.81111111111111],[-114.66000000000001,33.81111111111111],[-114.66000000000001,33.81111111111111],[-114.66000000000001,33.81111111111111],[-114.66000000000001,33.81111111111111],[-114.78666666666666,33.84388888888889],[-114.78666666666666,33.84388888888889],[-114.78666666666666,33.84388888888889],[-115.16777777777779,33.940555555555555],[-115.16777777777779,33.940555555555555],[-115.16777777777779,33.940555555555555],[-115.16777777777779,33.940555555555555],[-115.16777777777779,33.940555555555555],[-115.5461111111111,34.03527777777778],[-115.5461111111111,34.03527777777778],[-115.5461111111111,34.03527777777778],[-115.5461111111111,34.03527777777778],[-115.5461111111111,34.03527777777778],[-115.6738888888889,34.066944444444445],[-115.6738888888889,34.066944444444445],[-115.92944444444444,34.13],[-115.92944444444444,34.13],[-115.92944444444444,34.13],[-115.92944444444444,34.13],[-115.92944444444444,34.13],[-116.05472222222222,34.160555555555554],[-116.05472222222222,34.160555555555554],[-116.05472222222222,34.160555555555554],[-116.18277777777779,34.19166666666666],[-116.18277777777779,34.19166666666666],[-116.18277777777779,34.19166666666666],[-116.18277777777779,34.19166666666666],[-116.43972222222223,34.25361111111111],[-116.43972222222223,34.25361111111111],[-116.43972222222223,34.25361111111111],[-116.43972222222223,34.25361111111111],[-116.82805555555555,34.34638888888889],[-116.82805555555555,34.34638888888889],[-116.82805555555555,34.34638888888889],[-116.82805555555555,34.34638888888889],[-116.82805555555555,34.34638888888889],[-116.95916666666668,34.37722222222222],[-116.95916666666668,34.37722222222222],[-117.08833333333332,34.4075],[-117.08833333333332,34.4075],[-117.21777777777778,34.437777777777775],[-117.21777777777778,34.437777777777775],[-117.21777777777778,34.437777777777775],[-117.21777777777778,34.437777777777775],[-117.21777777777778,34.437777777777775],[-117.60833333333333,34.528055555555554],[-117.60833333333333,34.528055555555554],[-117.60833333333333,34.528055555555554],[-117.60833333333333,34.528055555555554],[-117.73805555555556,34.55777777777777],[-117.73805555555556,34.55777777777777],[-117.73805555555556,34.55777777777777],[-117.73805555555556,34.55777777777777],[-117.73805555555556,34.55777777777777],[-117.99916666666667,34.61666666666667],[-117.99916666666667,34.61666666666667],[-117.99916666666667,34.61666666666667],[-117.99916666666667,34.61666666666667],[-118.23583333333333,34.724722222222226],[-118.23583333333333,34.724722222222226],[-118.35055555555554,34.78666666666666],[-118.35055555555554,34.78666666666666],[-118.35055555555554,34.78666666666666],[-118.4363888888889,34.83388888888889],[-118.4363888888889,34.83388888888889],[-118.4363888888889,34.83388888888889],[-118.4363888888889,34.83388888888889],[-118.4363888888889,34.83388888888889],[-118.66694444444445,34.95722222222223],[-118.66694444444445,34.95722222222223],[-118.66694444444445,34.95722222222223],[-118.68777777777778,34.968333333333334],[-118.68777777777778,34.968333333333334],[-118.80083333333333,35.02833333333333],[-118.80083333333333,35.02833333333333],[-118.80083333333333,35.02833333333333],[-118.89916666666667,35.07055555555556],[-118.89916666666667,35.07055555555556],[-118.89916666666667,35.07055555555556],[-119.04083333333332,35.13194444444444],[-119.14222222222223,35.175555555555555],[-119.14222222222223,35.175555555555555],[-119.14222222222223,35.175555555555555],[-119.16250000000001,35.18416666666666],[-119.16250000000001,35.18416666666666],[-119.16250000000001,35.18416666666666],[-119.26388888888889,35.2275],[-119.26388888888889,35.2275],[-119.26388888888889,35.2275],[-119.28388888888888,35.236111111111114],[-119.28388888888888,35.236111111111114],[-119.28388888888888,35.236111111111114],[-119.28388888888888,35.236111111111114],[-119.50694444444444,35.331388888888895],[-119.50694444444444,35.331388888888895],[-119.50694444444444,35.331388888888895],[-119.52666666666667,35.33972222222222],[-119.52666666666667,35.33972222222222],[-119.62805555555555,35.382777777777775],[-119.62805555555555,35.382777777777775],[-119.62805555555555,35.382777777777775],[-119.62805555555555,35.382777777777775],[-119.62805555555555,35.382777777777775],[-119.8913888888889,35.49388888888889],[-119.8913888888889,35.49388888888889],[-119.8913888888889,35.49388888888889],[-119.8913888888889,35.49388888888889],[-120.0111111111111,35.54388888888889],[-120.0111111111111,35.54388888888889],[-120.0111111111111,35.54388888888889],[-120.0111111111111,35.54388888888889],[-120.2325,35.63638888888889],[-120.2325,35.63638888888889],[-120.25027777777778,35.64361111111111],[-120.25027777777778,35.64361111111111],[-120.25027777777778,35.64361111111111],[-120.25027777777778,35.64361111111111],[-120.25027777777778,35.64361111111111],[-120.4775,35.73388888888889],[-120.4775,35.73388888888889],[-120.4775,35.73388888888889],[-120.4775,35.73388888888889],[-120.4775,35.73388888888889],[-120.60222222222221,35.78111111111111],[-120.60222222222221,35.78111111111111],[-120.60222222222221,35.78111111111111],[-120.60222222222221,35.78111111111111],[-120.60222222222221,35.78111111111111],[-120.60222222222221,35.78111111111111],[-120.74861111111112,35.83694444444445],[-120.74861111111112,35.83694444444445],[-120.74861111111112,35.83694444444445],[-120.9713888888889,35.9325],[-120.9713888888889,35.9325],[-120.9713888888889,35.9325],[-120.9713888888889,35.9325],[-120.9713888888889,35.9325],[-120.98944444444444,35.94694444444444],[-120.98944444444444,35.94694444444444],[-120.98944444444444,35.94694444444444],[-121.2761111111111,36.168055555555554],[-121.2761111111111,36.168055555555554],[-121.2761111111111,36.168055555555554],[-121.2761111111111,36.168055555555554],[-121.2761111111111,36.168055555555554],[-121.31666666666666,36.2],[-121.31666666666666,36.2],[-121.51666666666667,36.35],[-121.51666666666667,36.35],[-121.51666666666667,36.35],[-121.51666666666667,36.35],[-121.66472222222222,36.46888888888889],[-121.66472222222222,36.46888888888889],[-121.66472222222222,36.46888888888889],[-121.66472222222222,36.46888888888889],[-121.74333333333334,36.55138888888889],[-121.74333333333334,36.55138888888889],[-121.74333333333334,36.55138888888889],[-121.81138888888889,36.63666666666666],[-121.81138888888889,36.63666666666666],[-121.81138888888889,36.63666666666666],[-121.85,36.68333333333333],[-121.85,36.68333333333333],[-121.85,36.68333333333333],[-121.88527777777779,36.73166666666667],[-121.88527777777779,36.73166666666667],[-121.9,36.766666666666666],[-121.9,36.766666666666666],[-121.9,36.766666666666666],[-121.9,36.766666666666666],[-121.93333333333334,36.85],[-121.93333333333334,36.85],[-121.93333333333334,36.85],[-121.98333333333333,37.03333333333333],[-121.98333333333333,37.03333333333333],[-122.00222222222222,37.07916666666667],[-122.01666666666667,37.1],[-122.01666666666667,37.1],[-122.01666666666667,37.1],[-122.02777777777777,37.14222222222222],[-122.02777777777777,37.14222222222222],[-122.03333333333333,37.166666666666664],[-122.03333333333333,37.166666666666664],[-122.03333333333333,37.166666666666664],[-122.03333333333333,37.166666666666664],[-122.05,37.21666666666667],[-122.05,37.21666666666667],[-122.05,37.21666666666667],[-122.1,37.35],[-122.08361111111111,37.38055555555555],[-122.08361111111111,37.38055555555555],[-122.08361111111111,37.38055555555555],[-122.08333333333333,37.4],[-122.08333333333333,37.4],[-122.08111111111111,37.43583333333333],[-122.08111111111111,37.43583333333333],[-122.08111111111111,37.43583333333333],[-122.08111111111111,37.43583333333333],[-122.08111111111111,37.43583333333333],[-122.08111111111111,37.43583333333333],[-122.13333333333334,37.483333333333334],[-122.13333333333334,37.483333333333334],[-122.15694444444445,37.51638888888889],[-122.16666666666667,37.53333333333333],[-122.16666666666667,37.53333333333333],[-122.16666666666667,37.53333333333333],[-122.16666666666667,37.53333333333333],[-122.20611111111111,37.55],[-122.23333333333333,37.56666666666667],[-122.23333333333333,37.56666666666667],[-122.23333333333333,37.56666666666667],[-122.23333333333333,37.56666666666667],[-122.26277777777777,37.573888888888895],[-122.26277777777777,37.573888888888895],[-122.31361111111111,37.595],[-122.31361111111111,37.595],[-122.31361111111111,37.595]],"type":"LineString"}
}
