{
  "id": 2014798341,
  "type": "Feature",
  "properties": {
    "geom:area": 0,
    "geom:bbox": "-122.369180,37.622440,-121.252910,37.814980",
    "geom:latitude": 37.755390416404914,
    "geom:longitude": -121.84348908545148,
    "src:alt_label": "swim-approach",
    "src:geom": "swim",
    "swim:elevations": [
      4146,
      4071,
      3821,
      3356,
      3220,
      3073,
      3078,
      3046,
      3050,
      3048,
      2998,
      2750,
      2746,
      2746,
      2746,
      2743,
      2743,
      2712,
      2645,
      2571,
      2551,
      2473,
      2407,
      2281,
      2235,
      2079,
      1790,
      1739,
      1406,
      1192,
      1023,
      742,
      467,
      357,
      245,
      219,
      56,
      0
    ],
    "swim:geom": "approach",
    "swim:timestamps": [
      1771195915,
      1771195924,
      1771195950,
      1771196008,
      1771196023,
      1771196063,
      1771196078,
      1771196097,
      1771196103,
      1771196128,
      1771196146,
      1771196179,
      1771196210,
      1771196247,
      1771196266,
      1771196284,
      1771196296,
      1771196336,
      1771196366,
      1771196394,
      1771196409,
      1771196421,
      1771196443,
      1771196458,
      1771196465,
      1771196484,
      1771196514,
      1771196521,
      1771196566,
      1771196600,
      1771196636,
      1771196663,
      1771196696,
      1771196728,
      1771196753,
      1771196762,
      1771196807,
      1771196822
    ],
    "wof:geomhash": "d09092cd73a1469ee1a2c80ac3f06976",
    "wof:id": 2014798341,
    "wof:repo": "sfomuseum-data-flights-2026-02"
  },
  "bbox": [
    -122.36918,
    37.62244,
    -121.25291,
    37.81498
  ],
  "geometry": {"coordinates":[[-121.25291,37.68795],[-121.26961,37.691],[-121.31946,37.70011],[-121.42501,37.71937],[-121.45144,37.72423],[-121.51951,37.73674],[-121.5434,37.74112],[-121.57363,37.74654],[-121.58296,37.74819],[-121.62296,37.75543],[-121.65139,37.76073],[-121.70408,37.77023],[-121.75089,37.77873],[-121.80876,37.78894],[-121.83704,37.79406],[-121.86485,37.79915],[-121.88341,37.80258],[-121.94595,37.8137],[-121.9896,37.81498],[-122.02865,37.80933],[-122.0488,37.8063],[-122.06416,37.80413],[-122.09122,37.79963],[-122.10898,37.79676],[-122.11748,37.79542],[-122.14033,37.79191],[-122.17723,37.78643],[-122.18589,37.7852],[-122.24124,37.77727],[-122.27774,37.765],[-122.29258,37.73922],[-122.30442,37.72185],[-122.3193,37.69958],[-122.33255,37.67944],[-122.34216,37.66499],[-122.34591,37.65936],[-122.364,37.63205],[-122.36918,37.62244]],"type":"LineString"}
}
