{
  "id": 2014870967,
  "type": "Feature",
  "properties": {
    "geom:area": 0,
    "geom:bbox": "-122.780090,37.637300,-122.229280,38.332850",
    "geom:latitude": 37.91944436592628,
    "geom:longitude": -122.52314559109412,
    "src:alt_label": "swim-approach",
    "src:geom": "swim",
    "swim:elevations": [
      5696,
      5428,
      5159,
      5011,
      4859,
      4723,
      4673,
      4160,
      3909,
      3758,
      3376,
      3136,
      3090,
      3077,
      3030,
      2891,
      2814,
      2560,
      2557,
      2258,
      2217,
      2198,
      2087,
      1843,
      1647,
      1495,
      1347,
      1317,
      1281,
      1230,
      1158,
      1035,
      853,
      761,
      578,
      493,
      447,
      418,
      246,
      167,
      87
    ],
    "swim:geom": "approach",
    "swim:timestamps": [
      1771963429,
      1771963456,
      1771963485,
      1771963500,
      1771963516,
      1771963528,
      1771963534,
      1771963586,
      1771963613,
      1771963629,
      1771963670,
      1771963707,
      1771963723,
      1771963732,
      1771963756,
      1771963792,
      1771963807,
      1771963856,
      1771963861,
      1771963916,
      1771963930,
      1771963934,
      1771963954,
      1771964002,
      1771964034,
      1771964060,
      1771964081,
      1771964090,
      1771964108,
      1771964128,
      1771964140,
      1771964168,
      1771964206,
      1771964227,
      1771964268,
      1771964290,
      1771964305,
      1771964314,
      1771964358,
      1771964380,
      1771964404
    ],
    "wof:geomhash": "7201f6b053f06d255096026b0aaa02e0",
    "wof:id": 2014870967,
    "wof:repo": "sfomuseum-data-flights-2026-02"
  },
  "bbox": [
    -122.78009,
    37.6373,
    -122.22928,
    38.33285
  ],
  "geometry": {"coordinates":[[-122.78009,38.33285],[-122.77508,38.28946],[-122.76968,38.24188],[-122.76543,38.21731],[-122.75784,38.19112],[-122.75231,38.17158],[-122.74948,38.16184],[-122.72511,38.07844],[-122.71283,38.03618],[-122.70566,38.01124],[-122.67739,37.95274],[-122.63846,37.90388],[-122.62186,37.88343],[-122.61332,37.87294],[-122.59189,37.84712],[-122.56117,37.81032],[-122.5486,37.79548],[-122.48346,37.77374],[-122.47735,37.77565],[-122.40443,37.81359],[-122.39008,37.82471],[-122.38519,37.82841],[-122.36532,37.84354],[-122.31277,37.87128],[-122.27478,37.8622],[-122.24544,37.85436],[-122.22928,37.84057],[-122.23052,37.83341],[-122.23857,37.82132],[-122.2471,37.80755],[-122.25259,37.79911],[-122.26556,37.77992],[-122.28273,37.75436],[-122.29208,37.74026],[-122.31009,37.71322],[-122.3187,37.7002],[-122.32434,37.69169],[-122.32775,37.68665],[-122.34346,37.663],[-122.35133,37.6511],[-122.36057,37.6373]],"type":"LineString"}
}
