{
  "id": 2014872781,
  "type": "Feature",
  "properties": {
    "geom:area": 0,
    "geom:bbox": "-122.756111,37.551667,-119.766667,39.471667",
    "geom:latitude": 38.844727922874625,
    "geom:longitude": -121.7449462632015,
    "src:alt_label": "swim-path",
    "src:geom": "swim",
    "swim:altitudes": [
      "077",
      "077",
      "077",
      "077",
      "197",
      "197",
      "197",
      "197",
      "197",
      "242",
      "242",
      "242",
      "242",
      "260C",
      "260C",
      "260C",
      "260C",
      "260C",
      "260C",
      "260C",
      "260C",
      "260C",
      "260C",
      "260C",
      "260C",
      "260C",
      "260C",
      "260C",
      "260C",
      "260C",
      "260C",
      "260C",
      "260C",
      "260C",
      "260C",
      "260C",
      "260C",
      "260C",
      "260C",
      "260C",
      "260C",
      "260C",
      "260C",
      "260C",
      "260C",
      "260C",
      "260C",
      "260C",
      "260C",
      "247",
      "247",
      "247",
      "247",
      "247",
      "216",
      "216",
      "206",
      "206",
      "206",
      "206",
      "206",
      "206",
      "187",
      "187",
      "187",
      "187",
      "187",
      "177",
      "177",
      "161",
      "161",
      "161",
      "161",
      "143",
      "143",
      "110",
      "110",
      "110",
      "110",
      "110",
      "109C",
      "107",
      "107",
      "107",
      "090",
      "088",
      "078",
      "078",
      "078",
      "058",
      "058",
      "058",
      "032",
      "023",
      "023",
      "023",
      "023",
      "023",
      "020",
      "018",
      "018",
      "018",
      "003",
      "003",
      "003",
      "003",
      "003"
    ],
    "swim:geom": "path",
    "swim:speeds": [
      192,
      192,
      192,
      192,
      368,
      368,
      368,
      368,
      368,
      399,
      399,
      399,
      399,
      410,
      410,
      410,
      410,
      410,
      409,
      409,
      407,
      407,
      407,
      407,
      407,
      407,
      411,
      411,
      411,
      412,
      412,
      412,
      405,
      405,
      405,
      405,
      409,
      409,
      409,
      409,
      410,
      425,
      425,
      425,
      440,
      440,
      440,
      440,
      440,
      388,
      388,
      388,
      388,
      388,
      364,
      364,
      362,
      362,
      362,
      362,
      362,
      362,
      354,
      354,
      354,
      354,
      354,
      360,
      360,
      354,
      354,
      354,
      354,
      344,
      344,
      313,
      313,
      313,
      313,
      313,
      320,
      271,
      271,
      271,
      270,
      269,
      256,
      256,
      256,
      249,
      249,
      249,
      204,
      199,
      199,
      199,
      199,
      199,
      201,
      187,
      187,
      187,
      154,
      154,
      154,
      154,
      154
    ],
    "swim:timestamps": [
      1771954759,
      1771954759,
      1771954759,
      1771954759,
      1771955051,
      1771955051,
      1771955051,
      1771955051,
      1771955051,
      1771955172,
      1771955172,
      1771955172,
      1771955172,
      1771955292,
      1771955292,
      1771955292,
      1771955352,
      1771955352,
      1771955472,
      1771955472,
      1771955592,
      1771955592,
      1771955592,
      1771955592,
      1771955592,
      1771955592,
      1771955832,
      1771955832,
      1771955832,
      1771955892,
      1771955892,
      1771955892,
      1771955952,
      1771955952,
      1771955952,
      1771955952,
      1771956073,
      1771956073,
      1771956073,
      1771956073,
      1771956133,
      1771956193,
      1771956193,
      1771956193,
      1771956253,
      1771956253,
      1771956253,
      1771956253,
      1771956253,
      1771956373,
      1771956373,
      1771956373,
      1771956373,
      1771956373,
      1771956553,
      1771956553,
      1771956613,
      1771956613,
      1771956613,
      1771956613,
      1771956613,
      1771956613,
      1771956793,
      1771956793,
      1771956793,
      1771956793,
      1771956793,
      1771956854,
      1771956854,
      1771956914,
      1771956914,
      1771956914,
      1771956914,
      1771956974,
      1771956974,
      1771957094,
      1771957094,
      1771957094,
      1771957094,
      1771957094,
      1771957106,
      1771957154,
      1771957154,
      1771957154,
      1771957213,
      1771957226,
      1771957268,
      1771957268,
      1771957268,
      1771957346,
      1771957346,
      1771957346,
      1771957466,
      1771957508,
      1771957508,
      1771957508,
      1771957508,
      1771957508,
      1771957526,
      1771957568,
      1771957568,
      1771957568,
      1771957706,
      1771957706,
      1771957706,
      1771957706,
      1771957706
    ],
    "wof:geomhash": "28b6b80602dbc0dd0b98df85f14a94db",
    "wof:id": 2014872781,
    "wof:repo": "sfomuseum-data-flights-2026-02"
  },
  "bbox": [
    -122.75611111111111,
    37.55166666666666,
    -119.76666666666667,
    39.47166666666667
  ],
  "geometry": {"coordinates":[[-119.76666666666667,39.45],[-119.76666666666667,39.45],[-119.76666666666667,39.45],[-119.76666666666667,39.45],[-119.97027777777778,39.15083333333333],[-119.97027777777778,39.15083333333333],[-119.97027777777778,39.15083333333333],[-119.97027777777778,39.15083333333333],[-119.97027777777778,39.15083333333333],[-120.25944444444444,39.20027777777778],[-120.25944444444444,39.20027777777778],[-120.25944444444444,39.20027777777778],[-120.25944444444444,39.20027777777778],[-120.54472222222222,39.2475],[-120.54472222222222,39.2475],[-120.54472222222222,39.2475],[-120.68777777777778,39.270833333333336],[-120.68777777777778,39.270833333333336],[-120.97111111111111,39.31666666666667],[-120.97111111111111,39.31666666666667],[-121.25638888888889,39.35944444444445],[-121.25638888888889,39.35944444444445],[-121.25638888888889,39.35944444444445],[-121.25638888888889,39.35944444444445],[-121.25638888888889,39.35944444444445],[-121.25638888888889,39.35944444444445],[-121.83416666666666,39.448611111111106],[-121.83416666666666,39.448611111111106],[-121.83416666666666,39.448611111111106],[-121.97805555555556,39.47166666666667],[-121.97805555555556,39.47166666666667],[-121.97805555555556,39.47166666666667],[-122.11833333333333,39.4575],[-122.11833333333333,39.4575],[-122.11833333333333,39.4575],[-122.11833333333333,39.4575],[-122.38,39.35527777777778],[-122.38,39.35527777777778],[-122.38,39.35527777777778],[-122.38,39.35527777777778],[-122.50972222222222,39.303888888888885],[-122.61749999999999,39.224722222222226],[-122.61749999999999,39.224722222222226],[-122.61749999999999,39.224722222222226],[-122.6363888888889,39.10611111111111],[-122.6363888888889,39.10611111111111],[-122.6363888888889,39.10611111111111],[-122.6363888888889,39.10611111111111],[-122.6363888888889,39.10611111111111],[-122.67166666666667,38.873333333333335],[-122.67166666666667,38.873333333333335],[-122.67166666666667,38.873333333333335],[-122.67166666666667,38.873333333333335],[-122.67166666666667,38.873333333333335],[-122.71638888888889,38.57277777777778],[-122.71638888888889,38.57277777777778],[-122.73138888888889,38.471944444444446],[-122.73138888888889,38.471944444444446],[-122.73138888888889,38.471944444444446],[-122.73138888888889,38.471944444444446],[-122.73138888888889,38.471944444444446],[-122.73138888888889,38.471944444444446],[-122.75611111111111,38.18472222222222],[-122.75611111111111,38.18472222222222],[-122.75611111111111,38.18472222222222],[-122.75611111111111,38.18472222222222],[-122.75611111111111,38.18472222222222],[-122.72722222222222,38.08527777777778],[-122.72722222222222,38.08527777777778],[-122.7,37.99166666666667],[-122.7,37.99166666666667],[-122.7,37.99166666666667],[-122.7,37.99166666666667],[-122.66972222222223,37.901944444444446],[-122.66972222222223,37.901944444444446],[-122.5,37.75],[-122.5,37.75],[-122.5,37.75],[-122.5,37.75],[-122.5,37.75],[-122.50861111111111,37.743611111111115],[-122.41666666666667,37.7],[-122.41666666666667,37.7],[-122.41666666666667,37.7],[-122.33333333333333,37.68333333333333],[-122.31388888888888,37.67027777777778],[-122.25,37.65],[-122.25,37.65],[-122.25,37.65],[-122.14944444444446,37.62027777777778],[-122.14944444444446,37.62027777777778],[-122.14944444444446,37.62027777777778],[-122.10583333333332,37.55166666666666],[-122.15,37.56666666666667],[-122.15,37.56666666666667],[-122.15,37.56666666666667],[-122.15,37.56666666666667],[-122.15,37.56666666666667],[-122.1738888888889,37.56444444444444],[-122.21666666666667,37.56666666666667],[-122.21666666666667,37.56666666666667],[-122.21666666666667,37.56666666666667],[-122.3436111111111,37.60777777777778],[-122.3436111111111,37.60777777777778],[-122.3436111111111,37.60777777777778],[-122.3436111111111,37.60777777777778],[-122.3436111111111,37.60777777777778]],"type":"LineString"}
}
