{
  "id": 2014844867,
  "type": "Feature",
  "properties": {
    "geom:area": 0,
    "geom:bbox": "-122.366667,37.633333,-74.200000,41.505556",
    "geom:latitude": 39.25734980391584,
    "geom:longitude": -98.1849725977601,
    "src:alt_label": "swim-path",
    "src:geom": "swim",
    "swim:altitudes": [
      "004",
      "034",
      "053",
      "106",
      "150",
      "150",
      "275",
      "287",
      "313",
      "330C",
      "330C",
      "330C",
      "331",
      "331",
      "339",
      "339",
      "350C",
      "350C",
      "350C",
      "350C",
      "350C",
      "350C",
      "350C",
      "350C",
      "350C",
      "350C",
      "350C",
      "350C",
      "350C",
      "350C",
      "350C",
      "350C",
      "350C",
      "350C",
      "350C",
      "350C",
      "350C",
      "350C",
      "350C",
      "350C",
      "350C",
      "350C",
      "350C",
      "350C",
      "350C",
      "350C",
      "350C",
      "350C",
      "350C",
      "350C",
      "350C",
      "350C",
      "350C",
      "350C",
      "350C",
      "350C",
      "350C",
      "350C",
      "350C",
      "350C",
      "350C",
      "350C",
      "350C",
      "350C",
      "350C",
      "350C",
      "350C",
      "350C",
      "350C",
      "350C",
      "350C",
      "350C",
      "350C",
      "350C",
      "350C",
      "350C",
      "350C",
      "350C",
      "350C",
      "350C",
      "350C",
      "350C",
      "350C",
      "350C",
      "350C",
      "350C",
      "350C",
      "350C",
      "350C",
      "350C",
      "350C",
      "350C",
      "350C",
      "350C",
      "350C",
      "350C",
      "350C",
      "350C",
      "350C",
      "350C",
      "350C",
      "350C",
      "350C",
      "350C",
      "350C",
      "350C",
      "350C",
      "350C",
      "350C",
      "350C",
      "350C",
      "350C",
      "350C",
      "350C",
      "350C",
      "350C",
      "350C",
      "350C",
      "350C",
      "350C",
      "350C",
      "350C",
      "350C",
      "350C",
      "350C",
      "350C",
      "350C",
      "350C",
      "350C",
      "350C",
      "350C",
      "350C",
      "350C",
      "350C",
      "350C",
      "350C",
      "350C",
      "350C",
      "350C",
      "350C",
      "350C",
      "350C",
      "350C",
      "350C",
      "350C",
      "350C",
      "350C",
      "350C",
      "350C",
      "350C",
      "350C",
      "350C",
      "350C",
      "350C",
      "350C",
      "350C",
      "350C",
      "350C",
      "350C",
      "350C",
      "350C",
      "350C",
      "350C",
      "350C",
      "350C",
      "350C",
      "350C",
      "350C",
      "350C",
      "350C",
      "350C",
      "350C",
      "350C",
      "350C",
      "350C",
      "350C",
      "350C",
      "350C",
      "350C",
      "350C",
      "350C",
      "350C",
      "350C",
      "350C",
      "350C",
      "350C",
      "350C",
      "350C",
      "350C",
      "350C",
      "350C",
      "350C",
      "350C",
      "350C",
      "350C",
      "350C",
      "350C",
      "350C",
      "350C",
      "350C",
      "350C",
      "350C",
      "350C",
      "350C",
      "350C",
      "350C",
      "350C",
      "350C",
      "350C",
      "350C",
      "350C",
      "350C",
      "350C",
      "350C",
      "350C",
      "350C",
      "350C",
      "350C",
      "350C",
      "350C",
      "350C",
      "348",
      "334",
      "334",
      "327",
      "328",
      "329",
      "319",
      "319",
      "302",
      "302",
      "287",
      "284",
      "264",
      "251",
      "212",
      "205",
      "183",
      "164",
      "164",
      "104",
      "096",
      "095",
      "083",
      "083",
      "060",
      "051",
      "030",
      "030",
      "030",
      "030",
      "024",
      "022",
      "008",
      "008"
    ],
    "swim:geom": "path",
    "swim:speeds": [
      179,
      181,
      233,
      292,
      360,
      360,
      462,
      470,
      488,
      499,
      503,
      503,
      498,
      498,
      501,
      501,
      503,
      503,
      500,
      497,
      499,
      499,
      515,
      515,
      515,
      515,
      514,
      514,
      514,
      513,
      513,
      513,
      514,
      514,
      515,
      515,
      517,
      517,
      519,
      522,
      522,
      522,
      522,
      523,
      522,
      523,
      523,
      526,
      526,
      527,
      527,
      527,
      527,
      528,
      527,
      527,
      527,
      527,
      528,
      528,
      528,
      530,
      531,
      533,
      533,
      535,
      535,
      535,
      535,
      536,
      538,
      539,
      539,
      540,
      541,
      541,
      541,
      542,
      542,
      542,
      542,
      543,
      543,
      541,
      543,
      543,
      543,
      541,
      541,
      541,
      539,
      539,
      540,
      543,
      545,
      546,
      546,
      547,
      547,
      548,
      548,
      548,
      548,
      548,
      548,
      552,
      552,
      556,
      557,
      561,
      561,
      562,
      563,
      563,
      567,
      567,
      569,
      569,
      570,
      570,
      570,
      570,
      570,
      570,
      570,
      570,
      570,
      570,
      568,
      568,
      570,
      571,
      571,
      574,
      576,
      576,
      576,
      577,
      579,
      580,
      580,
      585,
      585,
      585,
      585,
      587,
      589,
      589,
      591,
      591,
      595,
      595,
      594,
      594,
      594,
      593,
      591,
      591,
      587,
      585,
      584,
      584,
      584,
      584,
      583,
      583,
      582,
      582,
      582,
      582,
      580,
      579,
      579,
      579,
      579,
      579,
      579,
      581,
      581,
      580,
      580,
      581,
      580,
      580,
      580,
      580,
      580,
      580,
      580,
      579,
      579,
      579,
      579,
      577,
      576,
      576,
      576,
      576,
      576,
      576,
      577,
      579,
      579,
      579,
      579,
      578,
      576,
      576,
      576,
      571,
      571,
      569,
      567,
      567,
      565,
      565,
      564,
      561,
      560,
      560,
      556,
      555,
      549,
      549,
      542,
      544,
      561,
      568,
      568,
      565,
      565,
      573,
      566,
      544,
      537,
      498,
      489,
      476,
      465,
      465,
      361,
      329,
      332,
      324,
      324,
      314,
      302,
      300,
      300,
      246,
      204,
      195,
      193,
      168,
      168
    ],
    "swim:timestamps": [
      1771634728,
      1771634793,
      1771634853,
      1771634973,
      1771635093,
      1771635093,
      1771635514,
      1771635574,
      1771635694,
      1771635814,
      1771635874,
      1771635934,
      1771636114,
      1771636114,
      1771636174,
      1771636174,
      1771636355,
      1771636355,
      1771636475,
      1771636595,
      1771636715,
      1771636715,
      1771637200,
      1771637200,
      1771637320,
      1771637320,
      1771637441,
      1771637501,
      1771637501,
      1771637561,
      1771637741,
      1771637741,
      1771637861,
      1771637861,
      1771637921,
      1771637921,
      1771638041,
      1771638041,
      1771638101,
      1771638282,
      1771638282,
      1771638582,
      1771638582,
      1771638609,
      1771638729,
      1771638762,
      1771638762,
      1771638943,
      1771638943,
      1771639003,
      1771639003,
      1771639089,
      1771639123,
      1771639210,
      1771639243,
      1771639270,
      1771639270,
      1771639303,
      1771639330,
      1771639363,
      1771639390,
      1771639483,
      1771639543,
      1771639690,
      1771639690,
      1771639870,
      1771639870,
      1771639931,
      1771639991,
      1771640051,
      1771640291,
      1771640351,
      1771640351,
      1771640411,
      1771640471,
      1771640471,
      1771640531,
      1771640712,
      1771640712,
      1771640772,
      1771640772,
      1771640988,
      1771640988,
      1771641072,
      1771641108,
      1771641108,
      1771641168,
      1771641192,
      1771641192,
      1771641252,
      1771641312,
      1771641348,
      1771641408,
      1771641433,
      1771641493,
      1771641529,
      1771641553,
      1771641586,
      1771641586,
      1771641706,
      1771641733,
      1771641826,
      1771641853,
      1771641887,
      1771641913,
      1771642007,
      1771642007,
      1771642067,
      1771642093,
      1771642187,
      1771642187,
      1771642214,
      1771642247,
      1771642274,
      1771642514,
      1771642514,
      1771642608,
      1771642668,
      1771642728,
      1771642728,
      1771642909,
      1771642909,
      1771642969,
      1771643089,
      1771643149,
      1771643149,
      1771643209,
      1771643209,
      1771643509,
      1771643509,
      1771643690,
      1771643750,
      1771643750,
      1771643990,
      1771644110,
      1771644110,
      1771644170,
      1771644231,
      1771644291,
      1771644351,
      1771644351,
      1771644463,
      1771644463,
      1771644523,
      1771644531,
      1771644651,
      1771644711,
      1771644763,
      1771644771,
      1771644771,
      1771644943,
      1771644943,
      1771645010,
      1771645063,
      1771645123,
      1771645130,
      1771645304,
      1771645311,
      1771645431,
      1771645544,
      1771645604,
      1771645604,
      1771645664,
      1771645664,
      1771645784,
      1771645793,
      1771645844,
      1771645904,
      1771645913,
      1771645913,
      1771646144,
      1771646205,
      1771646265,
      1771646265,
      1771646325,
      1771646332,
      1771646385,
      1771646481,
      1771646541,
      1771646565,
      1771646573,
      1771646601,
      1771646625,
      1771646685,
      1771646753,
      1771646781,
      1771646841,
      1771646841,
      1771646873,
      1771646901,
      1771647129,
      1771647129,
      1771647202,
      1771647291,
      1771647351,
      1771647351,
      1771647442,
      1771647442,
      1771647471,
      1771647531,
      1771647623,
      1771647743,
      1771647743,
      1771647825,
      1771647832,
      1771647923,
      1771647983,
      1771648005,
      1771648065,
      1771648163,
      1771648185,
      1771648224,
      1771648245,
      1771648245,
      1771648305,
      1771648341,
      1771648365,
      1771648425,
      1771648485,
      1771648485,
      1771648605,
      1771648666,
      1771648761,
      1771648761,
      1771648821,
      1771648846,
      1771648882,
      1771648941,
      1771648941,
      1771649001,
      1771649001,
      1771649061,
      1771649086,
      1771649146,
      1771649181,
      1771649302,
      1771649326,
      1771649386,
      1771649446,
      1771649446,
      1771649746,
      1771649797,
      1771649806,
      1771649867,
      1771649867,
      1771649987,
      1771650047,
      1771650167,
      1771650167,
      1771650287,
      1771650337,
      1771650397,
      1771650407,
      1771650457,
      1771650457
    ],
    "wof:geomhash": "33f367869c611b64c3689ed9856ce7af",
    "wof:id": 2014844867,
    "wof:repo": "sfomuseum-data-flights-2026-02"
  },
  "bbox": [
    -122.36666666666666,
    37.63333333333333,
    -74.2,
    41.50555555555555
  ],
  "geometry": {"coordinates":[[-122.36666666666666,37.63333333333333],[-122.31861111111111,37.663888888888884],[-122.27361111111111,37.71083333333333],[-122.12777777777777,37.79111111111111],[-121.89361111111111,37.83888888888889],[-121.89361111111111,37.83888888888889],[-120.87972222222221,37.989444444444445],[-120.71805555555555,38.01361111111111],[-120.38333333333334,38.06722222222223],[-120.03972222222222,38.12166666666667],[-119.86666666666666,38.14888888888889],[-119.69,38.17638888888889],[-119.16361111111112,38.25611111111111],[-119.16361111111112,38.25611111111111],[-118.9888888888889,38.282222222222224],[-118.9888888888889,38.282222222222224],[-118.46583333333334,38.35805555555556],[-118.46583333333334,38.35805555555556],[-118.12166666666666,38.40694444444444],[-117.77,38.455555555555556],[-117.41888888888889,38.503055555555555],[-117.41888888888889,38.503055555555555],[-115.95583333333333,38.48722222222222],[-115.95583333333333,38.48722222222222],[-115.59083333333332,38.475833333333334],[-115.59083333333332,38.475833333333334],[-115.20916666666668,38.46222222222222],[-115.0275,38.455555555555556],[-115.0275,38.455555555555556],[-114.84777777777778,38.44833333333333],[-114.30333333333333,38.425],[-114.30333333333333,38.425],[-113.9388888888889,38.40833333333333],[-113.9388888888889,38.40833333333333],[-113.75583333333333,38.39944444444444],[-113.75583333333333,38.39944444444444],[-113.38916666666667,38.380833333333335],[-113.38916666666667,38.380833333333335],[-113.20611111111111,38.37083333333334],[-112.65111111111112,38.32166666666667],[-112.65111111111112,38.32166666666667],[-111.7713888888889,38.22166666666667],[-111.7713888888889,38.22166666666667],[-111.66527777777779,38.20916666666667],[-111.29916666666666,38.165277777777774],[-111.22472222222223,38.156388888888884],[-111.22472222222223,38.156388888888884],[-110.65527777777778,38.08527777777778],[-110.65527777777778,38.08527777777778],[-110.47111111111111,38.06166666666666],[-110.47111111111111,38.06166666666666],[-110.21694444444445,38.02861111111111],[-110.1061111111111,38.01416666666667],[-109.83,38.01583333333333],[-109.74,38.02472222222222],[-109.64777777777779,38.03388888888889],[-109.64777777777779,38.03388888888889],[-109.55416666666666,38.043055555555554],[-109.48333333333333,38.05],[-109.37138888888889,38.06055555555555],[-109.29722222222222,38.0675],[-109,38.09444444444445],[-108.8261111111111,38.09805555555556],[-108.36583333333333,38.08638888888889],[-108.36583333333333,38.08638888888889],[-107.80416666666666,38.07027777777778],[-107.80416666666666,38.07027777777778],[-107.61722222222221,38.064166666666665],[-107.39722222222223,38.05694444444444],[-107.20916666666668,38.05],[-106.46833333333333,38.02111111111111],[-106.27944444444444,38.01277777777778],[-106.27944444444444,38.01277777777778],[-106.08916666666666,38.00416666666667],[-105.89777777777779,38.00138888888889],[-105.89777777777779,38.00138888888889],[-105.7088888888889,38.00388888888889],[-105.13555555555556,38.00944444444445],[-105.13555555555556,38.00944444444445],[-104.94527777777778,38.01083333333333],[-104.94527777777778,38.01083333333333],[-104.25055555555555,38.01305555555555],[-104.25055555555555,38.01305555555555],[-103.98611111111111,38.0125],[-103.87055555555555,38.01277777777778],[-103.87055555555555,38.01277777777778],[-103.68111111111112,38.01138888888889],[-103.60277777777777,38.01111111111111],[-103.60277777777777,38.01111111111111],[-103.41000000000001,38.00972222222222],[-103.22166666666666,38.00805555555556],[-103.11305555555555,38.007222222222225],[-102.92361111111111,38.01611111111111],[-102.84333333333333,38.02916666666667],[-102.65694444444445,38.0625],[-102.54777777777778,38.081944444444446],[-102.46916666666667,38.096111111111114],[-102.35944444444443,38.11527777777778],[-102.35944444444443,38.11527777777778],[-101.98166666666667,38.180277777777775],[-101.90083333333334,38.19416666666666],[-101.60194444444444,38.24444444444445],[-101.52222222222223,38.2575],[-101.41111111111111,38.27583333333333],[-101.33138888888888,38.28916666666667],[-101.02638888888889,38.33888888888889],[-101.02638888888889,38.33888888888889],[-100.83,38.370555555555555],[-100.75222222222222,38.382777777777775],[-100.4388888888889,38.43222222222222],[-100.4388888888889,38.43222222222222],[-100.35666666666665,38.44499999999999],[-100.24138888888889,38.463055555555556],[-100.16194444444444,38.47527777777778],[-99.37555555555555,38.60194444444445],[-99.37555555555555,38.60194444444445],[-99.0925,38.64666666666667],[-98.89416666666668,38.67777777777778],[-98.69388888888889,38.70861111111111],[-98.69388888888889,38.70861111111111],[-98.09444444444443,38.799166666666665],[-98.09444444444443,38.799166666666665],[-97.89500000000001,38.828611111111115],[-97.47444444444444,38.88916666666667],[-97.29222222222222,38.915],[-97.29222222222222,38.915],[-97.09222222222222,38.94305555555555],[-97.09222222222222,38.94305555555555],[-96.07805555555555,39.07944444444445],[-96.07805555555555,39.07944444444445],[-95.47638888888889,39.152499999999996],[-95.25888888888889,39.17722222222222],[-95.25888888888889,39.17722222222222],[-94.48,39.26305555555555],[-94.07027777777778,39.30611111111111],[-94.07027777777778,39.30611111111111],[-93.86666666666666,39.32694444444445],[-93.63472222222222,39.35],[-93.42750000000001,39.37027777777778],[-93.22305555555556,39.39],[-93.22305555555556,39.39],[-92.84944444444444,39.42444444444444],[-92.84944444444444,39.42444444444444],[-92.64194444444445,39.44277777777778],[-92.6,39.4475],[-92.18388888888889,39.48444444444444],[-91.9725,39.50694444444444],[-91.81055555555555,39.535555555555554],[-91.76777777777778,39.54333333333333],[-91.76777777777778,39.54333333333333],[-91.14611111111111,39.659166666666664],[-91.14611111111111,39.659166666666664],[-90.935,39.6975],[-90.73111111111112,39.73416666666667],[-90.52388888888889,39.770833333333336],[-90.52388888888889,39.770833333333336],[-89.905,39.87916666666667],[-89.90138888888889,39.88],[-89.49166666666667,39.95194444444445],[-89.08416666666666,40.02194444444444],[-88.87805555555555,40.056666666666665],[-88.87805555555555,40.056666666666665],[-88.67416666666666,40.09055555555556],[-88.67416666666666,40.09055555555556],[-88.26083333333334,40.15833333333333],[-88.26083333333334,40.15833333333333],[-88.05638888888889,40.191111111111105],[-87.87222222222222,40.22027777777778],[-87.84805555555555,40.22416666666667],[-87.84805555555555,40.22416666666667],[-87.01805555555555,40.35194444444445],[-86.81166666666667,40.382777777777775],[-86.60194444444444,40.41361111111111],[-86.60194444444444,40.41361111111111],[-86.39583333333334,40.44361111111111],[-86.37527777777777,40.446666666666665],[-86.1863888888889,40.470555555555556],[-85.87249999999999,40.496944444444445],[-85.665,40.515],[-85.5525,40.525],[-85.5525,40.525],[-85.45472222222223,40.53361111111111],[-85.34027777777777,40.54333333333333],[-85.13166666666666,40.56111111111111],[-84.9213888888889,40.57888888888889],[-84.81805555555555,40.58722222222222],[-84.60833333333333,40.603611111111114],[-84.60833333333333,40.603611111111114],[-84.48222222222222,40.61361111111111],[-84.39888888888889,40.62],[-83.60833333333333,40.67805555555555],[-83.60833333333333,40.67805555555555],[-83.34055555555555,40.698055555555555],[-83.015,40.750277777777775],[-82.80333333333333,40.7875],[-82.80333333333333,40.7875],[-82.51805555555555,40.836666666666666],[-82.51805555555555,40.836666666666666],[-82.39472222222223,40.8575],[-82.19055555555556,40.891666666666666],[-81.90305555555557,40.93944444444444],[-81.49416666666667,41.005833333333335],[-81.49416666666667,41.005833333333335],[-81.20777777777778,41.05027777777777],[-81.1588888888889,41.05888888888889],[-80.86749999999999,41.10444444444445],[-80.66277777777778,41.13583333333333],[-80.58611111111111,41.14722222222222],[-80.37888888888888,41.17805555555555],[-80.04638888888888,41.22805555555556],[-79.96722222222222,41.239444444444445],[-79.84555555555555,41.257222222222225],[-79.76305555555555,41.26861111111111],[-79.76305555555555,41.26861111111111],[-79.55833333333334,41.29861111111111],[-79.43416666666667,41.316111111111105],[-79.35305555555556,41.327222222222225],[-79.13138888888888,41.358333333333334],[-78.92777777777778,41.38638888888889],[-78.92777777777778,41.38638888888889],[-78.5275,41.44027777777777],[-78.3261111111111,41.46666666666667],[-78.00805555555556,41.50555555555555],[-78.00805555555556,41.50555555555555],[-77.8086111111111,41.490833333333335],[-77.72722222222222,41.47944444444445],[-77.60749999999999,41.46194444444445],[-77.39833333333334,41.43138888888889],[-77.39833333333334,41.43138888888889],[-77.19416666666667,41.401111111111106],[-77.19416666666667,41.401111111111106],[-76.98694444444445,41.37027777777778],[-76.90666666666667,41.358333333333334],[-76.71166666666667,41.321111111111115],[-76.59916666666666,41.29194444444444],[-76.24388888888889,41.19583333333333],[-76.17166666666667,41.17611111111111],[-75.99861111111112,41.12861111111111],[-75.84527777777777,41.086666666666666],[-75.84527777777777,41.086666666666666],[-75.12888888888888,40.88611111111111],[-75.03333333333333,40.85],[-75.01305555555555,40.84055555555556],[-74.9225,40.78861111111111],[-74.9225,40.78861111111111],[-74.73694444444445,40.68138888888889],[-74.65055555555556,40.63111111111111],[-74.47305555555556,40.527499999999996],[-74.47305555555556,40.527499999999996],[-74.29833333333333,40.51166666666666],[-74.25,40.55],[-74.23333333333333,40.6],[-74.22166666666666,40.60861111111111],[-74.2,40.65],[-74.2,40.65]],"type":"LineString"}
}
