{
  "id": 2014792613,
  "type": "Feature",
  "properties": {
    "geom:area": 0,
    "geom:bbox": "-122.272222,37.726667,-70.688611,43.024722",
    "geom:latitude": 41.96683352803392,
    "geom:longitude": -96.69121827193734,
    "src:alt_label": "swim-path",
    "src:geom": "swim",
    "swim:altitudes": [
      "041",
      "041",
      "041",
      "041",
      "093",
      "093",
      "093",
      "093",
      "109",
      "109",
      "109",
      "109",
      "109",
      "124",
      "124",
      "124",
      "159",
      "159",
      "159",
      "176",
      "176",
      "176",
      "176",
      "202",
      "202",
      "202",
      "227",
      "227",
      "227",
      "227",
      "235",
      "235",
      "235",
      "253",
      "253",
      "253",
      "253",
      "279",
      "279",
      "281",
      "281",
      "281",
      "290",
      "290",
      "303",
      "310",
      "310",
      "312",
      "312",
      "312",
      "330C",
      "330C",
      "330C",
      "330C",
      "330C",
      "330C",
      "330C",
      "330C",
      "330C",
      "330C",
      "330C",
      "330C",
      "330C",
      "330C",
      "330C",
      "330C",
      "330C",
      "330C",
      "330C",
      "330C",
      "330C",
      "330C",
      "330C",
      "330C",
      "330C",
      "330C",
      "330C",
      "330C",
      "330C",
      "330C",
      "330C",
      "330C",
      "330C",
      "330C",
      "330C",
      "330C",
      "330C",
      "330C",
      "330C",
      "330C",
      "330C",
      "330C",
      "330C",
      "330C",
      "330C",
      "330C",
      "330C",
      "330C",
      "330C",
      "330C",
      "330C",
      "330C",
      "330C",
      "330C",
      "330C",
      "330C",
      "330C",
      "330C",
      "330C",
      "330C",
      "330C",
      "330C",
      "330C",
      "330C",
      "330C",
      "330C",
      "330C",
      "330C",
      "330C",
      "330C",
      "330C",
      "330C",
      "330C",
      "330C",
      "330C",
      "330C",
      "330C",
      "330C",
      "330C",
      "330C",
      "330C",
      "330C",
      "330C",
      "330C",
      "330C",
      "330C",
      "330C",
      "330C",
      "330C",
      "330C",
      "330C",
      "330C",
      "330C",
      "330C",
      "330C",
      "330C",
      "330C",
      "330C",
      "330C",
      "330C",
      "330C",
      "330C",
      "330C",
      "330C",
      "330",
      "330",
      "340",
      "350C",
      "350C",
      "350C",
      "350C",
      "350C",
      "350C",
      "350C",
      "350C",
      "350C",
      "350C",
      "351C",
      "351C",
      "350C",
      "350C",
      "350C",
      "350C",
      "350C",
      "350C",
      "350C",
      "350C",
      "350C",
      "350C",
      "350C",
      "350C",
      "350C",
      "350C",
      "350C",
      "350C",
      "350C",
      "350C",
      "350C",
      "350C",
      "350C",
      "350C",
      "350C",
      "350C",
      "350C",
      "350C",
      "350C",
      "350C",
      "350C",
      "350C",
      "350C",
      "350C",
      "350C",
      "350C",
      "350C",
      "350C",
      "350C",
      "350C",
      "350C",
      "350C",
      "350C",
      "350C",
      "350C",
      "350C",
      "350C",
      "350C",
      "350C",
      "350C",
      "350C",
      "350C",
      "350C",
      "350C",
      "350C",
      "350C",
      "350C",
      "350C",
      "350C",
      "350C",
      "350C",
      "350C",
      "350C",
      "350C",
      "350C",
      "350C",
      "350C",
      "350C",
      "350C",
      "350C",
      "350C",
      "350C",
      "350C",
      "350C",
      "350C",
      "350C",
      "350C",
      "350C",
      "350C",
      "350C",
      "350C",
      "350C",
      "350C",
      "350C",
      "350C",
      "350C",
      "350C",
      "350C",
      "350C",
      "350C",
      "350C",
      "350C",
      "350C",
      "350C",
      "350C",
      "350C",
      "350C",
      "350C",
      "350C",
      "350C",
      "350C",
      "350C",
      "350C",
      "350C",
      "350C",
      "350C",
      "350C",
      "350C",
      "350C",
      "350C",
      "350C",
      "350C",
      "350C",
      "350C",
      "350C",
      "350C",
      "350C",
      "350C",
      "350C",
      "350C",
      "350C",
      "350C",
      "350C",
      "350C",
      "350C",
      "350C",
      "350C",
      "350C",
      "350C",
      "350C",
      "350C",
      "350C",
      "350C",
      "350C",
      "350C",
      "350C",
      "350C",
      "350C",
      "350C",
      "350C",
      "350C",
      "350C",
      "350C",
      "350C",
      "370C",
      "370C",
      "370C",
      "370C",
      "370C",
      "370C",
      "370C",
      "370C",
      "370C",
      "370C",
      "370C",
      "370C",
      "370C",
      "370C",
      "370C",
      "370C",
      "370C",
      "370C",
      "370C",
      "370C",
      "370C",
      "370C",
      "370C",
      "370C",
      "370C",
      "370C",
      "370C",
      "370C",
      "370C",
      "370C",
      "370C",
      "370C",
      "370C",
      "370C",
      "370C",
      "370C",
      "370C",
      "370C",
      "370C",
      "370C",
      "370C",
      "370C",
      "370C",
      "370C",
      "370C",
      "370C",
      "370C",
      "370C",
      "370C",
      "370C",
      "370C",
      "370C",
      "370C",
      "370C",
      "370C",
      "370C",
      "370C",
      "370C",
      "370C",
      "370C",
      "370C",
      "370C",
      "370C",
      "370C",
      "370C",
      "370C",
      "370C",
      "370C",
      "370C",
      "370C",
      "370C",
      "370C",
      "370C",
      "370C",
      "370C",
      "370C",
      "370C",
      "370C",
      "371C",
      "371C",
      "371C",
      "371C",
      "370C",
      "370C",
      "370C",
      "370C",
      "370C",
      "370C",
      "370C",
      "370C",
      "370C",
      "370C",
      "370C",
      "370C",
      "370C",
      "370C",
      "370C",
      "370C",
      "370C",
      "370C",
      "370C",
      "370C",
      "370C",
      "370C",
      "370C",
      "370C",
      "289",
      "289",
      "289",
      "289",
      "267",
      "246",
      "246",
      "246",
      "246",
      "184",
      "184",
      "170",
      "170",
      "170",
      "170",
      "147",
      "147",
      "116",
      "114",
      "114",
      "114",
      "114",
      "102",
      "102",
      "092",
      "083",
      "081",
      "081",
      "071",
      "071",
      "071",
      "070",
      "056",
      "056",
      "056",
      "030",
      "030",
      "030",
      "030",
      "030",
      "030",
      "030",
      "030",
      "030",
      "030",
      "014",
      "007",
      "007",
      "007",
      "001"
    ],
    "swim:geom": "path",
    "swim:speeds": [
      276,
      276,
      276,
      276,
      298,
      298,
      298,
      298,
      327,
      327,
      327,
      327,
      327,
      367,
      367,
      367,
      403,
      403,
      403,
      421,
      421,
      421,
      421,
      455,
      455,
      455,
      475,
      475,
      475,
      475,
      488,
      488,
      488,
      509,
      509,
      509,
      509,
      531,
      531,
      533,
      533,
      533,
      533,
      533,
      533,
      532,
      532,
      533,
      533,
      533,
      524,
      524,
      517,
      516,
      516,
      516,
      516,
      517,
      517,
      516,
      516,
      525,
      525,
      518,
      516,
      517,
      516,
      516,
      515,
      515,
      515,
      515,
      515,
      515,
      515,
      515,
      515,
      515,
      515,
      516,
      516,
      516,
      516,
      516,
      516,
      516,
      517,
      517,
      517,
      517,
      518,
      518,
      518,
      518,
      517,
      517,
      515,
      515,
      515,
      515,
      515,
      515,
      515,
      515,
      515,
      515,
      514,
      513,
      511,
      511,
      509,
      509,
      509,
      509,
      508,
      508,
      509,
      510,
      511,
      511,
      513,
      513,
      514,
      514,
      514,
      509,
      509,
      509,
      509,
      509,
      509,
      508,
      508,
      508,
      508,
      508,
      506,
      506,
      506,
      506,
      505,
      505,
      505,
      505,
      504,
      505,
      507,
      507,
      507,
      507,
      510,
      510,
      506,
      506,
      504,
      504,
      508,
      510,
      510,
      510,
      509,
      508,
      508,
      509,
      509,
      509,
      510,
      511,
      511,
      515,
      515,
      515,
      515,
      515,
      515,
      514,
      514,
      514,
      514,
      514,
      514,
      511,
      511,
      511,
      509,
      509,
      509,
      506,
      506,
      506,
      506,
      506,
      506,
      498,
      498,
      498,
      498,
      498,
      498,
      486,
      486,
      486,
      486,
      486,
      469,
      469,
      469,
      469,
      469,
      469,
      468,
      468,
      468,
      468,
      468,
      468,
      471,
      471,
      471,
      471,
      480,
      480,
      480,
      480,
      480,
      480,
      484,
      484,
      484,
      484,
      484,
      485,
      485,
      485,
      486,
      486,
      486,
      487,
      488,
      488,
      488,
      488,
      489,
      489,
      489,
      490,
      490,
      490,
      490,
      490,
      490,
      490,
      490,
      490,
      490,
      491,
      494,
      494,
      494,
      499,
      499,
      501,
      502,
      502,
      503,
      503,
      503,
      503,
      503,
      503,
      504,
      504,
      505,
      506,
      506,
      506,
      513,
      513,
      513,
      515,
      515,
      530,
      530,
      530,
      530,
      530,
      533,
      533,
      535,
      535,
      535,
      537,
      539,
      539,
      539,
      539,
      539,
      539,
      541,
      541,
      542,
      543,
      543,
      544,
      544,
      544,
      544,
      544,
      545,
      545,
      545,
      540,
      540,
      540,
      540,
      540,
      540,
      542,
      542,
      542,
      543,
      543,
      548,
      548,
      544,
      544,
      533,
      533,
      534,
      534,
      535,
      535,
      535,
      535,
      535,
      535,
      536,
      536,
      536,
      537,
      537,
      537,
      538,
      538,
      538,
      539,
      539,
      539,
      542,
      542,
      543,
      543,
      543,
      542,
      542,
      542,
      542,
      542,
      542,
      542,
      542,
      532,
      532,
      532,
      532,
      530,
      530,
      530,
      530,
      530,
      528,
      528,
      528,
      528,
      526,
      526,
      526,
      527,
      527,
      527,
      527,
      527,
      521,
      521,
      521,
      521,
      520,
      520,
      520,
      520,
      520,
      520,
      520,
      518,
      518,
      518,
      518,
      518,
      518,
      518,
      520,
      520,
      520,
      521,
      521,
      521,
      522,
      522,
      521,
      521,
      521,
      513,
      513,
      513,
      508,
      508,
      508,
      518,
      518,
      518,
      518,
      503,
      474,
      474,
      474,
      474,
      419,
      419,
      402,
      402,
      402,
      402,
      386,
      386,
      344,
      334,
      334,
      334,
      334,
      310,
      310,
      305,
      308,
      303,
      303,
      292,
      292,
      292,
      266,
      254,
      254,
      254,
      195,
      173,
      173,
      173,
      173,
      173,
      174,
      170,
      170,
      170,
      133,
      123,
      123,
      123,
      122
    ],
    "swim:timestamps": [
      1771082586,
      1771082586,
      1771082586,
      1771082586,
      1771082706,
      1771082706,
      1771082706,
      1771082706,
      1771082766,
      1771082766,
      1771082766,
      1771082766,
      1771082766,
      1771082826,
      1771082826,
      1771082826,
      1771082946,
      1771082946,
      1771082946,
      1771083006,
      1771083006,
      1771083006,
      1771083006,
      1771083127,
      1771083127,
      1771083127,
      1771083247,
      1771083247,
      1771083247,
      1771083247,
      1771083307,
      1771083307,
      1771083307,
      1771083427,
      1771083427,
      1771083427,
      1771083427,
      1771083607,
      1771083607,
      1771083616,
      1771083616,
      1771083616,
      1771083667,
      1771083667,
      1771083736,
      1771083787,
      1771083787,
      1771083796,
      1771083796,
      1771083796,
      1771083916,
      1771083916,
      1771083976,
      1771084027,
      1771084027,
      1771084027,
      1771084027,
      1771084036,
      1771084036,
      1771084087,
      1771084087,
      1771084096,
      1771084096,
      1771084156,
      1771084208,
      1771084216,
      1771084277,
      1771084277,
      1771084328,
      1771084328,
      1771084337,
      1771084337,
      1771084337,
      1771084517,
      1771084517,
      1771084517,
      1771084517,
      1771084568,
      1771084568,
      1771084589,
      1771084628,
      1771084649,
      1771084649,
      1771084649,
      1771084649,
      1771084649,
      1771084748,
      1771084748,
      1771084808,
      1771084808,
      1771084829,
      1771084829,
      1771084829,
      1771084829,
      1771084868,
      1771084868,
      1771085070,
      1771085070,
      1771085070,
      1771085070,
      1771085070,
      1771085190,
      1771085190,
      1771085190,
      1771085250,
      1771085250,
      1771085310,
      1771085370,
      1771085430,
      1771085430,
      1771085490,
      1771085490,
      1771085550,
      1771085550,
      1771085610,
      1771085610,
      1771085731,
      1771085791,
      1771085851,
      1771085851,
      1771085971,
      1771085971,
      1771086031,
      1771086031,
      1771086031,
      1771086451,
      1771086451,
      1771086451,
      1771086451,
      1771086451,
      1771086451,
      1771086692,
      1771086692,
      1771086692,
      1771086692,
      1771086692,
      1771086872,
      1771086872,
      1771086872,
      1771086872,
      1771086992,
      1771086992,
      1771086992,
      1771086992,
      1771087112,
      1771087172,
      1771087233,
      1771087233,
      1771087233,
      1771087233,
      1771087370,
      1771087370,
      1771087413,
      1771087413,
      1771087550,
      1771087550,
      1771087653,
      1771087731,
      1771087731,
      1771087731,
      1771087851,
      1771087893,
      1771087911,
      1771087954,
      1771087954,
      1771087954,
      1771087971,
      1771088014,
      1771088014,
      1771088194,
      1771088194,
      1771088194,
      1771088314,
      1771088314,
      1771088331,
      1771088374,
      1771088374,
      1771088374,
      1771088374,
      1771088374,
      1771088374,
      1771088512,
      1771088512,
      1771088512,
      1771088632,
      1771088632,
      1771088632,
      1771088752,
      1771088752,
      1771088752,
      1771088752,
      1771088752,
      1771088752,
      1771089052,
      1771089052,
      1771089052,
      1771089052,
      1771089052,
      1771089052,
      1771089293,
      1771089293,
      1771089293,
      1771089293,
      1771089293,
      1771090010,
      1771090010,
      1771090010,
      1771090010,
      1771090010,
      1771090010,
      1771090190,
      1771090190,
      1771090190,
      1771090190,
      1771090190,
      1771090190,
      1771090430,
      1771090430,
      1771090430,
      1771090430,
      1771090550,
      1771090550,
      1771090550,
      1771090550,
      1771090550,
      1771090550,
      1771090795,
      1771090795,
      1771090795,
      1771090795,
      1771090855,
      1771090915,
      1771090915,
      1771090915,
      1771090971,
      1771090971,
      1771090971,
      1771091031,
      1771091091,
      1771091091,
      1771091091,
      1771091091,
      1771091211,
      1771091211,
      1771091211,
      1771091271,
      1771091271,
      1771091271,
      1771091271,
      1771091392,
      1771091392,
      1771091392,
      1771091392,
      1771091392,
      1771091392,
      1771091512,
      1771091692,
      1771091692,
      1771091692,
      1771091812,
      1771091812,
      1771091872,
      1771091932,
      1771091932,
      1771091992,
      1771091992,
      1771091992,
      1771092112,
      1771092112,
      1771092112,
      1771092173,
      1771092173,
      1771092233,
      1771092293,
      1771092293,
      1771092293,
      1771092413,
      1771092413,
      1771092413,
      1771092473,
      1771092473,
      1771092765,
      1771092773,
      1771092773,
      1771092773,
      1771092773,
      1771092885,
      1771092885,
      1771092945,
      1771092945,
      1771092945,
      1771093065,
      1771093185,
      1771093185,
      1771093245,
      1771093245,
      1771093365,
      1771093374,
      1771093485,
      1771093485,
      1771093494,
      1771093546,
      1771093546,
      1771093606,
      1771093606,
      1771093786,
      1771093786,
      1771093786,
      1771093846,
      1771093846,
      1771093846,
      1771094146,
      1771094146,
      1771094327,
      1771094327,
      1771094327,
      1771094327,
      1771094447,
      1771094447,
      1771094447,
      1771094507,
      1771094507,
      1771094649,
      1771094649,
      1771094687,
      1771094687,
      1771094807,
      1771094927,
      1771095010,
      1771095010,
      1771095048,
      1771095048,
      1771095070,
      1771095070,
      1771095108,
      1771095108,
      1771095130,
      1771095168,
      1771095168,
      1771095228,
      1771095228,
      1771095228,
      1771095250,
      1771095250,
      1771095288,
      1771095348,
      1771095348,
      1771095348,
      1771095430,
      1771095430,
      1771095490,
      1771095490,
      1771095490,
      1771095550,
      1771095611,
      1771095611,
      1771095611,
      1771095611,
      1771095671,
      1771095671,
      1771095671,
      1771096476,
      1771096476,
      1771096476,
      1771096476,
      1771096656,
      1771096656,
      1771096656,
      1771096656,
      1771096656,
      1771096896,
      1771096896,
      1771096896,
      1771096896,
      1771097076,
      1771097076,
      1771097076,
      1771097137,
      1771097137,
      1771097257,
      1771097257,
      1771097257,
      1771097376,
      1771097376,
      1771097376,
      1771097376,
      1771097497,
      1771097497,
      1771097497,
      1771097557,
      1771097557,
      1771097557,
      1771097557,
      1771097677,
      1771097737,
      1771097737,
      1771097737,
      1771097737,
      1771097797,
      1771097797,
      1771097917,
      1771097917,
      1771097917,
      1771098037,
      1771098037,
      1771098037,
      1771098097,
      1771098097,
      1771098217,
      1771098217,
      1771098217,
      1771098277,
      1771098277,
      1771098277,
      1771098338,
      1771098338,
      1771098338,
      1771098698,
      1771098698,
      1771098698,
      1771098698,
      1771098758,
      1771098818,
      1771098818,
      1771098818,
      1771098818,
      1771098998,
      1771098998,
      1771099044,
      1771099044,
      1771099044,
      1771099044,
      1771099118,
      1771099118,
      1771099239,
      1771099249,
      1771099249,
      1771099249,
      1771099249,
      1771099309,
      1771099309,
      1771099369,
      1771099419,
      1771099429,
      1771099429,
      1771099489,
      1771099489,
      1771099489,
      1771099539,
      1771099599,
      1771099599,
      1771099599,
      1771099779,
      1771099849,
      1771099849,
      1771099849,
      1771099849,
      1771099849,
      1771099899,
      1771099909,
      1771099909,
      1771099909,
      1771100020,
      1771100080,
      1771100080,
      1771100080,
      1771100140
    ],
    "wof:geomhash": "1818114a1d1afb74fd9e845ed8c97182",
    "wof:id": 2014792613,
    "wof:repo": "sfomuseum-data-flights-2026-02"
  },
  "bbox": [
    -122.27222222222223,
    37.72666666666667,
    -70.68861111111111,
    43.02472222222222
  ],
  "geometry": {"coordinates":[[-122.27222222222223,37.72666666666667],[-122.27222222222223,37.72666666666667],[-122.27222222222223,37.72666666666667],[-122.27222222222223,37.72666666666667],[-122.21944444444445,37.87555555555556],[-122.21944444444445,37.87555555555556],[-122.21944444444445,37.87555555555556],[-122.21944444444445,37.87555555555556],[-122.14555555555556,37.939722222222215],[-122.14555555555556,37.939722222222215],[-122.14555555555556,37.939722222222215],[-122.14555555555556,37.939722222222215],[-122.14555555555556,37.939722222222215],[-122.05972222222222,38.01361111111111],[-122.05972222222222,38.01361111111111],[-122.05972222222222,38.01361111111111],[-121.87249999999999,38.17305555555555],[-121.87249999999999,38.17305555555555],[-121.87249999999999,38.17305555555555],[-121.76527777777778,38.26416666666667],[-121.76527777777778,38.26416666666667],[-121.76527777777778,38.26416666666667],[-121.76527777777778,38.26416666666667],[-121.5475,38.44583333333333],[-121.5475,38.44583333333333],[-121.5475,38.44583333333333],[-121.27694444444444,38.61194444444445],[-121.27694444444444,38.61194444444445],[-121.27694444444444,38.61194444444445],[-121.27694444444444,38.61194444444445],[-121.16416666666667,38.680277777777775],[-121.16416666666667,38.680277777777775],[-121.16416666666667,38.680277777777775],[-120.8761111111111,38.85388888888889],[-120.8761111111111,38.85388888888889],[-120.8761111111111,38.85388888888889],[-120.8761111111111,38.85388888888889],[-120.37944444444443,39.064166666666665],[-120.37944444444443,39.064166666666665],[-120.34444444444443,39.078611111111115],[-120.34444444444443,39.078611111111115],[-120.34444444444443,39.078611111111115],[-120.20694444444445,39.13166666666667],[-120.20694444444445,39.13166666666667],[-120.00277777777778,39.20916666666667],[-119.86444444444444,39.264722222222225],[-119.86444444444444,39.264722222222225],[-119.83277777777778,39.27583333333333],[-119.83277777777778,39.27583333333333],[-119.83277777777778,39.27583333333333],[-119.49416666666667,39.405],[-119.49416666666667,39.405],[-119.32916666666667,39.468611111111116],[-119.19194444444445,39.52111111111111],[-119.19194444444445,39.52111111111111],[-119.19194444444445,39.52111111111111],[-119.19194444444445,39.52111111111111],[-119.16166666666668,39.531666666666666],[-119.16166666666668,39.531666666666666],[-119.02361111111111,39.58444444444444],[-119.02361111111111,39.58444444444444],[-118.99305555555556,39.59583333333334],[-118.99305555555556,39.59583333333334],[-118.82333333333332,39.659444444444446],[-118.68388888888889,39.711111111111116],[-118.6538888888889,39.722500000000004],[-118.48555555555555,39.78444444444444],[-118.48555555555555,39.78444444444444],[-118.34777777777778,39.835],[-118.34777777777778,39.835],[-118.31666666666666,39.84666666666667],[-118.31666666666666,39.84666666666667],[-118.31666666666666,39.84666666666667],[-117.81777777777778,40.027499999999996],[-117.81777777777778,40.027499999999996],[-117.81777777777778,40.027499999999996],[-117.81777777777778,40.027499999999996],[-117.67222222222223,40.080000000000005],[-117.67222222222223,40.080000000000005],[-117.61527777777778,40.10027777777778],[-117.50444444444445,40.13972222222222],[-117.44555555555556,40.16083333333333],[-117.44555555555556,40.16083333333333],[-117.44555555555556,40.16083333333333],[-117.44555555555556,40.16083333333333],[-117.44555555555556,40.16083333333333],[-117.17,40.25833333333333],[-117.17,40.25833333333333],[-117,40.31777777777778],[-117,40.31777777777778],[-116.935,40.34055555555556],[-116.935,40.34055555555556],[-116.935,40.34055555555556],[-116.935,40.34055555555556],[-116.81166666666667,40.38361111111111],[-116.81166666666667,40.38361111111111],[-116.23194444444445,40.58305555555556],[-116.23194444444445,40.58305555555556],[-116.23194444444445,40.58305555555556],[-116.23194444444445,40.58305555555556],[-116.23194444444445,40.58305555555556],[-115.88861111111112,40.69916666666666],[-115.88861111111112,40.69916666666666],[-115.88861111111112,40.69916666666666],[-115.71666666666667,40.75694444444444],[-115.71666666666667,40.75694444444444],[-115.54555555555555,40.81388888888888],[-115.37166666666666,40.87138888888889],[-115.20083333333334,40.92777777777778],[-115.20083333333334,40.92777777777778],[-115.03055555555555,40.983333333333334],[-115.03055555555555,40.983333333333334],[-114.86138888888888,41.03861111111111],[-114.86138888888888,41.03861111111111],[-114.71472222222222,41.08583333333333],[-114.71472222222222,41.08583333333333],[-114.36999999999999,41.19638888888888],[-114.19583333333334,41.251666666666665],[-114.02305555555556,41.30611111111111],[-114.02305555555556,41.30611111111111],[-113.6613888888889,41.395833333333336],[-113.6613888888889,41.395833333333336],[-113.47611111111111,41.42972222222222],[-113.47611111111111,41.42972222222222],[-113.47611111111111,41.42972222222222],[-112.17944444444444,41.65611111111111],[-112.17944444444444,41.65611111111111],[-112.17944444444444,41.65611111111111],[-112.17944444444444,41.65611111111111],[-112.17944444444444,41.65611111111111],[-112.17944444444444,41.65611111111111],[-111.44027777777778,41.77777777777778],[-111.44027777777778,41.77777777777778],[-111.44027777777778,41.77777777777778],[-111.44027777777778,41.77777777777778],[-111.44027777777778,41.77777777777778],[-110.87138888888889,41.86805555555556],[-110.87138888888889,41.86805555555556],[-110.87138888888889,41.86805555555556],[-110.87138888888889,41.86805555555556],[-110.5025,41.92472222222222],[-110.5025,41.92472222222222],[-110.5025,41.92472222222222],[-110.5025,41.92472222222222],[-110.13527777777779,41.980000000000004],[-109.94888888888889,42.000277777777775],[-109.75666666666666,42.00277777777778],[-109.75666666666666,42.00277777777778],[-109.75666666666666,42.00277777777778],[-109.75666666666666,42.00277777777778],[-109.33416666666666,42.00611111111111],[-109.33416666666666,42.00611111111111],[-109.18777777777778,42.00694444444444],[-109.18777777777778,42.00694444444444],[-108.77333333333333,42.00833333333333],[-108.77333333333333,42.00833333333333],[-108.46722222222222,42.00833333333333],[-108.19944444444445,42.007777777777775],[-108.19944444444445,42.007777777777775],[-108.19944444444445,42.007777777777775],[-107.82083333333333,42.005833333333335],[-107.70583333333333,42.005],[-107.62944444444443,42.004444444444445],[-107.515,42.00333333333333],[-107.515,42.00333333333333],[-107.515,42.00333333333333],[-107.4388888888889,42.0025],[-107.32444444444444,42.00138888888889],[-107.32444444444444,42.00138888888889],[-106.74555555555555,41.993611111111115],[-106.74555555555555,41.993611111111115],[-106.74555555555555,41.993611111111115],[-106.35,41.98638888888889],[-106.35,41.98638888888889],[-106.2725,41.984722222222224],[-106.15861111111111,41.9825],[-106.15861111111111,41.9825],[-106.15861111111111,41.9825],[-106.15861111111111,41.9825],[-106.15861111111111,41.9825],[-106.15861111111111,41.9825],[-105.70416666666667,41.971944444444446],[-105.70416666666667,41.971944444444446],[-105.70416666666667,41.971944444444446],[-105.32666666666667,41.961666666666666],[-105.32666666666667,41.961666666666666],[-105.32666666666667,41.961666666666666],[-104.95361111111112,41.95055555555556],[-104.95361111111112,41.95055555555556],[-104.95361111111112,41.95055555555556],[-104.95361111111112,41.95055555555556],[-104.95361111111112,41.95055555555556],[-104.95361111111112,41.95055555555556],[-104.03222222222222,41.9175],[-104.03222222222222,41.9175],[-104.03222222222222,41.9175],[-104.03222222222222,41.9175],[-104.03222222222222,41.9175],[-104.03222222222222,41.9175],[-103.30527777777777,41.913888888888884],[-103.30527777777777,41.913888888888884],[-103.30527777777777,41.913888888888884],[-103.30527777777777,41.913888888888884],[-103.30527777777777,41.913888888888884],[-101.20777777777778,42.12027777777778],[-101.20777777777778,42.12027777777778],[-101.20777777777778,42.12027777777778],[-101.20777777777778,42.12027777777778],[-101.20777777777778,42.12027777777778],[-101.20777777777778,42.12027777777778],[-100.6863888888889,42.16555555555556],[-100.6863888888889,42.16555555555556],[-100.6863888888889,42.16555555555556],[-100.6863888888889,42.16555555555556],[-100.6863888888889,42.16555555555556],[-100.6863888888889,42.16555555555556],[-99.98361111111112,42.223055555555554],[-99.98361111111112,42.223055555555554],[-99.98361111111112,42.223055555555554],[-99.98361111111112,42.223055555555554],[-99.62138888888889,42.25055555555556],[-99.62138888888889,42.25055555555556],[-99.62138888888889,42.25055555555556],[-99.62138888888889,42.25055555555556],[-99.62138888888889,42.25055555555556],[-99.62138888888889,42.25055555555556],[-98.89861111111112,42.302499999999995],[-98.89861111111112,42.302499999999995],[-98.89861111111112,42.302499999999995],[-98.89861111111112,42.302499999999995],[-98.71472222222222,42.31527777777777],[-98.53611111111111,42.32694444444445],[-98.53611111111111,42.32694444444445],[-98.53611111111111,42.32694444444445],[-98.34777777777778,42.33916666666667],[-98.34777777777778,42.33916666666667],[-98.34777777777778,42.33916666666667],[-98.20111111111112,42.348333333333336],[-98.01805555555555,42.359722222222224],[-98.01805555555555,42.359722222222224],[-98.01805555555555,42.359722222222224],[-98.01805555555555,42.359722222222224],[-97.63194444444444,42.3825],[-97.63194444444444,42.3825],[-97.63194444444444,42.3825],[-97.44805555555556,42.393055555555556],[-97.44805555555556,42.393055555555556],[-97.44805555555556,42.393055555555556],[-97.44805555555556,42.393055555555556],[-97.08194444444445,42.41277777777778],[-97.08194444444445,42.41277777777778],[-97.08194444444445,42.41277777777778],[-97.08194444444445,42.41277777777778],[-97.08194444444445,42.41277777777778],[-97.08194444444445,42.41277777777778],[-96.71388888888889,42.431666666666665],[-96.15555555555557,42.45805555555556],[-96.15555555555557,42.45805555555556],[-96.15555555555557,42.45805555555556],[-95.7775,42.47416666666667],[-95.7775,42.47416666666667],[-95.58972222222222,42.48166666666667],[-95.39805555555556,42.48916666666667],[-95.39805555555556,42.48916666666667],[-95.21027777777778,42.49611111111111],[-95.21027777777778,42.49611111111111],[-95.21027777777778,42.49611111111111],[-94.83027777777778,42.50944444444445],[-94.83027777777778,42.50944444444445],[-94.83027777777778,42.50944444444445],[-94.64250000000001,42.515277777777776],[-94.64250000000001,42.515277777777776],[-94.44166666666668,42.521388888888886],[-94.24972222222222,42.526944444444446],[-94.24972222222222,42.526944444444446],[-94.24972222222222,42.526944444444446],[-93.86472222222221,42.536944444444444],[-93.86472222222221,42.536944444444444],[-93.86472222222221,42.536944444444444],[-93.66888888888889,42.541666666666664],[-93.66888888888889,42.541666666666664],[-92.71777777777778,42.559444444444445],[-92.67777777777778,42.559999999999995],[-92.67777777777778,42.559999999999995],[-92.67777777777778,42.559999999999995],[-92.67777777777778,42.559999999999995],[-92.31611111111111,42.56472222222222],[-92.31611111111111,42.56472222222222],[-92.11722222222221,42.56666666666667],[-92.11722222222221,42.56666666666667],[-92.11722222222221,42.56666666666667],[-91.71555555555555,42.569722222222225],[-91.31805555555555,42.57138888888889],[-91.31805555555555,42.57138888888889],[-91.11749999999999,42.57166666666667],[-91.11749999999999,42.57166666666667],[-90.71222222222222,42.571111111111115],[-90.67194444444445,42.57083333333334],[-90.30749999999999,42.56944444444445],[-90.30749999999999,42.56944444444445],[-90.26416666666667,42.56916666666667],[-90.10083333333333,42.56777777777778],[-90.10083333333333,42.56777777777778],[-89.86444444444444,42.565555555555555],[-89.86444444444444,42.565555555555555],[-89.2525,42.5575],[-89.2525,42.5575],[-89.2525,42.5575],[-89.04694444444445,42.55416666666667],[-89.04694444444445,42.55416666666667],[-89.04694444444445,42.55416666666667],[-88.02944444444444,42.532222222222224],[-88.02944444444444,42.532222222222224],[-87.45583333333333,42.51555555555556],[-87.45583333333333,42.51555555555556],[-87.45583333333333,42.51555555555556],[-87.45583333333333,42.51555555555556],[-87.00527777777778,42.50055555555556],[-87.00527777777778,42.50055555555556],[-87.00527777777778,42.50055555555556],[-86.80083333333333,42.49333333333333],[-86.80083333333333,42.49333333333333],[-86.34055555555555,42.47527777777778],[-86.34055555555555,42.47527777777778],[-86.2175,42.473888888888894],[-86.2175,42.473888888888894],[-85.78972222222222,42.53972222222222],[-85.40916666666668,42.620555555555555],[-85.14111111111112,42.67638888888889],[-85.14111111111112,42.67638888888889],[-85.02333333333333,42.70194444444445],[-85.02333333333333,42.70194444444445],[-84.94833333333334,42.71805555555556],[-84.94833333333334,42.71805555555556],[-84.83111111111111,42.74333333333333],[-84.83111111111111,42.74333333333333],[-84.75361111111111,42.75972222222222],[-84.63777777777779,42.784166666666664],[-84.63777777777779,42.784166666666664],[-84.44111111111111,42.82527777777778],[-84.44111111111111,42.82527777777778],[-84.44111111111111,42.82527777777778],[-84.36222222222221,42.84166666666667],[-84.36222222222221,42.84166666666667],[-84.24583333333334,42.86555555555556],[-84.04888888888888,42.905833333333334],[-84.04888888888888,42.905833333333334],[-84.04888888888888,42.905833333333334],[-83.79138888888889,42.95666666666667],[-83.79138888888889,42.95666666666667],[-83.58638888888889,42.974444444444444],[-83.58638888888889,42.974444444444444],[-83.58638888888889,42.974444444444444],[-83.38277777777778,42.98416666666667],[-83.17500000000001,42.993611111111115],[-83.17500000000001,42.993611111111115],[-83.17500000000001,42.993611111111115],[-83.17500000000001,42.993611111111115],[-82.97027777777778,43.0025],[-82.97027777777778,43.0025],[-82.97027777777778,43.0025],[-80.25305555555556,43.02472222222222],[-80.25305555555556,43.02472222222222],[-80.25305555555556,43.02472222222222],[-80.25305555555556,43.02472222222222],[-79.63027777777778,42.98972222222222],[-79.63027777777778,42.98972222222222],[-79.63027777777778,42.98972222222222],[-79.63027777777778,42.98972222222222],[-79.63027777777778,42.98972222222222],[-78.83111111111111,42.94],[-78.83111111111111,42.94],[-78.83111111111111,42.94],[-78.83111111111111,42.94],[-78.23333333333333,42.92388888888889],[-78.23333333333333,42.92388888888889],[-78.23333333333333,42.92388888888889],[-78.07055555555556,42.919999999999995],[-78.07055555555556,42.919999999999995],[-77.66944444444445,42.91],[-77.66944444444445,42.91],[-77.66944444444445,42.91],[-77.27055555555556,42.89861111111111],[-77.27055555555556,42.89861111111111],[-77.27055555555556,42.89861111111111],[-77.27055555555556,42.89861111111111],[-76.8761111111111,42.88638888888889],[-76.8761111111111,42.88638888888889],[-76.8761111111111,42.88638888888889],[-76.65944444444445,42.879444444444445],[-76.65944444444445,42.879444444444445],[-76.65944444444445,42.879444444444445],[-76.65944444444445,42.879444444444445],[-76.26805555555555,42.865833333333335],[-76.07277777777777,42.858333333333334],[-76.07277777777777,42.858333333333334],[-76.07277777777777,42.858333333333334],[-76.07277777777777,42.858333333333334],[-75.87722222222222,42.85055555555556],[-75.87722222222222,42.85055555555556],[-75.4888888888889,42.83416666666667],[-75.4888888888889,42.83416666666667],[-75.4888888888889,42.83416666666667],[-75.09972222222221,42.81583333333333],[-75.09972222222221,42.81583333333333],[-75.09972222222221,42.81583333333333],[-74.90361111111112,42.80638888888888],[-74.90361111111112,42.80638888888888],[-74.51527777777778,42.78638888888889],[-74.51527777777778,42.78638888888889],[-74.51527777777778,42.78638888888889],[-74.32305555555556,42.77583333333333],[-74.32305555555556,42.77583333333333],[-74.32305555555556,42.77583333333333],[-74.13166666666666,42.76555555555556],[-74.13166666666666,42.76555555555556],[-74.13166666666666,42.76555555555556],[-72.98333333333333,42.72555555555556],[-72.98333333333333,42.72555555555556],[-72.98333333333333,42.72555555555556],[-72.98333333333333,42.72555555555556],[-72.80611111111111,42.705000000000005],[-72.62944444444443,42.68416666666666],[-72.62944444444443,42.68416666666666],[-72.62944444444443,42.68416666666666],[-72.62944444444443,42.68416666666666],[-72.11055555555555,42.62222222222222],[-72.11055555555555,42.62222222222222],[-72,42.61666666666667],[-72,42.61666666666667],[-72,42.61666666666667],[-72,42.61666666666667],[-71.81722222222221,42.586111111111116],[-71.81722222222221,42.586111111111116],[-71.55277777777778,42.5425],[-71.53333333333333,42.53333333333333],[-71.53333333333333,42.53333333333333],[-71.53333333333333,42.53333333333333],[-71.53333333333333,42.53333333333333],[-71.41666666666667,42.516666666666666],[-71.41666666666667,42.516666666666666],[-71.3,42.483333333333334],[-71.21555555555555,42.47361111111111],[-71.2,42.46666666666667],[-71.2,42.46666666666667],[-71.08333333333333,42.45],[-71.08333333333333,42.45],[-71.08333333333333,42.45],[-71.00638888888889,42.447222222222216],[-70.91250000000001,42.44916666666666],[-70.91250000000001,42.44916666666666],[-70.91250000000001,42.44916666666666],[-70.68861111111111,42.45472222222222],[-70.73333333333333,42.4],[-70.73333333333333,42.4],[-70.73333333333333,42.4],[-70.73333333333333,42.4],[-70.73333333333333,42.4],[-70.78166666666667,42.396388888888886],[-70.8,42.4],[-70.8,42.4],[-70.8,42.4],[-70.90472222222223,42.374722222222225],[-70.94833333333334,42.367222222222225],[-70.94833333333334,42.367222222222225],[-70.94833333333334,42.367222222222225],[-70.99111111111111,42.35944444444445]],"type":"LineString"}
}
