{
  "id": 2014754285,
  "type": "Feature",
  "properties": {
    "geom:area": 0,
    "geom:bbox": "-122.359940,37.636670,-121.274430,37.952560",
    "geom:latitude": 37.81934326708258,
    "geom:longitude": -121.82644955938999,
    "src:alt_label": "swim-takeoff",
    "src:geom": "swim",
    "swim:elevations": [
      305,
      779,
      1002,
      1159,
      1326,
      1706,
      2360,
      2690,
      2896,
      3039,
      3218,
      3422,
      3673,
      3852,
      4102,
      4201,
      4443,
      4840,
      4880,
      5145,
      5447,
      5564,
      5814,
      6043
    ],
    "swim:geom": "takeoff",
    "swim:timestamps": [
      1770646854,
      1770646887,
      1770646905,
      1770646936,
      1770646960,
      1770646985,
      1770647031,
      1770647058,
      1770647072,
      1770647087,
      1770647106,
      1770647147,
      1770647183,
      1770647200,
      1770647227,
      1770647241,
      1770647262,
      1770647305,
      1770647310,
      1770647353,
      1770647387,
      1770647404,
      1770647443,
      1770647478
    ],
    "wof:geomhash": "29198f2b37b4aef43a2ae1d1132540f5",
    "wof:id": 2014754285,
    "wof:repo": "sfomuseum-data-flights-2026-02"
  },
  "bbox": [
    -122.35994,
    37.63667,
    -121.27443,
    37.95256
  ],
  "geometry": {"coordinates":[[-122.35994,37.63667],[-122.33185,37.65333],[-122.31718,37.66123],[-122.28849,37.67765],[-122.2614,37.69318],[-122.23042,37.70879],[-122.17546,37.73814],[-122.13852,37.75309],[-122.11755,37.75817],[-122.09539,37.76365],[-122.06726,37.77048],[-121.99656,37.78705],[-121.92989,37.80265],[-121.89566,37.81063],[-121.8412,37.82326],[-121.81216,37.82989],[-121.76911,37.83978],[-121.67723,37.86085],[-121.6663,37.86335],[-121.57207,37.88497],[-121.49341,37.90297],[-121.45525,37.91162],[-121.36124,37.93303],[-121.27443,37.95256]],"type":"LineString"}
}
