{
  "id": 2014857605,
  "type": "Feature",
  "properties": {
    "geom:area": 0,
    "geom:bbox": "-122.380000,35.070000,-80.950000,39.690000",
    "geom:latitude": 38.179945713605385,
    "geom:longitude": -101.51783083347446,
    "src:alt_label": "swim-route",
    "src:geom": "swim",
    "swim:geom": "route",
    "wof:geomhash": "04ebf3ea2be084e61a256aa3f4fce912",
    "wof:id": 2014857605,
    "wof:repo": "sfomuseum-data-flights-2026-02"
  },
  "bbox": [
    -122.38,
    35.07,
    -80.95,
    39.69
  ],
  "geometry": {"coordinates":[[-122.38,37.62],[-122.27,37.69],[-122.22,37.72],[-122.21,37.72],[-122.16,37.75],[-122.12,37.76],[-122.09,37.78],[-122.02,37.82],[-122.01,37.82],[-122,37.83],[-121.94,37.85],[-121.77,37.92],[-121.75,37.93],[-121.51,38.02],[-121.45,38.04],[-121.41,38.06],[-121.23,38.13],[-121.23,38.13],[-121.04,38.21],[-120.97,38.21],[-120.79,38.24],[-120.74,38.25],[-120.62,38.26],[-120.2,38.32],[-120.04,38.34],[-119.88,38.37],[-119.73,38.39],[-119.39,38.43],[-119.22,38.45],[-118.6,38.53],[-118.23,38.57],[-117.3,38.68],[-117.29,38.68],[-116.05,38.89],[-115.14,39.03],[-114.68,39.1],[-113.32,39.29],[-113.25,39.3],[-112.2,39.47],[-112,39.5],[-111.73,39.51],[-111.42,39.52],[-110.49,39.55],[-110.28,39.56],[-108.27,39.59],[-107.22,39.63],[-105.15,39.68],[-104.62,39.69],[-103.22,39.57],[-102.35,39.48],[-100.87,39.32],[-100.23,39.26],[-99.73,39.16],[-99.5,39.12],[-97.01,38.61],[-96.67,38.54],[-95.57,38.28],[-95.13,38.17],[-94.55,38.01],[-92.85,37.52],[-92.4,37.39],[-92.17,37.32],[-91.73,37.18],[-91.28,37.04],[-91.25,37.03],[-90.8,36.93],[-90.36,36.82],[-89.6,36.63],[-89.17,36.56],[-88.75,36.49],[-87.54,36.29],[-87.32,36.25],[-86.68,36.14],[-86.46,36.1],[-85.34,35.93],[-84.64,35.81],[-84.55,35.82],[-83.47,35.89],[-83.36,35.87],[-83.16,35.83],[-83.11,35.81],[-82.7,35.72],[-82.32,35.64],[-82.28,35.63],[-82.06,35.58],[-81.93,35.53],[-81.81,35.48],[-81.73,35.45],[-81.68,35.44],[-81.57,35.41],[-81.49,35.38],[-81.46,35.37],[-81.32,35.34],[-81.23,35.31],[-81.07,35.26],[-81.07,35.26],[-81.07,35.23],[-81.06,35.15],[-81.06,35.1],[-81.06,35.07],[-81.02,35.11],[-80.97,35.18],[-80.95,35.21]],"type":"LineString"}
}
