{
  "id": 2014884253,
  "type": "Feature",
  "properties": {
    "geom:area": 0,
    "geom:bbox": "-123.443440,37.626810,-122.394670,37.729290",
    "geom:latitude": 37.696739616178675,
    "geom:longitude": -122.91492512652609,
    "src:alt_label": "swim-takeoff",
    "src:geom": "swim",
    "swim:elevations": [
      183,
      504,
      764,
      977,
      1064,
      1517,
      1700,
      2189,
      2380,
      3059,
      3274,
      3356,
      3450,
      3718,
      4014,
      4359,
      4542,
      5061,
      5470,
      5632,
      5951,
      6101
    ],
    "swim:geom": "takeoff",
    "swim:timestamps": [
      1772019715,
      1772019742,
      1772019769,
      1772019792,
      1772019810,
      1772019864,
      1772019878,
      1772019917,
      1772019930,
      1772019985,
      1772020011,
      1772020030,
      1772020054,
      1772020098,
      1772020126,
      1772020156,
      1772020173,
      1772020200,
      1772020251,
      1772020269,
      1772020305,
      1772020323
    ],
    "wof:geomhash": "dc1b5783184b377703b147c990ef826d",
    "wof:id": 2014884253,
    "wof:repo": "sfomuseum-data-flights-2026-02"
  },
  "bbox": [
    -123.44344,
    37.62681,
    -122.39467,
    37.72929
  ],
  "geometry": {"coordinates":[[-122.39467,37.62681],[-122.41941,37.63779],[-122.44652,37.64984],[-122.46923,37.65983],[-122.48828,37.66827],[-122.56374,37.67883],[-122.58546,37.67994],[-122.64508,37.68348],[-122.66429,37.68462],[-122.75031,37.68991],[-122.79423,37.69262],[-122.82777,37.69464],[-122.87204,37.69715],[-122.962,37.70234],[-123.02291,37.70581],[-123.08857,37.7095],[-123.125,37.71153],[-123.18285,37.71498],[-123.28734,37.72072],[-123.32652,37.72287],[-123.40417,37.72708],[-123.44344,37.72929]],"type":"LineString"}
}
