{
  "id": 2014778963,
  "type": "Feature",
  "properties": {
    "geom:area": 0,
    "geom:bbox": "-122.365000,32.750000,-97.050000,38.334444",
    "geom:latitude": 37.12019504593171,
    "geom:longitude": -108.65509366488867,
    "src:alt_label": "swim-path",
    "src:geom": "swim",
    "swim:altitudes": [
      "011",
      "035",
      "041",
      "060",
      "099",
      "110",
      "117",
      "119",
      "137",
      "182",
      "190",
      "202",
      "214",
      "226",
      "244",
      "249",
      "257",
      "267",
      "268",
      "276",
      "295",
      "304",
      "317",
      "336",
      "340C",
      "340C",
      "340C",
      "340C",
      "340C",
      "340C",
      "340C",
      "340C",
      "340C",
      "340C",
      "340C",
      "340C",
      "340C",
      "340C",
      "340C",
      "340C",
      "340C",
      "340C",
      "340C",
      "340C",
      "340C",
      "340C",
      "340C",
      "340C",
      "341C",
      "340C",
      "340C",
      "340C",
      "340C",
      "340C",
      "340C",
      "340C",
      "340C",
      "340C",
      "340C",
      "340C",
      "340C",
      "340C",
      "340C",
      "340C",
      "340C",
      "340C",
      "340C",
      "340C",
      "340C",
      "340C",
      "340C",
      "340C",
      "340C",
      "341C",
      "341C",
      "340C",
      "340C",
      "340C",
      "340C",
      "340C",
      "340C",
      "339C",
      "340C",
      "340C",
      "340C",
      "340C",
      "340C",
      "340C",
      "340C",
      "340C",
      "340C",
      "340C",
      "340C",
      "340C",
      "340C",
      "340C",
      "340C",
      "340C",
      "340C",
      "340C",
      "340C",
      "341C",
      "340C",
      "340C",
      "340C",
      "340C",
      "341C",
      "340C",
      "340C",
      "340C",
      "340C",
      "340C",
      "340C",
      "340C",
      "340C",
      "340C",
      "340C",
      "340C",
      "340C",
      "340C",
      "340C",
      "340C",
      "340C",
      "340C",
      "340C",
      "340C",
      "340C",
      "340C",
      "340C",
      "340C",
      "340C",
      "340C",
      "340",
      "306",
      "293",
      "278",
      "268",
      "256",
      "247",
      "195",
      "153",
      "149",
      "136",
      "126",
      "119",
      "090",
      "078",
      "072",
      "067",
      "060",
      "053",
      "047",
      "043",
      "040",
      "031",
      "020",
      "015",
      "011",
      "007",
      "003",
      "70"
    ],
    "swim:geom": "path",
    "swim:speeds": [
      167,
      225,
      231,
      241,
      288,
      328,
      381,
      390,
      414,
      402,
      436,
      448,
      462,
      467,
      474,
      476,
      477,
      440,
      444,
      445,
      440,
      436,
      435,
      421,
      412,
      414,
      417,
      418,
      427,
      434,
      436,
      432,
      431,
      412,
      412,
      411,
      401,
      407,
      409,
      413,
      416,
      417,
      418,
      415,
      411,
      402,
      400,
      400,
      402,
      401,
      403,
      401,
      402,
      403,
      404,
      406,
      410,
      411,
      412,
      415,
      416,
      416,
      417,
      417,
      417,
      417,
      416,
      415,
      415,
      415,
      417,
      417,
      418,
      427,
      428,
      428,
      426,
      415,
      414,
      414,
      420,
      420,
      422,
      426,
      431,
      430,
      427,
      427,
      432,
      432,
      433,
      433,
      440,
      438,
      441,
      442,
      444,
      446,
      434,
      432,
      428,
      427,
      414,
      408,
      411,
      413,
      412,
      410,
      404,
      404,
      407,
      409,
      409,
      408,
      405,
      409,
      414,
      416,
      411,
      413,
      414,
      410,
      385,
      381,
      381,
      381,
      380,
      380,
      380,
      378,
      374,
      375,
      375,
      374,
      375,
      375,
      375,
      371,
      360,
      342,
      313,
      302,
      287,
      284,
      287,
      238,
      236,
      232,
      233,
      230,
      232,
      231,
      230,
      209,
      201,
      192,
      175,
      144,
      143,
      142,
      143
    ],
    "swim:timestamps": [
      1771040362,
      1771040452,
      1771040470,
      1771040512,
      1771040632,
      1771040692,
      1771040752,
      1771040771,
      1771040831,
      1771040951,
      1771041011,
      1771041071,
      1771041131,
      1771041191,
      1771041301,
      1771041312,
      1771041372,
      1771041482,
      1771041492,
      1771041552,
      1771041672,
      1771041732,
      1771041852,
      1771041963,
      1771042084,
      1771042153,
      1771042204,
      1771042213,
      1771042273,
      1771042324,
      1771042384,
      1771042445,
      1771042505,
      1771042746,
      1771042753,
      1771042813,
      1771042864,
      1771043005,
      1771043044,
      1771043104,
      1771043164,
      1771043186,
      1771043234,
      1771043294,
      1771043344,
      1771043366,
      1771043404,
      1771043464,
      1771043606,
      1771043645,
      1771043683,
      1771043705,
      1771043786,
      1771043803,
      1771043847,
      1771043863,
      1771043886,
      1771043907,
      1771043923,
      1771043946,
      1771043967,
      1771043983,
      1771044007,
      1771044043,
      1771044066,
      1771044088,
      1771044163,
      1771044186,
      1771044208,
      1771044224,
      1771044388,
      1771044404,
      1771044448,
      1771044644,
      1771044688,
      1771044704,
      1771044746,
      1771044824,
      1771044866,
      1771044884,
      1771045109,
      1771045125,
      1771045185,
      1771045245,
      1771045305,
      1771045365,
      1771045485,
      1771045605,
      1771045781,
      1771045841,
      1771046081,
      1771046202,
      1771046562,
      1771046682,
      1771046982,
      1771047043,
      1771047163,
      1771047223,
      1771047283,
      1771047343,
      1771047463,
      1771047643,
      1771047763,
      1771048004,
      1771048064,
      1771048184,
      1771048244,
      1771048304,
      1771048424,
      1771048544,
      1771048664,
      1771049024,
      1771049085,
      1771049265,
      1771049319,
      1771049385,
      1771049439,
      1771049619,
      1771049625,
      1771049865,
      1771049979,
      1771050039,
      1771050099,
      1771050226,
      1771050280,
      1771050460,
      1771050520,
      1771050526,
      1771050640,
      1771050700,
      1771050940,
      1771051300,
      1771051421,
      1771051661,
      1771051683,
      1771051721,
      1771051743,
      1771051781,
      1771051803,
      1771051961,
      1771052103,
      1771052141,
      1771052201,
      1771052223,
      1771052261,
      1771052441,
      1771052501,
      1771052523,
      1771052561,
      1771052583,
      1771052621,
      1771052643,
      1771052682,
      1771052704,
      1771052764,
      1771052823,
      1771052862,
      1771052883,
      1771052922,
      1771052943,
      1771052982
    ],
    "wof:geomhash": "63b9fe7090f9763bc38a0d1ce025ba07",
    "wof:id": 2014778963,
    "wof:repo": "sfomuseum-data-flights-2026-02"
  },
  "bbox": [
    -122.365,
    32.75,
    -97.05,
    38.33444444444444
  ],
  "geometry": {"coordinates":[[-97.05,32.88333333333333],[-97.08333333333333,32.81666666666667],[-97.08777777777777,32.79527777777778],[-97.1,32.75],[-97.23333333333333,32.75],[-97.26666666666667,32.81666666666667],[-97.26666666666667,32.916666666666664],[-97.26722222222222,32.95027777777778],[-97.26361111111112,33.065],[-97.25527777777778,33.29527777777778],[-97.25111111111111,33.41416666666667],[-97.24138888888889,33.52972222222222],[-97.22638888888889,33.66888888888889],[-97.2125,33.7975],[-97.19027777777778,34.015],[-97.18444444444445,34.062777777777775],[-97.17555555555556,34.175],[-97.30833333333334,34.36638888888889],[-97.32666666666667,34.38666666666666],[-97.41638888888889,34.48583333333333],[-97.5961111111111,34.68277777777777],[-97.685,34.779444444444444],[-97.86388888888888,34.973333333333336],[-98.02083333333333,35.1425],[-98.19916666666667,35.323055555555555],[-98.3111111111111,35.42666666666666],[-98.38944444444445,35.49944444444444],[-98.40666666666667,35.51583333333333],[-98.50666666666666,35.606944444444444],[-98.58972222222222,35.68055555555555],[-98.69027777777778,35.77305555555555],[-98.77944444444444,35.856944444444444],[-98.87666666666667,35.948611111111106],[-99.3111111111111,36.24583333333334],[-99.33666666666666,36.25888888888889],[-99.4575,36.31722222222223],[-99.56222222222222,36.34305555555556],[-99.88972222222223,36.408055555555556],[-99.9713888888889,36.42388888888889],[-100.11,36.450833333333335],[-100.25194444444445,36.47805555555556],[-100.30916666666667,36.48916666666667],[-100.41972222222223,36.51027777777778],[-100.56138888888889,36.53722222222222],[-100.67027777777778,36.5575],[-100.72611111111111,36.56805555555556],[-100.80333333333333,36.5825],[-100.94,36.60805555555556],[-101.2675,36.66833333333333],[-101.34638888888888,36.68277777777777],[-101.42777777777778,36.698055555555555],[-101.48166666666667,36.70722222222223],[-101.67500000000001,36.74194444444444],[-101.70472222222223,36.74722222222222],[-101.81277777777777,36.76638888888889],[-101.83916666666666,36.77111111111111],[-101.8938888888889,36.780833333333334],[-101.95194444444445,36.79111111111111],[-101.98083333333334,36.796388888888885],[-102.03527777777778,36.80583333333333],[-102.095,36.81638888888889],[-102.12138888888889,36.821111111111115],[-102.17777777777778,36.83083333333334],[-102.26472222222222,36.846111111111114],[-102.31916666666666,36.85527777777778],[-102.37722222222222,36.86527777777778],[-102.55611111111111,36.896388888888886],[-102.60055555555554,36.903888888888886],[-102.6413888888889,36.910555555555554],[-102.69611111111111,36.919999999999995],[-103.06527777777778,36.981944444444444],[-103.12138888888889,36.99111111111111],[-103.20722222222223,37.00555555555555],[-103.70194444444445,37.08583333333333],[-103.79277777777777,37.10055555555556],[-103.85027777777778,37.10944444444445],[-103.9375,37.12305555555555],[-104.13722222222223,37.155],[-104.22222222222223,37.168055555555554],[-104.28,37.17722222222222],[-104.79777777777778,37.256388888888885],[-104.85694444444444,37.265277777777776],[-105.00222222222222,37.286944444444444],[-105.14888888888889,37.308611111111105],[-105.29472222222222,37.330000000000005],[-105.4413888888889,37.35138888888889],[-105.73361111111112,37.39333333333333],[-106.02583333333334,37.43444444444444],[-106.47111111111111,37.49333333333333],[-106.62222222222222,37.51416666666667],[-107.21888888888888,37.59166666666667],[-107.51638888888888,37.63138888888889],[-108.4325,37.74305555555556],[-108.73444444444445,37.779444444444444],[-109.50111111111111,37.86527777777778],[-109.65444444444445,37.88194444444444],[-109.96694444444445,37.915],[-110.1211111111111,37.93111111111111],[-110.27333333333333,37.94694444444444],[-110.42222222222223,37.96194444444445],[-110.72027777777778,37.99138888888889],[-111.15055555555556,38.033055555555556],[-111.4413888888889,38.059999999999995],[-112.01166666666667,38.11083333333333],[-112.1538888888889,38.12305555555555],[-112.44361111111111,38.1475],[-112.58666666666666,38.159166666666664],[-112.72944444444444,38.170833333333334],[-113.00972222222222,38.19305555555555],[-113.29194444444444,38.21472222222223],[-113.5761111111111,38.23583333333333],[-114.46694444444445,38.297777777777775],[-114.6111111111111,38.30722222222222],[-115.04055555555556,38.32972222222222],[-115.15527777777778,38.33166666666667],[-115.3286111111111,38.331944444444446],[-115.4475,38.33444444444444],[-115.88583333333334,38.33388888888889],[-115.91277777777778,38.33388888888889],[-116.49277777777777,38.30638888888888],[-116.7538888888889,38.26166666666666],[-116.89444444444445,38.23722222222222],[-117.02694444444444,38.21416666666667],[-117.30388888888889,38.16555555555556],[-117.41027777777778,38.14666666666667],[-117.80166666666666,38.075833333333335],[-117.93222222222222,38.051944444444445],[-117.9575,38.04722222222222],[-118.19166666666668,38.00388888888889],[-118.32111111111111,37.980000000000004],[-118.83472222222221,37.88805555555555],[-119.61666666666666,37.79666666666667],[-119.87805555555555,37.765],[-120.39750000000001,37.70027777777778],[-120.46666666666667,37.7],[-120.52694444444444,37.684999999999995],[-120.58333333333333,37.68333333333333],[-120.6563888888889,37.669999999999995],[-120.71666666666667,37.666666666666664],[-121.01555555555555,37.626111111111115],[-121.3,37.583333333333336],[-121.34416666666667,37.583333333333336],[-121.44444444444444,37.57166666666667],[-121.5,37.56666666666667],[-121.54305555555555,37.56055555555555],[-121.79444444444444,37.51027777777778],[-121.86833333333333,37.48527777777778],[-121.9,37.46666666666667],[-121.94444444444444,37.466944444444444],[-121.98333333333333,37.46666666666667],[-122.02194444444444,37.472500000000004],[-122.05,37.483333333333334],[-122.09305555555555,37.50222222222222],[-122.13333333333334,37.516666666666666],[-122.18333333333334,37.55],[-122.25,37.56666666666667],[-122.27638888888889,37.57944444444445],[-122.3,37.583333333333336],[-122.32305555555556,37.59916666666667],[-122.35,37.6],[-122.365,37.61666666666667]],"type":"LineString"}
}
