{
  "id": 2014786483,
  "type": "Feature",
  "properties": {
    "geom:area": 0,
    "geom:bbox": "-122.385278,37.664722,-83.651111,43.327222",
    "geom:latitude": 41.43572663089,
    "geom:longitude": -103.29215654087429,
    "src:alt_label": "swim-path",
    "src:geom": "swim",
    "swim:altitudes": [
      "031",
      "073",
      "102",
      "121",
      "140",
      "216",
      "231",
      "260",
      "291",
      "295",
      "315",
      "318",
      "324",
      "327",
      "337",
      "345",
      "350C",
      "350C",
      "350C",
      "350C",
      "350C",
      "350C",
      "350C",
      "350C",
      "350C",
      "350C",
      "350C",
      "350C",
      "350C",
      "350C",
      "350C",
      "350C",
      "350C",
      "350C",
      "350C",
      "350C",
      "350C",
      "350C",
      "350C",
      "350C",
      "350C",
      "350C",
      "350C",
      "350C",
      "350C",
      "350C",
      "350C",
      "350C",
      "350C",
      "350C",
      "350C",
      "350C",
      "350C",
      "350C",
      "350C",
      "350C",
      "350C",
      "350C",
      "350C",
      "350C",
      "350C",
      "350C",
      "350C",
      "350C",
      "350C",
      "350C",
      "350C",
      "350C",
      "350C",
      "350C",
      "350C",
      "350C",
      "350C",
      "350C",
      "350C",
      "350C",
      "350C",
      "350C",
      "350C",
      "350C",
      "350C",
      "350C",
      "350C",
      "350C",
      "350C",
      "350C",
      "350C",
      "350C",
      "350C",
      "350C",
      "350C",
      "350C",
      "353",
      "370C",
      "370C",
      "370C",
      "370C",
      "370C",
      "370C",
      "370C",
      "370C",
      "370C",
      "370C",
      "370C",
      "370C",
      "370C",
      "370C",
      "370C",
      "370C",
      "370C",
      "370C",
      "370C",
      "370C",
      "370C",
      "370C",
      "370C",
      "370C",
      "370C",
      "370C",
      "370C",
      "370C",
      "370C",
      "370C",
      "370C",
      "370C",
      "370C",
      "370C",
      "370C",
      "370",
      "377",
      "380C",
      "380C",
      "380C",
      "380C",
      "380C",
      "380C",
      "380C",
      "380C",
      "380C",
      "380C",
      "380C",
      "380C",
      "380C",
      "380C",
      "380C",
      "380C",
      "380C",
      "380C",
      "380C",
      "380C",
      "380C",
      "380C",
      "380C",
      "380C",
      "380C",
      "380C",
      "380C",
      "380"
    ],
    "swim:geom": "path",
    "swim:speeds": [
      184,
      275,
      283,
      333,
      366,
      435,
      454,
      473,
      491,
      493,
      499,
      500,
      502,
      505,
      507,
      509,
      509,
      511,
      513,
      514,
      514,
      514,
      510,
      510,
      509,
      508,
      508,
      508,
      508,
      508,
      508,
      507,
      506,
      505,
      505,
      503,
      502,
      502,
      500,
      496,
      499,
      498,
      498,
      496,
      493,
      492,
      492,
      498,
      491,
      492,
      493,
      491,
      490,
      485,
      484,
      483,
      482,
      481,
      477,
      477,
      475,
      475,
      475,
      475,
      473,
      472,
      471,
      471,
      471,
      470,
      470,
      471,
      471,
      471,
      472,
      471,
      470,
      469,
      466,
      464,
      464,
      467,
      466,
      465,
      466,
      468,
      477,
      482,
      486,
      487,
      488,
      494,
      499,
      499,
      504,
      504,
      505,
      506,
      508,
      509,
      510,
      509,
      509,
      508,
      507,
      506,
      504,
      503,
      503,
      504,
      515,
      539,
      538,
      537,
      539,
      538,
      541,
      541,
      542,
      544,
      544,
      545,
      545,
      546,
      548,
      548,
      550,
      551,
      553,
      553,
      550,
      541,
      541,
      540,
      538,
      537,
      537,
      535,
      533,
      532,
      531,
      530,
      528,
      525,
      524,
      521,
      520,
      522,
      522,
      523,
      523,
      524,
      525,
      528,
      528,
      517,
      515,
      514
    ],
    "swim:timestamps": [
      1771055948,
      1771056068,
      1771056128,
      1771056188,
      1771056248,
      1771056488,
      1771056548,
      1771056668,
      1771056830,
      1771056848,
      1771056950,
      1771056968,
      1771057010,
      1771057028,
      1771057088,
      1771057148,
      1771057190,
      1771057208,
      1771057310,
      1771057370,
      1771057430,
      1771057550,
      1771057688,
      1771057730,
      1771057790,
      1771057809,
      1771057850,
      1771057869,
      1771057910,
      1771057970,
      1771057989,
      1771058109,
      1771058169,
      1771058229,
      1771058271,
      1771058331,
      1771058391,
      1771058451,
      1771058511,
      1771058811,
      1771059171,
      1771059291,
      1771059351,
      1771059411,
      1771059711,
      1771059831,
      1771059891,
      1771060071,
      1771060458,
      1771060518,
      1771060552,
      1771060578,
      1771060612,
      1771060638,
      1771060672,
      1771060698,
      1771060732,
      1771060758,
      1771060879,
      1771060912,
      1771060999,
      1771061032,
      1771061059,
      1771061119,
      1771061212,
      1771061392,
      1771061512,
      1771061572,
      1771061599,
      1771061632,
      1771061659,
      1771061692,
      1771061719,
      1771061752,
      1771061779,
      1771061812,
      1771061839,
      1771061899,
      1771061959,
      1771062019,
      1771062079,
      1771062319,
      1771062439,
      1771062499,
      1771062739,
      1771062799,
      1771062979,
      1771063160,
      1771063280,
      1771063340,
      1771063400,
      1771063640,
      1771063700,
      1771063820,
      1771064060,
      1771064120,
      1771064180,
      1771064240,
      1771064360,
      1771064420,
      1771064486,
      1771064540,
      1771064606,
      1771064726,
      1771064846,
      1771065026,
      1771065146,
      1771065206,
      1771065266,
      1771065326,
      1771065506,
      1771065759,
      1771065819,
      1771065866,
      1771065879,
      1771065926,
      1771065999,
      1771066046,
      1771066059,
      1771066166,
      1771066179,
      1771066226,
      1771066239,
      1771066299,
      1771066406,
      1771066419,
      1771066479,
      1771066539,
      1771066599,
      1771066646,
      1771066706,
      1771066887,
      1771066899,
      1771066947,
      1771067067,
      1771067199,
      1771067247,
      1771067379,
      1771067427,
      1771067500,
      1771067560,
      1771067620,
      1771067740,
      1771067860,
      1771067920,
      1771068040,
      1771068061,
      1771068100,
      1771068160,
      1771068220,
      1771068301,
      1771068340,
      1771068400,
      1771068580,
      1771068661,
      1771068841,
      1771068901,
      1771069021
    ],
    "wof:geomhash": "b9ab9cbbb70fdfb341dcdb77d07e9798",
    "wof:id": 2014786483,
    "wof:repo": "sfomuseum-data-flights-2026-02"
  },
  "bbox": [
    -122.38527777777779,
    37.664722222222224,
    -83.65111111111112,
    43.327222222222225
  ],
  "geometry": {"coordinates":[[-122.32777777777777,37.664722222222224],[-122.36083333333333,37.79277777777778],[-122.38527777777779,37.86888888888889],[-122.35555555555555,37.95],[-122.245,37.99666666666667],[-121.70111111111112,38.18194444444444],[-121.5525,38.230555555555554],[-121.24777777777778,38.32972222222222],[-120.8261111111111,38.46472222222223],[-120.77361111111111,38.48166666666667],[-120.49638888888889,38.56722222222223],[-120.44472222222223,38.58555555555556],[-120.33027777777778,38.61944444444445],[-120.27555555555556,38.63861111111111],[-120.10777777777777,38.690555555555555],[-119.93944444444445,38.7425],[-119.82555555555555,38.77583333333333],[-119.77083333333333,38.794444444444444],[-119.48444444444445,38.88055555555555],[-119.31333333333333,38.93194444444444],[-119.14222222222223,38.98305555555556],[-118.80277777777778,39.085],[-118.40166666666667,39.20305555555556],[-118.30333333333333,39.23166666666667],[-118.13416666666667,39.28055555555555],[-118.06361111111111,39.30083333333333],[-117.9625,39.330000000000005],[-117.89083333333333,39.35027777777778],[-117.79194444444444,39.37833333333333],[-117.62083333333332,39.426944444444445],[-117.55222222222221,39.44638888888888],[-117.22555555555556,39.53777777777778],[-117.05416666666666,39.58527777777778],[-116.885,39.63166666666667],[-116.75027777777778,39.66861111111111],[-116.58027777777778,39.715],[-116.41194444444444,39.760555555555555],[-116.24166666666667,39.80611111111111],[-116.075,39.85055555555556],[-115.23083333333334,40.071111111111115],[-114.19527777777778,40.331388888888895],[-113.85027777777778,40.41555555555556],[-113.68111111111112,40.45638888888889],[-113.5075,40.49805555555556],[-112.64944444444446,40.69916666666666],[-112.30583333333333,40.777499999999996],[-112.13472222222222,40.816111111111105],[-111.56916666666666,40.884166666666665],[-110.40305555555557,40.97222222222222],[-110.22888888888889,40.98444444444444],[-110.1563888888889,40.989444444444445],[-110.04888888888888,40.99666666666667],[-109.97805555555556,41.00361111111111],[-109.8761111111111,41.01972222222222],[-109.80444444444444,41.03111111111111],[-109.70305555555557,41.04722222222222],[-109.60166666666666,41.06305555555555],[-109.53388888888888,41.07361111111111],[-109.19222222222223,41.126111111111115],[-109.09138888888889,41.141666666666666],[-108.85416666666666,41.17722222222222],[-108.75416666666666,41.19222222222222],[-108.68694444444445,41.202222222222225],[-108.51638888888888,41.227222222222224],[-108.24138888888889,41.26694444444444],[-107.73055555555555,41.33916666666667],[-107.38861111111112,41.38583333333333],[-107.21861111111112,41.409166666666664],[-107.15,41.41833333333333],[-107.04861111111111,41.43194444444444],[-106.98,41.44027777777777],[-106.8786111111111,41.443888888888885],[-106.80444444444444,41.44611111111111],[-106.69555555555556,41.44944444444444],[-106.63055555555555,41.45166666666667],[-106.52555555555556,41.45472222222222],[-106.44861111111112,41.456944444444446],[-106.27722222222222,41.46194444444445],[-106.10666666666665,41.46611111111111],[-105.93694444444445,41.47],[-105.76388888888889,41.47416666666667],[-105.07527777777777,41.48722222222222],[-104.73222222222222,41.4925],[-104.56166666666667,41.49472222222222],[-103.87666666666667,41.514722222222225],[-103.70722222222223,41.534166666666664],[-103.18388888888889,41.59305555555556],[-102.65166666666667,41.65083333333333],[-102.28527777777778,41.68888888888888],[-102.10527777777777,41.706944444444446],[-101.92416666666666,41.725],[-101.19388888888889,41.79472222222222],[-101.00694444444444,41.81222222222222],[-100.63833333333334,41.845],[-99.89555555555556,41.94361111111111],[-99.71416666666667,41.97277777777778],[-99.52972222222222,42.00222222222222],[-99.3411111111111,42.031666666666666],[-98.96833333333333,42.089444444444446],[-98.78083333333333,42.1175],[-98.59194444444444,42.145833333333336],[-98.40583333333333,42.17305555555555],[-98.21694444444445,42.200833333333335],[-97.84333333333333,42.254444444444445],[-97.46166666666667,42.3075],[-96.9025,42.38333333333333],[-96.52638888888889,42.43111111111111],[-96.33944444444444,42.45333333333333],[-96.15416666666667,42.47555555555556],[-95.96555555555555,42.4975],[-95.38694444444445,42.56333333333333],[-94.58611111111111,42.64972222222222],[-94.38666666666667,42.669444444444444],[-94.22500000000001,42.68583333333333],[-94.18722222222223,42.689722222222215],[-94.02194444444444,42.70638888888889],[-93.78083333333333,42.72972222222222],[-93.61583333333333,42.74527777777778],[-93.57805555555555,42.74888888888889],[-93.21027777777778,42.783055555555556],[-93.16861111111112,42.78666666666666],[-93.00527777777778,42.80138888888889],[-92.96583333333334,42.805],[-92.75861111111111,42.82333333333334],[-92.38583333333334,42.855000000000004],[-92.34555555555555,42.858333333333334],[-92.14,42.87555555555556],[-91.93027777777779,42.89222222222222],[-91.71777777777778,42.90888888888889],[-91.54305555555555,42.9225],[-91.33361111111111,42.93805555555555],[-90.72111111111111,42.98222222222223],[-90.68,42.985],[-90.5175,42.99611111111111],[-90.12055555555555,43.02194444444444],[-89.68027777777779,43.04888888888889],[-89.5213888888889,43.05888888888889],[-89.07666666666667,43.083333333333336],[-88.92,43.09277777777778],[-88.67555555555556,43.10444444444445],[-88.44027777777778,43.11611111111111],[-88.24055555555556,43.12555555555556],[-87.84777777777778,43.14361111111111],[-87.45083333333334,43.16027777777778],[-87.2475,43.168055555555554],[-86.85222222222221,43.18277777777777],[-86.8125,43.183611111111105],[-86.65333333333334,43.18944444444444],[-86.45472222222223,43.19555555555555],[-86.25416666666666,43.20138888888889],[-86.01416666666667,43.20861111111111],[-85.88694444444445,43.21194444444445],[-85.68666666666667,43.216944444444444],[-85.08111111111111,43.23027777777778],[-84.80305555555556,43.23527777777778],[-84.21361111111112,43.2675],[-84.01888888888888,43.288888888888884],[-83.65111111111112,43.327222222222225]],"type":"LineString"}
}
