{
  "id": 2014708163,
  "type": "Feature",
  "properties": {
    "geom:area": 0,
    "geom:bbox": "-122.463000,37.232910,-121.243470,37.712800",
    "geom:latitude": 37.431929236330284,
    "geom:longitude": -121.96962561823294,
    "src:alt_label": "swim-takeoff",
    "src:geom": "swim",
    "swim:elevations": [
      213,
      556,
      796,
      1219,
      1407,
      1843,
      2310,
      2581,
      3187,
      3338,
      3754,
      3980,
      4229,
      4937,
      5411,
      5716,
      6152,
      6572,
      6682,
      7140,
      7466,
      7859,
      8167,
      8430,
      8746,
      8973,
      9273,
      9450,
      9449
    ],
    "swim:geom": "takeoff",
    "swim:timestamps": [
      1770183560,
      1770183592,
      1770183619,
      1770183649,
      1770183664,
      1770183698,
      1770183742,
      1770183772,
      1770183808,
      1770183835,
      1770183865,
      1770183882,
      1770183902,
      1770183948,
      1770183978,
      1770184008,
      1770184046,
      1770184074,
      1770184080,
      1770184110,
      1770184140,
      1770184179,
      1770184209,
      1770184240,
      1770184280,
      1770184307,
      1770184346,
      1770184376,
      1770184403
    ],
    "wof:geomhash": "0a70ab28023fb76d8fc46a96278963e5",
    "wof:id": 2014708163,
    "wof:repo": "sfomuseum-data-flights-2026-02"
  },
  "bbox": [
    -122.463,
    37.23291,
    -121.24347,
    37.7128
  ],
  "geometry": {"coordinates":[[-122.36675,37.6275],[-122.36298,37.65159],[-122.36193,37.67616],[-122.37141,37.7042],[-122.38721,37.7128],[-122.43003,37.70639],[-122.44881,37.66157],[-122.45459,37.62307],[-122.46183,37.57537],[-122.463,37.53714],[-122.42502,37.50587],[-122.39321,37.49956],[-122.3536,37.49252],[-122.26104,37.47195],[-122.20093,37.45772],[-122.13929,37.44325],[-122.05874,37.42459],[-121.99855,37.41062],[-121.98562,37.40757],[-121.9215,37.39274],[-121.8569,37.37774],[-121.77033,37.35731],[-121.70273,37.34154],[-121.63239,37.32505],[-121.53921,37.30318],[-121.47548,37.28772],[-121.38192,37.2657],[-121.30909,37.2483],[-121.24347,37.23291]],"type":"LineString"}
}
