{
  "id": 2014787265,
  "type": "Feature",
  "properties": {
    "geom:area": 0,
    "geom:bbox": "-122.359070,37.491630,-121.267140,37.614230",
    "geom:latitude": 37.5461689826484,
    "geom:longitude": -121.81794421945109,
    "src:alt_label": "swim-approach",
    "src:geom": "swim",
    "swim:elevations": [
      4632,
      4581,
      4221,
      3789,
      3458,
      3429,
      3140,
      3072,
      2849,
      2723,
      2530,
      2438,
      2438,
      2179,
      2107,
      1830,
      1768,
      1682,
      1333,
      1057,
      964,
      671,
      551,
      549,
      393,
      270,
      170,
      76,
      120
    ],
    "swim:geom": "approach",
    "swim:timestamps": [
      1771068508,
      1771068512,
      1771068549,
      1771068593,
      1771068626,
      1771068630,
      1771068674,
      1771068693,
      1771068729,
      1771068749,
      1771068770,
      1771068808,
      1771068812,
      1771068866,
      1771068890,
      1771068957,
      1771068985,
      1771068999,
      1771069042,
      1771069076,
      1771069088,
      1771069130,
      1771069162,
      1771069174,
      1771069217,
      1771069248,
      1771069271,
      1771069294,
      1771069313
    ],
    "wof:geomhash": "97a87b1aec463bda9ef7e82e7f428905",
    "wof:id": 2014787265,
    "wof:repo": "sfomuseum-data-flights-2026-02"
  },
  "bbox": [
    -122.35907,
    37.49163,
    -121.26714,
    37.61423
  ],
  "geometry": {"coordinates":[[-121.26714,37.59229],[-121.27475,37.59128],[-121.34425,37.58342],[-121.42772,37.57374],[-121.48953,37.56658],[-121.4955,37.5659],[-121.57661,37.55651],[-121.60867,37.55273],[-121.66566,37.54106],[-121.69576,37.5338],[-121.72875,37.52591],[-121.78472,37.51271],[-121.79029,37.51137],[-121.8641,37.49352],[-121.89793,37.49163],[-121.99237,37.49638],[-122.02891,37.50816],[-122.04534,37.51361],[-122.09798,37.53059],[-122.13734,37.54324],[-122.15219,37.54805],[-122.19645,37.56247],[-122.22992,37.57319],[-122.24128,37.57682],[-122.28098,37.58892],[-122.30633,37.59626],[-122.32568,37.60202],[-122.34403,37.60816],[-122.35907,37.61423]],"type":"LineString"}
}
