{
  "id": 2014852531,
  "type": "Feature",
  "properties": {
    "geom:area": 0,
    "geom:bbox": "-122.380000,27.980000,-82.530000,38.520000",
    "geom:latitude": 34.68222149846062,
    "geom:longitude": -101.8910041715556,
    "src:alt_label": "swim-route",
    "src:geom": "swim",
    "swim:geom": "route",
    "wof:geomhash": "541a9f6a28454727991edd1ef7906563",
    "wof:id": 2014852531,
    "wof:repo": "sfomuseum-data-flights-2026-02"
  },
  "bbox": [
    -122.38,
    27.98,
    -82.53,
    38.52
  ],
  "geometry": {"coordinates":[[-122.38,37.62],[-122.36,37.61],[-122.34,37.61],[-122.34,37.6],[-122.26,37.57],[-122.24,37.57],[-122.18,37.55],[-122.16,37.54],[-122.15,37.53],[-122.12,37.55],[-122.1,37.56],[-122.08,37.57],[-121.91,37.64],[-121.9,37.64],[-121.78,37.7],[-121.73,37.72],[-121.71,37.73],[-121.66,37.75],[-121.59,37.78],[-121.46,37.84],[-121.46,37.84],[-121.44,37.85],[-121.36,37.88],[-121.32,37.9],[-121.31,37.9],[-121.25,37.93],[-121.22,37.94],[-121.15,37.97],[-121.1,37.99],[-120.9,38.02],[-120.8,38.04],[-120.7,38.05],[-120.65,38.06],[-120.61,38.07],[-120.4,38.1],[-119.18,38.27],[-118.97,38.3],[-118.81,38.33],[-118.59,38.35],[-117.72,38.47],[-117.68,38.47],[-117.29,38.52],[-117.28,38.52],[-113.86,38.4],[-113.01,38.36],[-112.3,38.14],[-111.95,38.03],[-111.89,38.02],[-111.32,37.84],[-111.07,37.75],[-109.17,37.12],[-108.79,36.99],[-108.1,36.75],[-106.85,36.44],[-105.4,36.06],[-102.98,35.38],[-100.57,34.64],[-98.59,33.99],[-97.78,33.73],[-96.33,33.26],[-96.2,33.22],[-94.77,32.73],[-92.98,32.09],[-92.68,31.97],[-92.19,31.9],[-90.71,31.66],[-89.12,31.39],[-87.55,31.1],[-86.13,30.81],[-85.21,30.79],[-84.84,30.77],[-84.4,30.33],[-84.36,30.29],[-84.13,30.06],[-83.9,29.82],[-83.89,29.82],[-83.64,29.43],[-83.6,29.36],[-83.51,29.23],[-83.51,29.22],[-83.39,29.04],[-83.39,29.03],[-83.34,28.95],[-83.1,28.57],[-83.03,28.47],[-83.01,28.42],[-83,28.42],[-83,28.41],[-82.98,28.38],[-82.95,28.34],[-82.94,28.33],[-82.87,28.27],[-82.73,28.15],[-82.67,28.1],[-82.67,28.09],[-82.6,28.03],[-82.53,27.98]],"type":"LineString"}
}
