{
  "id": 2014856763,
  "type": "Feature",
  "properties": {
    "geom:area": 0,
    "geom:bbox": "-122.759167,37.450000,-110.752222,43.580278",
    "geom:latitude": 40.80673341551827,
    "geom:longitude": -117.35188360553029,
    "src:alt_label": "swim-path",
    "src:geom": "swim",
    "swim:altitudes": [
      "080",
      "101",
      "101",
      "138",
      "138",
      "220",
      "220",
      "253",
      "253",
      "253",
      "268",
      "284",
      "284",
      "306",
      "306",
      "321",
      "321",
      "350",
      "350",
      "360C",
      "360C",
      "360C",
      "360C",
      "360C",
      "360C",
      "360C",
      "360C",
      "360C",
      "360C",
      "360C",
      "360C",
      "360C",
      "360C",
      "360C",
      "360C",
      "360C",
      "360C",
      "360C",
      "360C",
      "360C",
      "360C",
      "360C",
      "360C",
      "360C",
      "360C",
      "360C",
      "360C",
      "360C",
      "360C",
      "360C",
      "360C",
      "360C",
      "360C",
      "360C",
      "360C",
      "360C",
      "360C",
      "360C",
      "360C",
      "360C",
      "338",
      "318",
      "260",
      "260",
      "251",
      "204",
      "172",
      "132",
      "110",
      "102",
      "061",
      "047",
      "026",
      "009"
    ],
    "swim:geom": "path",
    "swim:speeds": [
      151,
      189,
      189,
      228,
      228,
      347,
      347,
      365,
      365,
      365,
      372,
      373,
      373,
      388,
      388,
      390,
      390,
      364,
      364,
      363,
      363,
      361,
      362,
      362,
      361,
      361,
      361,
      361,
      364,
      364,
      364,
      363,
      363,
      359,
      359,
      363,
      364,
      362,
      362,
      365,
      365,
      367,
      367,
      369,
      369,
      372,
      372,
      377,
      377,
      374,
      381,
      384,
      385,
      390,
      390,
      390,
      390,
      389,
      390,
      390,
      377,
      382,
      351,
      351,
      349,
      340,
      350,
      342,
      300,
      238,
      230,
      230,
      188,
      151
    ],
    "swim:timestamps": [
      1771800581,
      1771800641,
      1771800641,
      1771800701,
      1771800701,
      1771800941,
      1771800941,
      1771801062,
      1771801062,
      1771801062,
      1771801122,
      1771801182,
      1771801182,
      1771801302,
      1771801302,
      1771801362,
      1771801362,
      1771801482,
      1771801482,
      1771801662,
      1771801662,
      1771801843,
      1771801903,
      1771801903,
      1771801963,
      1771802023,
      1771802023,
      1771802023,
      1771802143,
      1771802203,
      1771802263,
      1771802323,
      1771802323,
      1771802503,
      1771802503,
      1771802684,
      1771802804,
      1771802935,
      1771802995,
      1771803164,
      1771803164,
      1771803416,
      1771803416,
      1771803656,
      1771803716,
      1771803956,
      1771803956,
      1771804257,
      1771804257,
      1771804366,
      1771804677,
      1771804858,
      1771804918,
      1771805278,
      1771805278,
      1771805398,
      1771805398,
      1771805519,
      1771805699,
      1771805699,
      1771806059,
      1771806179,
      1771806540,
      1771806540,
      1771806600,
      1771806840,
      1771806961,
      1771807089,
      1771807201,
      1771807329,
      1771807510,
      1771807561,
      1771807689,
      1771807814
    ],
    "wof:geomhash": "ae57034a48cecce01a0bb8c577257923",
    "wof:id": 2014856763,
    "wof:repo": "sfomuseum-data-flights-2026-02"
  },
  "bbox": [
    -122.75916666666667,
    37.45,
    -110.75222222222222,
    43.58027777777778
  ],
  "geometry": {"coordinates":[[-110.75222222222222,43.58027777777778],[-110.78694444444444,43.53361111111111],[-110.78694444444444,43.53361111111111],[-110.825,43.473888888888894],[-110.825,43.473888888888894],[-111.24111111111111,43.30555555555555],[-111.24111111111111,43.30555555555555],[-111.49666666666667,43.219166666666666],[-111.49666666666667,43.219166666666666],[-111.49666666666667,43.219166666666666],[-111.62472222222222,43.17527777777777],[-111.7525,43.13138888888889],[-111.7525,43.13138888888889],[-112.01722222222222,43.03972222222222],[-112.01722222222222,43.03972222222222],[-112.15166666666667,42.99305555555556],[-112.15166666666667,42.99305555555556],[-112.40777777777778,42.903055555555554],[-112.40777777777778,42.903055555555554],[-112.77666666666667,42.7725],[-112.77666666666667,42.7725],[-113.15416666666667,42.63666666666666],[-113.27666666666667,42.592222222222226],[-113.27666666666667,42.592222222222226],[-113.39750000000001,42.54833333333333],[-113.52027777777778,42.50361111111111],[-113.52027777777778,42.50361111111111],[-113.52027777777778,42.50361111111111],[-113.76444444444445,42.41361111111111],[-113.88611111111112,42.36833333333333],[-114.00805555555556,42.323055555555555],[-114.12916666666666,42.27777777777778],[-114.12916666666666,42.27777777777778],[-114.48777777777778,42.14277777777778],[-114.48777777777778,42.14277777777778],[-114.83916666666666,42.00888888888889],[-115.08138888888888,41.91555555555556],[-115.3475,41.81472222222222],[-115.46638888888889,41.76833333333333],[-115.79944444444445,41.634166666666665],[-115.79944444444445,41.634166666666665],[-116.30416666666666,41.43388888888889],[-116.30416666666666,41.43388888888889],[-116.78027777777778,41.24],[-116.89888888888889,41.190555555555555],[-117.37472222222222,40.992222222222225],[-117.37472222222222,40.992222222222225],[-118.00416666666666,40.726111111111116],[-118.00416666666666,40.726111111111116],[-118.215,40.63583333333333],[-118.83527777777778,40.36611111111111],[-119.19805555555556,40.20611111111111],[-119.31833333333333,40.152499999999996],[-120.04666666666667,39.823888888888895],[-120.04666666666667,39.823888888888895],[-120.27666666666667,39.718333333333334],[-120.27666666666667,39.718333333333334],[-120.51583333333333,39.60777777777778],[-120.90138888888889,39.42833333333333],[-120.90138888888889,39.42833333333333],[-121.55472222222222,39.06916666666667],[-121.77222222222223,38.94138888888889],[-122.38555555555556,38.57555555555556],[-122.38555555555556,38.57555555555556],[-122.4738888888889,38.51],[-122.75916666666667,38.21388888888889],[-122.70944444444444,38.024166666666666],[-122.6,37.833333333333336],[-122.47055555555556,37.70805555555556],[-122.35,37.583333333333336],[-122.18333333333334,37.45],[-122.11999999999999,37.458333333333336],[-122.2,37.55],[-122.31222222222222,37.5925]],"type":"LineString"}
}
