{
  "id": 2014819555,
  "type": "Feature",
  "properties": {
    "geom:area": 0,
    "geom:bbox": "-122.522700,37.629990,-121.251130,37.965910",
    "geom:latitude": 37.83191918467777,
    "geom:longitude": -121.95619642224872,
    "src:alt_label": "swim-takeoff",
    "src:geom": "swim",
    "swim:elevations": [
      394,
      814,
      1026,
      1153,
      1602,
      2186,
      2330,
      2867,
      3035,
      3182,
      3382,
      3670,
      4303,
      4971,
      5407,
      5798,
      5958,
      6272,
      6687,
      6930,
      7035,
      7203,
      7609,
      7999
    ],
    "swim:geom": "takeoff",
    "swim:timestamps": [
      1771347805,
      1771347833,
      1771347859,
      1771347881,
      1771347925,
      1771347957,
      1771347965,
      1771348001,
      1771348016,
      1771348045,
      1771348073,
      1771348091,
      1771348125,
      1771348188,
      1771348228,
      1771348259,
      1771348276,
      1771348312,
      1771348345,
      1771348375,
      1771348385,
      1771348403,
      1771348456,
      1771348511
    ],
    "wof:geomhash": "861bad52391cd9e63d547009e91405a6",
    "wof:id": 2014819555,
    "wof:repo": "sfomuseum-data-flights-2026-02"
  },
  "bbox": [
    -122.5227,
    37.62999,
    -121.25113,
    37.96591
  ],
  "geometry": {"coordinates":[[-122.39395,37.62999],[-122.41501,37.63876],[-122.43581,37.64682],[-122.45601,37.65498],[-122.50594,37.67709],[-122.5227,37.71223],[-122.51936,37.721],[-122.4721,37.75048],[-122.44498,37.75527],[-122.38791,37.76532],[-122.32791,37.77606],[-122.288,37.78314],[-122.21285,37.79699],[-122.07246,37.82172],[-121.97753,37.83884],[-121.90268,37.85214],[-121.85802,37.86008],[-121.76731,37.87617],[-121.68505,37.89075],[-121.60689,37.90439],[-121.58101,37.90886],[-121.53445,37.91695],[-121.39646,37.94086],[-121.25113,37.96591]],"type":"LineString"}
}
