{
  "id": 2014837517,
  "type": "Feature",
  "properties": {
    "geom:area": 0,
    "geom:bbox": "-122.352870,37.472780,-121.269280,37.609360",
    "geom:latitude": 37.53382891997911,
    "geom:longitude": -121.81609983027683,
    "src:alt_label": "swim-approach",
    "src:geom": "swim",
    "swim:elevations": [
      4923,
      4891,
      4501,
      4202,
      3875,
      3733,
      3472,
      3321,
      3213,
      3107,
      2976,
      2930,
      2894,
      2803,
      2622,
      2425,
      2165,
      2164,
      2031,
      1904,
      1886,
      1725,
      1509,
      1274,
      1243,
      1063,
      1004,
      860,
      631,
      498,
      383,
      329,
      192,
      121,
      49
    ],
    "swim:geom": "approach",
    "swim:timestamps": [
      1771620567,
      1771620570,
      1771620603,
      1771620635,
      1771620668,
      1771620684,
      1771620714,
      1771620747,
      1771620771,
      1771620788,
      1771620826,
      1771620832,
      1771620840,
      1771620853,
      1771620880,
      1771620907,
      1771620955,
      1771620963,
      1771621009,
      1771621030,
      1771621037,
      1771621060,
      1771621087,
      1771621134,
      1771621159,
      1771621198,
      1771621210,
      1771621238,
      1771621286,
      1771621310,
      1771621338,
      1771621351,
      1771621384,
      1771621402,
      1771621420
    ],
    "wof:geomhash": "1c8b537766771d1a78e6a594d219d1f7",
    "wof:id": 2014837517,
    "wof:repo": "sfomuseum-data-flights-2026-02"
  },
  "bbox": [
    -122.35287,
    37.47278,
    -121.26928,
    37.60936
  ],
  "geometry": {"coordinates":[[-121.26928,37.59185],[-121.27489,37.59107],[-121.33664,37.58402],[-121.39604,37.57732],[-121.45651,37.57037],[-121.48604,37.56694],[-121.5403,37.56051],[-121.59832,37.55363],[-121.63513,37.548],[-121.65836,37.53578],[-121.70207,37.50681],[-121.70861,37.50254],[-121.71697,37.49711],[-121.7307,37.48822],[-121.76346,37.47704],[-121.79865,37.4738],[-121.86149,37.47278],[-121.87252,37.47442],[-121.93372,37.48337],[-121.96048,37.48736],[-121.96945,37.48869],[-121.99879,37.49282],[-122.03269,37.49788],[-122.09186,37.50662],[-122.12028,37.51242],[-122.16039,37.52839],[-122.17139,37.53306],[-122.19899,37.54474],[-122.24486,37.56403],[-122.26698,37.57329],[-122.28995,37.58298],[-122.29966,37.58706],[-122.32589,37.59804],[-122.33937,37.60374],[-122.35287,37.60936]],"type":"LineString"}
}
