{
  "id": 2014781803,
  "type": "Feature",
  "properties": {
    "geom:area": 0,
    "geom:bbox": "-122.358200,36.762540,-121.899400,37.611620",
    "geom:latitude": 37.23111163633117,
    "geom:longitude": -122.1057716966501,
    "src:alt_label": "swim-approach",
    "src:geom": "swim",
    "swim:elevations": [
      5371,
      5273,
      4897,
      4837,
      4602,
      4507,
      4448,
      4156,
      4043,
      4001,
      3836,
      3588,
      3442,
      3047,
      2977,
      2783,
      2504,
      2362,
      2181,
      2011,
      1893,
      1681,
      1463,
      1326,
      1127,
      983,
      930,
      831,
      730,
      599,
      429,
      302,
      212,
      95,
      10
    ],
    "swim:geom": "approach",
    "swim:timestamps": [
      1771051197,
      1771051210,
      1771051254,
      1771051267,
      1771051318,
      1771051342,
      1771051357,
      1771051394,
      1771051406,
      1771051412,
      1771051427,
      1771051455,
      1771051476,
      1771051527,
      1771051541,
      1771051568,
      1771051617,
      1771051642,
      1771051675,
      1771051699,
      1771051720,
      1771051760,
      1771051797,
      1771051824,
      1771051857,
      1771051885,
      1771051904,
      1771051926,
      1771051950,
      1771051971,
      1771052002,
      1771052036,
      1771052062,
      1771052086,
      1771052105
    ],
    "wof:geomhash": "02130386bd42afaad061cba8b0861827",
    "wof:id": 2014781803,
    "wof:repo": "sfomuseum-data-flights-2026-02"
  },
  "bbox": [
    -122.3582,
    36.76254,
    -121.8994,
    37.61162
  ],
  "geometry": {"coordinates":[[-121.8994,36.76254],[-121.90528,36.78307],[-121.92451,36.85014],[-121.9301,36.86995],[-121.94934,36.9391],[-121.9598,36.96886],[-121.96668,36.98668],[-121.98301,37.02857],[-121.98834,37.04218],[-121.99107,37.04906],[-121.99785,37.06645],[-122.01027,37.09921],[-122.02335,37.12277],[-122.07664,37.16706],[-122.09041,37.17869],[-122.11755,37.20146],[-122.16566,37.2436],[-122.18933,37.26475],[-122.22033,37.29259],[-122.22607,37.31867],[-122.20858,37.33818],[-122.18972,37.37954],[-122.17753,37.42159],[-122.16887,37.4506],[-122.15798,37.48746],[-122.16047,37.51702],[-122.17586,37.53358],[-122.19911,37.5448],[-122.22471,37.55507],[-122.24567,37.56402],[-122.27503,37.57672],[-122.30226,37.58781],[-122.32317,37.59671],[-122.34256,37.60502],[-122.3582,37.61162]],"type":"LineString"}
}
