{
  "id": 2014868423,
  "type": "Feature",
  "properties": {
    "geom:area": 0,
    "geom:bbox": "-122.505278,32.691111,-116.956111,37.675278",
    "geom:latitude": 34.934047907429566,
    "geom:longitude": -119.97808396352698,
    "src:alt_label": "swim-path",
    "src:geom": "swim",
    "swim:altitudes": [
      "006",
      "006",
      "006",
      "015",
      "015",
      "120",
      "120",
      "120",
      "120",
      "169",
      "169",
      "169",
      "302",
      "302",
      "302",
      "302",
      "369",
      "369",
      "369",
      "386",
      "386",
      "386",
      "390C",
      "390C",
      "390C",
      "390C",
      "390C",
      "390C",
      "390C",
      "390C",
      "390C",
      "390C",
      "390C",
      "390C",
      "390C",
      "390C",
      "390C",
      "390C",
      "390C",
      "390C",
      "390C",
      "390C",
      "390C",
      "390C",
      "390C",
      "390C",
      "390C",
      "390C",
      "390C",
      "390C",
      "390C",
      "390C",
      "390C",
      "390C",
      "390C",
      "329",
      "329",
      "329",
      "303",
      "303",
      "282",
      "260",
      "238",
      "238",
      "238",
      "188",
      "188",
      "168",
      "155",
      "155",
      "155",
      "115",
      "108",
      "101",
      "097",
      "097",
      "097",
      "093",
      "093",
      "082",
      "082",
      "058",
      "058",
      "052",
      "046",
      "046",
      "046",
      "041",
      "041",
      "041",
      "037",
      "037",
      "009"
    ],
    "swim:geom": "path",
    "swim:speeds": [
      152,
      152,
      152,
      162,
      162,
      208,
      208,
      208,
      208,
      340,
      340,
      340,
      459,
      459,
      459,
      459,
      462,
      462,
      462,
      455,
      455,
      455,
      462,
      462,
      462,
      473,
      473,
      476,
      476,
      476,
      497,
      497,
      497,
      468,
      468,
      444,
      444,
      443,
      443,
      443,
      445,
      445,
      445,
      446,
      446,
      446,
      446,
      448,
      448,
      472,
      472,
      473,
      473,
      473,
      473,
      462,
      462,
      462,
      459,
      459,
      446,
      430,
      417,
      417,
      417,
      380,
      380,
      374,
      373,
      373,
      373,
      350,
      341,
      326,
      313,
      313,
      313,
      291,
      291,
      281,
      281,
      206,
      206,
      198,
      201,
      201,
      201,
      188,
      188,
      188,
      185,
      185,
      132
    ],
    "swim:timestamps": [
      1771904400,
      1771904400,
      1771904400,
      1771904429,
      1771904429,
      1771904609,
      1771904609,
      1771904609,
      1771904609,
      1771904729,
      1771904729,
      1771904729,
      1771905031,
      1771905031,
      1771905031,
      1771905031,
      1771905211,
      1771905211,
      1771905211,
      1771905270,
      1771905270,
      1771905270,
      1771905450,
      1771905450,
      1771905450,
      1771905690,
      1771905690,
      1771905810,
      1771905810,
      1771905810,
      1771905990,
      1771906050,
      1771906050,
      1771906170,
      1771906170,
      1771906293,
      1771906293,
      1771906351,
      1771906351,
      1771906411,
      1771906473,
      1771906473,
      1771906473,
      1771906533,
      1771906533,
      1771906533,
      1771906533,
      1771906593,
      1771906593,
      1771906834,
      1771906834,
      1771906894,
      1771906894,
      1771906894,
      1771906894,
      1771907254,
      1771907254,
      1771907254,
      1771907314,
      1771907314,
      1771907374,
      1771907435,
      1771907495,
      1771907495,
      1771907495,
      1771907629,
      1771907629,
      1771907689,
      1771907735,
      1771907735,
      1771907735,
      1771907855,
      1771907869,
      1771907915,
      1771907928,
      1771907928,
      1771907928,
      1771907975,
      1771907975,
      1771908035,
      1771908035,
      1771908216,
      1771908216,
      1771908235,
      1771908276,
      1771908276,
      1771908276,
      1771908295,
      1771908295,
      1771908295,
      1771908336,
      1771908336,
      1771908516
    ],
    "wof:geomhash": "4117fdb41fb958a22353890ab4c6b412",
    "wof:id": 2014868423,
    "wof:repo": "sfomuseum-data-flights-2026-02"
  },
  "bbox": [
    -122.50527777777778,
    32.691111111111105,
    -116.95611111111111,
    37.67527777777777
  ],
  "geometry": {"coordinates":[[-122.36666666666666,37.63333333333333],[-122.36666666666666,37.63333333333333],[-122.36666666666666,37.63333333333333],[-122.36527777777778,37.646388888888886],[-122.36527777777778,37.646388888888886],[-122.49,37.67527777777777],[-122.49,37.67527777777777],[-122.49,37.67527777777777],[-122.49,37.67527777777777],[-122.50527777777778,37.514722222222225],[-122.50527777777778,37.514722222222225],[-122.50527777777778,37.514722222222225],[-122.39527777777778,37.004444444444445],[-122.39527777777778,37.004444444444445],[-122.39527777777778,37.004444444444445],[-122.39527777777778,37.004444444444445],[-122.10749999999999,36.6875],[-122.10749999999999,36.6875],[-122.10749999999999,36.6875],[-122.01805555555555,36.588055555555556],[-122.01805555555555,36.588055555555556],[-122.01805555555555,36.588055555555556],[-121.73361111111112,36.27111111111111],[-121.73361111111112,36.27111111111111],[-121.73361111111112,36.27111111111111],[-121.35638888888889,35.845],[-121.35638888888889,35.845],[-121.16666666666667,35.62861111111111],[-121.16666666666667,35.62861111111111],[-121.16666666666667,35.62861111111111],[-120.79805555555555,35.35916666666667],[-120.66416666666667,35.28111111111111],[-120.66416666666667,35.28111111111111],[-120.40722222222223,35.11361111111111],[-120.40722222222223,35.11361111111111],[-120.22194444444445,34.89388888888889],[-120.22194444444445,34.89388888888889],[-120.15333333333334,34.81194444444444],[-120.15333333333334,34.81194444444444],[-120.06805555555555,34.709722222222226],[-119.96805555555555,34.58916666666667],[-119.96805555555555,34.58916666666667],[-119.96805555555555,34.58916666666667],[-119.88333333333334,34.486111111111114],[-119.88333333333334,34.486111111111114],[-119.88333333333334,34.486111111111114],[-119.88333333333334,34.486111111111114],[-119.8,34.38388888888889],[-119.8,34.38388888888889],[-119.31638888888888,34.119166666666665],[-119.31638888888888,34.119166666666665],[-119.16333333333334,34.08694444444445],[-119.16333333333334,34.08694444444445],[-119.16333333333334,34.08694444444445],[-119.16333333333334,34.08694444444445],[-118.30749999999999,33.83694444444445],[-118.30749999999999,33.83694444444445],[-118.30749999999999,33.83694444444445],[-118.19527777777778,33.750277777777775],[-118.19527777777778,33.750277777777775],[-118.08416666666666,33.66611111111111],[-117.97916666666667,33.58527777777778],[-117.88083333333333,33.50527777777778],[-117.88083333333333,33.50527777777778],[-117.88083333333333,33.50527777777778],[-117.66666666666667,33.31666666666667],[-117.66666666666667,33.31666666666667],[-117.58333333333333,33.233333333333334],[-117.53611111111111,33.18694444444444],[-117.53611111111111,33.18694444444444],[-117.53611111111111,33.18694444444444],[-117.39416666666668,33.02972222222222],[-117.36666666666666,33],[-117.33083333333333,32.95416666666667],[-117.31666666666666,32.93333333333333],[-117.31666666666666,32.93333333333333],[-117.31666666666666,32.93333333333333],[-117.27361111111111,32.88583333333333],[-117.27361111111111,32.88583333333333],[-117.22083333333333,32.82222222222222],[-117.22083333333333,32.82222222222222],[-117.00611111111111,32.76444444444444],[-117.00611111111111,32.76444444444444],[-116.98333333333333,32.75],[-116.95611111111111,32.73388888888889],[-116.95611111111111,32.73388888888889],[-116.95611111111111,32.73388888888889],[-116.96666666666667,32.71666666666667],[-116.96666666666667,32.71666666666667],[-116.96666666666667,32.71666666666667],[-116.98083333333334,32.691111111111105],[-116.98083333333334,32.691111111111105],[-117.13944444444445,32.721111111111114]],"type":"LineString"}
}
