{
  "id": 2014848799,
  "type": "Feature",
  "properties": {
    "geom:area": 0,
    "geom:bbox": "-122.477680,36.720770,-121.877820,37.827940",
    "geom:latitude": 37.31494860534855,
    "geom:longitude": -122.2686049406624,
    "src:alt_label": "swim-approach",
    "src:geom": "swim",
    "swim:elevations": [
      5900,
      5669,
      5443,
      5150,
      5106,
      4826,
      4524,
      4205,
      3914,
      3714,
      3440,
      3414,
      3353,
      3353,
      3353,
      3353,
      3353,
      3353,
      3155,
      3111,
      2839,
      2665,
      2504,
      2208,
      2130,
      1888,
      1829,
      1829,
      1829,
      1829,
      1829,
      1829,
      1758,
      1618,
      1356,
      1153,
      1034,
      912,
      914,
      689,
      535,
      416
    ],
    "swim:geom": "approach",
    "swim:timestamps": [
      1771673003,
      1771673063,
      1771673087,
      1771673120,
      1771673124,
      1771673151,
      1771673180,
      1771673213,
      1771673244,
      1771673262,
      1771673304,
      1771673310,
      1771673354,
      1771673362,
      1771673379,
      1771673393,
      1771673420,
      1771673448,
      1771673485,
      1771673491,
      1771673544,
      1771673578,
      1771673601,
      1771673664,
      1771673676,
      1771673721,
      1771673749,
      1771673768,
      1771673803,
      1771673816,
      1771673841,
      1771673856,
      1771673905,
      1771673936,
      1771673967,
      1771673993,
      1771674022,
      1771674050,
      1771674066,
      1771674112,
      1771674138,
      1771674159
    ],
    "wof:geomhash": "edfa193e7b9de6324f37d281133ee32f",
    "wof:id": 2014848799,
    "wof:repo": "sfomuseum-data-flights-2026-02"
  },
  "bbox": [
    -122.47768,
    36.72077,
    -121.87782,
    37.82794
  ],
  "geometry": {"coordinates":[[-121.87782,36.72077],[-121.9536,36.7984],[-121.98374,36.82697],[-122.02703,36.86814],[-122.03215,36.87299],[-122.06656,36.90568],[-122.10342,36.94065],[-122.14446,36.9795],[-122.18287,37.01573],[-122.20642,37.03776],[-122.25828,37.08701],[-122.26478,37.09325],[-122.30253,37.14887],[-122.30649,37.16073],[-122.31461,37.18421],[-122.32129,37.20325],[-122.33408,37.24006],[-122.34689,37.27727],[-122.36378,37.32657],[-122.36691,37.3355],[-122.39122,37.40606],[-122.40647,37.45057],[-122.41696,37.4808],[-122.44471,37.56082],[-122.44958,37.57525],[-122.46882,37.63108],[-122.47768,37.66568],[-122.47023,37.68652],[-122.44435,37.72279],[-122.43423,37.73648],[-122.41525,37.7616],[-122.40156,37.77505],[-122.35274,37.81092],[-122.32245,37.82794],[-122.29646,37.81646],[-122.28888,37.7971],[-122.28596,37.7744],[-122.28646,37.75277],[-122.29517,37.74216],[-122.31613,37.71001],[-122.32683,37.69345],[-122.33489,37.68079]],"type":"LineString"}
}
