{
  "id": 2014708601,
  "type": "Feature",
  "properties": {
    "geom:area": 0,
    "geom:bbox": "-122.361530,37.634810,-121.301200,37.946390",
    "geom:latitude": 37.816136608637905,
    "geom:longitude": -121.84100934421078,
    "src:alt_label": "swim-takeoff",
    "src:geom": "swim",
    "swim:elevations": [
      305,
      401,
      1033,
      1133,
      1660,
      1819,
      2448,
      2889,
      3390,
      3588,
      3829,
      4101,
      4569,
      4844,
      5401,
      5581,
      5965,
      6062,
      6479,
      6735,
      6981
    ],
    "swim:geom": "takeoff",
    "swim:timestamps": [
      1770126297,
      1770126303,
      1770126353,
      1770126367,
      1770126417,
      1770126425,
      1770126459,
      1770126487,
      1770126538,
      1770126565,
      1770126591,
      1770126615,
      1770126650,
      1770126669,
      1770126718,
      1770126740,
      1770126777,
      1770126786,
      1770126826,
      1770126852,
      1770126876
    ],
    "wof:geomhash": "21179a02188ef40f665463ece55da86f",
    "wof:id": 2014708601,
    "wof:repo": "sfomuseum-data-flights-2026-02"
  },
  "bbox": [
    -122.36153,
    37.63481,
    -121.3012,
    37.94639
  ],
  "geometry": {"coordinates":[[-122.36153,37.63481],[-122.35744,37.63772],[-122.31888,37.65993],[-122.30603,37.66758],[-122.24677,37.70118],[-122.2361,37.70671],[-122.19086,37.72968],[-122.15307,37.74917],[-122.06801,37.77107],[-122.01465,37.78366],[-121.96064,37.79647],[-121.90885,37.8085],[-121.8309,37.82601],[-121.78862,37.83546],[-121.6788,37.86124],[-121.62633,37.87325],[-121.54039,37.89264],[-121.51842,37.89765],[-121.42457,37.91912],[-121.36088,37.9334],[-121.3012,37.94639]],"type":"LineString"}
}
