{
  "id": 2014824489,
  "type": "Feature",
  "properties": {
    "geom:area": 0,
    "geom:bbox": "-122.380000,37.620000,-87.910000,42.230000",
    "geom:latitude": 40.52964003033688,
    "geom:longitude": -105.28135632275092,
    "src:alt_label": "swim-route",
    "src:geom": "swim",
    "swim:geom": "route",
    "wof:geomhash": "7441627d3c1f8f82dd001281bc39aa57",
    "wof:id": 2014824489,
    "wof:repo": "sfomuseum-data-flights-2026-02"
  },
  "bbox": [
    -122.38,
    37.62,
    -87.91,
    42.23
  ],
  "geometry": {"coordinates":[[-87.91,41.98],[-87.99,41.99],[-88.02,42],[-88.11,42.02],[-88.11,42.02],[-88.22,42.04],[-88.24,42.05],[-88.43,42.09],[-88.64,42.13],[-88.69,42.14],[-88.73,42.15],[-88.81,42.16],[-88.82,42.16],[-88.82,42.16],[-89.12,42.16],[-89.24,42.15],[-89.36,42.15],[-89.39,42.15],[-89.6,42.14],[-89.7,42.14],[-89.89,42.13],[-90.07,42.13],[-90.25,42.12],[-91.28,42.08],[-92.34,42.09],[-93.11,42.09],[-93.3,42.09],[-93.53,42.09],[-94.67,42.14],[-96.32,42.19],[-96.35,42.2],[-98.98,42.23],[-99.18,42.2],[-101.99,41.74],[-103.03,41.56],[-103.92,41.38],[-104.55,41.25],[-104.81,41.21],[-105.66,41.02],[-107.35,40.64],[-109.02,40.24],[-109.15,40.2],[-109.59,40.1],[-112.51,39.3],[-112.81,39.23],[-113.32,39.12],[-115.36,38.62],[-115.54,38.58],[-116.35,38.37],[-117.27,38.12],[-117.27,38.12],[-117.77,38],[-118.76,37.9],[-119.1,37.86],[-119.97,37.75],[-120.15,37.73],[-120.21,37.72],[-120.4,37.7],[-120.42,37.7],[-120.44,37.69],[-120.54,37.68],[-120.69,37.67],[-120.75,37.66],[-120.94,37.64],[-120.96,37.63],[-121,37.64],[-121.22,37.68],[-121.24,37.69],[-121.34,37.7],[-121.5,37.73],[-121.55,37.74],[-121.56,37.74],[-121.7,37.77],[-121.71,37.77],[-121.77,37.78],[-121.98,37.82],[-121.99,37.82],[-122.01,37.83],[-122.04,37.83],[-122.08,37.84],[-122.21,37.86],[-122.23,37.84],[-122.26,37.79],[-122.28,37.77],[-122.28,37.76],[-122.33,37.69],[-122.38,37.62]],"type":"LineString"}
}
