{
  "id": 2014890655,
  "type": "Feature",
  "properties": {
    "geom:area": 0,
    "geom:bbox": "-121.966667,36.216667,-86.833333,38.497778",
    "geom:latitude": 37.88045912669099,
    "geom:longitude": -104.34607346758268,
    "src:alt_label": "swim-path",
    "src:geom": "swim",
    "swim:altitudes": [
      "074",
      "074",
      "152",
      "152",
      "216",
      "216",
      "278",
      "320C",
      "320C",
      "320C",
      "320C",
      "320C",
      "320",
      "305",
      "305",
      "300C",
      "300C",
      "300C",
      "300C",
      "300C",
      "300C",
      "300C",
      "300C",
      "300C",
      "300C",
      "300C",
      "300C",
      "300C",
      "300C",
      "299",
      "288",
      "280C",
      "280C",
      "280C",
      "280C",
      "280C",
      "280C",
      "280C",
      "280C",
      "280C",
      "280C",
      "280C",
      "280C",
      "280C",
      "280C",
      "280C",
      "280C",
      "280C",
      "280C",
      "280C",
      "280C",
      "280C",
      "280C",
      "280C",
      "280C",
      "280C",
      "280C",
      "280C",
      "280C",
      "280C",
      "280C",
      "280C",
      "280C",
      "280C",
      "280C",
      "280C",
      "280C",
      "280C",
      "280C",
      "280C",
      "280C",
      "280C",
      "280C",
      "280C",
      "280C",
      "280C",
      "280C",
      "280C",
      "280C",
      "280C",
      "280C",
      "280C",
      "280C",
      "280C",
      "280C",
      "280C",
      "280C",
      "280C",
      "280C",
      "280C",
      "280C",
      "280C",
      "280C",
      "280C",
      "280C",
      "280C",
      "280C",
      "280C",
      "280C",
      "280C",
      "280C",
      "280C",
      "280C",
      "280C",
      "280C",
      "280C",
      "280C",
      "280C",
      "280",
      "280",
      "235",
      "235",
      "115",
      "063"
    ],
    "swim:geom": "path",
    "swim:speeds": [
      246,
      246,
      369,
      369,
      401,
      401,
      448,
      436,
      433,
      433,
      430,
      430,
      431,
      433,
      433,
      437,
      437,
      446,
      446,
      445,
      445,
      443,
      443,
      441,
      441,
      442,
      442,
      440,
      440,
      441,
      441,
      445,
      445,
      445,
      447,
      447,
      448,
      448,
      450,
      450,
      451,
      452,
      451,
      442,
      438,
      430,
      431,
      434,
      433,
      433,
      435,
      435,
      434,
      435,
      435,
      436,
      438,
      439,
      440,
      442,
      443,
      441,
      438,
      438,
      430,
      427,
      426,
      422,
      422,
      416,
      414,
      428,
      428,
      425,
      425,
      424,
      425,
      425,
      419,
      422,
      420,
      420,
      417,
      417,
      423,
      423,
      427,
      427,
      427,
      423,
      423,
      420,
      421,
      421,
      424,
      424,
      426,
      430,
      428,
      428,
      428,
      412,
      410,
      410,
      410,
      406,
      406,
      407,
      407,
      406,
      356,
      356,
      315,
      243
    ],
    "swim:timestamps": [
      1772158391,
      1772158391,
      1772158632,
      1772158632,
      1772158812,
      1772158812,
      1772159115,
      1772159353,
      1772159475,
      1772159475,
      1772159596,
      1772159596,
      1772159833,
      1772159953,
      1772159953,
      1772160194,
      1772160194,
      1772160374,
      1772160434,
      1772160614,
      1772160614,
      1772160735,
      1772160735,
      1772160918,
      1772160918,
      1772161098,
      1772161098,
      1772161458,
      1772161458,
      1772161579,
      1772161639,
      1772161819,
      1772161999,
      1772161999,
      1772162360,
      1772162360,
      1772162480,
      1772162480,
      1772162720,
      1772162720,
      1772162901,
      1772163021,
      1772163161,
      1772163221,
      1772163281,
      1772163402,
      1772163502,
      1772163582,
      1772163762,
      1772163762,
      1772163882,
      1772163882,
      1772164123,
      1772164183,
      1772164223,
      1772164363,
      1772164463,
      1772164523,
      1772164663,
      1772164783,
      1772164843,
      1772165024,
      1772165204,
      1772165204,
      1772165384,
      1772165444,
      1772165564,
      1772165685,
      1772165685,
      1772166285,
      1772166296,
      1772166526,
      1772166526,
      1772166717,
      1772166717,
      1772166886,
      1772166957,
      1772166957,
      1772167126,
      1772167258,
      1772167547,
      1772167558,
      1772167798,
      1772167847,
      1772168099,
      1772168268,
      1772168519,
      1772168519,
      1772168639,
      1772168879,
      1772168879,
      1772169180,
      1772169360,
      1772169360,
      1772169660,
      1772169720,
      1772169900,
      1772170142,
      1772170262,
      1772170442,
      1772170442,
      1772170802,
      1772170922,
      1772170922,
      1772171223,
      1772171403,
      1772171403,
      1772171523,
      1772171823,
      1772171943,
      1772172242,
      1772172242,
      1772172604,
      1772172903
    ],
    "wof:geomhash": "c1ecbe1374e6d36087306cf04252f9b7",
    "wof:id": 2014890655,
    "wof:repo": "sfomuseum-data-flights-2026-02"
  },
  "bbox": [
    -121.96666666666667,
    36.21666666666667,
    -86.83333333333333,
    38.49777777777778
  ],
  "geometry": {"coordinates":[[-86.83333333333333,36.21666666666667],[-86.83333333333333,36.21666666666667],[-87.23416666666667,36.272777777777776],[-87.23416666666667,36.272777777777776],[-87.62083333333332,36.36944444444445],[-87.62083333333332,36.36944444444445],[-88.25527777777778,36.64722222222222],[-88.8461111111111,36.77027777777778],[-89.13472222222222,36.82916666666667],[-89.13472222222222,36.82916666666667],[-89.42222222222223,36.88666666666666],[-89.42222222222223,36.88666666666666],[-89.99972222222222,36.999722222222225],[-90.29166666666667,37.05583333333333],[-90.29166666666667,37.05583333333333],[-90.9,37.169444444444444],[-90.9,37.169444444444444],[-91.35333333333332,37.2525],[-91.50583333333333,37.27972222222222],[-91.96194444444444,37.36027777777778],[-91.96194444444444,37.36027777777778],[-92.265,37.41277777777778],[-92.265,37.41277777777778],[-92.72166666666666,37.49027777777778],[-92.72166666666666,37.49027777777778],[-93.17972222222222,37.56666666666667],[-93.17972222222222,37.56666666666667],[-94.05749999999999,37.70944444444445],[-94.05749999999999,37.70944444444445],[-94.36361111111111,37.7575],[-94.53277777777778,37.78388888888889],[-94.99277777777777,37.853611111111114],[-95.43944444444445,37.91972222222222],[-95.43944444444445,37.91972222222222],[-96.38222222222221,38.07],[-96.38222222222221,38.07],[-96.68972222222223,38.125277777777775],[-96.68972222222223,38.125277777777775],[-97.30694444444444,38.23388888888889],[-97.30694444444444,38.23388888888889],[-97.77527777777777,38.31194444444444],[-98.07833333333333,38.34],[-98.45166666666667,38.37277777777778],[-98.60805555555555,38.38722222222222],[-98.75972222222222,38.400555555555556],[-99.06277777777777,38.42583333333333],[-99.30499999999999,38.44583333333333],[-99.51888888888888,38.463055555555556],[-99.97333333333333,38.49777777777778],[-99.97333333333333,38.49777777777778],[-100.28222222222222,38.49194444444444],[-100.28222222222222,38.49194444444444],[-100.92111111111112,38.471111111111114],[-101.07583333333334,38.46555555555556],[-101.16444444444446,38.46222222222222],[-101.53555555555555,38.44777777777777],[-101.78138888888888,38.4375],[-101.93611111111112,38.43083333333333],[-102.31027777777777,38.41361111111111],[-102.62277777777777,38.39833333333333],[-102.77833333333334,38.39083333333333],[-103.24111111111111,38.349444444444444],[-103.69972222222222,38.29611111111111],[-103.69972222222222,38.29611111111111],[-104.14666666666668,38.242222222222225],[-104.2936111111111,38.22416666666667],[-104.58972222222222,38.18694444444444],[-104.88138888888888,38.15],[-104.88138888888888,38.15],[-106.31277777777777,37.983333333333334],[-106.36,37.980000000000004],[-106.92916666666667,37.947222222222216],[-106.92916666666667,37.947222222222216],[-107.41166666666668,37.91583333333333],[-107.41166666666668,37.91583333333333],[-107.8261111111111,37.88944444444444],[-108.00611111111111,37.876111111111115],[-108.00611111111111,37.876111111111115],[-108.41166666666668,37.84805555555556],[-108.74027777777778,37.82361111111111],[-109.4375,37.86472222222223],[-109.47277777777778,37.86833333333333],[-110.05472222222222,37.92972222222222],[-110.16361111111112,37.94083333333333],[-110.78972222222222,38.003055555555555],[-111.18666666666667,38.040277777777774],[-111.80944444444444,38.09638888888889],[-111.80944444444444,38.09638888888889],[-112.10666666666665,38.12222222222222],[-112.69833333333334,38.170833333333334],[-112.69833333333334,38.170833333333334],[-113.46111111111111,38.22916666666667],[-113.90416666666667,38.260555555555555],[-113.90416666666667,38.260555555555555],[-114.65027777777779,38.30972222222222],[-114.79666666666667,38.31861111111112],[-115.24944444444445,38.33111111111111],[-115.86194444444443,38.33361111111111],[-116.15694444444445,38.33361111111111],[-116.59805555555555,38.27388888888889],[-116.59805555555555,38.27388888888889],[-117.45138888888889,38.07777777777778],[-117.72777777777777,38.013333333333335],[-117.72777777777777,38.013333333333335],[-118.4413888888889,37.93138888888889],[-118.86472222222221,37.88444444444444],[-118.86472222222221,37.88444444444444],[-119.16722222222222,37.849444444444444],[-119.84916666666666,37.76833333333333],[-120.13027777777778,37.73361111111111],[-120.81666666666666,37.65],[-120.81666666666666,37.65],[-121.5111111111111,37.564166666666665],[-121.96666666666667,37.5]],"type":"LineString"}
}
