{
  "id": 2014693913,
  "type": "Feature",
  "properties": {
    "geom:area": 0,
    "geom:bbox": "-122.427480,36.732350,-121.390230,37.706580",
    "geom:latitude": 37.243037715966906,
    "geom:longitude": -121.95647828543561,
    "src:alt_label": "swim-takeoff",
    "src:geom": "swim",
    "swim:elevations": [
      488,
      817,
      1165,
      1551,
      2024,
      2598,
      2815,
      3073,
      3216,
      3405,
      3811,
      4076,
      4265,
      4504,
      4681,
      4742,
      5126,
      5563,
      5852,
      6321,
      6508,
      6910,
      7002,
      7184,
      7436,
      7663,
      7744,
      8230,
      8381,
      8738,
      8884
    ],
    "swim:geom": "takeoff",
    "swim:timestamps": [
      1769988774,
      1769988798,
      1769988838,
      1769988868,
      1769988894,
      1769988924,
      1769988936,
      1769988954,
      1769988985,
      1769989005,
      1769989046,
      1769989069,
      1769989089,
      1769989107,
      1769989119,
      1769989125,
      1769989153,
      1769989196,
      1769989221,
      1769989257,
      1769989273,
      1769989313,
      1769989322,
      1769989343,
      1769989375,
      1769989403,
      1769989415,
      1769989467,
      1769989488,
      1769989526,
      1769989538
    ],
    "wof:geomhash": "b1b3d513175657d0fa7009fd4593b692",
    "wof:id": 2014693913,
    "wof:repo": "sfomuseum-data-flights-2026-02"
  },
  "bbox": [
    -122.42748,
    36.73235,
    -121.39023,
    37.70658
  ],
  "geometry": {"coordinates":[[-122.36385,37.64328],[-122.36277,37.66156],[-122.36503,37.6958],[-122.40024,37.70658],[-122.42748,37.68685],[-122.42369,37.651],[-122.41143,37.63953],[-122.39149,37.62308],[-122.35384,37.58868],[-122.32705,37.56482],[-122.2656,37.51177],[-122.22854,37.4793],[-122.19695,37.45098],[-122.16738,37.42451],[-122.14747,37.40676],[-122.13742,37.39787],[-122.08957,37.35573],[-122.01521,37.29005],[-121.97316,37.25286],[-121.91006,37.19685],[-121.88095,37.17098],[-121.80916,37.10693],[-121.79294,37.09241],[-121.75491,37.05842],[-121.69714,37.00671],[-121.64445,36.95944],[-121.6219,36.93931],[-121.52404,36.85248],[-121.48415,36.81707],[-121.41267,36.75273],[-121.39023,36.73235]],"type":"LineString"}
}
