{
  "id": 2014893415,
  "type": "Feature",
  "properties": {
    "geom:area": 0,
    "geom:bbox": "-122.385820,37.631780,-121.255500,37.991120",
    "geom:latitude": 37.93676053015084,
    "geom:longitude": -121.93885717663034,
    "src:alt_label": "swim-takeoff",
    "src:geom": "swim",
    "swim:elevations": [
      183,
      524,
      570,
      1046,
      1191,
      1465,
      1592,
      2336,
      2653,
      3119,
      3225,
      3335,
      3490,
      3914,
      3971,
      4241,
      4342,
      4778,
      5061,
      5405,
      5596,
      5678,
      5807,
      5872,
      6029,
      6305,
      6505,
      6706,
      6837,
      6988,
      7202,
      7287
    ],
    "swim:geom": "takeoff",
    "swim:timestamps": [
      1772173463,
      1772173490,
      1772173501,
      1772173557,
      1772173566,
      1772173584,
      1772173593,
      1772173638,
      1772173661,
      1772173698,
      1772173713,
      1772173737,
      1772173755,
      1772173796,
      1772173800,
      1772173825,
      1772173833,
      1772173867,
      1772173895,
      1772173948,
      1772173973,
      1772173985,
      1772174003,
      1772174012,
      1772174033,
      1772174068,
      1772174092,
      1772174116,
      1772174134,
      1772174155,
      1772174185,
      1772174198
    ],
    "wof:geomhash": "9178b096d84f68b4880f39e71dad80c7",
    "wof:id": 2014893415,
    "wof:repo": "sfomuseum-data-flights-2026-02"
  },
  "bbox": [
    -122.38582,
    37.63178,
    -121.2555,
    37.99112
  ],
  "geometry": {"coordinates":[[-122.36422,37.63178],[-122.34583,37.64997],[-122.33681,37.65704],[-122.31711,37.71094],[-122.32323,37.72063],[-122.33397,37.74055],[-122.33926,37.75076],[-122.36401,37.80036],[-122.3769,37.82591],[-122.38582,37.87065],[-122.38507,37.89025],[-122.37212,37.92298],[-122.34642,37.94367],[-122.26379,37.9646],[-122.25359,37.96669],[-122.20163,37.97717],[-122.18327,37.98085],[-122.10741,37.98829],[-122.04365,37.98869],[-121.91642,37.9893],[-121.85586,37.98966],[-121.8249,37.98983],[-121.7792,37.99008],[-121.75623,37.99017],[-121.7017,37.99043],[-121.60928,37.99074],[-121.54498,37.99085],[-121.47988,37.99095],[-121.43071,37.99101],[-121.37307,37.99106],[-121.28996,37.99112],[-121.2555,37.99107]],"type":"LineString"}
}
