{
  "id": 2014856539,
  "type": "Feature",
  "properties": {
    "geom:area": 0,
    "geom:bbox": "-123.215556,37.450000,-122.166667,47.331667",
    "geom:latitude": 42.477251712497974,
    "geom:longitude": -122.97457985946491,
    "src:alt_label": "swim-path",
    "src:geom": "swim",
    "swim:altitudes": [
      "058",
      "112",
      "112",
      "112",
      "184",
      "184",
      "220",
      "220",
      "260",
      "260",
      "351C",
      "351C",
      "350C",
      "350C",
      "350C",
      "350C",
      "350C",
      "350C",
      "351C",
      "351C",
      "350C",
      "350C",
      "350C",
      "350C",
      "350C",
      "350C",
      "350C",
      "350C",
      "350C",
      "350C",
      "350C",
      "350C",
      "350C",
      "350C",
      "350C",
      "350C",
      "350C",
      "350C",
      "350C",
      "350C",
      "350C",
      "350C",
      "350C",
      "350C",
      "350C",
      "350C",
      "350C",
      "350C",
      "350C",
      "350C",
      "349C",
      "349C",
      "350C",
      "350C",
      "350C",
      "349C",
      "350C",
      "350C",
      "350C",
      "350C",
      "350C",
      "350C",
      "350C",
      "350C",
      "350C",
      "350C",
      "350C",
      "350C",
      "350C",
      "350C",
      "350",
      "350",
      "350",
      "330",
      "330",
      "330",
      "307",
      "285",
      "269",
      "269",
      "209",
      "190",
      "190",
      "190",
      "153",
      "153",
      "133",
      "131",
      "131",
      "115",
      "110",
      "110",
      "110",
      "109C",
      "109C",
      "097",
      "097",
      "096",
      "085",
      "071",
      "071",
      "071",
      "053",
      "026",
      "026",
      "026",
      "016",
      "009",
      "009",
      "009"
    ],
    "swim:geom": "path",
    "swim:speeds": [
      234,
      301,
      301,
      301,
      321,
      321,
      329,
      329,
      344,
      344,
      365,
      365,
      368,
      369,
      370,
      372,
      372,
      372,
      374,
      374,
      379,
      379,
      380,
      380,
      381,
      381,
      381,
      385,
      386,
      386,
      386,
      386,
      388,
      391,
      391,
      391,
      391,
      391,
      390,
      390,
      394,
      394,
      394,
      395,
      395,
      396,
      396,
      397,
      397,
      397,
      393,
      393,
      401,
      400,
      400,
      393,
      392,
      392,
      402,
      402,
      404,
      404,
      406,
      411,
      411,
      419,
      418,
      418,
      418,
      418,
      417,
      417,
      417,
      421,
      421,
      421,
      424,
      414,
      397,
      397,
      364,
      354,
      354,
      354,
      340,
      344,
      346,
      343,
      343,
      334,
      297,
      297,
      238,
      244,
      244,
      239,
      239,
      239,
      233,
      230,
      230,
      230,
      240,
      202,
      202,
      202,
      182,
      141,
      141,
      141
    ],
    "swim:timestamps": [
      1771793274,
      1771793394,
      1771793394,
      1771793394,
      1771793575,
      1771793575,
      1771793695,
      1771793695,
      1771793815,
      1771793815,
      1771794355,
      1771794355,
      1771794536,
      1771794716,
      1771794776,
      1771794896,
      1771794896,
      1771794896,
      1771795016,
      1771795016,
      1771795196,
      1771795196,
      1771795256,
      1771795256,
      1771795316,
      1771795316,
      1771795316,
      1771795437,
      1771795497,
      1771795557,
      1771795557,
      1771795557,
      1771795677,
      1771795797,
      1771795797,
      1771795977,
      1771795977,
      1771795977,
      1771796098,
      1771796098,
      1771796338,
      1771796338,
      1771796338,
      1771796397,
      1771796397,
      1771796578,
      1771796578,
      1771796758,
      1771796758,
      1771796758,
      1771796879,
      1771796879,
      1771796998,
      1771797059,
      1771797059,
      1771797118,
      1771797178,
      1771797178,
      1771797298,
      1771797298,
      1771797478,
      1771797478,
      1771797539,
      1771797600,
      1771797600,
      1771797719,
      1771797840,
      1771797900,
      1771797900,
      1771797900,
      1771798201,
      1771798201,
      1771798261,
      1771798321,
      1771798321,
      1771798321,
      1771798381,
      1771798441,
      1771798501,
      1771798501,
      1771798681,
      1771798741,
      1771798741,
      1771798741,
      1771798851,
      1771798862,
      1771798911,
      1771798922,
      1771798922,
      1771798971,
      1771799031,
      1771799031,
      1771799151,
      1771799162,
      1771799162,
      1771799211,
      1771799211,
      1771799222,
      1771799271,
      1771799331,
      1771799331,
      1771799331,
      1771799391,
      1771799522,
      1771799522,
      1771799522,
      1771799583,
      1771799631,
      1771799631,
      1771799631
    ],
    "wof:geomhash": "3676ba3f9f1b9f4e4a69de7331bfc5c0",
    "wof:id": 2014856539,
    "wof:repo": "sfomuseum-data-flights-2026-02"
  },
  "bbox": [
    -123.21555555555555,
    37.45,
    -122.16666666666667,
    47.33166666666667
  ],
  "geometry": {"coordinates":[[-122.31833333333333,47.33166666666667],[-122.52638888888889,47.309444444444445],[-122.52638888888889,47.309444444444445],[-122.52638888888889,47.309444444444445],[-122.92083333333333,47.275277777777774],[-122.92083333333333,47.275277777777774],[-123.1236111111111,47.16694444444444],[-123.1236111111111,47.16694444444444],[-123.21555555555555,47.01222222222222],[-123.21555555555555,47.01222222222222],[-123.18694444444445,46.119166666666665],[-123.18694444444445,46.119166666666665],[-123.17694444444444,45.81111111111111],[-123.16694444444445,45.50277777777778],[-123.16361111111112,45.399166666666666],[-123.15694444444445,45.19194444444444],[-123.15694444444445,45.19194444444444],[-123.15694444444445,45.19194444444444],[-123.15055555555556,44.9825],[-123.15055555555556,44.9825],[-123.14055555555557,44.66305555555555],[-123.14055555555557,44.66305555555555],[-123.13722222222223,44.55555555555555],[-123.13722222222223,44.55555555555555],[-123.13388888888889,44.45055555555556],[-123.13388888888889,44.45055555555556],[-123.13388888888889,44.45055555555556],[-123.12583333333333,44.234722222222224],[-123.12222222222222,44.126666666666665],[-123.11833333333333,44.0175],[-123.11833333333333,44.0175],[-123.11833333333333,44.0175],[-123.11055555555555,43.800555555555555],[-123.10305555555556,43.581388888888895],[-123.10305555555556,43.581388888888895],[-123.09138888888889,43.255],[-123.09138888888889,43.255],[-123.09138888888889,43.255],[-123.08472222222221,43.04666666666667],[-123.08472222222221,43.04666666666667],[-123.06805555555555,42.611666666666665],[-123.06805555555555,42.611666666666665],[-123.06805555555555,42.611666666666665],[-123.06611111111111,42.50138888888889],[-123.06611111111111,42.50138888888889],[-123.05472222222222,42.15138888888889],[-123.05472222222222,42.15138888888889],[-123.04416666666667,41.822500000000005],[-123.04416666666667,41.822500000000005],[-123.04416666666667,41.822500000000005],[-123.03722222222223,41.60416666666667],[-123.03722222222223,41.60416666666667],[-123.03027777777778,41.382222222222225],[-123.02694444444444,41.28],[-123.02694444444444,41.28],[-123.02361111111111,41.165277777777774],[-123.02055555555556,41.05638888888888],[-123.02055555555556,41.05638888888888],[-123.01388888888889,40.84138888888889],[-123.01388888888889,40.84138888888889],[-123.0038888888889,40.504444444444445],[-123.0038888888889,40.504444444444445],[-123.00055555555555,40.39194444444444],[-122.99722222222222,40.27722222222222],[-122.99722222222222,40.27722222222222],[-122.99,40.03],[-122.98305555555555,39.79222222222222],[-122.97972222222222,39.675],[-122.97972222222222,39.675],[-122.97972222222222,39.675],[-122.96333333333334,39.108333333333334],[-122.96333333333334,39.108333333333334],[-122.96083333333334,38.99277777777778],[-122.955,38.87638888888889],[-122.955,38.87638888888889],[-122.955,38.87638888888889],[-122.92472222222223,38.76111111111111],[-122.89194444444445,38.64972222222222],[-122.86,38.54138888888889],[-122.86,38.54138888888889],[-122.76916666666666,38.23305555555556],[-122.74166666666667,38.13777777777778],[-122.74166666666667,38.13777777777778],[-122.74166666666667,38.13777777777778],[-122.68333333333334,37.95],[-122.68805555555556,37.9525],[-122.63333333333334,37.86666666666667],[-122.62777777777777,37.8575],[-122.62777777777777,37.8575],[-122.56666666666666,37.8],[-122.48333333333333,37.733333333333334],[-122.48333333333333,37.733333333333334],[-122.36666666666666,37.61666666666667],[-122.36583333333333,37.60611111111111],[-122.36583333333333,37.60611111111111],[-122.33333333333333,37.55],[-122.33333333333333,37.55],[-122.33027777777778,37.545833333333334],[-122.3,37.5],[-122.23333333333333,37.46666666666667],[-122.23333333333333,37.46666666666667],[-122.23333333333333,37.46666666666667],[-122.16666666666667,37.45],[-122.21388888888889,37.54972222222222],[-122.21388888888889,37.54972222222222],[-122.21388888888889,37.54972222222222],[-122.26944444444445,37.57416666666667],[-122.31666666666666,37.6],[-122.31666666666666,37.6],[-122.31666666666666,37.6]],"type":"LineString"}
}
