{
  "id": 2014811195,
  "type": "Feature",
  "properties": {
    "geom:area": 0,
    "geom:bbox": "-177.050000,1.360000,180.000000,37.670000",
    "geom:latitude": 28.843903871864004,
    "geom:longitude": 8.12552763830547,
    "src:alt_label": "swim-route",
    "src:geom": "swim",
    "swim:geom": "route",
    "wof:geomhash": "407095b251fec191b1538d9f66019768",
    "wof:id": 2014811195,
    "wof:repo": "sfomuseum-data-flights-2026-02"
  },
  "bbox": [
    -177.05,
    1.36,
    180,
    37.67
  ],
  "geometry": {"coordinates":[[[-122.38,37.62],[-122.5,37.67],[-122.51,37.67],[-122.62,37.67],[-122.62,37.67],[-122.66,37.67],[-122.75,37.67],[-122.76,37.67],[-122.86,37.67],[-122.88,37.67],[-123,37.66],[-123.09,37.66],[-123.51,37.65],[-123.52,37.65],[-123.78,37.64],[-123.99,37.64],[-124.09,37.63],[-124.29,37.63],[-124.3,37.63],[-124.38,37.63],[-124.55,37.62],[-124.93,37.61],[-125.44,37.58],[-125.83,37.57],[-126.23,37.55],[-126.43,37.54],[-126.63,37.53],[-126.99,37.51],[-127,37.51],[-129.48,37.15],[-131.63,36.79],[-133.75,36.4],[-140,35],[-150,34],[-160,33],[-167,33.08],[-170,33],[-172.03,32.66],[-174.05,32.29],[-177.05,31.68]],[[180,31],[170,24],[160,19],[154.79,17.51],[150,16],[148.81,15.44],[148.72,15.4],[148.58,15.33],[147.31,14.72],[144.8,13.49],[144.79,13.48],[144.73,13.45],[143.75,13.24],[140.8,12.58],[140.75,12.57],[140.7,12.55],[140.57,12.51],[139.68,12.26],[137.9,11.73],[130,9.24],[126.81,8.34],[124.43,7.64],[122.06,6.92],[121.65,6.82],[121,6.66],[118.54,6.03],[118.07,5.91],[114.88,4.88],[114.06,4.61],[111.6,3.83],[106.68,2.24],[106.57,2.2],[106.51,2.18],[106.13,2.06],[106.08,2.04],[105.77,1.94],[105.71,1.92],[105.47,1.84],[105.25,1.77],[105.05,1.71],[104.75,1.61],[104.59,1.56],[104.39,1.49],[104.35,1.47],[104.23,1.44],[104.15,1.41],[104.07,1.38],[103.99,1.36]]],"type":"MultiLineString"}
}
