{
  "id": 2014810203,
  "type": "Feature",
  "properties": {
    "geom:area": 0,
    "geom:bbox": "-122.313333,37.662222,-112.006111,41.066667",
    "geom:latitude": 39.8007084761538,
    "geom:longitude": -117.12180298475187,
    "src:alt_label": "swim-path",
    "src:geom": "swim",
    "swim:altitudes": [
      "026",
      "026",
      "026",
      "026",
      "155",
      "155",
      "155",
      "155",
      "196",
      "196",
      "196",
      "196",
      "256",
      "256",
      "256",
      "265",
      "265",
      "265",
      "268",
      "274",
      "278",
      "278",
      "278",
      "293",
      "300",
      "300",
      "307",
      "307",
      "328",
      "328",
      "328",
      "328",
      "328",
      "336",
      "336",
      "338",
      "339",
      "340",
      "340",
      "340",
      "340",
      "340",
      "340",
      "345",
      "345",
      "345",
      "355",
      "355",
      "361",
      "361",
      "361",
      "365",
      "370C",
      "370C",
      "370C",
      "370C",
      "370C",
      "370C",
      "370C",
      "370C",
      "370C",
      "370C",
      "370C",
      "370C",
      "370C",
      "370C",
      "370C",
      "370C",
      "370C",
      "370C",
      "370C",
      "370C",
      "370C",
      "370C",
      "370C",
      "370C",
      "370C",
      "370C",
      "370C",
      "370C",
      "370C",
      "370C",
      "370C",
      "370C",
      "370C",
      "370C",
      "370C",
      "370C",
      "370C",
      "370C",
      "370C",
      "370C",
      "370C",
      "370C",
      "370C",
      "370C",
      "370C",
      "370C",
      "310",
      "310",
      "310",
      "293",
      "293",
      "293",
      "293",
      "276",
      "276",
      "276",
      "276",
      "276",
      "259",
      "259",
      "228",
      "228",
      "228",
      "213",
      "213",
      "213",
      "213",
      "198",
      "198",
      "167",
      "167",
      "167",
      "167",
      "143",
      "143",
      "143",
      "143",
      "138",
      "138",
      "138",
      "134",
      "134",
      "134",
      "080",
      "080",
      "081",
      "081",
      "081",
      "080",
      "080",
      "080",
      "080",
      "078",
      "063",
      "059",
      "059",
      "059",
      "059",
      "056",
      "053",
      "053",
      "053",
      "053"
    ],
    "swim:geom": "path",
    "swim:speeds": [
      227,
      227,
      227,
      227,
      334,
      334,
      334,
      334,
      369,
      369,
      369,
      369,
      439,
      439,
      439,
      443,
      443,
      443,
      454,
      451,
      449,
      449,
      449,
      464,
      481,
      481,
      486,
      486,
      496,
      496,
      496,
      496,
      496,
      495,
      495,
      496,
      503,
      507,
      516,
      516,
      516,
      516,
      516,
      512,
      512,
      512,
      501,
      501,
      493,
      493,
      493,
      495,
      501,
      510,
      510,
      510,
      523,
      523,
      525,
      525,
      526,
      526,
      526,
      526,
      528,
      528,
      528,
      528,
      528,
      529,
      529,
      532,
      532,
      532,
      532,
      530,
      528,
      528,
      524,
      524,
      524,
      524,
      522,
      523,
      523,
      523,
      523,
      524,
      524,
      524,
      524,
      523,
      523,
      523,
      523,
      523,
      523,
      524,
      490,
      490,
      490,
      452,
      452,
      452,
      452,
      447,
      447,
      447,
      447,
      447,
      449,
      449,
      404,
      404,
      404,
      401,
      401,
      401,
      401,
      391,
      391,
      364,
      364,
      364,
      364,
      327,
      327,
      327,
      327,
      325,
      325,
      325,
      283,
      283,
      283,
      186,
      160,
      159,
      159,
      159,
      147,
      147,
      147,
      147,
      150,
      147,
      141,
      141,
      141,
      141,
      122,
      109,
      109,
      109,
      109
    ],
    "swim:timestamps": [
      1771299598,
      1771299598,
      1771299598,
      1771299598,
      1771299898,
      1771299898,
      1771299898,
      1771299898,
      1771300018,
      1771300018,
      1771300018,
      1771300018,
      1771300318,
      1771300318,
      1771300318,
      1771300378,
      1771300378,
      1771300378,
      1771300408,
      1771300438,
      1771300468,
      1771300468,
      1771300468,
      1771300588,
      1771300648,
      1771300648,
      1771300679,
      1771300679,
      1771300828,
      1771300828,
      1771300828,
      1771300828,
      1771300828,
      1771300859,
      1771300859,
      1771300888,
      1771300919,
      1771301009,
      1771301099,
      1771301099,
      1771301099,
      1771301099,
      1771301099,
      1771301249,
      1771301249,
      1771301249,
      1771301279,
      1771301279,
      1771301309,
      1771301309,
      1771301309,
      1771301399,
      1771301460,
      1771301489,
      1771301489,
      1771301489,
      1771301609,
      1771301609,
      1771301670,
      1771301670,
      1771301730,
      1771301730,
      1771301730,
      1771301730,
      1771301850,
      1771301850,
      1771301850,
      1771301880,
      1771301880,
      1771301910,
      1771301910,
      1771301940,
      1771301940,
      1771301940,
      1771301940,
      1771302000,
      1771302030,
      1771302030,
      1771302090,
      1771302090,
      1771302090,
      1771302090,
      1771302120,
      1771302210,
      1771302210,
      1771302210,
      1771302210,
      1771302270,
      1771302270,
      1771302270,
      1771302270,
      1771302451,
      1771302451,
      1771302451,
      1771302451,
      1771302451,
      1771302451,
      1771302511,
      1771302811,
      1771302811,
      1771302811,
      1771302871,
      1771302871,
      1771302871,
      1771302871,
      1771302931,
      1771302931,
      1771302931,
      1771302931,
      1771302931,
      1771302991,
      1771302991,
      1771303111,
      1771303111,
      1771303111,
      1771303172,
      1771303172,
      1771303172,
      1771303172,
      1771303232,
      1771303232,
      1771303321,
      1771303321,
      1771303321,
      1771303321,
      1771303600,
      1771303600,
      1771303600,
      1771303600,
      1771303652,
      1771303652,
      1771303652,
      1771303712,
      1771303712,
      1771303712,
      1771304073,
      1771304093,
      1771304133,
      1771304133,
      1771304133,
      1771304154,
      1771304154,
      1771304154,
      1771304154,
      1771304193,
      1771304313,
      1771304336,
      1771304336,
      1771304336,
      1771304336,
      1771304373,
      1771304397,
      1771304397,
      1771304397,
      1771304397
    ],
    "wof:geomhash": "91bc388f6785a6a9d25ab6652e865c4f",
    "wof:id": 2014810203,
    "wof:repo": "sfomuseum-data-flights-2026-02"
  },
  "bbox": [
    -122.31333333333333,
    37.66222222222222,
    -112.00611111111111,
    41.06666666666667
  ],
  "geometry": {"coordinates":[[-122.31333333333333,37.66222222222222],[-122.31333333333333,37.66222222222222],[-122.31333333333333,37.66222222222222],[-122.31333333333333,37.66222222222222],[-121.91944444444445,37.94333333333333],[-121.91944444444445,37.94333333333333],[-121.91944444444445,37.94333333333333],[-121.91944444444445,37.94333333333333],[-121.73611111111111,38.07222222222222],[-121.73611111111111,38.07222222222222],[-121.73611111111111,38.07222222222222],[-121.73611111111111,38.07222222222222],[-121.15055555555556,38.447222222222216],[-121.15055555555556,38.447222222222216],[-121.15055555555556,38.447222222222216],[-121.03138888888888,38.5225],[-121.03138888888888,38.5225],[-121.03138888888888,38.5225],[-120.98222222222222,38.55416666666667],[-120.9063888888889,38.60138888888889],[-120.85527777777777,38.63027777777778],[-120.85527777777777,38.63027777777778],[-120.85527777777777,38.63027777777778],[-120.59694444444445,38.793055555555554],[-120.46111111111111,38.876666666666665],[-120.46111111111111,38.876666666666665],[-120.38194444444444,38.92861111111111],[-120.38194444444444,38.92861111111111],[-120.0111111111111,39.08583333333333],[-120.0111111111111,39.08583333333333],[-120.0111111111111,39.08583333333333],[-120.0111111111111,39.08583333333333],[-120.0111111111111,39.08583333333333],[-119.91527777777779,39.12111111111111],[-119.91527777777779,39.12111111111111],[-119.85,39.14222222222222],[-119.75,39.17777777777778],[-119.51722222222222,39.25611111111111],[-119.24694444444445,39.348333333333336],[-119.24694444444445,39.348333333333336],[-119.24694444444445,39.348333333333336],[-119.24694444444445,39.348333333333336],[-119.24694444444445,39.348333333333336],[-118.82916666666667,39.48694444444445],[-118.82916666666667,39.48694444444445],[-118.82916666666667,39.48694444444445],[-118.735,39.51861111111111],[-118.735,39.51861111111111],[-118.66805555555555,39.54055555555556],[-118.66805555555555,39.54055555555556],[-118.66805555555555,39.54055555555556],[-118.43527777777778,39.61666666666667],[-118.26916666666666,39.670833333333334],[-118.16722222222222,39.70388888888889],[-118.16722222222222,39.70388888888889],[-118.16722222222222,39.70388888888889],[-117.81833333333333,39.81583333333333],[-117.81833333333333,39.81583333333333],[-117.65416666666667,39.86805555555556],[-117.65416666666667,39.86805555555556],[-117.47805555555556,39.92388888888889],[-117.47805555555556,39.92388888888889],[-117.47805555555556,39.92388888888889],[-117.47805555555556,39.92388888888889],[-117.12638888888888,40.03388888888889],[-117.12638888888888,40.03388888888889],[-117.12638888888888,40.03388888888889],[-117.01694444444445,40.06805555555556],[-117.01694444444445,40.06805555555556],[-116.94805555555556,40.08916666666667],[-116.94805555555556,40.08916666666667],[-116.84083333333332,40.12222222222222],[-116.84083333333332,40.12222222222222],[-116.84083333333332,40.12222222222222],[-116.84083333333332,40.12222222222222],[-116.66472222222222,40.17638888888889],[-116.56305555555555,40.2075],[-116.56305555555555,40.2075],[-116.39,40.26],[-116.39,40.26],[-116.39,40.26],[-116.39,40.26],[-116.31861111111111,40.281666666666666],[-116.0375,40.36611111111111],[-116.0375,40.36611111111111],[-116.0375,40.36611111111111],[-116.0375,40.36611111111111],[-115.86,40.41888888888889],[-115.86,40.41888888888889],[-115.86,40.41888888888889],[-115.86,40.41888888888889],[-115.3261111111111,40.575833333333335],[-115.3261111111111,40.575833333333335],[-115.3261111111111,40.575833333333335],[-115.3261111111111,40.575833333333335],[-115.3261111111111,40.575833333333335],[-115.3261111111111,40.575833333333335],[-115.14833333333334,40.62722222222222],[-114.23527777777778,40.717222222222226],[-114.23527777777778,40.717222222222226],[-114.23527777777778,40.717222222222226],[-114.06333333333333,40.72083333333334],[-114.06333333333333,40.72083333333334],[-114.06333333333333,40.72083333333334],[-114.06333333333333,40.72083333333334],[-113.90166666666667,40.72361111111111],[-113.90166666666667,40.72361111111111],[-113.90166666666667,40.72361111111111],[-113.90166666666667,40.72361111111111],[-113.90166666666667,40.72361111111111],[-113.73666666666666,40.726111111111116],[-113.73666666666666,40.726111111111116],[-113.42555555555556,40.72555555555556],[-113.42555555555556,40.72555555555556],[-113.42555555555556,40.72555555555556],[-113.28166666666667,40.725],[-113.28166666666667,40.725],[-113.28166666666667,40.725],[-113.28166666666667,40.725],[-113.13777777777779,40.724444444444444],[-113.13777777777779,40.724444444444444],[-112.93527777777778,40.730000000000004],[-112.93527777777778,40.730000000000004],[-112.93527777777778,40.730000000000004],[-112.93527777777778,40.730000000000004],[-112.37055555555555,40.70416666666667],[-112.37055555555555,40.70416666666667],[-112.37055555555555,40.70416666666667],[-112.37055555555555,40.70416666666667],[-112.27055555555556,40.69305555555555],[-112.27055555555556,40.69305555555555],[-112.27055555555556,40.69305555555555],[-112.16361111111112,40.70138888888889],[-112.16361111111112,40.70138888888889],[-112.16361111111112,40.70138888888889],[-112.06583333333333,41.06666666666667],[-112.05166666666666,41.05333333333333],[-112.03083333333333,41.0325],[-112.03083333333333,41.0325],[-112.03083333333333,41.0325],[-112.02388888888889,41.01777777777777],[-112.02388888888889,41.01777777777777],[-112.02388888888889,41.01777777777777],[-112.02388888888889,41.01777777777777],[-112.02083333333333,40.9925],[-112.0111111111111,40.91222222222222],[-112.00916666666667,40.89416666666666],[-112.00916666666667,40.89416666666666],[-112.00916666666667,40.89416666666666],[-112.00916666666667,40.89416666666666],[-112.00722222222223,40.876111111111115],[-112.00611111111111,40.86138888888889],[-112.00611111111111,40.86138888888889],[-112.00611111111111,40.86138888888889],[-112.00611111111111,40.86138888888889]],"type":"LineString"}
}
