{
  "id": 2014841677,
  "type": "Feature",
  "properties": {
    "geom:area": 0,
    "geom:bbox": "-122.470000,31.750000,-97.040000,37.680000",
    "geom:latitude": 33.32828576783257,
    "geom:longitude": -110.16038659467354,
    "src:alt_label": "swim-route",
    "src:geom": "swim",
    "swim:geom": "route",
    "wof:geomhash": "6a50806020a6235f0223773bd20468b5",
    "wof:id": 2014841677,
    "wof:repo": "sfomuseum-data-flights-2026-02"
  },
  "bbox": [
    -122.47,
    31.75,
    -97.04,
    37.68
  ],
  "geometry": {"coordinates":[[-122.38,37.62],[-122.36,37.68],[-122.41,37.59],[-122.42,37.59],[-122.46,37.51],[-122.46,37.51],[-122.47,37.49],[-122.47,37.48],[-122.46,37.48],[-122.43,37.46],[-122.43,37.46],[-122.4,37.44],[-122.39,37.44],[-122.33,37.4],[-122.33,37.4],[-122.32,37.39],[-122.31,37.39],[-122.3,37.39],[-122.27,37.37],[-122.23,37.35],[-122.19,37.34],[-122.18,37.34],[-122.12,37.31],[-122.03,37.28],[-121.96,37.23],[-121.89,37.18],[-121.79,37.11],[-121.69,37.04],[-121.66,37.02],[-121.64,37.01],[-121.46,36.89],[-121.45,36.88],[-121.42,36.86],[-121.25,36.74],[-121.07,36.62],[-120.98,36.56],[-120.77,36.41],[-120.66,36.34],[-120.55,36.25],[-120.31,36.09],[-119.94,35.83],[-119.94,35.83],[-119.8,35.73],[-119.41,35.44],[-118.04,34.43],[-118.03,34.42],[-117.35,34.26],[-116.89,34.15],[-116.34,34.01],[-115.14,33.7],[-114.76,33.6],[-114,33.41],[-113.21,33.22],[-112.69,33.09],[-111.91,32.89],[-111.64,32.83],[-110.68,32.61],[-110.59,32.59],[-109.26,32.27],[-109,32.21],[-108.2,32.02],[-107.78,31.92],[-106.28,31.82],[-106.23,31.81],[-105.04,31.75],[-104.07,31.82],[-103.58,31.85],[-103.24,31.87],[-102.79,31.93],[-101.66,32.08],[-101.44,32.1],[-101.22,32.13],[-99.89,32.28],[-99.88,32.28],[-99.66,32.29],[-99.53,32.3],[-99.21,32.31],[-99.03,32.32],[-98.97,32.33],[-98.93,32.33],[-98.66,32.34],[-98.6,32.34],[-98.55,32.35],[-98.41,32.35],[-98.2,32.36],[-98.07,32.37],[-97.99,32.37],[-97.91,32.37],[-97.81,32.38],[-97.75,32.38],[-97.66,32.38],[-97.62,32.38],[-97.62,32.38],[-97.52,32.48],[-97.47,32.48],[-97.28,32.5],[-97.25,32.55],[-97.19,32.65],[-97.16,32.7],[-97.12,32.77],[-97.11,32.77],[-97.07,32.85],[-97.04,32.9]],"type":"LineString"}
}
