{
  "id": 2014701117,
  "type": "Feature",
  "properties": {
    "geom:area": 0,
    "geom:bbox": "-122.444290,36.786810,-121.250470,37.716790",
    "geom:latitude": 37.268759647780136,
    "geom:longitude": -121.90872894904541,
    "src:alt_label": "swim-takeoff",
    "src:geom": "swim",
    "swim:elevations": [
      343,
      501,
      957,
      1573,
      1816,
      2724,
      3014,
      3637,
      3984,
      4525,
      5099,
      5477,
      6190,
      6559,
      6723,
      7232,
      7727,
      7995,
      8328,
      8524,
      8796,
      9205,
      9284,
      9582,
      9778,
      10030,
      10313,
      10659,
      10942,
      11227,
      11364
    ],
    "swim:geom": "takeoff",
    "swim:timestamps": [
      1770095361,
      1770095376,
      1770095416,
      1770095451,
      1770095466,
      1770095516,
      1770095528,
      1770095564,
      1770095600,
      1770095631,
      1770095660,
      1770095684,
      1770095726,
      1770095753,
      1770095766,
      1770095804,
      1770095841,
      1770095860,
      1770095888,
      1770095906,
      1770095930,
      1770095966,
      1770095974,
      1770096013,
      1770096040,
      1770096070,
      1770096097,
      1770096130,
      1770096160,
      1770096191,
      1770096210
    ],
    "wof:geomhash": "24bf1c6db3012edf81b9cc6c81866c49",
    "wof:id": 2014701117,
    "wof:repo": "sfomuseum-data-flights-2026-02"
  },
  "bbox": [
    -122.44429,
    36.78681,
    -121.25047,
    37.71679
  ],
  "geometry": {"coordinates":[[-122.36776,37.63303],[-122.36609,37.64485],[-122.36223,37.68025],[-122.37936,37.71126],[-122.39763,37.71679],[-122.44429,37.68574],[-122.44049,37.67211],[-122.40547,37.63966],[-122.35855,37.6035],[-122.31403,37.56896],[-122.2698,37.53488],[-122.23332,37.5067],[-122.16863,37.45643],[-122.12523,37.4229],[-122.10378,37.40617],[-122.03986,37.35629],[-121.97602,37.30618],[-121.94226,37.27958],[-121.89187,37.24008],[-121.85977,37.21464],[-121.81609,37.1804],[-121.74689,37.13079],[-121.73231,37.12102],[-121.65466,37.06758],[-121.59962,37.0298],[-121.53797,36.98683],[-121.48235,36.94794],[-121.4144,36.90118],[-121.35315,36.85871],[-121.28986,36.8142],[-121.25047,36.78681]],"type":"LineString"}
}
