{
  "id": 2014875733,
  "type": "Feature",
  "properties": {
    "geom:area": 0,
    "geom:bbox": "-123.494460,37.389770,-122.113320,37.605590",
    "geom:latitude": 37.453546009608836,
    "geom:longitude": -122.6805592972627,
    "src:alt_label": "swim-takeoff",
    "src:geom": "swim",
    "swim:elevations": [
      269,
      495,
      1001,
      1054,
      1271,
      1546,
      2092,
      2464,
      2807,
      3183,
      3549,
      3772,
      4189,
      4570,
      4862,
      5539,
      5819,
      5926,
      6035,
      6087,
      6100,
      6292,
      6437,
      6634,
      6920,
      7156,
      7235,
      7537,
      7835,
      7974,
      8086,
      8323
    ],
    "swim:geom": "takeoff",
    "swim:timestamps": [
      1771966735,
      1771966755,
      1771966803,
      1771966810,
      1771966855,
      1771966882,
      1771966924,
      1771966954,
      1771966984,
      1771967022,
      1771967077,
      1771967107,
      1771967151,
      1771967176,
      1771967206,
      1771967240,
      1771967268,
      1771967295,
      1771967326,
      1771967337,
      1771967342,
      1771967370,
      1771967390,
      1771967420,
      1771967457,
      1771967487,
      1771967498,
      1771967535,
      1771967572,
      1771967595,
      1771967610,
      1771967642
    ],
    "wof:geomhash": "43d2ef5a2d826fd864ae5318b184c969",
    "wof:id": 2014875733,
    "wof:repo": "sfomuseum-data-flights-2026-02"
  },
  "bbox": [
    -123.49446,
    37.38977,
    -122.11332,
    37.60559
  ],
  "geometry": {"coordinates":[[-122.34286,37.60559],[-122.32034,37.60307],[-122.26521,37.59224],[-122.25668,37.59022],[-122.19478,37.57515],[-122.15645,37.5604],[-122.13415,37.51077],[-122.12317,37.47051],[-122.11332,37.43038],[-122.14342,37.38985],[-122.24013,37.38977],[-122.29943,37.39824],[-122.39175,37.4108],[-122.44263,37.41774],[-122.50546,37.42485],[-122.57482,37.42798],[-122.62867,37.43022],[-122.6829,37.4319],[-122.74709,37.43411],[-122.77131,37.43498],[-122.78209,37.43536],[-122.84611,37.4376],[-122.89093,37.43916],[-122.96026,37.44154],[-123.04689,37.44443],[-123.12025,37.44678],[-123.14682,37.44762],[-123.23345,37.45034],[-123.32435,37.45332],[-123.38054,37.45464],[-123.41685,37.45592],[-123.49446,37.45746]],"type":"LineString"}
}
