{
  "id": 2014776061,
  "type": "Feature",
  "properties": {
    "geom:area": 0,
    "geom:bbox": "-122.470890,36.765010,-121.363140,37.713810",
    "geom:latitude": 37.2357419459457,
    "geom:longitude": -122.0255770042501,
    "src:alt_label": "swim-takeoff",
    "src:geom": "swim",
    "swim:elevations": [
      213,
      376,
      594,
      1102,
      1385,
      1941,
      2219,
      2430,
      3104,
      3272,
      3448,
      3584,
      4129,
      4265,
      4522,
      4833,
      5275,
      5625,
      5867,
      6253,
      6397,
      6808,
      6917,
      7189,
      7357,
      7568,
      7761,
      7910,
      8204,
      8409,
      8563,
      8655,
      9027,
      9045
    ],
    "swim:geom": "takeoff",
    "swim:timestamps": [
      1770897705,
      1770897720,
      1770897755,
      1770897797,
      1770897827,
      1770897866,
      1770897888,
      1770897903,
      1770897958,
      1770897986,
      1770898007,
      1770898020,
      1770898067,
      1770898078,
      1770898097,
      1770898122,
      1770898157,
      1770898192,
      1770898213,
      1770898249,
      1770898265,
      1770898309,
      1770898320,
      1770898350,
      1770898369,
      1770898399,
      1770898431,
      1770898453,
      1770898497,
      1770898524,
      1770898552,
      1770898567,
      1770898618,
      1770898624
    ],
    "wof:geomhash": "ac402186f4519ae148218c0c8db0354d",
    "wof:id": 2014776061,
    "wof:repo": "sfomuseum-data-flights-2026-02"
  },
  "bbox": [
    -122.47089,
    36.76501,
    -121.36314,
    37.71381
  ],
  "geometry": {"coordinates":[[-122.36703,37.63258],[-122.36496,37.64354],[-122.36337,37.67495],[-122.38485,37.71253],[-122.42832,37.71381],[-122.45335,37.67251],[-122.45672,37.64498],[-122.45911,37.62528],[-122.46719,37.55325],[-122.47089,37.51401],[-122.45809,37.48379],[-122.44107,37.46887],[-122.3701,37.42254],[-122.35363,37.41187],[-122.32387,37.39281],[-122.28418,37.36722],[-122.22722,37.33056],[-122.1707,37.29404],[-122.13696,37.27225],[-122.0764,37.23298],[-122.04927,37.21536],[-121.97293,37.16552],[-121.95229,37.15201],[-121.90018,37.11806],[-121.86459,37.09486],[-121.80952,37.05901],[-121.75124,37.02038],[-121.70755,36.99195],[-121.6204,36.9348],[-121.56771,36.89984],[-121.51077,36.86254],[-121.48019,36.84238],[-121.37555,36.77318],[-121.36314,36.76501]],"type":"LineString"}
}
