{
  "id": 2014815925,
  "type": "Feature",
  "properties": {
    "date:cessation_lower": "2026-02-17",
    "date:cessation_upper": "2026-02-17",
    "date:inception_lower": "2026-02-17",
    "date:inception_upper": "2026-02-17",
    "edtf:cessation": "2026-02-17T23:43:00Z",
    "edtf:inception": "2026-02-17T22:33:00Z",
    "flysfo:actual_timestamp": -1,
    "flysfo:airline": "UA",
    "flysfo:base_airline": "",
    "flysfo:base_flight_number": "9174",
    "flysfo:date": "2026-02-17",
    "flysfo:estimated_timestamp": 1771372140,
    "flysfo:event": "A",
    "flysfo:flight_number": "UA2077",
    "flysfo:gate": "F20",
    "flysfo:journey": "EUG-SFO",
    "flysfo:scheduled_timestamp": 1771371900,
    "flysfo:timestamp": 1771372140,
    "geom:area": 0,
    "geom:bbox": "-123.213030,37.617990,-122.370943,44.119058",
    "geom:latitude": 40.868524,
    "geom:longitude": -122.79198650000001,
    "iata:airline": "UA",
    "iata:base_airline": "",
    "icao:aircraft": "B738",
    "icao:airline": "UAL",
    "icao:base_airline": "ANZ",
    "lbl:latitude": 37.621076,
    "lbl:longitude": -122.390239,
    "sfomuseum:aircraft_id": 1159289871,
    "sfomuseum:airline_id": 1159285413,
    "sfomuseum:arrival_id": 102527513,
    "sfomuseum:base_flight_id": "20260217-A-ANZ-9174",
    "sfomuseum:departure_id": 102533927,
    "sfomuseum:flight_id": "20260217-A-UAL-2077",
    "sfomuseum:flight_number": [
      "UAL2077",
      "UA2077"
    ],
    "sfomuseum:placetype": "flight",
    "src:geom": "flysfo",
    "src:geom_alt": [
      "swim-route",
      "swim-path"
    ],
    "swim:tail_number": "N77520",
    "wof:belongsto": [
      1947304067,
      102527513,
      1947304451,
      102191575,
      85633793,
      102087579,
      85922583,
      554784711,
      85688637,
      1947304489,
      1947304447,
      102085387
    ],
    "wof:concordances": {
      "swim:flight_ref": "139619303",
      "swim:gufi": "KS767303oC"
    },
    "wof:country": "US",
    "wof:created": 1771430841,
    "wof:geomhash": "68b06bbd791163721a20ab955d143e55",
    "wof:hierarchy": [
      {
        "building_id": 1947304067,
        "campus_id": 102527513,
        "concourse_id": 1947304451,
        "continent_id": 102191575,
        "country_id": 85633793,
        "county_id": 102087579,
        "custom_id": 2014815925,
        "flight_id": 2014815925,
        "locality_id": 85922583,
        "postalcode_id": 554784711,
        "region_id": 85688637,
        "venue_id": 1947304489,
        "wing_id": 1947304447
      },
      {
        "building_id": 1947304067,
        "campus_id": 102527513,
        "concourse_id": 1947304451,
        "continent_id": 102191575,
        "country_id": 85633793,
        "county_id": 102085387,
        "custom_id": 2014815925,
        "flight_id": 2014815925,
        "region_id": 85688637,
        "venue_id": 1947304489,
        "wing_id": 1947304447
      }
    ],
    "wof:id": 2014815925,
    "wof:involves": [
      1947304489,
      1159283697,
      1159289871,
      102527513,
      102533927,
      1159285413
    ],
    "wof:lastmodified": 1771431373,
    "wof:name": "UA2077 (EUG-SFO)",
    "wof:parent_id": 1947304489,
    "wof:placetype": "custom",
    "wof:placetype_alt": [
      "flight"
    ],
    "wof:repo": "sfomuseum-data-flights-2026-02",
    "wof:superseded_by": [],
    "wof:supersedes": []
  },
  "bbox": [
    -123.21303,
    37.61799,
    -122.370943,
    44.119058
  ],
  "geometry": {"coordinates":[[-123.21303,44.119058],[-122.370943,37.61799]],"type":"MultiPoint"}
}
