{
  "id": 2014795545,
  "type": "Feature",
  "properties": {
    "geom:area": 0,
    "geom:bbox": "-122.359167,37.639444,-81.623889,45.072778",
    "geom:latitude": 41.150987587490974,
    "geom:longitude": -102.0897103016439,
    "src:alt_label": "swim-path",
    "src:geom": "swim",
    "swim:altitudes": [
      "340C",
      "340C",
      "340C",
      "340C",
      "340C",
      "340C",
      "340C",
      "340C",
      "340C",
      "340C",
      "340C",
      "340C",
      "340C",
      "340C",
      "340C",
      "340C",
      "340C",
      "340C",
      "340C",
      "340C",
      "340C",
      "340C",
      "340C",
      "340C",
      "340C",
      "340C",
      "340C",
      "340C",
      "340C",
      "340C",
      "340C",
      "340C",
      "340C",
      "340C",
      "340C",
      "340C",
      "340C",
      "340C",
      "340C",
      "340C",
      "340C",
      "340C",
      "340C",
      "340C",
      "340C",
      "340C",
      "340C",
      "340C",
      "340C",
      "340C",
      "340C",
      "340C",
      "340C",
      "340C",
      "340C",
      "340C",
      "340C",
      "340C",
      "340C",
      "340C",
      "340C",
      "340C",
      "340C",
      "340C",
      "340C",
      "340C",
      "340C",
      "340C",
      "340C",
      "340C",
      "340C",
      "340C",
      "340C",
      "340C",
      "340C",
      "340C",
      "340C",
      "340C",
      "340C",
      "340C",
      "340C",
      "340C",
      "340C",
      "340C",
      "340C",
      "340C",
      "340C",
      "340C",
      "340C",
      "340C",
      "340C",
      "340C",
      "340C",
      "340C",
      "340C",
      "340C",
      "340C",
      "340C",
      "340C",
      "340C",
      "340C",
      "340C",
      "340C",
      "340C",
      "340C",
      "340C",
      "340C",
      "340C",
      "340C",
      "340C",
      "340C",
      "340C",
      "340C",
      "340C",
      "340C",
      "340C",
      "340C",
      "340C",
      "340C",
      "340C",
      "340C",
      "340C",
      "340C",
      "340C",
      "340C",
      "340C",
      "340C",
      "340C",
      "340C",
      "340C",
      "340C",
      "340C",
      "340C",
      "340C",
      "340C",
      "340C",
      "340C",
      "340C",
      "340C",
      "340C",
      "340C",
      "340C",
      "340C",
      "340C",
      "340C",
      "340C",
      "340C",
      "340C",
      "340C",
      "340C",
      "340C",
      "340C",
      "340C",
      "340C",
      "340C",
      "340C",
      "340C",
      "340C",
      "340C",
      "340C",
      "340C",
      "340C",
      "340C",
      "340C",
      "340C",
      "340C",
      "340C",
      "340C",
      "340C",
      "340C",
      "340C",
      "340C",
      "340C",
      "340C",
      "340C",
      "340C",
      "340C",
      "340C",
      "340C",
      "340C",
      "340C",
      "340C",
      "340C",
      "340C",
      "340C",
      "340C",
      "340C",
      "340C",
      "340C",
      "340C",
      "340C",
      "340C",
      "340C",
      "340C",
      "340C",
      "340C",
      "340C",
      "340C",
      "340C",
      "340C",
      "340C",
      "340C",
      "340C",
      "340C",
      "340C",
      "340C",
      "340C",
      "340C",
      "340C",
      "340C",
      "340C",
      "340C",
      "340C",
      "340C",
      "340C",
      "340C",
      "340C",
      "340C",
      "340C",
      "340C",
      "340C",
      "340C",
      "340C",
      "340C",
      "340C",
      "340C",
      "340C",
      "340C",
      "340C",
      "340C",
      "340C",
      "340C",
      "340C",
      "340C",
      "340C",
      "340C",
      "340C",
      "340C",
      "340C",
      "340C",
      "340C",
      "340C",
      "340C",
      "340C",
      "340C",
      "340C",
      "340C",
      "340C",
      "340C",
      "340C",
      "340C",
      "340C",
      "340C",
      "340C",
      "340C",
      "340C",
      "340C",
      "340C",
      "340C",
      "340C",
      "340C",
      "340C",
      "340C",
      "340C",
      "340C",
      "340C",
      "340C",
      "340C",
      "340C",
      "340C",
      "340C",
      "340C",
      "340C",
      "340C",
      "340C",
      "340C",
      "340C",
      "340C",
      "340C",
      "340C",
      "340C",
      "340C",
      "340C",
      "340C",
      "340C",
      "340C",
      "340C",
      "340C",
      "340C",
      "340C",
      "340C",
      "340C",
      "340C",
      "340C",
      "340C",
      "340C",
      "340C",
      "340C",
      "340C",
      "340C",
      "340C",
      "340C",
      "340C",
      "340C",
      "340C",
      "340C",
      "340C",
      "340C",
      "340C",
      "340C",
      "340C",
      "340C",
      "340C",
      "340C",
      "340C",
      "340C",
      "340C",
      "340C",
      "340C",
      "340C",
      "340C",
      "340C",
      "340C",
      "340C",
      "340C",
      "340C",
      "340C",
      "340C",
      "340C",
      "340C",
      "340C",
      "340C",
      "340C",
      "340C",
      "340C",
      "340C",
      "340C",
      "340C",
      "340C",
      "340C",
      "340C",
      "340C",
      "340C",
      "340C",
      "340C",
      "340C",
      "340C",
      "340C",
      "340C",
      "340C",
      "340C",
      "340C",
      "340C",
      "340C",
      "340C",
      "340C",
      "340C",
      "340C",
      "340C",
      "340C",
      "340C",
      "340C",
      "340C",
      "340C",
      "340",
      "337",
      "337",
      "298",
      "298",
      "248",
      "248",
      "229",
      "229",
      "216",
      "199",
      "178",
      "163",
      "163",
      "163",
      "155",
      "149",
      "100",
      "098",
      "098",
      "093",
      "093",
      "091",
      "091",
      "081",
      "081",
      "077",
      "072",
      "071",
      "071",
      "061",
      "050",
      "039",
      "036",
      "030",
      "026",
      "026",
      "014",
      "011",
      "011",
      "004",
      "004"
    ],
    "swim:geom": "path",
    "swim:speeds": [
      417,
      417,
      417,
      417,
      418,
      418,
      417,
      416,
      411,
      411,
      411,
      400,
      400,
      400,
      400,
      400,
      398,
      398,
      397,
      397,
      394,
      391,
      391,
      390,
      388,
      383,
      383,
      383,
      383,
      383,
      383,
      384,
      384,
      384,
      384,
      383,
      383,
      383,
      383,
      383,
      392,
      392,
      392,
      391,
      391,
      391,
      391,
      392,
      392,
      393,
      391,
      391,
      391,
      390,
      389,
      389,
      387,
      387,
      387,
      387,
      387,
      387,
      387,
      387,
      387,
      387,
      387,
      387,
      388,
      387,
      387,
      387,
      387,
      388,
      388,
      388,
      388,
      388,
      390,
      390,
      391,
      391,
      390,
      390,
      389,
      389,
      387,
      387,
      387,
      387,
      387,
      382,
      382,
      382,
      382,
      383,
      383,
      383,
      383,
      381,
      381,
      381,
      381,
      381,
      379,
      379,
      379,
      378,
      375,
      375,
      368,
      367,
      367,
      365,
      364,
      360,
      359,
      359,
      359,
      357,
      357,
      358,
      358,
      359,
      359,
      361,
      362,
      362,
      362,
      362,
      363,
      362,
      362,
      362,
      362,
      364,
      364,
      364,
      364,
      365,
      364,
      364,
      364,
      362,
      359,
      359,
      358,
      358,
      358,
      357,
      357,
      357,
      357,
      359,
      359,
      362,
      362,
      362,
      363,
      364,
      366,
      367,
      367,
      366,
      366,
      366,
      364,
      363,
      362,
      360,
      360,
      360,
      359,
      359,
      358,
      357,
      357,
      357,
      357,
      357,
      360,
      361,
      361,
      361,
      363,
      360,
      362,
      362,
      362,
      363,
      363,
      363,
      362,
      361,
      360,
      363,
      363,
      360,
      360,
      361,
      361,
      360,
      362,
      362,
      360,
      362,
      362,
      361,
      362,
      362,
      363,
      365,
      365,
      373,
      377,
      366,
      362,
      358,
      358,
      358,
      358,
      358,
      358,
      358,
      360,
      360,
      359,
      360,
      360,
      358,
      359,
      359,
      358,
      353,
      353,
      350,
      350,
      350,
      351,
      351,
      351,
      352,
      352,
      351,
      351,
      351,
      354,
      354,
      352,
      352,
      351,
      351,
      350,
      350,
      352,
      354,
      354,
      355,
      355,
      355,
      355,
      347,
      347,
      347,
      345,
      344,
      344,
      344,
      344,
      344,
      352,
      352,
      352,
      355,
      356,
      356,
      356,
      355,
      355,
      355,
      354,
      353,
      353,
      353,
      353,
      351,
      349,
      349,
      349,
      349,
      349,
      352,
      352,
      353,
      353,
      353,
      350,
      350,
      350,
      351,
      351,
      352,
      352,
      355,
      355,
      355,
      355,
      354,
      354,
      354,
      354,
      355,
      355,
      354,
      354,
      354,
      347,
      347,
      426,
      426,
      430,
      430,
      431,
      431,
      431,
      431,
      431,
      381,
      381,
      364,
      339,
      337,
      337,
      337,
      337,
      337,
      333,
      333,
      333,
      330,
      330,
      330,
      330,
      330,
      332,
      333,
      333,
      333,
      334,
      334,
      335,
      335,
      335,
      337,
      337,
      338,
      338,
      340,
      340,
      345,
      345,
      345,
      352,
      352,
      351,
      313,
      313,
      298,
      298,
      292,
      292,
      288,
      288,
      292,
      312,
      311,
      300,
      300,
      300,
      301,
      295,
      294,
      287,
      287,
      285,
      285,
      278,
      278,
      274,
      274,
      264,
      236,
      237,
      237,
      233,
      211,
      193,
      175,
      157,
      161,
      161,
      130,
      134,
      134,
      139,
      139
    ],
    "swim:timestamps": [
      1771202070,
      1771202070,
      1771202070,
      1771202070,
      1771202190,
      1771202190,
      1771202250,
      1771202310,
      1771202370,
      1771202370,
      1771202370,
      1771202550,
      1771202550,
      1771202550,
      1771202550,
      1771202550,
      1771202671,
      1771202671,
      1771202791,
      1771202791,
      1771202851,
      1771202911,
      1771202911,
      1771202971,
      1771203031,
      1771203151,
      1771203211,
      1771203211,
      1771203211,
      1771203211,
      1771203211,
      1771203391,
      1771203391,
      1771203452,
      1771203452,
      1771203513,
      1771203513,
      1771203572,
      1771203572,
      1771203572,
      1771203705,
      1771203705,
      1771203705,
      1771203812,
      1771203812,
      1771203812,
      1771203812,
      1771203872,
      1771203872,
      1771203932,
      1771204066,
      1771204066,
      1771204066,
      1771204112,
      1771204172,
      1771204186,
      1771204232,
      1771204232,
      1771204246,
      1771204246,
      1771204293,
      1771204293,
      1771204306,
      1771204306,
      1771204306,
      1771204413,
      1771204438,
      1771204438,
      1771204533,
      1771204559,
      1771204559,
      1771204559,
      1771204559,
      1771204593,
      1771204593,
      1771204713,
      1771204713,
      1771204713,
      1771204833,
      1771204833,
      1771204893,
      1771204893,
      1771204979,
      1771204979,
      1771205013,
      1771205013,
      1771205074,
      1771205074,
      1771205074,
      1771205074,
      1771205074,
      1771205219,
      1771205219,
      1771205219,
      1771205280,
      1771205434,
      1771205494,
      1771205494,
      1771205520,
      1771205640,
      1771205674,
      1771205674,
      1771205700,
      1771205700,
      1771205820,
      1771205820,
      1771205820,
      1771205855,
      1771205940,
      1771205940,
      1771206095,
      1771206121,
      1771206121,
      1771206181,
      1771206215,
      1771206361,
      1771206421,
      1771206421,
      1771206421,
      1771206515,
      1771206661,
      1771206696,
      1771206696,
      1771206756,
      1771206816,
      1771206936,
      1771207056,
      1771207116,
      1771207116,
      1771207116,
      1771207357,
      1771207477,
      1771207537,
      1771207537,
      1771207537,
      1771207717,
      1771207717,
      1771207777,
      1771207777,
      1771207837,
      1771208017,
      1771208017,
      1771208017,
      1771208078,
      1771208258,
      1771208258,
      1771208378,
      1771208378,
      1771208378,
      1771208618,
      1771208618,
      1771208618,
      1771208618,
      1771208738,
      1771208738,
      1771208858,
      1771208858,
      1771208858,
      1771208919,
      1771208979,
      1771209039,
      1771209231,
      1771209231,
      1771209291,
      1771209291,
      1771209399,
      1771209459,
      1771209519,
      1771209592,
      1771209699,
      1771209699,
      1771209759,
      1771210012,
      1771210012,
      1771210060,
      1771210180,
      1771210180,
      1771210420,
      1771210420,
      1771210420,
      1771210553,
      1771210613,
      1771210613,
      1771210733,
      1771210783,
      1771210914,
      1771211083,
      1771211094,
      1771211094,
      1771211263,
      1771211263,
      1771211504,
      1771211575,
      1771211695,
      1771211755,
      1771211804,
      1771211804,
      1771211935,
      1771211995,
      1771212055,
      1771212055,
      1771212235,
      1771212285,
      1771212285,
      1771212295,
      1771212356,
      1771212356,
      1771212405,
      1771212536,
      1771212536,
      1771212585,
      1771212596,
      1771212596,
      1771212656,
      1771212716,
      1771212776,
      1771212825,
      1771212885,
      1771212896,
      1771212896,
      1771212896,
      1771212946,
      1771213066,
      1771213066,
      1771213186,
      1771213186,
      1771213197,
      1771213246,
      1771213246,
      1771213257,
      1771213306,
      1771213306,
      1771213366,
      1771213437,
      1771213437,
      1771213497,
      1771213557,
      1771213557,
      1771213606,
      1771213606,
      1771213617,
      1771213677,
      1771213677,
      1771213727,
      1771213787,
      1771213787,
      1771213857,
      1771213857,
      1771213967,
      1771213967,
      1771214027,
      1771214027,
      1771214098,
      1771214098,
      1771214158,
      1771214207,
      1771214207,
      1771214267,
      1771214267,
      1771214327,
      1771214327,
      1771214568,
      1771214568,
      1771214578,
      1771214638,
      1771214688,
      1771214698,
      1771214698,
      1771214758,
      1771214818,
      1771214988,
      1771214988,
      1771214988,
      1771215048,
      1771215059,
      1771215059,
      1771215119,
      1771215168,
      1771215168,
      1771215168,
      1771215349,
      1771215469,
      1771215469,
      1771215529,
      1771215529,
      1771215589,
      1771215649,
      1771215709,
      1771215709,
      1771215709,
      1771215829,
      1771215950,
      1771215950,
      1771216010,
      1771216070,
      1771216070,
      1771216310,
      1771216310,
      1771216310,
      1771216490,
      1771216490,
      1771216610,
      1771216610,
      1771216670,
      1771216791,
      1771216791,
      1771216791,
      1771217091,
      1771217151,
      1771217151,
      1771217151,
      1771217258,
      1771217258,
      1771217318,
      1771217378,
      1771217378,
      1771217679,
      1771217679,
      1771217812,
      1771217812,
      1771217859,
      1771217859,
      1771217919,
      1771217932,
      1771217979,
      1771217979,
      1771217979,
      1771218039,
      1771218039,
      1771218052,
      1771218099,
      1771218172,
      1771218219,
      1771218219,
      1771218232,
      1771218232,
      1771218459,
      1771218459,
      1771218459,
      1771218639,
      1771218653,
      1771218653,
      1771218700,
      1771218700,
      1771218820,
      1771218833,
      1771218833,
      1771218880,
      1771218953,
      1771218953,
      1771219013,
      1771219060,
      1771219060,
      1771219180,
      1771219193,
      1771219240,
      1771219240,
      1771219300,
      1771219300,
      1771219540,
      1771219540,
      1771219540,
      1771219841,
      1771219841,
      1771219901,
      1771220021,
      1771220021,
      1771220201,
      1771220201,
      1771220349,
      1771220349,
      1771220409,
      1771220409,
      1771220457,
      1771220517,
      1771220589,
      1771220643,
      1771220643,
      1771220643,
      1771220681,
      1771220697,
      1771220883,
      1771220921,
      1771220921,
      1771220981,
      1771220981,
      1771221003,
      1771221003,
      1771221102,
      1771221102,
      1771221117,
      1771221177,
      1771221222,
      1771221222,
      1771221282,
      1771221342,
      1771221402,
      1771221417,
      1771221477,
      1771221522,
      1771221522,
      1771221609,
      1771221642,
      1771221642,
      1771221702,
      1771221702
    ],
    "wof:geomhash": "60cfdb3aa710cf5099444c47069ea8e1",
    "wof:id": 2014795545,
    "wof:repo": "sfomuseum-data-flights-2026-02"
  },
  "bbox": [
    -122.35916666666667,
    37.63944444444444,
    -81.62388888888889,
    45.07277777777778
  ],
  "geometry": {"coordinates":[[-81.62388888888889,45.07277777777778],[-81.62388888888889,45.07277777777778],[-81.62388888888889,45.07277777777778],[-81.62388888888889,45.07277777777778],[-81.94694444444445,45.04472222222222],[-81.94694444444445,45.04472222222222],[-82.10777777777777,45.03055555555555],[-82.26916666666666,45.01583333333333],[-82.42944444444444,45.00138888888889],[-82.42944444444444,45.00138888888889],[-82.42944444444444,45.00138888888889],[-82.89416666666668,44.95722222222223],[-82.89416666666668,44.95722222222223],[-82.89416666666668,44.95722222222223],[-82.89416666666668,44.95722222222223],[-82.89416666666668,44.95722222222223],[-83.20027777777779,44.926944444444445],[-83.20027777777779,44.926944444444445],[-83.50888888888889,44.895833333333336],[-83.50888888888889,44.895833333333336],[-83.66166666666668,44.88027777777778],[-83.81166666666667,44.864444444444445],[-83.81166666666667,44.864444444444445],[-83.95944444444444,44.848888888888894],[-84.10916666666667,44.83277777777778],[-84.40472222222223,44.800555555555555],[-84.55222222222221,44.78444444444444],[-84.55222222222221,44.78444444444444],[-84.55222222222221,44.78444444444444],[-84.55222222222221,44.78444444444444],[-84.55222222222221,44.78444444444444],[-84.99416666666667,44.73361111111111],[-84.99416666666667,44.73361111111111],[-85.14333333333335,44.71611111111111],[-85.14333333333335,44.71611111111111],[-85.28555555555555,44.69944444444444],[-85.28555555555555,44.69944444444444],[-85.43777777777778,44.68138888888889],[-85.43777777777778,44.68138888888889],[-85.43777777777778,44.68138888888889],[-85.75444444444445,44.61944444444445],[-85.75444444444445,44.61944444444445],[-85.75444444444445,44.61944444444445],[-86.0213888888889,44.55444444444444],[-86.0213888888889,44.55444444444444],[-86.0213888888889,44.55444444444444],[-86.0213888888889,44.55444444444444],[-86.16944444444445,44.518055555555556],[-86.16944444444445,44.518055555555556],[-86.31333333333333,44.48277777777778],[-86.62555555555555,44.405833333333334],[-86.62555555555555,44.405833333333334],[-86.62555555555555,44.405833333333334],[-86.74416666666667,44.376111111111115],[-86.8863888888889,44.34],[-86.91027777777778,44.33388888888889],[-87.0275,44.30416666666667],[-87.0275,44.30416666666667],[-87.05055555555555,44.29833333333333],[-87.05055555555555,44.29833333333333],[-87.16833333333334,44.26861111111111],[-87.16833333333334,44.26861111111111],[-87.19194444444445,44.26277777777778],[-87.19194444444445,44.26277777777778],[-87.19194444444445,44.26277777777778],[-87.44972222222222,44.19638888888888],[-87.50055555555555,44.183055555555555],[-87.50055555555555,44.183055555555555],[-87.72833333333334,44.12361111111111],[-87.78166666666667,44.109722222222224],[-87.78166666666667,44.109722222222224],[-87.78166666666667,44.109722222222224],[-87.78166666666667,44.109722222222224],[-87.86944444444444,44.08638888888889],[-87.86944444444444,44.08638888888889],[-88.15083333333334,44.011944444444445],[-88.15083333333334,44.011944444444445],[-88.15083333333334,44.011944444444445],[-88.42888888888889,43.9375],[-88.42888888888889,43.9375],[-88.57055555555556,43.899166666666666],[-88.57055555555556,43.899166666666666],[-88.76,43.847500000000004],[-88.76,43.847500000000004],[-88.84666666666666,43.823888888888895],[-88.84666666666666,43.823888888888895],[-88.98222222222222,43.78666666666666],[-88.98222222222222,43.78666666666666],[-88.98222222222222,43.78666666666666],[-88.98222222222222,43.78666666666666],[-88.98222222222222,43.78666666666666],[-89.3325,43.689166666666665],[-89.3325,43.689166666666665],[-89.3325,43.689166666666665],[-89.47,43.650555555555556],[-89.79944444444445,43.5575],[-89.93444444444445,43.51861111111111],[-89.93444444444445,43.51861111111111],[-90.01416666666667,43.49638888888889],[-90.28972222222222,43.43333333333333],[-90.3736111111111,43.413888888888884],[-90.3736111111111,43.413888888888884],[-90.42833333333334,43.401111111111106],[-90.42833333333334,43.401111111111106],[-90.70222222222222,43.336666666666666],[-90.70222222222222,43.336666666666666],[-90.70222222222222,43.336666666666666],[-90.78333333333333,43.31777777777778],[-90.9713888888889,43.272777777777776],[-90.9713888888889,43.272777777777776],[-91.31583333333333,43.19],[-91.36749999999999,43.177499999999995],[-91.36749999999999,43.177499999999995],[-91.49694444444445,43.145833333333336],[-91.57416666666666,43.12694444444445],[-91.88027777777778,43.05138888888889],[-92.00777777777778,43.01972222222222],[-92.00777777777778,43.01972222222222],[-92.00777777777778,43.01972222222222],[-92.21194444444444,42.968333333333334],[-92.51638888888888,42.89111111111111],[-92.59333333333333,42.87138888888889],[-92.59333333333333,42.87138888888889],[-92.72083333333333,42.83861111111111],[-92.85,42.805],[-93.10722222222222,42.73833333333334],[-93.36416666666666,42.67055555555555],[-93.49194444444444,42.63666666666666],[-93.49194444444444,42.63666666666666],[-93.49194444444444,42.63666666666666],[-94.00555555555556,42.49861111111111],[-94.28277777777778,42.433055555555555],[-94.41166666666668,42.40222222222222],[-94.41166666666668,42.40222222222222],[-94.41166666666668,42.40222222222222],[-94.79888888888888,42.30888888888889],[-94.79888888888888,42.30888888888889],[-94.93083333333334,42.276666666666664],[-94.93083333333334,42.276666666666664],[-95.05972222222222,42.24527777777778],[-95.44666666666667,42.14888888888889],[-95.44666666666667,42.14888888888889],[-95.44666666666667,42.14888888888889],[-95.57249999999999,42.1175],[-95.95111111111112,42.02166666666667],[-95.95111111111112,42.02166666666667],[-96.20083333333334,41.95722222222223],[-96.20083333333334,41.95722222222223],[-96.20083333333334,41.95722222222223],[-96.70138888888889,41.82666666666667],[-96.70138888888889,41.82666666666667],[-96.70138888888889,41.82666666666667],[-96.70138888888889,41.82666666666667],[-96.95166666666667,41.76027777777778],[-96.95166666666667,41.76027777777778],[-97.20527777777778,41.69222222222222],[-97.20527777777778,41.69222222222222],[-97.20527777777778,41.69222222222222],[-97.33277777777778,41.657777777777774],[-97.45944444444444,41.623333333333335],[-97.58555555555554,41.58888888888889],[-98.00277777777778,41.473888888888894],[-98.00277777777778,41.473888888888894],[-98.13027777777778,41.43833333333333],[-98.13027777777778,41.43833333333333],[-98.3586111111111,41.37583333333333],[-98.47916666666667,41.361666666666665],[-98.61138888888888,41.34638888888889],[-98.78027777777778,41.32694444444445],[-99.00416666666666,41.30083333333333],[-99.00416666666666,41.30083333333333],[-99.135,41.28527777777778],[-99.70166666666667,41.21638888888889],[-99.70166666666667,41.21638888888889],[-99.79305555555555,41.20472222222222],[-100.05222222222221,41.17222222222222],[-100.05222222222221,41.17222222222222],[-100.56638888888888,41.10777777777778],[-100.56638888888888,41.10777777777778],[-100.56638888888888,41.10777777777778],[-100.86472222222221,41.065555555555555],[-100.99222222222222,41.04805555555556],[-100.99222222222222,41.04805555555556],[-101.25333333333333,41.01222222222222],[-101.35055555555554,40.99916666666667],[-101.63972222222223,40.95805555555556],[-102.00083333333333,40.907222222222224],[-102.03166666666667,40.901666666666664],[-102.03166666666667,40.901666666666664],[-102.39500000000001,40.84666666666667],[-102.39500000000001,40.84666666666667],[-102.91638888888889,40.76722222222222],[-103.07388888888889,40.74444444444445],[-103.33194444444445,40.70388888888889],[-103.46083333333334,40.68333333333333],[-103.56277777777777,40.66638888888889],[-103.56277777777777,40.66638888888889],[-103.84555555555555,40.62166666666667],[-103.97222222222223,40.600833333333334],[-104.10111111111111,40.57944444444445],[-104.10111111111111,40.57944444444445],[-104.48555555555555,40.515277777777776],[-104.59194444444444,40.49888888888889],[-104.59194444444444,40.49888888888889],[-104.61361111111111,40.496944444444445],[-104.74472222222222,40.48166666666667],[-104.74472222222222,40.48166666666667],[-104.85499999999999,40.46888888888889],[-105.13166666666666,40.43611111111111],[-105.13166666666666,40.43611111111111],[-105.2425,40.42166666666667],[-105.26472222222222,40.42027777777778],[-105.26472222222222,40.42027777777778],[-105.39888888888889,40.40416666666667],[-105.53388888888888,40.3875],[-105.66555555555556,40.37111111111111],[-105.77416666666666,40.3575],[-105.90277777777779,40.3425],[-105.92055555555557,40.339444444444446],[-105.92055555555557,40.339444444444446],[-105.92055555555557,40.339444444444446],[-106.02916666666667,40.32416666666667],[-106.28444444444445,40.28972222222222],[-106.28444444444445,40.28972222222222],[-106.54388888888889,40.25805555555556],[-106.54388888888889,40.25805555555556],[-106.57944444444443,40.25388888888889],[-106.67222222222223,40.240833333333335],[-106.67222222222223,40.240833333333335],[-106.70833333333334,40.23694444444445],[-106.80138888888888,40.223888888888894],[-106.80138888888888,40.223888888888894],[-106.92750000000001,40.206944444444446],[-107.08749999999999,40.18555555555555],[-107.08749999999999,40.18555555555555],[-107.21055555555556,40.16861111111111],[-107.34027777777777,40.150555555555556],[-107.34027777777777,40.150555555555556],[-107.42777777777778,40.13777777777778],[-107.42777777777778,40.13777777777778],[-107.46305555555556,40.13333333333333],[-107.57833333333333,40.11694444444444],[-107.57833333333333,40.11694444444444],[-107.67805555555556,40.10194444444445],[-107.80472222222222,40.083333333333336],[-107.80472222222222,40.083333333333336],[-107.95416666666667,40.06305555555555],[-107.95416666666667,40.06305555555555],[-108.18083333333334,40.02972222222222],[-108.18083333333334,40.02972222222222],[-108.30361111111111,40.01166666666666],[-108.30361111111111,40.01166666666666],[-108.45111111111112,39.989444444444445],[-108.45111111111112,39.989444444444445],[-108.5761111111111,39.970555555555556],[-108.70138888888889,39.95166666666667],[-108.70138888888889,39.95166666666667],[-108.82916666666667,39.93194444444444],[-108.82916666666667,39.93194444444444],[-108.95305555555557,39.91277777777778],[-108.95305555555557,39.91277777777778],[-109.44083333333333,39.83583333333333],[-109.44083333333333,39.83583333333333],[-109.465,39.83222222222223],[-109.58666666666666,39.8125],[-109.68416666666667,39.79666666666667],[-109.70805555555556,39.79277777777778],[-109.70805555555556,39.79277777777778],[-109.82666666666667,39.77361111111111],[-109.94888888888889,39.75361111111111],[-110.29666666666667,39.69583333333333],[-110.29666666666667,39.69583333333333],[-110.29666666666667,39.69583333333333],[-110.42333333333333,39.67444444444444],[-110.44694444444445,39.67055555555555],[-110.44694444444445,39.67055555555555],[-110.57166666666666,39.64944444444444],[-110.67222222222223,39.632222222222225],[-110.67222222222223,39.632222222222225],[-110.67222222222223,39.632222222222225],[-111.04333333333334,39.56805555555556],[-111.2911111111111,39.52444444444444],[-111.2911111111111,39.52444444444444],[-111.40805555555556,39.50361111111111],[-111.40805555555556,39.50361111111111],[-111.5286111111111,39.481944444444444],[-111.65111111111112,39.46],[-111.7725,39.43805555555555],[-111.7725,39.43805555555555],[-111.7725,39.43805555555555],[-112.0175,39.393055555555556],[-112.26388888888889,39.347500000000004],[-112.26388888888889,39.347500000000004],[-112.38722222222223,39.324444444444445],[-112.51166666666667,39.301111111111105],[-112.51166666666667,39.301111111111105],[-112.99722222222222,39.19305555555555],[-112.99722222222222,39.19305555555555],[-112.99722222222222,39.19305555555555],[-113.35749999999999,39.11138888888889],[-113.35749999999999,39.11138888888889],[-113.59888888888888,39.05555555555555],[-113.59888888888888,39.05555555555555],[-113.72166666666666,39.02722222222222],[-113.96444444444445,38.970555555555556],[-113.96444444444445,38.970555555555556],[-113.96444444444445,38.970555555555556],[-114.56527777777778,38.82777777777778],[-114.68666666666667,38.79861111111111],[-114.68666666666667,38.79861111111111],[-114.68666666666667,38.79861111111111],[-114.90055555555556,38.74583333333334],[-114.90055555555556,38.74583333333334],[-115.02,38.717222222222226],[-115.13972222222223,38.687777777777775],[-115.13972222222223,38.687777777777775],[-115.72222222222223,38.54333333333333],[-115.72222222222223,38.54333333333333],[-115.97916666666667,38.54527777777778],[-115.97916666666667,38.54527777777778],[-116.06194444444444,38.61694444444444],[-116.06194444444444,38.61694444444444],[-116.16666666666667,38.706944444444446],[-116.18527777777778,38.723055555555554],[-116.26888888888888,38.794999999999995],[-116.26888888888888,38.794999999999995],[-116.26888888888888,38.794999999999995],[-116.38027777777778,38.8675],[-116.38027777777778,38.8675],[-116.4038888888889,38.86944444444445],[-116.49555555555555,38.84777777777778],[-116.62277777777777,38.79722222222222],[-116.71055555555556,38.761944444444445],[-116.71055555555556,38.761944444444445],[-116.72972222222222,38.75416666666667],[-116.72972222222222,38.75416666666667],[-117.12916666666666,38.58972222222222],[-117.12916666666666,38.58972222222222],[-117.12916666666666,38.58972222222222],[-117.43694444444445,38.46194444444445],[-117.47638888888889,38.445277777777775],[-117.47638888888889,38.445277777777775],[-117.53888888888889,38.419444444444444],[-117.53888888888889,38.419444444444444],[-117.74555555555555,38.3325],[-117.7863888888889,38.31527777777777],[-117.7863888888889,38.31527777777777],[-117.86972222222222,38.27972222222222],[-117.99416666666667,38.227222222222224],[-117.99416666666667,38.227222222222224],[-118.09777777777778,38.18333333333333],[-118.16333333333334,38.155],[-118.16333333333334,38.155],[-118.4038888888889,38.087500000000006],[-118.42777777777778,38.08305555555556],[-118.52194444444444,38.065555555555555],[-118.52194444444444,38.065555555555555],[-118.6375,38.04416666666666],[-118.6375,38.04416666666666],[-119.08916666666666,37.95861111111111],[-119.08916666666666,37.95861111111111],[-119.08916666666666,37.95861111111111],[-119.69277777777778,37.84166666666667],[-119.69277777777778,37.84166666666667],[-119.81083333333333,37.81861111111112],[-120.02583333333334,37.775555555555556],[-120.02583333333334,37.775555555555556],[-120.33277777777778,37.71361111111111],[-120.33277777777778,37.71361111111111],[-120.6,37.68333333333333],[-120.6,37.68333333333333],[-120.7,37.666666666666664],[-120.7,37.666666666666664],[-120.78333333333333,37.65],[-120.88333333333334,37.65],[-121.01666666666667,37.65],[-121.1,37.666666666666664],[-121.1,37.666666666666664],[-121.1,37.666666666666664],[-121.15722222222223,37.67027777777778],[-121.2,37.68333333333333],[-121.5,37.733333333333334],[-121.55749999999999,37.743611111111115],[-121.55749999999999,37.743611111111115],[-121.65333333333334,37.76138888888889],[-121.65333333333334,37.76138888888889],[-121.7,37.766666666666666],[-121.7,37.766666666666666],[-121.84222222222222,37.794999999999995],[-121.84222222222222,37.794999999999995],[-121.88333333333334,37.8],[-121.96666666666667,37.81666666666667],[-122.00944444444444,37.825],[-122.00944444444444,37.825],[-122.08805555555556,37.83888888888889],[-122.16250000000001,37.843333333333334],[-122.22361111111111,37.81666666666667],[-122.23333333333333,37.8],[-122.26666666666667,37.766666666666666],[-122.28999999999999,37.74305555555556],[-122.28999999999999,37.74305555555556],[-122.33333333333333,37.68333333333333],[-122.33583333333333,37.67472222222222],[-122.33583333333333,37.67472222222222],[-122.35916666666667,37.63944444444444],[-122.35916666666667,37.63944444444444]],"type":"LineString"}
}
