{
  "id": 2014880761,
  "type": "Feature",
  "properties": {
    "geom:area": 0,
    "geom:bbox": "-122.356170,37.492320,-121.256120,37.613010",
    "geom:latitude": 37.542660924559364,
    "geom:longitude": -121.81299247174303,
    "src:alt_label": "swim-approach",
    "src:geom": "swim",
    "swim:elevations": [
      5199,
      4962,
      4472,
      4277,
      3822,
      3568,
      3418,
      3250,
      3061,
      2832,
      2750,
      2500,
      2286,
      2037,
      2011,
      1848,
      1828,
      1829,
      1627,
      1401,
      1183,
      1166,
      914,
      688,
      522,
      450,
      369,
      185,
      9
    ],
    "swim:geom": "approach",
    "swim:timestamps": [
      1772022139,
      1772022161,
      1772022206,
      1772022225,
      1772022267,
      1772022292,
      1772022309,
      1772022354,
      1772022379,
      1772022412,
      1772022425,
      1772022469,
      1772022499,
      1772022534,
      1772022540,
      1772022570,
      1772022579,
      1772022609,
      1772022642,
      1772022666,
      1772022717,
      1772022720,
      1772022761,
      1772022806,
      1772022838,
      1772022858,
      1772022876,
      1772022919,
      1772022958
    ],
    "wof:geomhash": "2079c2cd0d0860c434e44c92711c5ba3",
    "wof:id": 2014880761,
    "wof:repo": "sfomuseum-data-flights-2026-02"
  },
  "bbox": [
    -122.35617,
    37.49232,
    -121.25612,
    37.61301
  ],
  "geometry": {"coordinates":[[-121.25612,37.59368],[-121.29378,37.58886],[-121.37427,37.58007],[-121.40688,37.57631],[-121.48133,37.56775],[-121.52544,37.56244],[-121.55498,37.55883],[-121.63129,37.54912],[-121.67246,37.53934],[-121.72304,37.5273],[-121.74264,37.5226],[-121.80566,37.50758],[-121.84936,37.49724],[-121.90037,37.49232],[-121.9098,37.493],[-121.95288,37.49545],[-121.96572,37.49606],[-122.00558,37.49818],[-122.04787,37.50061],[-122.07848,37.50258],[-122.13984,37.52197],[-122.14322,37.52345],[-122.18852,37.54266],[-122.23242,37.56105],[-122.26149,37.57338],[-122.27761,37.58009],[-122.29143,37.58591],[-122.32551,37.60026],[-122.35617,37.61301]],"type":"LineString"}
}
