{
  "id": 2014717317,
  "type": "Feature",
  "properties": {
    "geom:area": 0,
    "geom:bbox": "-122.358380,36.739130,-121.888290,37.611630",
    "geom:latitude": 37.21748332768578,
    "geom:longitude": -122.0732447828422,
    "src:alt_label": "swim-approach",
    "src:geom": "swim",
    "swim:elevations": [
      5049,
      4984,
      4727,
      4531,
      4366,
      4178,
      3915,
      3649,
      3404,
      3137,
      3076,
      2948,
      2662,
      2526,
      2328,
      2182,
      1862,
      1630,
      1586,
      1566,
      1585,
      1585,
      1361,
      1000,
      971,
      500,
      409,
      284,
      121,
      0
    ],
    "swim:geom": "approach",
    "swim:timestamps": [
      1770308728,
      1770308734,
      1770308763,
      1770308782,
      1770308801,
      1770308822,
      1770308852,
      1770308881,
      1770308911,
      1770308959,
      1770308983,
      1770309012,
      1770309058,
      1770309080,
      1770309108,
      1770309129,
      1770309172,
      1770309203,
      1770309215,
      1770309238,
      1770309265,
      1770309270,
      1770309303,
      1770309358,
      1770309362,
      1770309418,
      1770309435,
      1770309452,
      1770309495,
      1770309523
    ],
    "wof:geomhash": "13d298106c1397240063e411b9760085",
    "wof:id": 2014717317,
    "wof:repo": "sfomuseum-data-flights-2026-02"
  },
  "bbox": [
    -122.35838,
    36.73913,
    -121.88829,
    37.61163
  ],
  "geometry": {"coordinates":[[-121.88829,36.73913],[-121.89304,36.74831],[-121.90978,36.79817],[-121.91889,36.83014],[-121.92794,36.86246],[-121.93751,36.89656],[-121.95084,36.94466],[-121.96753,36.98941],[-121.98496,37.03477],[-122.01267,37.10445],[-122.02567,37.13784],[-122.0401,37.1747],[-122.06267,37.23179],[-122.07313,37.25903],[-122.08653,37.29401],[-122.09646,37.31908],[-122.11814,37.37287],[-122.1315,37.41219],[-122.13644,37.42697],[-122.1459,37.45363],[-122.15806,37.48116],[-122.15995,37.48544],[-122.18017,37.51227],[-122.21842,37.55231],[-122.22199,37.55442],[-122.27486,37.57659],[-122.29021,37.58254],[-122.30454,37.58865],[-122.33706,37.60266],[-122.35838,37.61163]],"type":"LineString"}
}
