{
  "id": 2014754315,
  "type": "Feature",
  "properties": {
    "geom:area": 0,
    "geom:bbox": "-123.491270,37.629490,-122.401000,37.691720",
    "geom:latitude": 37.67491148923285,
    "geom:longitude": -122.94373574201445,
    "src:alt_label": "swim-takeoff",
    "src:geom": "swim",
    "swim:elevations": [
      311,
      800,
      913,
      982,
      1075,
      1374,
      1601,
      1946,
      2199,
      2618,
      2832,
      3379,
      3486,
      3676,
      3988,
      4033,
      4497,
      4904,
      5324,
      5578,
      5759,
      6020,
      6146,
      6343
    ],
    "swim:geom": "takeoff",
    "swim:timestamps": [
      1770658457,
      1770658498,
      1770658517,
      1770658551,
      1770658563,
      1770658600,
      1770658623,
      1770658647,
      1770658669,
      1770658704,
      1770658720,
      1770658763,
      1770658773,
      1770658802,
      1770658827,
      1770658830,
      1770658868,
      1770658909,
      1770658943,
      1770658970,
      1770659006,
      1770659036,
      1770659054,
      1770659078
    ],
    "wof:geomhash": "93179ff701abbae886426c27f091f4d4",
    "wof:id": 2014754315,
    "wof:repo": "sfomuseum-data-flights-2026-02"
  },
  "bbox": [
    -123.49127,
    37.62949,
    -122.401,
    37.69172
  ],
  "geometry": {"coordinates":[[-122.401,37.62957],[-122.44141,37.64724],[-122.45956,37.65525],[-122.49412,37.67066],[-122.50957,37.6754],[-122.56371,37.67861],[-122.60135,37.68038],[-122.64027,37.68287],[-122.67744,37.68518],[-122.73853,37.68901],[-122.76686,37.69053],[-122.84263,37.69172],[-122.86128,37.69115],[-122.91631,37.68942],[-122.96517,37.68802],[-122.97118,37.68788],[-123.0497,37.6857],[-123.13324,37.68334],[-123.2047,37.68142],[-123.25937,37.67672],[-123.33575,37.66134],[-123.40018,37.64831],[-123.43983,37.64014],[-123.49127,37.62949]],"type":"LineString"}
}
