{
  "id": 2014859467,
  "type": "Feature",
  "properties": {
    "geom:area": 0,
    "geom:bbox": "-122.416667,37.635000,-104.833333,39.933333",
    "geom:latitude": 38.4203600434517,
    "geom:longitude": -113.5434015584481,
    "src:alt_label": "swim-path",
    "src:geom": "swim",
    "swim:altitudes": [
      "015",
      "015",
      "015",
      "110",
      "110",
      "110",
      "110",
      "137",
      "166",
      "166",
      "211",
      "211",
      "230",
      "230",
      "249",
      "249",
      "249",
      "279",
      "294",
      "294",
      "294",
      "317",
      "317",
      "317",
      "331",
      "341",
      "341",
      "341",
      "341",
      "355",
      "365",
      "365",
      "365",
      "365",
      "365",
      "370C",
      "370C",
      "370C",
      "370C",
      "370C",
      "370C",
      "370C",
      "370C",
      "370C",
      "370C",
      "370C",
      "370C",
      "370C",
      "370C",
      "370C",
      "370C",
      "370C",
      "370C",
      "370C",
      "370C",
      "370C",
      "370C",
      "370C",
      "370C",
      "370C",
      "370C",
      "370C",
      "370C",
      "370C",
      "370C",
      "370C",
      "370C",
      "370C",
      "370C",
      "370C",
      "370C",
      "370C",
      "370C",
      "370C",
      "370C",
      "370C",
      "370C",
      "370C",
      "370C",
      "370C",
      "370C",
      "370C",
      "370C",
      "370C",
      "370C",
      "370C",
      "370C",
      "370C",
      "370C",
      "370C",
      "370C",
      "370C",
      "370C",
      "370C",
      "370C",
      "370C",
      "370C",
      "370C",
      "370C",
      "370C",
      "370C",
      "370C",
      "370C",
      "370C",
      "370C",
      "370C",
      "370C",
      "370C",
      "370C",
      "370C",
      "370C",
      "370C",
      "370C",
      "370C",
      "370C",
      "370C",
      "370C",
      "370C",
      "370C",
      "370C",
      "370C",
      "370C",
      "370C",
      "370C",
      "370C",
      "370C",
      "370C",
      "370C",
      "370C",
      "370C",
      "370C",
      "370C",
      "370C",
      "370C",
      "370C",
      "370C",
      "370C",
      "370C",
      "370C",
      "370C",
      "370C",
      "370C",
      "370C",
      "370C",
      "361C",
      "361C",
      "361C",
      "361C",
      "278",
      "278",
      "278",
      "254",
      "254",
      "254",
      "254",
      "216",
      "205",
      "205",
      "205",
      "205",
      "178",
      "178",
      "165",
      "165",
      "165",
      "165",
      "111",
      "111",
      "107",
      "107",
      "107"
    ],
    "swim:geom": "path",
    "swim:speeds": [
      160,
      160,
      160,
      334,
      334,
      334,
      334,
      367,
      379,
      379,
      418,
      418,
      429,
      429,
      445,
      445,
      445,
      476,
      491,
      491,
      491,
      512,
      512,
      510,
      517,
      517,
      517,
      517,
      517,
      517,
      507,
      507,
      508,
      508,
      508,
      500,
      500,
      500,
      504,
      504,
      504,
      506,
      506,
      505,
      505,
      508,
      509,
      509,
      510,
      510,
      510,
      510,
      510,
      510,
      510,
      510,
      510,
      510,
      510,
      510,
      512,
      512,
      513,
      517,
      517,
      517,
      517,
      516,
      516,
      516,
      516,
      516,
      516,
      515,
      515,
      516,
      515,
      515,
      515,
      515,
      515,
      515,
      514,
      514,
      514,
      514,
      514,
      514,
      514,
      513,
      513,
      511,
      511,
      511,
      511,
      510,
      510,
      511,
      511,
      512,
      512,
      512,
      512,
      512,
      512,
      511,
      511,
      514,
      514,
      511,
      512,
      512,
      511,
      511,
      511,
      511,
      511,
      511,
      499,
      499,
      499,
      502,
      502,
      504,
      504,
      504,
      504,
      498,
      495,
      495,
      495,
      492,
      492,
      492,
      492,
      492,
      492,
      493,
      495,
      495,
      496,
      498,
      498,
      498,
      497,
      497,
      497,
      497,
      472,
      472,
      472,
      449,
      449,
      449,
      449,
      420,
      397,
      397,
      397,
      397,
      327,
      327,
      292,
      292,
      292,
      292,
      228,
      228,
      213,
      213,
      213
    ],
    "swim:timestamps": [
      1771780285,
      1771780285,
      1771780285,
      1771780525,
      1771780525,
      1771780525,
      1771780525,
      1771780585,
      1771780645,
      1771780645,
      1771780765,
      1771780765,
      1771780825,
      1771780825,
      1771780886,
      1771780886,
      1771780886,
      1771781006,
      1771781066,
      1771781066,
      1771781066,
      1771781186,
      1771781186,
      1771781199,
      1771781259,
      1771781319,
      1771781319,
      1771781319,
      1771781319,
      1771781380,
      1771781426,
      1771781426,
      1771781440,
      1771781440,
      1771781440,
      1771781620,
      1771781620,
      1771781620,
      1771781666,
      1771781680,
      1771781727,
      1771781740,
      1771781740,
      1771781787,
      1771781787,
      1771781847,
      1771781907,
      1771781907,
      1771781920,
      1771781920,
      1771781967,
      1771781967,
      1771782027,
      1771782040,
      1771782040,
      1771782087,
      1771782087,
      1771782100,
      1771782147,
      1771782147,
      1771782207,
      1771782207,
      1771782221,
      1771782341,
      1771782401,
      1771782401,
      1771782401,
      1771782507,
      1771782507,
      1771782507,
      1771782628,
      1771782628,
      1771782628,
      1771782688,
      1771782688,
      1771782701,
      1771782748,
      1771782748,
      1771782761,
      1771782761,
      1771782761,
      1771783002,
      1771783062,
      1771783062,
      1771783062,
      1771783122,
      1771783182,
      1771783182,
      1771783182,
      1771783302,
      1771783302,
      1771783362,
      1771783362,
      1771783422,
      1771783422,
      1771783482,
      1771783482,
      1771783542,
      1771783602,
      1771783663,
      1771783663,
      1771783723,
      1771783723,
      1771783723,
      1771783723,
      1771784083,
      1771784083,
      1771784137,
      1771784137,
      1771784143,
      1771784257,
      1771784257,
      1771784318,
      1771784318,
      1771784318,
      1771784504,
      1771784558,
      1771784564,
      1771784684,
      1771784684,
      1771784684,
      1771784864,
      1771784864,
      1771784918,
      1771784918,
      1771784918,
      1771784918,
      1771785039,
      1771785159,
      1771785159,
      1771785159,
      1771785219,
      1771785225,
      1771785339,
      1771785339,
      1771785339,
      1771785339,
      1771785459,
      1771785519,
      1771785519,
      1771785579,
      1771785639,
      1771785639,
      1771785639,
      1771785759,
      1771785759,
      1771785759,
      1771785759,
      1771786180,
      1771786180,
      1771786180,
      1771786307,
      1771786307,
      1771786307,
      1771786307,
      1771786427,
      1771786480,
      1771786480,
      1771786480,
      1771786480,
      1771786608,
      1771786608,
      1771786721,
      1771786721,
      1771786721,
      1771786721,
      1771787081,
      1771787081,
      1771787137,
      1771787137,
      1771787137
    ],
    "wof:geomhash": "041be6b8ab6d2ebd3f8c5c8c24c0f506",
    "wof:id": 2014859467,
    "wof:repo": "sfomuseum-data-flights-2026-02"
  },
  "bbox": [
    -122.41666666666667,
    37.635,
    -104.83333333333333,
    39.93333333333333
  ],
  "geometry": {"coordinates":[[-122.4088888888889,37.635],[-122.4088888888889,37.635],[-122.4088888888889,37.635],[-122.41666666666667,37.83222222222223],[-122.41666666666667,37.83222222222223],[-122.41666666666667,37.83222222222223],[-122.41666666666667,37.83222222222223],[-122.2911111111111,37.84916666666667],[-122.16083333333334,37.86527777777778],[-122.16083333333334,37.86527777777778],[-121.87722222222222,37.9],[-121.87722222222222,37.9],[-121.7475,37.91555555555556],[-121.7475,37.91555555555556],[-121.59138888888889,37.93416666666666],[-121.59138888888889,37.93416666666666],[-121.59138888888889,37.93416666666666],[-121.26944444444445,37.97166666666667],[-121.06583333333333,37.99527777777778],[-121.06583333333333,37.99527777777778],[-121.06583333333333,37.99527777777778],[-120.71638888888889,38.050555555555555],[-120.71638888888889,38.050555555555555],[-120.71055555555556,38.05],[-120.53083333333333,38.07638888888889],[-120.35333333333332,38.103611111111114],[-120.35333333333332,38.103611111111114],[-120.35333333333332,38.103611111111114],[-120.35333333333332,38.103611111111114],[-120.17555555555556,38.13027777777778],[-120.00861111111111,38.156388888888884],[-120.00861111111111,38.156388888888884],[-120.00194444444445,38.155277777777776],[-120.00194444444445,38.155277777777776],[-120.00194444444445,38.155277777777776],[-119.44916666666667,38.236111111111114],[-119.44916666666667,38.236111111111114],[-119.44916666666667,38.236111111111114],[-119.30916666666667,38.25611111111111],[-119.27305555555556,38.25972222222222],[-119.1325,38.28055555555555],[-119.09777777777778,38.28444444444444],[-119.09777777777778,38.28444444444444],[-118.95777777777778,38.30472222222222],[-118.95777777777778,38.30472222222222],[-118.78111111111112,38.32888888888889],[-118.60555555555555,38.352222222222224],[-118.60555555555555,38.352222222222224],[-118.56166666666667,38.35805555555556],[-118.56166666666667,38.35805555555556],[-118.42694444444444,38.37583333333333],[-118.42694444444444,38.37583333333333],[-118.25111111111111,38.39888888888889],[-118.235,38.401111111111106],[-118.235,38.401111111111106],[-118.0736111111111,38.42194444444444],[-118.0736111111111,38.42194444444444],[-118.05444444444444,38.42444444444444],[-117.90777777777778,38.44333333333333],[-117.90777777777778,38.44333333333333],[-117.7275,38.46611111111111],[-117.7275,38.46611111111111],[-117.69277777777778,38.47027777777778],[-117.32666666666667,38.515],[-117.14,38.516666666666666],[-117.14,38.516666666666666],[-117.14,38.516666666666666],[-116.80555555555556,38.50833333333333],[-116.80555555555556,38.50833333333333],[-116.80555555555556,38.50833333333333],[-116.43694444444445,38.49777777777778],[-116.43694444444445,38.49777777777778],[-116.43694444444445,38.49777777777778],[-116.25444444444445,38.492222222222225],[-116.25444444444445,38.492222222222225],[-116.22055555555556,38.49111111111111],[-116.07249999999999,38.486111111111114],[-116.07249999999999,38.486111111111114],[-116.03583333333333,38.485],[-116.03583333333333,38.485],[-116.03583333333333,38.485],[-115.30638888888889,38.45805555555556],[-115.12583333333333,38.450833333333335],[-115.12583333333333,38.450833333333335],[-115.12583333333333,38.450833333333335],[-114.94444444444444,38.44305555555555],[-114.76361111111112,38.434999999999995],[-114.76361111111112,38.434999999999995],[-114.76361111111112,38.434999999999995],[-114.40111111111112,38.41833333333333],[-114.40111111111112,38.41833333333333],[-114.21944444444445,38.40972222222222],[-114.21944444444445,38.40972222222222],[-114.03972222222222,38.400555555555556],[-114.03972222222222,38.400555555555556],[-113.86083333333333,38.39138888888889],[-113.86083333333333,38.39138888888889],[-113.67861111111111,38.38166666666667],[-113.49861111111112,38.371944444444445],[-113.31611111111111,38.361666666666665],[-113.31611111111111,38.361666666666665],[-113.13555555555556,38.35111111111111],[-113.13555555555556,38.35111111111111],[-113.13555555555556,38.35111111111111],[-113.13555555555556,38.35111111111111],[-112.05027777777778,38.282222222222224],[-112.05027777777778,38.282222222222224],[-111.90666666666667,38.2725],[-111.90666666666667,38.2725],[-111.87027777777777,38.269999999999996],[-111.54805555555555,38.24722222222222],[-111.54805555555555,38.24722222222222],[-111.36638888888888,38.23388888888889],[-111.36638888888888,38.23388888888889],[-111.36638888888888,38.23388888888889],[-110.80749999999999,38.191111111111105],[-110.62777777777777,38.176944444444445],[-110.62777777777777,38.176944444444445],[-110.28388888888888,38.12],[-110.28388888888888,38.12],[-110.28388888888888,38.12],[-109.77055555555556,38.014722222222225],[-109.77055555555556,38.014722222222225],[-109.60777777777777,37.98111111111111],[-109.60777777777777,37.98111111111111],[-109.60777777777777,37.98111111111111],[-109.60777777777777,37.98111111111111],[-109.26805555555555,38.00694444444444],[-108.93861111111111,38.10055555555556],[-108.93861111111111,38.10055555555556],[-108.93861111111111,38.10055555555556],[-108.78277777777778,38.16166666666666],[-108.78277777777778,38.16166666666666],[-108.4725,38.282777777777774],[-108.4725,38.282777777777774],[-108.4725,38.282777777777774],[-108.4725,38.282777777777774],[-108.16333333333334,38.40222222222222],[-108.00416666666666,38.46333333333334],[-108.00416666666666,38.46333333333334],[-107.84527777777777,38.52361111111111],[-107.6863888888889,38.58305555555556],[-107.6863888888889,38.58305555555556],[-107.6863888888889,38.58305555555556],[-107.36972222222222,38.70194444444445],[-107.36972222222222,38.70194444444445],[-107.36972222222222,38.70194444444445],[-107.36972222222222,38.70194444444445],[-106.27777777777777,39.1075],[-106.27777777777777,39.1075],[-106.27777777777777,39.1075],[-105.93333333333334,39.233333333333334],[-105.93333333333334,39.233333333333334],[-105.93333333333334,39.233333333333334],[-105.93333333333334,39.233333333333334],[-105.66666666666667,39.333333333333336],[-105.55055555555555,39.36972222222222],[-105.55055555555555,39.36972222222222],[-105.55055555555555,39.36972222222222],[-105.55055555555555,39.36972222222222],[-105.31666666666666,39.483333333333334],[-105.31666666666666,39.483333333333334],[-105.14694444444446,39.565555555555555],[-105.14694444444446,39.565555555555555],[-105.14694444444446,39.565555555555555],[-105.14694444444446,39.565555555555555],[-104.83944444444444,39.882777777777775],[-104.83944444444444,39.882777777777775],[-104.83333333333333,39.93333333333333],[-104.83333333333333,39.93333333333333],[-104.83333333333333,39.93333333333333]],"type":"LineString"}
}
