{
  "id": 2014780775,
  "type": "Feature",
  "properties": {
    "geom:area": 0,
    "geom:bbox": "-122.756870,37.346350,-122.102840,38.478890",
    "geom:latitude": 37.8120020900593,
    "geom:longitude": -122.45690441684944,
    "src:alt_label": "swim-approach",
    "src:geom": "swim",
    "swim:elevations": [
      7108,
      7099,
      7009,
      6781,
      6493,
      6298,
      6165,
      5801,
      5506,
      5455,
      5012,
      4777,
      4451,
      4193,
      3931,
      3751,
      3488,
      3452,
      3402,
      3353,
      3353,
      3353,
      3353,
      3353,
      3353,
      3353,
      3127,
      2889,
      2769,
      2400,
      2199,
      1948,
      1671,
      1473,
      1371,
      1219,
      1219,
      1219,
      1036,
      942,
      890,
      777,
      610,
      398,
      335,
      236,
      84,
      456
    ],
    "swim:geom": "approach",
    "swim:timestamps": [
      1770983359,
      1770983363,
      1770983380,
      1770983423,
      1770983482,
      1770983509,
      1770983525,
      1770983568,
      1770983601,
      1770983611,
      1770983662,
      1770983687,
      1770983725,
      1770983754,
      1770983786,
      1770983807,
      1770983840,
      1770983844,
      1770983860,
      1770983899,
      1770983915,
      1770983967,
      1770983988,
      1770984025,
      1770984041,
      1770984068,
      1770984105,
      1770984140,
      1770984156,
      1770984201,
      1770984232,
      1770984260,
      1770984297,
      1770984320,
      1770984332,
      1770984382,
      1770984397,
      1770984429,
      1770984471,
      1770984507,
      1770984519,
      1770984541,
      1770984577,
      1770984624,
      1770984642,
      1770984665,
      1770984704,
      1770984728
    ],
    "wof:geomhash": "704643c67916b2025a32e450fa7b1dc2",
    "wof:id": 2014780775,
    "wof:repo": "sfomuseum-data-flights-2026-02"
  },
  "bbox": [
    -122.75687,
    37.34635,
    -122.10284,
    38.47889
  ],
  "geometry": {"coordinates":[[-122.50608,38.47889],[-122.51174,38.47344],[-122.53564,38.45028],[-122.59543,38.39215],[-122.67564,38.31426],[-122.71172,38.27898],[-122.73281,38.25831],[-122.75687,38.19115],[-122.74192,38.13647],[-122.73716,38.11938],[-122.71201,38.03241],[-122.69964,37.99075],[-122.68124,37.92839],[-122.65709,37.88551],[-122.61662,37.84632],[-122.58884,37.81975],[-122.54763,37.78076],[-122.54268,37.77607],[-122.52366,37.75803],[-122.4779,37.71501],[-122.46089,37.69912],[-122.40918,37.65024],[-122.3877,37.62996],[-122.35366,37.59459],[-122.34193,37.57585],[-122.32826,37.54532],[-122.30433,37.50303],[-122.28053,37.46377],[-122.26991,37.44633],[-122.24057,37.39874],[-122.22072,37.36634],[-122.19267,37.34635],[-122.15728,37.36798],[-122.14562,37.38905],[-122.13893,37.40092],[-122.11138,37.44652],[-122.10284,37.46021],[-122.10745,37.48866],[-122.13952,37.51862],[-122.17491,37.5346],[-122.18635,37.53936],[-122.20832,37.54871],[-122.24306,37.56329],[-122.28342,37.58024],[-122.29698,37.58596],[-122.31527,37.59366],[-122.34446,37.6059],[-122.36304,37.61282]],"type":"LineString"}
}
