{
  "id": 2014793887,
  "type": "Feature",
  "properties": {
    "geom:area": 0,
    "geom:bbox": "-123.332560,37.627580,-122.396170,38.511360",
    "geom:latitude": 38.02774229598027,
    "geom:longitude": -122.89789882940882,
    "src:alt_label": "swim-takeoff",
    "src:geom": "swim",
    "swim:elevations": [
      152,
      274,
      514,
      574,
      780,
      1031,
      1274,
      1586,
      1710,
      2213,
      2695,
      3021,
      3146,
      3362,
      3640,
      3868,
      4082,
      4251,
      4532,
      4725,
      5032,
      5431,
      5670,
      5750,
      6104,
      6279,
      6370,
      6553
    ],
    "swim:geom": "takeoff",
    "swim:timestamps": [
      1771115757,
      1771115765,
      1771115785,
      1771115791,
      1771115818,
      1771115845,
      1771115887,
      1771115929,
      1771115941,
      1771115986,
      1771116028,
      1771116052,
      1771116063,
      1771116102,
      1771116147,
      1771116174,
      1771116192,
      1771116208,
      1771116232,
      1771116258,
      1771116285,
      1771116327,
      1771116357,
      1771116369,
      1771116414,
      1771116445,
      1771116457,
      1771116481
    ],
    "wof:geomhash": "219dd101a026e1b7b0149e737680e262",
    "wof:id": 2014793887,
    "wof:repo": "sfomuseum-data-flights-2026-02"
  },
  "bbox": [
    -123.33256,
    37.62758,
    -122.39617,
    38.51136
  ],
  "geometry": {"coordinates":[[-122.39617,37.62758],[-122.40428,37.63103],[-122.42471,37.64014],[-122.43104,37.64304],[-122.46041,37.65576],[-122.48988,37.66861],[-122.53782,37.69458],[-122.59071,37.72606],[-122.60701,37.73555],[-122.67001,37.77275],[-122.7321,37.80914],[-122.76394,37.8331],[-122.77588,37.84621],[-122.81764,37.89717],[-122.87187,37.9625],[-122.90639,38.00359],[-122.92938,38.03125],[-122.94991,38.05602],[-122.98136,38.09373],[-123.01629,38.13536],[-123.05302,38.17888],[-123.10982,38.24719],[-123.15178,38.29729],[-123.16878,38.31738],[-123.23287,38.39293],[-123.27881,38.44708],[-123.29656,38.46861],[-123.33256,38.51136]],"type":"LineString"}
}
