{
  "id": 2014752867,
  "type": "Feature",
  "properties": {
    "geom:area": 0,
    "geom:bbox": "-122.363880,37.631640,-121.259000,38.417430",
    "geom:latitude": 38.02309288210547,
    "geom:longitude": -121.81069772724732,
    "src:alt_label": "swim-takeoff",
    "src:geom": "swim",
    "swim:elevations": [
      255,
      538,
      772,
      954,
      1400,
      1948,
      2148,
      2252,
      2511,
      3001,
      3169,
      3278,
      3385,
      3621,
      4022,
      4319,
      4519,
      4758,
      4870,
      5020,
      5134,
      5222,
      5305,
      5697,
      5718,
      6015,
      6232,
      6442,
      6625
    ],
    "swim:geom": "takeoff",
    "swim:timestamps": [
      1770639706,
      1770639729,
      1770639762,
      1770639788,
      1770639825,
      1770639863,
      1770639882,
      1770639892,
      1770639911,
      1770639953,
      1770639977,
      1770640005,
      1770640029,
      1770640057,
      1770640093,
      1770640133,
      1770640157,
      1770640181,
      1770640193,
      1770640210,
      1770640226,
      1770640243,
      1770640262,
      1770640317,
      1770640320,
      1770640367,
      1770640404,
      1770640438,
      1770640464
    ],
    "wof:geomhash": "e74cddd6745795617eea67e640df4b36",
    "wof:id": 2014752867,
    "wof:repo": "sfomuseum-data-flights-2026-02"
  },
  "bbox": [
    -122.36388,
    37.63164,
    -121.259,
    38.41743
  ],
  "geometry": {"coordinates":[[-122.36388,37.63164],[-122.34735,37.64419],[-122.31749,37.66125],[-122.29024,37.67713],[-122.24727,37.7005],[-122.20342,37.72722],[-122.18352,37.74226],[-122.17187,37.75102],[-122.15167,37.76626],[-122.10377,37.80239],[-122.07607,37.8234],[-122.04023,37.85058],[-122.0067,37.87601],[-121.96653,37.9062],[-121.91425,37.9457],[-121.85232,37.99231],[-121.81455,38.02057],[-121.77531,38.04985],[-121.7562,38.06405],[-121.72816,38.08504],[-121.70301,38.10385],[-121.67433,38.12518],[-121.64123,38.14988],[-121.54379,38.22233],[-121.53801,38.2266],[-121.45413,38.28885],[-121.38279,38.34057],[-121.3141,38.38324],[-121.259,38.41743]],"type":"LineString"}
}
