{
  "id": 2014852557,
  "type": "Feature",
  "properties": {
    "geom:area": 0,
    "geom:bbox": "-122.359030,37.264660,-121.250680,37.611920",
    "geom:latitude": 37.41487386584098,
    "geom:longitude": -121.81580605645428,
    "src:alt_label": "swim-takeoff",
    "src:geom": "swim",
    "swim:elevations": [
      122,
      404,
      524,
      677,
      1030,
      1279,
      1508,
      1953,
      2113,
      2320,
      2618,
      3035,
      3400,
      3882,
      3913,
      4133,
      4267,
      4618,
      5221,
      5446,
      5892,
      6120,
      6457,
      6763,
      7042,
      7347
    ],
    "swim:geom": "takeoff",
    "swim:timestamps": [
      1771665026,
      1771665044,
      1771665053,
      1771665067,
      1771665093,
      1771665124,
      1771665144,
      1771665171,
      1771665183,
      1771665197,
      1771665217,
      1771665245,
      1771665280,
      1771665328,
      1771665332,
      1771665352,
      1771665364,
      1771665390,
      1771665440,
      1771665461,
      1771665503,
      1771665523,
      1771665551,
      1771665583,
      1771665617,
      1771665655
    ],
    "wof:geomhash": "80501fa5bb09b770e40b9db1a326f360",
    "wof:id": 2014852557,
    "wof:repo": "sfomuseum-data-flights-2026-02"
  },
  "bbox": [
    -122.35903,
    37.26466,
    -121.25068,
    37.61192
  ],
  "geometry": {"coordinates":[[-122.35903,37.61192],[-122.34431,37.60331],[-122.33805,37.59827],[-122.32792,37.59047],[-122.30854,37.57637],[-122.28146,37.55778],[-122.26058,37.54276],[-122.23287,37.52208],[-122.21887,37.51355],[-122.19881,37.50688],[-122.16868,37.49992],[-122.12509,37.48919],[-122.06725,37.4743],[-121.97818,37.45193],[-121.97156,37.45025],[-121.93038,37.44011],[-121.90722,37.4344],[-121.85349,37.42043],[-121.74693,37.39271],[-121.70207,37.38153],[-121.60844,37.35754],[-121.56279,37.3457],[-121.49908,37.32942],[-121.42566,37.3105],[-121.34524,37.28946],[-121.25068,37.26466]],"type":"LineString"}
}
