{
  "id": 2014868689,
  "type": "Feature",
  "properties": {
    "geom:area": 0,
    "geom:bbox": "-122.400000,28.274722,-81.326111,38.683333",
    "geom:latitude": 36.11744147015468,
    "geom:longitude": -100.88288693168788,
    "src:alt_label": "swim-path",
    "src:geom": "swim",
    "swim:altitudes": [
      "006",
      "044",
      "044",
      "069",
      "069",
      "104",
      "126",
      "150",
      "184",
      "184",
      "203",
      "203",
      "237",
      "237",
      "266",
      "266",
      "266",
      "278",
      "297",
      "306",
      "318",
      "318",
      "348",
      "350",
      "350",
      "350",
      "350",
      "350",
      "356",
      "356",
      "370C",
      "370C",
      "370C",
      "370C",
      "370C",
      "370C",
      "370C",
      "370C",
      "370C",
      "370C",
      "370C",
      "370C",
      "370C",
      "370C",
      "370C",
      "370C",
      "370C",
      "370C",
      "370C",
      "370C",
      "370C",
      "370C",
      "370C",
      "370C",
      "370C",
      "370C",
      "370C",
      "370C",
      "370C",
      "370C",
      "370C",
      "370C",
      "370C",
      "370C",
      "370C",
      "370C",
      "370C",
      "370C",
      "370C",
      "370C",
      "370C",
      "370C",
      "370C",
      "370C",
      "370C",
      "370C",
      "370C",
      "370C",
      "370C",
      "370C",
      "370C",
      "370C",
      "370C",
      "370C",
      "370C",
      "370C",
      "370C",
      "370C",
      "370C",
      "370C",
      "370C",
      "370C",
      "370C",
      "370C",
      "370C",
      "370C",
      "370C",
      "370C",
      "370C",
      "370C",
      "370C",
      "370C",
      "370C",
      "370C",
      "370C",
      "370C",
      "370C",
      "370C",
      "370C",
      "370C",
      "370C",
      "370C",
      "370C",
      "370C",
      "370C",
      "370C",
      "370C",
      "370C",
      "370C",
      "370C",
      "370C",
      "370C",
      "370C",
      "370C",
      "370C",
      "370C",
      "370C",
      "370C",
      "370C",
      "370C",
      "370C",
      "370C",
      "370C",
      "370C",
      "370C",
      "370C",
      "370C",
      "370C",
      "370C",
      "370C",
      "353",
      "336",
      "326",
      "305",
      "305",
      "296",
      "290C",
      "290C",
      "290C",
      "290",
      "290",
      "290",
      "290",
      "290",
      "290",
      "290",
      "231",
      "217",
      "207",
      "184",
      "172",
      "148",
      "137",
      "130",
      "119",
      "105",
      "097",
      "094",
      "084",
      "077",
      "077",
      "073",
      "052",
      "050",
      "035",
      "023",
      "016",
      "015",
      "015",
      "015",
      "002"
    ],
    "swim:geom": "path",
    "swim:speeds": [
      175,
      249,
      249,
      283,
      283,
      285,
      348,
      371,
      412,
      412,
      426,
      426,
      447,
      447,
      472,
      472,
      472,
      485,
      510,
      519,
      527,
      527,
      537,
      538,
      534,
      534,
      534,
      534,
      533,
      533,
      530,
      530,
      528,
      528,
      528,
      529,
      531,
      532,
      533,
      533,
      534,
      534,
      534,
      531,
      530,
      530,
      531,
      531,
      532,
      532,
      533,
      534,
      533,
      532,
      528,
      528,
      534,
      532,
      529,
      522,
      488,
      473,
      474,
      478,
      480,
      488,
      488,
      488,
      489,
      488,
      488,
      492,
      492,
      493,
      494,
      494,
      492,
      492,
      493,
      493,
      494,
      495,
      495,
      496,
      496,
      497,
      498,
      503,
      503,
      503,
      504,
      503,
      503,
      503,
      503,
      502,
      501,
      501,
      500,
      500,
      500,
      501,
      501,
      502,
      500,
      501,
      501,
      502,
      501,
      501,
      502,
      501,
      501,
      501,
      501,
      502,
      503,
      505,
      505,
      505,
      505,
      505,
      504,
      506,
      512,
      512,
      512,
      511,
      511,
      511,
      511,
      513,
      514,
      513,
      533,
      538,
      533,
      526,
      527,
      527,
      528,
      522,
      517,
      538,
      538,
      534,
      534,
      533,
      532,
      533,
      535,
      536,
      537,
      537,
      526,
      526,
      494,
      489,
      490,
      472,
      452,
      402,
      380,
      384,
      376,
      336,
      316,
      316,
      291,
      274,
      274,
      276,
      246,
      246,
      238,
      188,
      162,
      156,
      159,
      159,
      134
    ],
    "swim:timestamps": [
      1771916779,
      1771916895,
      1771916895,
      1771916955,
      1771916955,
      1771917015,
      1771917075,
      1771917135,
      1771917255,
      1771917255,
      1771917315,
      1771917315,
      1771917435,
      1771917435,
      1771917556,
      1771917556,
      1771917556,
      1771917616,
      1771917736,
      1771917796,
      1771917865,
      1771917865,
      1771918046,
      1771918166,
      1771918226,
      1771918226,
      1771918226,
      1771918346,
      1771918406,
      1771918406,
      1771918526,
      1771918526,
      1771918696,
      1771918706,
      1771918816,
      1771918876,
      1771918936,
      1771918946,
      1771918996,
      1771919056,
      1771919126,
      1771919186,
      1771919246,
      1771919366,
      1771919426,
      1771919486,
      1771919546,
      1771919546,
      1771919606,
      1771919606,
      1771919666,
      1771919726,
      1771919966,
      1771920086,
      1771920622,
      1771920742,
      1771920922,
      1771921222,
      1771921402,
      1771921582,
      1771922243,
      1771922783,
      1771922843,
      1771922903,
      1771922963,
      1771922980,
      1771922980,
      1771922980,
      1771923083,
      1771923103,
      1771923160,
      1771923203,
      1771923223,
      1771923283,
      1771923323,
      1771923383,
      1771923563,
      1771923623,
      1771923743,
      1771923743,
      1771923803,
      1771923880,
      1771923923,
      1771923983,
      1771924003,
      1771924043,
      1771924063,
      1771924303,
      1771924303,
      1771924361,
      1771924421,
      1771924601,
      1771924601,
      1771924661,
      1771924661,
      1771924783,
      1771924844,
      1771924844,
      1771924901,
      1771924963,
      1771925024,
      1771925201,
      1771925261,
      1771925322,
      1771925502,
      1771925683,
      1771925743,
      1771925804,
      1771925863,
      1771925863,
      1771925922,
      1771925983,
      1771925983,
      1771926103,
      1771926162,
      1771926222,
      1771926283,
      1771926403,
      1771926462,
      1771926462,
      1771926583,
      1771926643,
      1771926763,
      1771926943,
      1771927184,
      1771927364,
      1771927364,
      1771927424,
      1771927484,
      1771927544,
      1771927544,
      1771927724,
      1771927784,
      1771927807,
      1771928204,
      1771928467,
      1771928805,
      1771929374,
      1771929434,
      1771930035,
      1771930575,
      1771930688,
      1771930748,
      1771930875,
      1771930875,
      1771930935,
      1771930995,
      1771931055,
      1771931115,
      1771931175,
      1771931356,
      1771931416,
      1771931536,
      1771931596,
      1771931668,
      1771931668,
      1771931848,
      1771931882,
      1771931908,
      1771931968,
      1771932008,
      1771932088,
      1771932128,
      1771932148,
      1771932188,
      1771932268,
      1771932308,
      1771932328,
      1771932388,
      1771932428,
      1771932428,
      1771932448,
      1771932554,
      1771932569,
      1771932629,
      1771932689,
      1771932749,
      1771932788,
      1771932809,
      1771932809,
      1771932929
    ],
    "wof:geomhash": "8f08f5481229be6a40707878ef7f4700",
    "wof:id": 2014868689,
    "wof:repo": "sfomuseum-data-flights-2026-02"
  },
  "bbox": [
    -122.4,
    28.27472222222222,
    -81.3261111111111,
    38.68333333333333
  ],
  "geometry": {"coordinates":[[-122.4,37.63333333333333],[-122.3461111111111,37.715],[-122.3461111111111,37.715],[-122.35916666666667,37.78972222222222],[-122.35916666666667,37.78972222222222],[-122.38666666666667,37.865833333333335],[-122.3425,37.94638888888888],[-122.21777777777778,37.973888888888894],[-121.93777777777778,37.99],[-121.93777777777778,37.99],[-121.78888888888889,37.99027777777778],[-121.78888888888889,37.99027777777778],[-121.4775,37.99111111111111],[-121.4775,37.99111111111111],[-121.15194444444445,37.99138888888889],[-121.15194444444445,37.99138888888889],[-121.15194444444445,37.99138888888889],[-120.98305555555555,38.01],[-120.63666666666667,38.06305555555555],[-120.45916666666668,38.08972222222222],[-120.2625,38.1175],[-120.2625,38.1175],[-119.7075,38.19888888888889],[-119.335,38.25083333333333],[-119.15138888888889,38.277499999999996],[-119.15138888888889,38.277499999999996],[-119.15138888888889,38.277499999999996],[-118.74444444444444,38.33305555555556],[-118.56055555555555,38.358333333333334],[-118.56055555555555,38.358333333333334],[-118.20527777777778,38.405],[-118.20527777777778,38.405],[-117.68416666666667,38.47138888888889],[-117.64833333333334,38.475833333333334],[-117.31,38.51777777777777],[-117.11999999999999,38.52916666666667],[-116.93083333333334,38.538888888888884],[-116.89250000000001,38.54055555555556],[-116.74,38.54805555555556],[-116.54861111111111,38.55722222222222],[-116.32083333333333,38.5675],[-116.13111111111111,38.57611111111112],[-115.94333333333334,38.58388888888889],[-115.5675,38.598888888888894],[-115.37944444444443,38.60583333333334],[-115.19638888888889,38.61222222222222],[-115.00694444444444,38.61888888888889],[-115.00694444444444,38.61888888888889],[-114.81722222222221,38.625],[-114.81722222222221,38.625],[-114.62833333333333,38.630833333333335],[-114.43944444444445,38.63666666666666],[-113.68166666666667,38.65555555555555],[-113.30333333333333,38.663333333333334],[-111.63861111111112,38.6825],[-111.26277777777777,38.68333333333333],[-110.70583333333333,38.68277777777777],[-109.76583333333333,38.661944444444444],[-109.20861111111111,38.605555555555554],[-108.62555555555555,38.54361111111111],[-106.70083333333334,38.31722222222223],[-105.23194444444445,38.1225],[-105.06638888888888,38.09916666666667],[-104.89861111111112,38.07555555555556],[-104.73027777777779,38.05138888888889],[-104.69083333333333,38.045833333333334],[-104.69083333333333,38.045833333333334],[-104.69083333333333,38.045833333333334],[-104.39194444444445,38.00222222222222],[-104.35277777777777,37.99611111111111],[-104.18277777777779,37.97083333333334],[-104.04833333333333,37.95111111111111],[-104.01194444444444,37.94499999999999],[-103.80888888888889,37.915],[-103.70305555555557,37.89861111111111],[-103.53166666666667,37.8725],[-103.02194444444444,37.79222222222222],[-102.85305555555556,37.765],[-102.51138888888889,37.709722222222226],[-102.51138888888889,37.709722222222226],[-102.35,37.683055555555555],[-102.115,37.64388888888889],[-102.01166666666667,37.62638888888889],[-101.84055555555555,37.597500000000004],[-101.77555555555556,37.58638888888889],[-101.67055555555557,37.568333333333335],[-101.60388888888889,37.55694444444444],[-100.92722222222223,37.43805555555555],[-100.92722222222223,37.43805555555555],[-100.75694444444444,37.4075],[-100.58916666666666,37.37694444444445],[-100.07666666666667,37.2825],[-100.07666666666667,37.2825],[-99.90694444444445,37.25055555555556],[-99.90694444444445,37.25055555555556],[-99.57055555555556,37.18666666666666],[-99.38666666666667,37.151666666666664],[-99.38666666666667,37.151666666666664],[-99.21666666666667,37.118611111111115],[-99.08111111111111,37.091944444444444],[-98.87583333333333,37.05138888888889],[-98.4,36.95611111111111],[-98.23194444444445,36.92194444444444],[-98.06361111111111,36.8875],[-97.56277777777777,36.78333333333333],[-97.03944444444444,36.67027777777778],[-96.87138888888889,36.635],[-96.70416666666667,36.59861111111111],[-96.53555555555555,36.559999999999995],[-96.53555555555555,36.559999999999995],[-96.37027777777777,36.525],[-96.20222222222222,36.48777777777778],[-96.20222222222222,36.48777777777778],[-95.87027777777777,36.41277777777778],[-95.70222222222222,36.374722222222225],[-95.53555555555555,36.336666666666666],[-95.37777777777777,36.30027777777777],[-95.04444444444444,36.22222222222222],[-94.87805555555555,36.183055555555555],[-94.87805555555555,36.183055555555555],[-94.54305555555555,36.10333333333333],[-94.37666666666667,36.06333333333333],[-94.06055555555555,35.98638888888889],[-93.53055555555555,35.85527777777778],[-92.88972222222223,35.69333333333333],[-92.38583333333334,35.56305555555555],[-92.38583333333334,35.56305555555555],[-92.2225,35.519999999999996],[-92.05638888888889,35.47638888888889],[-91.89027777777778,35.43222222222222],[-91.89027777777778,35.43222222222222],[-91.37305555555555,35.293055555555554],[-91.20555555555556,35.2475],[-91.14944444444446,35.230555555555554],[-90.05472222222222,34.90611111111111],[-89.44194444444445,34.496944444444445],[-88.66972222222223,33.96944444444445],[-87.36,33.13777777777778],[-87.2225,33.047777777777775],[-85.83027777777778,32.12916666666667],[-84.51305555555555,31.47472222222222],[-84.22916666666667,31.37666666666667],[-84.07472222222222,31.32111111111111],[-83.77527777777777,31.12527777777778],[-83.77527777777777,31.12527777777778],[-83.64555555555556,31.028333333333332],[-83.51611111111112,30.93166666666667],[-83.38555555555556,30.833888888888886],[-83.25694444444444,30.73777777777778],[-83.12638888888888,30.639444444444443],[-82.73722222222223,30.344444444444445],[-82.60666666666665,30.244722222222222],[-82.3461111111111,30.04527777777778],[-82.21916666666667,29.944166666666668],[-82.15361111111112,29.77861111111111],[-82.15361111111112,29.77861111111111],[-82.06805555555555,29.35388888888889],[-82.03333333333333,29.283333333333335],[-82.00888888888889,29.227777777777778],[-81.9375,29.111944444444447],[-81.88333333333334,29.05],[-81.75138888888888,28.938333333333333],[-81.68333333333334,28.9],[-81.65611111111112,28.87361111111111],[-81.58333333333333,28.833333333333332],[-81.50416666666666,28.732499999999998],[-81.46666666666667,28.683333333333334],[-81.4563888888889,28.653333333333332],[-81.42472222222223,28.575833333333332],[-81.41666666666667,28.516666666666666],[-81.41666666666667,28.516666666666666],[-81.42416666666666,28.50027777777778],[-81.41666666666667,28.366666666666667],[-81.42416666666666,28.35666666666667],[-81.42027777777778,28.291666666666668],[-81.36194444444443,28.27472222222222],[-81.33138888888888,28.30611111111111],[-81.33333333333333,28.333333333333332],[-81.3261111111111,28.348888888888887],[-81.3261111111111,28.348888888888887],[-81.32666666666667,28.414166666666667]],"type":"LineString"}
}
