{
  "id": 2014848527,
  "type": "Feature",
  "properties": {
    "geom:area": 0,
    "geom:bbox": "-122.369310,37.547560,-121.242480,37.868340",
    "geom:latitude": 37.72707019862903,
    "geom:longitude": -121.70985013365414,
    "src:alt_label": "swim-approach",
    "src:geom": "swim",
    "swim:elevations": [
      4123,
      4013,
      3866,
      3735,
      3663,
      3382,
      3159,
      3077,
      3048,
      3044,
      3048,
      3048,
      3048,
      3048,
      3048,
      3048,
      3066,
      3044,
      3048,
      3048,
      3048,
      3048,
      3048,
      2992,
      2762,
      2736,
      2519,
      2447,
      2295,
      2133,
      2134,
      2134,
      2134,
      2134,
      2134,
      2134,
      2134,
      2134,
      1865,
      1712,
      1531,
      1163,
      1119,
      912,
      916,
      934,
      872,
      779,
      526,
      458,
      302,
      212,
      65,
      21
    ],
    "swim:geom": "approach",
    "swim:timestamps": [
      1771666280,
      1771666300,
      1771666324,
      1771666341,
      1771666350,
      1771666393,
      1771666435,
      1771666448,
      1771666495,
      1771666520,
      1771666546,
      1771666571,
      1771666724,
      1771666765,
      1771666797,
      1771666800,
      1771666817,
      1771666833,
      1771666860,
      1771666912,
      1771666934,
      1771666959,
      1771666989,
      1771667023,
      1771667063,
      1771667071,
      1771667107,
      1771667123,
      1771667153,
      1771667189,
      1771667211,
      1771667220,
      1771667272,
      1771667284,
      1771667295,
      1771667333,
      1771667342,
      1771667372,
      1771667419,
      1771667432,
      1771667448,
      1771667484,
      1771667491,
      1771667544,
      1771667550,
      1771667559,
      1771667593,
      1771667614,
      1771667665,
      1771667688,
      1771667727,
      1771667751,
      1771667785,
      1771667794
    ],
    "wof:geomhash": "3d2910fd47d3dcb0fe97958c01bac631",
    "wof:id": 2014848527,
    "wof:repo": "sfomuseum-data-flights-2026-02"
  },
  "bbox": [
    -122.36931,
    37.54756,
    -121.24248,
    37.86834
  ],
  "geometry": {"coordinates":[[-121.24248,37.67039],[-121.26802,37.67648],[-121.29971,37.68401],[-121.32207,37.68882],[-121.33478,37.68818],[-121.36424,37.65341],[-121.37626,37.61203],[-121.3802,37.59876],[-121.37221,37.55479],[-121.33885,37.54756],[-121.30043,37.54842],[-121.2651,37.54931],[-121.25826,37.67491],[-121.31303,37.68835],[-121.35675,37.69882],[-121.36083,37.69979],[-121.38485,37.70543],[-121.40564,37.71033],[-121.44206,37.71905],[-121.51338,37.73565],[-121.54413,37.74105],[-121.5784,37.74736],[-121.61936,37.75478],[-121.66526,37.76311],[-121.72132,37.77332],[-121.73227,37.77526],[-121.78202,37.78424],[-121.80249,37.78782],[-121.84403,37.79546],[-121.8931,37.80424],[-121.92344,37.80956],[-121.93533,37.81168],[-122.00682,37.82457],[-122.02206,37.82743],[-122.03664,37.83083],[-122.08361,37.85384],[-122.09538,37.85727],[-122.13449,37.86299],[-122.19693,37.86834],[-122.2105,37.86208],[-122.22182,37.84947],[-122.24183,37.81981],[-122.24514,37.81488],[-122.2711,37.77598],[-122.27384,37.77196],[-122.27814,37.76552],[-122.29364,37.74233],[-122.30233,37.72922],[-122.32112,37.7009],[-122.32965,37.68817],[-122.34401,37.66675],[-122.3531,37.65329],[-122.36583,37.63366],[-122.36931,37.62842]],"type":"LineString"}
}
