{
  "id": 2014911085,
  "type": "Feature",
  "properties": {
    "geom:area": 0,
    "geom:bbox": "-121.909960,36.719430,-121.438730,37.072660",
    "geom:latitude": 36.89632689406688,
    "geom:longitude": -121.67413337339396,
    "src:alt_label": "swim-takeoff",
    "src:geom": "swim",
    "swim:elevations": [
      6579,
      6746,
      6880,
      7289,
      7828,
      7919,
      8123,
      8230,
      8230,
      8230
    ],
    "swim:geom": "takeoff",
    "swim:timestamps": [
      1772296706,
      1772296727,
      1772296742,
      1772296771,
      1772296818,
      1772296834,
      1772296870,
      1772296899,
      1772296931,
      1772296955
    ],
    "wof:geomhash": "1cda58eab5f08b71c368bfa62ac00e36",
    "wof:id": 2014911085,
    "wof:repo": "sfomuseum-data-flights-2026-02"
  },
  "bbox": [
    -121.90996,
    36.71943,
    -121.43873,
    37.07266
  ],
  "geometry": {"coordinates":[[-121.90996,37.07266],[-121.86954,37.04251],[-121.83899,37.01967],[-121.7836,36.97836],[-121.69563,36.91358],[-121.66651,36.89159],[-121.59798,36.83923],[-121.54468,36.79871],[-121.48429,36.75327],[-121.43873,36.71943]],"type":"LineString"}
}
