{
  "id": 2014860711,
  "type": "Feature",
  "properties": {
    "geom:area": 0,
    "geom:bbox": "-122.416667,35.755833,-115.192222,37.700000",
    "geom:latitude": 37.0517884969741,
    "geom:longitude": -118.62570670884949,
    "src:alt_label": "swim-path",
    "src:geom": "swim",
    "swim:altitudes": [
      "005",
      "021",
      "023",
      "037",
      "060",
      "062",
      "094",
      "115",
      "138",
      "158",
      "166",
      "185",
      "200",
      "205",
      "221",
      "242",
      "268",
      "281",
      "294",
      "310C",
      "310C",
      "310C",
      "310C",
      "310C",
      "310C",
      "298",
      "290C",
      "290C",
      "290C",
      "290C",
      "290C",
      "290C",
      "290C",
      "290C",
      "290C",
      "290C",
      "290C",
      "290C",
      "290",
      "290",
      "285",
      "243",
      "194",
      "168",
      "152",
      "136",
      "132",
      "120",
      "112",
      "104",
      "097",
      "074",
      "032"
    ],
    "swim:geom": "path",
    "swim:speeds": [
      162,
      179,
      175,
      211,
      260,
      262,
      289,
      339,
      328,
      342,
      387,
      403,
      408,
      433,
      426,
      458,
      471,
      498,
      524,
      525,
      525,
      521,
      519,
      518,
      517,
      516,
      520,
      519,
      518,
      517,
      517,
      516,
      514,
      513,
      513,
      513,
      502,
      500,
      490,
      488,
      479,
      449,
      391,
      342,
      327,
      320,
      314,
      313,
      289,
      288,
      252,
      238,
      158
    ],
    "swim:timestamps": [
      1771820014,
      1771820056,
      1771820067,
      1771820116,
      1771820176,
      1771820187,
      1771820248,
      1771820308,
      1771820357,
      1771820417,
      1771820428,
      1771820488,
      1771820537,
      1771820548,
      1771820597,
      1771820668,
      1771820777,
      1771820837,
      1771820908,
      1771821018,
      1771821078,
      1771821148,
      1771821208,
      1771821258,
      1771821268,
      1771821389,
      1771821498,
      1771821509,
      1771821569,
      1771821678,
      1771821689,
      1771821749,
      1771821809,
      1771821919,
      1771821929,
      1771821979,
      1771822099,
      1771822159,
      1771822279,
      1771822410,
      1771822460,
      1771822580,
      1771822738,
      1771822880,
      1771822940,
      1771823000,
      1771823011,
      1771823061,
      1771823127,
      1771823181,
      1771823241,
      1771823421,
      1771823661
    ],
    "wof:geomhash": "c512a3e0b925c8f8ce03ea747d35c455",
    "wof:id": 2014860711,
    "wof:repo": "sfomuseum-data-flights-2026-02"
  },
  "bbox": [
    -122.41666666666667,
    35.755833333333335,
    -115.19222222222223,
    37.7
  ],
  "geometry": {"coordinates":[[-122.36666666666666,37.63333333333333],[-122.36666666666666,37.666666666666664],[-122.36305555555555,37.66833333333333],[-122.38333333333334,37.7],[-122.41666666666667,37.65],[-122.41472222222222,37.64388888888889],[-122.3236111111111,37.615833333333335],[-122.21777777777778,37.584722222222226],[-122.12888888888888,37.556666666666665],[-122.00666666666666,37.51611111111111],[-121.97555555555556,37.51694444444444],[-121.84388888888888,37.47916666666667],[-121.73416666666667,37.44472222222222],[-121.70111111111112,37.43833333333333],[-121.59194444444444,37.401944444444446],[-121.4075,37.353611111111114],[-121.1286111111111,37.26861111111111],[-120.95444444444445,37.24611111111111],[-120.72277777777778,37.257777777777775],[-120.4038888888889,37.27333333333333],[-120.2225,37.2825],[-119.99722222222222,37.29194444444444],[-119.81666666666666,37.29972222222222],[-119.68055555555556,37.30555555555555],[-119.63861111111112,37.30722222222222],[-119.28055555555555,37.32138888888889],[-118.98111111111112,37.3325],[-118.91694444444445,37.334722222222226],[-118.775,37.339444444444446],[-118.4075,37.35166666666667],[-118.40472222222223,37.35166666666667],[-118.22638888888889,37.356944444444444],[-118.04722222222222,37.36194444444445],[-117.6913888888889,37.37138888888889],[-117.6913888888889,37.37138888888889],[-117.51361111111112,37.37583333333333],[-117.17972222222222,37.31944444444445],[-117.05194444444444,37.22777777777778],[-116.81444444444445,37.02972222222222],[-116.62277777777777,36.80583333333333],[-116.53,36.69694444444444],[-116.30305555555556,36.518055555555556],[-116.02333333333333,36.31777777777778],[-115.80305555555556,36.17166666666667],[-115.73583333333333,36.10111111111111],[-115.70111111111112,36.016666666666666],[-115.69416666666667,35.99638888888889],[-115.66861111111112,35.93416666666666],[-115.63277777777778,35.844722222222224],[-115.57583333333334,35.79805555555556],[-115.50472222222223,35.755833333333335],[-115.30777777777777,35.845],[-115.19222222222223,36.036944444444444]],"type":"LineString"}
}
