{
  "id": 2014801817,
  "type": "Feature",
  "properties": {
    "geom:area": 0,
    "geom:bbox": "-122.380000,37.530000,-87.750000,41.790000",
    "geom:latitude": 40.66375519929517,
    "geom:longitude": -105.36870643205576,
    "src:alt_label": "swim-route",
    "src:geom": "swim",
    "swim:geom": "route",
    "wof:geomhash": "9f0109738c66c65e8e0ed44c984f97d7",
    "wof:id": 2014801817,
    "wof:repo": "sfomuseum-data-flights-2026-02"
  },
  "bbox": [
    -122.38,
    37.53,
    -87.75,
    41.79
  ],
  "geometry": {"coordinates":[[-122.38,37.62],[-122.36,37.61],[-122.34,37.61],[-122.34,37.6],[-122.26,37.57],[-122.24,37.57],[-122.18,37.55],[-122.16,37.54],[-122.15,37.53],[-122.13,37.55],[-122.11,37.57],[-122.09,37.58],[-122.03,37.63],[-121.96,37.69],[-121.9,37.75],[-121.86,37.83],[-121.83,37.89],[-121.81,37.93],[-121.81,37.93],[-121.8,37.94],[-121.8,37.95],[-121.74,38.06],[-121.7,38.14],[-121.66,38.24],[-121.64,38.26],[-121.61,38.32],[-121.55,38.44],[-121.48,38.49],[-121.4,38.53],[-121.32,38.58],[-121.28,38.61],[-121.24,38.63],[-120.9,38.84],[-120.48,39.05],[-120.27,39.1],[-120.25,39.11],[-117.36,39.87],[-115.21,40.38],[-115.1,40.41],[-115.01,40.43],[-114.45,40.49],[-113.91,40.56],[-113.07,40.65],[-112.15,40.74],[-112.08,40.75],[-110.47,40.89],[-109.51,40.97],[-108.83,41.02],[-108.5,41.05],[-107.14,41.13],[-106.25,41.17],[-105.52,41.2],[-104.55,41.23],[-104.21,41.25],[-103.84,41.25],[-103.14,41.27],[-102.85,41.28],[-102.09,41.28],[-101.3,41.29],[-100.73,41.29],[-99.03,41.27],[-95.89,41.17],[-95.74,41.17],[-93.56,40.84],[-93.54,40.84],[-91.83,40.98],[-91.78,40.99],[-91.42,41.01],[-91.1,41.04],[-90.71,41.06],[-90.69,41.07],[-90.64,41.07],[-90.51,41.08],[-90.45,41.09],[-90.38,41.09],[-90.05,41.12],[-89.98,41.12],[-89.96,41.12],[-89.72,41.14],[-89.65,41.14],[-89.42,41.16],[-89.35,41.16],[-89.26,41.17],[-89.13,41.18],[-89.06,41.19],[-88.97,41.21],[-88.92,41.23],[-88.9,41.24],[-88.9,41.24],[-88.79,41.27],[-88.51,41.37],[-88.46,41.41],[-88.44,41.41],[-88.42,41.43],[-88.29,41.51],[-88.1,41.55],[-88.02,41.57],[-87.99,41.6],[-87.92,41.65],[-87.85,41.71],[-87.77,41.77],[-87.75,41.79]],"type":"LineString"}
}
