{
  "id": 2014840795,
  "type": "Feature",
  "properties": {
    "geom:area": 0,
    "geom:bbox": "-122.352940,37.491970,-121.257330,37.611830",
    "geom:latitude": 37.54615075777342,
    "geom:longitude": -121.80989001711814,
    "src:alt_label": "swim-approach",
    "src:geom": "swim",
    "swim:elevations": [
      4699,
      4425,
      4139,
      3832,
      3767,
      3647,
      3404,
      3172,
      3113,
      2960,
      2696,
      2587,
      2439,
      2333,
      2194,
      2018,
      1978,
      1874,
      1648,
      1598,
      1427,
      1355,
      1080,
      988,
      710,
      564,
      432,
      283,
      213,
      52
    ],
    "swim:geom": "approach",
    "swim:timestamps": [
      1771579392,
      1771579421,
      1771579450,
      1771579485,
      1771579493,
      1771579505,
      1771579533,
      1771579575,
      1771579597,
      1771579630,
      1771579666,
      1771579683,
      1771579717,
      1771579733,
      1771579753,
      1771579792,
      1771579810,
      1771579835,
      1771579874,
      1771579883,
      1771579911,
      1771579922,
      1771579973,
      1771579987,
      1771580035,
      1771580066,
      1771580093,
      1771580127,
      1771580143,
      1771580182
    ],
    "wof:geomhash": "d82fa3a145dea8345168b3bbbfee44d3",
    "wof:id": 2014840795,
    "wof:repo": "sfomuseum-data-flights-2026-02"
  },
  "bbox": [
    -122.35294,
    37.49197,
    -121.25733,
    37.61183
  ],
  "geometry": {"coordinates":[[-121.25733,37.59354],[-121.31124,37.58709],[-121.36656,37.581],[-121.43049,37.57345],[-121.44542,37.57168],[-121.46738,37.56911],[-121.51892,37.56308],[-121.59354,37.55447],[-121.6298,37.5495],[-121.68044,37.53757],[-121.73683,37.52401],[-121.76247,37.51783],[-121.81137,37.50612],[-121.83356,37.50093],[-121.86248,37.49403],[-121.91752,37.49197],[-121.94119,37.49256],[-121.97439,37.49344],[-122.02455,37.50651],[-122.0364,37.5103],[-122.07069,37.52141],[-122.08446,37.52584],[-122.14586,37.54593],[-122.1627,37.55136],[-122.21788,37.56923],[-122.25104,37.57999],[-122.27808,37.58782],[-122.30748,37.59657],[-122.32107,37.60061],[-122.35294,37.61183]],"type":"LineString"}
}
