{
  "id": 2014893465,
  "type": "Feature",
  "properties": {
    "geom:area": 0,
    "geom:bbox": "-122.380000,37.620000,-70.930000,43.240000",
    "geom:latitude": 41.971125698051075,
    "geom:longitude": -96.73241250098859,
    "src:alt_label": "swim-route",
    "src:geom": "swim",
    "swim:geom": "route",
    "wof:geomhash": "e734035dc489b062d118aca2f120e135",
    "wof:id": 2014893465,
    "wof:repo": "sfomuseum-data-flights-2026-02"
  },
  "bbox": [
    -122.38,
    37.62,
    -70.93,
    43.24
  ],
  "geometry": {"coordinates":[[-122.38,37.62],[-122.27,37.69],[-122.22,37.72],[-122.21,37.72],[-122.15,37.79],[-122.15,37.79],[-122.12,37.82],[-122.08,37.87],[-122.07,37.88],[-122.07,37.88],[-122.01,37.92],[-122.01,37.92],[-121.84,38.02],[-121.79,38.04],[-121.79,38.04],[-121.72,38.07],[-121.6,38.12],[-121.55,38.14],[-121.48,38.17],[-121.48,38.17],[-121.33,38.23],[-121.32,38.23],[-121.07,38.33],[-120.91,38.4],[-120.86,38.42],[-120.76,38.46],[-120.37,38.61],[-120.23,38.67],[-120.08,38.72],[-119.94,38.78],[-119.64,38.9],[-119.54,38.93],[-119.31,39.03],[-119.11,39.1],[-119,39.14],[-117.35,39.74],[-114.88,40.58],[-114.81,40.6],[-114.5,40.7],[-114.45,40.7],[-113.76,40.73],[-112.55,40.82],[-112.1,40.9],[-110.32,41.2],[-109.95,41.26],[-109.75,41.29],[-108.61,41.45],[-108.24,41.5],[-108.09,41.53],[-108.05,41.53],[-107.13,41.66],[-104.62,41.97],[-102.79,42.16],[-102.19,42.21],[-101.86,42.24],[-101.06,42.31],[-100.55,42.35],[-99.37,42.43],[-98.69,42.47],[-96.37,42.63],[-96.25,42.64],[-93.85,42.86],[-93.47,42.9],[-93.25,42.91],[-91.42,43.04],[-90.63,43.08],[-90.61,43.09],[-89.83,43.12],[-88.7,43.17],[-87,43.22],[-85.39,43.24],[-85,43.24],[-82.31,43.22],[-81.12,43.2],[-79.03,43.12],[-78.38,43.07],[-77.58,43.04],[-76.72,42.98],[-76.5,42.97],[-75.63,42.9],[-74.54,42.81],[-74.22,42.78],[-73.81,42.75],[-73.33,42.74],[-73.11,42.74],[-73,42.73],[-72.63,42.68],[-72.32,42.65],[-72.04,42.61],[-71.84,42.59],[-71.82,42.59],[-71.61,42.55],[-71.59,42.55],[-71.43,42.52],[-71.37,42.5],[-71.35,42.5],[-71.25,42.48],[-71.16,42.46],[-71.16,42.46],[-71.06,42.45],[-71.03,42.45],[-70.99,42.39],[-70.96,42.35],[-70.95,42.34],[-70.93,42.31],[-70.95,42.27],[-70.97,42.24],[-70.98,42.21],[-70.99,42.18],[-70.99,42.2],[-71,42.28],[-71.01,42.35],[-71.01,42.36]],"type":"LineString"}
}
