{
  "id": 2014844897,
  "type": "Feature",
  "properties": {
    "geom:area": 0,
    "geom:bbox": "-122.740000,37.530000,-121.730000,47.510000",
    "geom:latitude": 42.45850838187933,
    "geom:longitude": -122.19857856704144,
    "src:alt_label": "swim-route",
    "src:geom": "swim",
    "swim:geom": "route",
    "wof:geomhash": "e4d779b5f1ad384703572b69be1041d4",
    "wof:id": 2014844897,
    "wof:repo": "sfomuseum-data-flights-2026-02"
  },
  "bbox": [
    -122.74,
    37.53,
    -121.73,
    47.51
  ],
  "geometry": {"coordinates":[[-122.38,37.62],[-122.36,37.61],[-122.34,37.61],[-122.34,37.6],[-122.25,37.57],[-122.24,37.57],[-122.19,37.55],[-122.16,37.54],[-122.15,37.53],[-122.14,37.54],[-122.12,37.56],[-122.11,37.57],[-122.03,37.63],[-121.96,37.69],[-121.9,37.75],[-121.93,37.84],[-121.94,37.86],[-121.95,37.9],[-121.98,37.96],[-121.98,37.98],[-122,38.03],[-122.02,38.08],[-122.05,38.17],[-122.07,38.21],[-122.09,38.26],[-122.1,38.31],[-122.11,38.34],[-122.12,38.48],[-122.13,38.54],[-122.13,38.59],[-122.13,38.6],[-122.14,38.66],[-122.15,38.9],[-122.17,39.2],[-122.18,39.3],[-122.24,40.1],[-121.97,41.21],[-121.73,42.15],[-122,43.35],[-122.09,43.74],[-122.19,44.12],[-122.47,45.26],[-122.47,45.27],[-122.49,45.34],[-122.59,45.75],[-122.62,45.88],[-122.63,45.92],[-122.64,45.94],[-122.65,46],[-122.68,46.09],[-122.69,46.18],[-122.7,46.23],[-122.72,46.32],[-122.73,46.43],[-122.73,46.65],[-122.74,46.78],[-122.67,46.84],[-122.64,46.87],[-122.57,46.93],[-122.56,46.94],[-122.53,47.02],[-122.5,47.08],[-122.5,47.08],[-122.48,47.19],[-122.47,47.23],[-122.46,47.35],[-122.46,47.39],[-122.46,47.41],[-122.46,47.43],[-122.46,47.43],[-122.46,47.48],[-122.46,47.51],[-122.39,47.48],[-122.31,47.45]],"type":"LineString"}
}
