{
  "id": 2014782049,
  "type": "Feature",
  "properties": {
    "geom:area": 0,
    "geom:bbox": "-122.380000,37.490000,-87.910000,43.650000",
    "geom:latitude": 41.14794976060026,
    "geom:longitude": -105.16213220727415,
    "src:alt_label": "swim-route",
    "src:geom": "swim",
    "swim:geom": "route",
    "wof:geomhash": "084ac55555572a630bd1d3fd4fed1a5c",
    "wof:id": 2014782049,
    "wof:repo": "sfomuseum-data-flights-2026-02"
  },
  "bbox": [
    -122.38,
    37.49,
    -87.91,
    43.65
  ],
  "geometry": {"coordinates":[[-87.91,41.98],[-88.03,42],[-88.08,42.01],[-88.19,42.04],[-88.2,42.04],[-88.33,42.06],[-88.33,42.07],[-88.41,42.08],[-88.63,42.13],[-88.71,42.14],[-88.79,42.16],[-88.81,42.16],[-88.82,42.16],[-88.92,42.16],[-88.98,42.16],[-89.24,42.15],[-89.54,42.14],[-89.73,42.14],[-89.92,42.13],[-90.37,42.12],[-90.54,42.11],[-90.88,42.1],[-91.06,42.09],[-91.12,42.09],[-91.28,42.08],[-92.62,42.75],[-92.7,42.77],[-94.05,43.08],[-96,43.5],[-96.41,43.64],[-96.44,43.65],[-98.23,43.59],[-98.59,43.57],[-100,43.5],[-100.59,43.45],[-101.89,43.32],[-103.51,43.14],[-103.73,43.05],[-104.39,42.75],[-104.67,42.62],[-106,42],[-106.21,41.9],[-106.42,41.79],[-106.84,41.59],[-107.26,41.38],[-107.45,41.28],[-107.63,41.19],[-108,41],[-109.12,40.56],[-109.78,40.29],[-110.13,40.15],[-110.25,40.11],[-111.75,39.58],[-112.51,39.3],[-113.32,39.12],[-116.15,38.42],[-116.43,38.34],[-117.27,38.12],[-117.27,38.12],[-117.77,38],[-118.76,37.9],[-119.1,37.86],[-119.61,37.8],[-119.72,37.78],[-119.82,37.77],[-119.92,37.76],[-120.02,37.75],[-120.31,37.71],[-120.4,37.7],[-120.4,37.7],[-120.57,37.68],[-120.69,37.67],[-120.75,37.66],[-120.79,37.65],[-120.8,37.65],[-120.96,37.63],[-121,37.63],[-121.01,37.63],[-121.07,37.62],[-121.17,37.61],[-121.26,37.59],[-121.39,37.58],[-121.41,37.58],[-121.6,37.55],[-121.61,37.55],[-121.62,37.55],[-121.72,37.53],[-121.8,37.51],[-121.88,37.49],[-121.89,37.49],[-122.01,37.53],[-122.08,37.54],[-122.18,37.57],[-122.18,37.57],[-122.28,37.59],[-122.33,37.61],[-122.36,37.61],[-122.38,37.62]],"type":"LineString"}
}
