{
  "id": 2014894687,
  "type": "Feature",
  "properties": {
    "geom:area": 0,
    "geom:bbox": "-122.380000,37.620000,-74.820000,41.180000",
    "geom:latitude": 40.260387493717104,
    "geom:longitude": -98.43554733264398,
    "src:alt_label": "swim-route",
    "src:geom": "swim",
    "swim:geom": "route",
    "wof:geomhash": "e852e3afe74aa997a17ccc690baccfeb",
    "wof:id": 2014894687,
    "wof:repo": "sfomuseum-data-flights-2026-02"
  },
  "bbox": [
    -122.38,
    37.62,
    -74.82,
    41.18
  ],
  "geometry": {"coordinates":[[-122.38,37.62],[-122.28,37.68],[-122.27,37.69],[-122.27,37.69],[-122.21,37.72],[-122.21,37.72],[-122.2,37.72],[-122.18,37.73],[-122.18,37.74],[-122.16,37.75],[-122.12,37.76],[-122.11,37.77],[-122,37.83],[-121.94,37.85],[-121.77,37.92],[-121.75,37.93],[-121.61,37.98],[-121.48,38.04],[-121.41,38.06],[-121.38,38.07],[-121.26,38.12],[-121.23,38.13],[-121.16,38.16],[-121.04,38.21],[-120.92,38.22],[-120.82,38.24],[-120.72,38.25],[-120.67,38.26],[-120.62,38.26],[-120.41,38.29],[-119.22,38.45],[-118.73,38.51],[-118.23,38.57],[-117.3,38.68],[-117.29,38.68],[-116.05,38.89],[-114.68,39.1],[-113.32,39.29],[-113.25,39.3],[-112,39.5],[-111.74,39.56],[-111.03,39.74],[-110.06,39.96],[-109.21,40.15],[-109.16,40.15],[-108.95,40.18],[-108.33,40.25],[-106,40.5],[-105.11,40.52],[-104.62,40.52],[-104.04,40.53],[-103.23,40.53],[-101.29,40.82],[-100,41],[-99.04,41.05],[-95.89,41.16],[-95.74,41.17],[-93.6,41.18],[-90.51,41.13],[-90.05,41.12],[-88.89,41.06],[-88.01,41],[-88,41],[-87.42,41.07],[-87,41.12],[-86.58,41.16],[-85.82,41.1],[-84.7,41],[-83.2,40.86],[-82.46,40.78],[-81.71,40.69],[-81.21,40.63],[-80.74,40.57],[-78.83,40.32],[-78.74,40.32],[-78.66,40.32],[-78.38,40.32],[-78.36,40.32],[-78.02,40.31],[-77.97,40.31],[-77.9,40.31],[-77.88,40.31],[-77.54,40.31],[-77.53,40.31],[-77.48,40.31],[-77.16,40.3],[-77.07,40.3],[-77.04,40.29],[-76.91,40.27],[-76.63,40.2],[-76.55,40.18],[-76.5,40.17],[-76.36,40.14],[-76.34,40.13],[-76.29,40.12],[-76.21,40.11],[-75.94,40.1],[-75.78,40.08],[-75.77,40.08],[-75.75,40.08],[-75.64,40.08],[-75.59,40.08],[-75.42,40.07],[-75.4,40.07],[-75.21,40.06],[-75.2,40.06],[-75.17,39.97],[-75.11,39.99],[-75.08,39.99],[-74.93,40.03],[-74.88,40.04],[-74.82,40.05],[-74.9,40.02],[-74.96,39.99],[-75.06,39.95],[-75.15,39.91],[-75.24,39.87]],"type":"LineString"}
}
