{
  "id": 2014836325,
  "type": "Feature",
  "properties": {
    "geom:area": 0,
    "geom:bbox": "-122.567530,36.725070,-122.231290,37.668890",
    "geom:latitude": 37.22541081580465,
    "geom:longitude": -122.48687989273455,
    "src:alt_label": "swim-takeoff",
    "src:geom": "swim",
    "swim:elevations": [
      152,
      391,
      861,
      1485,
      1755,
      2209,
      2365,
      2714,
      2836,
      3356,
      3497,
      4191,
      4448,
      4703,
      4878,
      5172,
      5381,
      5907,
      6180,
      6387,
      6640,
      6753,
      7211,
      7554,
      7576,
      7944,
      8170
    ],
    "swim:geom": "takeoff",
    "swim:timestamps": [
      1771528948,
      1771528960,
      1771528993,
      1771529036,
      1771529054,
      1771529089,
      1771529101,
      1771529127,
      1771529135,
      1771529175,
      1771529192,
      1771529240,
      1771529259,
      1771529285,
      1771529305,
      1771529332,
      1771529349,
      1771529392,
      1771529419,
      1771529438,
      1771529460,
      1771529469,
      1771529512,
      1771529548,
      1771529551,
      1771529599,
      1771529631
    ],
    "wof:geomhash": "bea33b85d896588410bb2fefa2f8c6cb",
    "wof:id": 2014836325,
    "wof:repo": "sfomuseum-data-flights-2026-02"
  },
  "bbox": [
    -122.56753,
    36.72507,
    -122.23129,
    37.66889
  ],
  "geometry": {"coordinates":[[-122.38581,37.62331],[-122.39621,37.62783],[-122.42731,37.64179],[-122.47255,37.66155],[-122.494,37.66889],[-122.54288,37.66011],[-122.55683,37.64872],[-122.56753,37.61377],[-122.56746,37.60215],[-122.56606,37.54264],[-122.5661,37.51547],[-122.56533,37.43345],[-122.56532,37.40049],[-122.56525,37.35544],[-122.56519,37.31733],[-122.56498,37.26583],[-122.56483,37.23337],[-122.56456,37.1494],[-122.56357,37.09686],[-122.55186,37.0599],[-122.52095,37.01846],[-122.50582,37.00355],[-122.43341,36.93055],[-122.37304,36.86932],[-122.36794,36.86413],[-122.28633,36.78125],[-122.23129,36.72507]],"type":"LineString"}
}
