{
  "id": 2014836373,
  "type": "Feature",
  "properties": {
    "geom:area": 0,
    "geom:bbox": "-122.472170,36.730840,-121.310200,37.719830",
    "geom:latitude": 37.22461047810516,
    "geom:longitude": -122.00648945625177,
    "src:alt_label": "swim-takeoff",
    "src:geom": "swim",
    "swim:elevations": [
      152,
      645,
      798,
      1087,
      1271,
      1390,
      1945,
      2438,
      2746,
      2947,
      3217,
      3664,
      4040,
      4295,
      4476,
      4950,
      5462,
      5810,
      6045,
      6344,
      6831,
      7090,
      7223,
      7295,
      7539,
      7899,
      8148,
      8228,
      8230,
      8230,
      8230,
      8230,
      8230,
      8230
    ],
    "swim:geom": "takeoff",
    "swim:timestamps": [
      1771490138,
      1771490173,
      1771490185,
      1771490214,
      1771490245,
      1771490255,
      1771490295,
      1771490325,
      1771490342,
      1771490352,
      1771490372,
      1771490418,
      1771490448,
      1771490480,
      1771490501,
      1771490537,
      1771490575,
      1771490598,
      1771490619,
      1771490652,
      1771490698,
      1771490720,
      1771490733,
      1771490741,
      1771490765,
      1771490815,
      1771490848,
      1771490869,
      1771490883,
      1771490906,
      1771490917,
      1771490957,
      1771490996,
      1771491010
    ],
    "wof:geomhash": "8b1a8e2126744f29eb04ee913521d4c2",
    "wof:id": 2014836373,
    "wof:repo": "sfomuseum-data-flights-2026-02"
  },
  "bbox": [
    -122.47217,
    36.73084,
    -121.3102,
    37.71983
  ],
  "geometry": {"coordinates":[[-122.36936,37.62783],[-122.36222,37.65044],[-122.36353,37.65802],[-122.3627,37.67777],[-122.36907,37.70268],[-122.37616,37.71001],[-122.42503,37.71983],[-122.45771,37.69827],[-122.46324,37.67767],[-122.46386,37.66431],[-122.46488,37.63837],[-122.46965,37.57316],[-122.47217,37.52691],[-122.44979,37.47599],[-122.41222,37.44991],[-122.34139,37.4043],[-122.2696,37.35763],[-122.22339,37.32781],[-122.18278,37.30162],[-122.11535,37.25807],[-122.01814,37.19476],[-121.97093,37.16404],[-121.94316,37.14603],[-121.92551,37.13456],[-121.87332,37.10067],[-121.76281,37.02778],[-121.68813,36.97895],[-121.63961,36.94713],[-121.60689,36.92567],[-121.55331,36.89017],[-121.52846,36.8741],[-121.43408,36.81266],[-121.3428,36.75265],[-121.3102,36.73084]],"type":"LineString"}
}
