{
  "id": 2014873027,
  "type": "Feature",
  "properties": {
    "geom:area": 0,
    "geom:bbox": "-174.720000,-33.930000,180.000000,37.830000",
    "geom:latitude": -11.98497554435249,
    "geom:longitude": -11.602540312005289,
    "src:alt_label": "swim-route",
    "src:geom": "swim",
    "swim:geom": "route",
    "wof:geomhash": "b3396d382fdd4f35ecbab24c3f9799d1",
    "wof:id": 2014873027,
    "wof:repo": "sfomuseum-data-flights-2026-02"
  },
  "bbox": [
    -174.72,
    -33.93,
    180,
    37.83
  ],
  "geometry": {"coordinates":[[[151.17,-33.93],[151.31,-33.93],[151.41,-33.93],[151.54,-33.92],[151.67,-33.92],[151.87,-33.91],[152.07,-33.91],[152.27,-33.91],[152.52,-33.91],[152.82,-33.91],[153.01,-33.91],[153.02,-33.91],[153.1,-33.91],[153.1,-33.91],[153.26,-33.91],[153.62,-33.91],[153.74,-33.91],[154.5,-33.9],[155.19,-33.84],[159.07,-31.53],[163,-30.49],[167.93,-29.05],[174.69,-25],[180,-20]],[[-174.72,-13.46],[-172,-10],[-170,-5],[-168,0],[-167.57,0.71],[-167.14,1.43],[-166.72,2.14],[-166.29,2.86],[-165.86,3.57],[-165,5],[-160,10],[-158.71,11.22],[-158.06,11.83],[-150,19],[-149.15,20.45],[-146.57,24.62],[-145.58,26.12],[-145,27],[-144.69,27.53],[-144.31,28.17],[-144.25,28.27],[-141.92,31.98],[-141.27,32.28],[-137,34.08],[-134.7,34.98],[-133.77,35.32],[-131.87,35.98],[-130.91,36.3],[-129.95,36.62],[-127,37.51],[-126.99,37.51],[-125.83,37.83],[-124.62,37.52],[-124.26,37.42],[-124.18,37.4],[-123.88,37.32],[-123.82,37.31],[-123.81,37.3],[-123.6,37.27],[-123.56,37.26],[-123.34,37.23],[-123.13,37.19],[-122.96,37.24],[-122.86,37.26],[-122.84,37.26],[-122.84,37.26],[-122.76,37.28],[-122.71,37.29],[-122.66,37.3],[-122.63,37.31],[-122.5,37.34],[-122.44,37.36],[-122.29,37.39],[-122.28,37.39],[-122.31,37.46],[-122.34,37.54],[-122.37,37.6],[-122.37,37.61],[-122.38,37.62]]],"type":"MultiLineString"}
}
