{
  "id": 2014786569,
  "type": "Feature",
  "properties": {
    "geom:area": 0,
    "geom:bbox": "-122.451111,34.050000,-117.299167,37.694444",
    "geom:latitude": 35.79602474625734,
    "geom:longitude": -119.83022696876215,
    "src:alt_label": "swim-path",
    "src:geom": "swim",
    "swim:altitudes": [
      "005",
      "051",
      "085",
      "128",
      "148",
      "157",
      "172",
      "194",
      "210",
      "246",
      "261",
      "277",
      "290",
      "323",
      "339",
      "350C",
      "350C",
      "350C",
      "350C",
      "350C",
      "350C",
      "350C",
      "350C",
      "350C",
      "350C",
      "305",
      "196",
      "144",
      "142",
      "130",
      "127",
      "115",
      "100",
      "099",
      "097",
      "078",
      "074",
      "061",
      "050",
      "046",
      "038",
      "027",
      "025",
      "015"
    ],
    "swim:geom": "path",
    "swim:speeds": [
      163,
      262,
      277,
      363,
      360,
      376,
      402,
      417,
      420,
      457,
      471,
      477,
      481,
      492,
      489,
      476,
      474,
      472,
      471,
      471,
      471,
      472,
      475,
      478,
      478,
      481,
      419,
      377,
      356,
      339,
      342,
      315,
      302,
      278,
      248,
      222,
      214,
      201,
      206,
      207,
      161,
      148,
      145,
      145
    ],
    "swim:timestamps": [
      1771048359,
      1771048502,
      1771048562,
      1771048682,
      1771048736,
      1771048742,
      1771048802,
      1771048862,
      1771048916,
      1771049043,
      1771049103,
      1771049163,
      1771049216,
      1771049343,
      1771049403,
      1771049463,
      1771049517,
      1771049637,
      1771049697,
      1771049757,
      1771049763,
      1771049817,
      1771049943,
      1771050178,
      1771050238,
      1771050424,
      1771050779,
      1771050959,
      1771050973,
      1771051019,
      1771051033,
      1771051093,
      1771051153,
      1771051199,
      1771051213,
      1771051319,
      1771051333,
      1771051393,
      1771051439,
      1771051453,
      1771051513,
      1771051560,
      1771051579,
      1771051639
    ],
    "wof:geomhash": "e4e0483a88b39ecb8d1be899d77ef650",
    "wof:id": 2014786569,
    "wof:repo": "sfomuseum-data-flights-2026-02"
  },
  "bbox": [
    -122.45111111111112,
    34.05,
    -117.29916666666666,
    37.69444444444444
  ],
  "geometry": {"coordinates":[[-122.36666666666666,37.63333333333333],[-122.42972222222222,37.69444444444444],[-122.45111111111112,37.617777777777775],[-122.29222222222222,37.48833333333334],[-122.22277777777778,37.433611111111105],[-122.1975,37.41722222222222],[-122.09777777777778,37.344166666666666],[-121.98916666666666,37.26444444444444],[-121.91277777777778,37.20027777777778],[-121.65305555555557,37.01611111111111],[-121.53361111111111,36.92722222222222],[-121.41194444444444,36.83638888888889],[-121.31972222222223,36.76166666666666],[-121.0363888888889,36.55472222222222],[-120.91027777777778,36.463055555555556],[-120.78527777777778,36.379444444444445],[-120.66250000000001,36.29694444444444],[-120.43861111111111,36.14555555555555],[-120.31444444444445,36.061388888888885],[-120.19083333333333,35.9775],[-120.16333333333334,35.95888888888889],[-120.06472222222222,35.893055555555556],[-119.77277777777778,35.71555555555556],[-119.27722222222222,35.41027777777778],[-119.14916666666667,35.330555555555556],[-118.72777777777777,35.06583333333333],[-118.03083333333333,34.61638888888889],[-117.68555555555555,34.458333333333336],[-117.65,34.45],[-117.58388888888888,34.41138888888889],[-117.55,34.4],[-117.46666666666667,34.35],[-117.36666666666666,34.31666666666667],[-117.3286111111111,34.280833333333334],[-117.31666666666666,34.25],[-117.29916666666666,34.151944444444446],[-117.3,34.13333333333333],[-117.31666666666666,34.083333333333336],[-117.36583333333333,34.06111111111111],[-117.38333333333334,34.05],[-117.45,34.05],[-117.47888888888889,34.05722222222222],[-117.5,34.05],[-117.55,34.05]],"type":"LineString"}
}
