{
  "id": 2014776527,
  "type": "Feature",
  "properties": {
    "geom:area": 0,
    "geom:bbox": "-122.380000,37.620000,-87.910000,41.980000",
    "geom:latitude": 39.645604958629875,
    "geom:longitude": -104.98307044011865,
    "src:alt_label": "swim-route",
    "src:geom": "swim",
    "swim:geom": "route",
    "wof:geomhash": "37c6c928a9c8efc5a9102091b8f7577a",
    "wof:id": 2014776527,
    "wof:repo": "sfomuseum-data-flights-2026-02"
  },
  "bbox": [
    -122.38,
    37.62,
    -87.91,
    41.98
  ],
  "geometry": {"coordinates":[[-122.38,37.62],[-122.28,37.68],[-122.27,37.69],[-122.27,37.69],[-122.21,37.72],[-122.2,37.72],[-122.2,37.73],[-122.18,37.74],[-122.17,37.74],[-122.16,37.75],[-122.11,37.77],[-122.1,37.78],[-122,37.83],[-121.93,37.84],[-121.73,37.88],[-121.7,37.88],[-121.65,37.89],[-121.57,37.91],[-121.41,37.94],[-121.34,37.95],[-121.29,37.96],[-121.17,37.98],[-121.14,37.98],[-121.1,37.99],[-121.07,38],[-121.04,38],[-120.92,38.02],[-119.93,38.17],[-119.18,38.27],[-118.75,38.33],[-118.64,38.35],[-118.29,38.39],[-118.14,38.41],[-118.06,38.42],[-117.92,38.44],[-117.86,38.45],[-117.76,38.46],[-117.62,38.48],[-117.28,38.52],[-117.26,38.52],[-115.01,38.62],[-113.65,38.8],[-113.49,38.83],[-111.77,39.05],[-111.74,39.05],[-110.03,39.27],[-109.89,39.29],[-108,39.5],[-107.22,39.62],[-106.7,39.7],[-105.66,39.84],[-105.14,39.91],[-105.1,39.92],[-103.19,40.06],[-102.54,40.1],[-100.59,40.2],[-100.09,40.22],[-99.06,40.23],[-98.97,40.23],[-97.34,40.24],[-95.62,40.23],[-95.2,40.22],[-93.9,40.18],[-93.01,40.15],[-92.54,40.23],[-91.94,40.4],[-91.4,40.55],[-91.35,40.57],[-91.27,40.6],[-91.23,40.61],[-90.6,40.83],[-89.97,41.03],[-89.63,41.15],[-89.53,41.24],[-89.52,41.26],[-89.22,41.56],[-89.14,41.64],[-89.12,41.68],[-89.12,41.69],[-89.11,41.72],[-89.06,41.82],[-89.03,41.84],[-89.03,41.85],[-88.96,41.92],[-88.83,41.93],[-88.82,41.93],[-88.71,41.93],[-88.38,41.95],[-88.21,41.96],[-88.16,41.96],[-88.05,41.97],[-87.93,41.98],[-87.91,41.98]],"type":"LineString"}
}
