{
  "id": 2014866345,
  "type": "Feature",
  "properties": {
    "geom:area": 0,
    "geom:bbox": "-126.669722,37.633333,-122.400000,40.132778",
    "geom:latitude": 38.951143000523494,
    "geom:longitude": -124.4896238137455,
    "src:alt_label": "swim-path",
    "src:geom": "swim",
    "swim:altitudes": [
      "004",
      "004",
      "004",
      "022",
      "036",
      "074",
      "074",
      "131",
      "202",
      "202",
      "223",
      "244",
      "262",
      "301C",
      "301C",
      "320",
      "320",
      "320C",
      "320C",
      "320C",
      "320",
      "320C",
      "320",
      "320C",
      "320",
      "320",
      "320",
      "320",
      "320C",
      "320",
      "320",
      "320C",
      "320",
      "320C",
      "320C",
      "320",
      "320",
      "320",
      "320C",
      "320",
      "320C",
      "320C",
      "320",
      "320",
      "320C"
    ],
    "swim:geom": "path",
    "swim:speeds": [
      182,
      182,
      182,
      192,
      211,
      298,
      298,
      375,
      405,
      405,
      414,
      423,
      427,
      450,
      450,
      440,
      440,
      439,
      439,
      439,
      440,
      438,
      440,
      436,
      440,
      440,
      440,
      440,
      435,
      430,
      430,
      427,
      420,
      426,
      425,
      420,
      420,
      420,
      422,
      420,
      419,
      419,
      420,
      420,
      418
    ],
    "swim:timestamps": [
      1771836736,
      1771836736,
      1771836736,
      1771836778,
      1771836843,
      1771836963,
      1771836963,
      1771837143,
      1771837383,
      1771837383,
      1771837443,
      1771837503,
      1771837563,
      1771837706,
      1771837706,
      1771837826,
      1771837886,
      1771837923,
      1771837923,
      1771837923,
      1771837946,
      1771837983,
      1771838006,
      1771838103,
      1771838127,
      1771838247,
      1771838247,
      1771838247,
      1771838284,
      1771838487,
      1771838487,
      1771838584,
      1771838607,
      1771838644,
      1771838704,
      1771838787,
      1771838787,
      1771838787,
      1771838824,
      1771838907,
      1771838944,
      1771838944,
      1771838967,
      1771838967,
      1771839004
    ],
    "wof:geomhash": "1d5a5bcf58e466e3afc143d92cc3fcc0",
    "wof:id": 2014866345,
    "wof:repo": "sfomuseum-data-flights-2026-02"
  },
  "bbox": [
    -126.66972222222223,
    37.63333333333333,
    -122.4,
    40.132777777777775
  ],
  "geometry": {"coordinates":[[-122.4,37.63333333333333],[-122.4,37.63333333333333],[-122.4,37.63333333333333],[-122.43333333333334,37.65],[-122.4961111111111,37.671388888888885],[-122.65694444444445,37.765277777777776],[-122.65694444444445,37.765277777777776],[-122.88555555555556,37.97888888888889],[-123.22638888888889,38.29416666666666],[-123.22638888888889,38.29416666666666],[-123.34638888888888,38.361666666666665],[-123.46944444444445,38.43055555555555],[-123.59416666666667,38.500277777777775],[-123.88333333333334,38.666666666666664],[-123.88333333333334,38.666666666666664],[-124.13333333333334,38.8],[-124.26666666666667,38.86666666666667],[-124.35833333333333,38.92055555555555],[-124.35833333333333,38.92055555555555],[-124.35833333333333,38.92055555555555],[-124.4,38.93333333333333],[-124.48666666666666,38.99027777777778],[-124.51666666666667,39.016666666666666],[-124.75888888888889,39.136944444444445],[-124.78333333333333,39.15],[-125.03333333333333,39.28333333333333],[-125.03333333333333,39.28333333333333],[-125.03333333333333,39.28333333333333],[-125.12583333333333,39.33305555555556],[-125.55,39.55],[-125.55,39.55],[-125.78305555555555,39.67805555555555],[-125.8,39.68333333333333],[-125.90972222222223,39.74388888888889],[-126.03833333333333,39.81055555555555],[-126.18333333333334,39.88333333333333],[-126.18333333333334,39.88333333333333],[-126.18333333333334,39.88333333333333],[-126.29027777777777,39.939722222222215],[-126.43333333333334,40.016666666666666],[-126.54333333333334,40.06861111111112],[-126.54333333333334,40.06861111111112],[-126.55,40.083333333333336],[-126.55,40.083333333333336],[-126.66972222222223,40.132777777777775]],"type":"LineString"}
}
