{
  "id": 2014819487,
  "type": "Feature",
  "properties": {
    "geom:area": 0,
    "geom:bbox": "-122.368333,37.716667,-77.450000,39.150000",
    "geom:latitude": 38.63469511810577,
    "geom:longitude": -99.81077428798513,
    "src:alt_label": "swim-path",
    "src:geom": "swim",
    "swim:altitudes": [
      "044",
      "044",
      "084",
      "168",
      "168",
      "218",
      "269",
      "269",
      "290C",
      "290C",
      "290C",
      "290C",
      "290C",
      "290C",
      "290C",
      "290C",
      "290C",
      "290C",
      "290C",
      "290C",
      "290C",
      "290C",
      "290C",
      "290C",
      "290C",
      "290C",
      "292",
      "292",
      "301",
      "301",
      "324",
      "329C",
      "330C",
      "330C",
      "330C",
      "330C",
      "330C",
      "330C",
      "330C",
      "330C",
      "330C",
      "330C",
      "330C",
      "330C",
      "330C",
      "330C",
      "330C",
      "330C",
      "330C",
      "330C",
      "330C",
      "330C",
      "330C",
      "330C",
      "330C",
      "330C",
      "330C",
      "330C",
      "330C",
      "330C",
      "330C",
      "330C",
      "330C",
      "330C",
      "330C",
      "330C",
      "330C",
      "330C",
      "330C",
      "330C",
      "330C",
      "330C",
      "330C",
      "330C",
      "330C",
      "330C",
      "330C",
      "330C",
      "330C",
      "330C",
      "330C",
      "330C",
      "330C",
      "330C",
      "330C",
      "330C",
      "330C",
      "330C",
      "330C",
      "330C",
      "330C",
      "330C",
      "330C",
      "330C",
      "330C",
      "330C",
      "330C",
      "330C",
      "330C",
      "330C",
      "330C",
      "330C",
      "330C",
      "330C",
      "330C",
      "330C",
      "330C",
      "330C",
      "331",
      "346",
      "350C",
      "350C",
      "350C",
      "350C",
      "350C",
      "350C",
      "350C",
      "350C",
      "350C",
      "350C",
      "350C",
      "350C",
      "350C",
      "350C",
      "343",
      "330C",
      "330C",
      "330C",
      "330C",
      "330C",
      "330C",
      "330C",
      "330C",
      "330C",
      "330C",
      "330C",
      "330C",
      "330C",
      "330C",
      "330C",
      "330C",
      "330C",
      "330C",
      "316",
      "294",
      "291",
      "276",
      "276",
      "254",
      "240",
      "202",
      "199",
      "180",
      "164",
      "135",
      "117",
      "110",
      "103",
      "092",
      "081",
      "078",
      "060",
      "060",
      "060",
      "060",
      "053",
      "042",
      "040",
      "033",
      "017",
      "011",
      "011",
      "009"
    ],
    "swim:geom": "path",
    "swim:speeds": [
      266,
      266,
      251,
      367,
      367,
      414,
      471,
      471,
      486,
      486,
      484,
      489,
      494,
      493,
      498,
      496,
      498,
      498,
      496,
      496,
      490,
      490,
      490,
      489,
      492,
      492,
      502,
      502,
      521,
      521,
      520,
      523,
      525,
      525,
      525,
      524,
      523,
      522,
      522,
      522,
      521,
      521,
      521,
      520,
      518,
      518,
      517,
      516,
      514,
      514,
      514,
      513,
      517,
      517,
      524,
      541,
      544,
      544,
      545,
      545,
      548,
      549,
      550,
      557,
      560,
      560,
      560,
      561,
      561,
      562,
      562,
      566,
      567,
      567,
      580,
      576,
      576,
      574,
      574,
      575,
      575,
      578,
      571,
      547,
      546,
      525,
      525,
      525,
      523,
      524,
      524,
      527,
      528,
      528,
      527,
      530,
      530,
      530,
      530,
      528,
      527,
      527,
      527,
      528,
      528,
      530,
      531,
      532,
      547,
      574,
      577,
      576,
      576,
      578,
      579,
      579,
      585,
      595,
      597,
      605,
      605,
      611,
      617,
      606,
      591,
      571,
      571,
      571,
      557,
      554,
      554,
      553,
      549,
      533,
      539,
      539,
      541,
      542,
      543,
      542,
      543,
      544,
      541,
      530,
      536,
      536,
      520,
      520,
      495,
      476,
      451,
      452,
      439,
      418,
      401,
      373,
      331,
      328,
      310,
      312,
      310,
      277,
      273,
      273,
      275,
      269,
      251,
      235,
      223,
      153,
      149,
      149,
      149
    ],
    "swim:timestamps": [
      1771397858,
      1771397858,
      1771397944,
      1771398184,
      1771398184,
      1771398364,
      1771398605,
      1771398605,
      1771398845,
      1771398845,
      1771398885,
      1771399005,
      1771399145,
      1771399185,
      1771399205,
      1771399245,
      1771399265,
      1771399325,
      1771399365,
      1771399365,
      1771399385,
      1771399385,
      1771399425,
      1771399445,
      1771399545,
      1771399625,
      1771399785,
      1771399785,
      1771399865,
      1771399865,
      1771399985,
      1771400045,
      1771400145,
      1771400145,
      1771400165,
      1771400225,
      1771400285,
      1771400386,
      1771400386,
      1771400446,
      1771400626,
      1771400626,
      1771400626,
      1771400866,
      1771400926,
      1771400926,
      1771400986,
      1771401046,
      1771401106,
      1771401226,
      1771401226,
      1771401406,
      1771401466,
      1771401466,
      1771401526,
      1771401794,
      1771401886,
      1771402066,
      1771402155,
      1771402155,
      1771402186,
      1771402215,
      1771402246,
      1771402275,
      1771402306,
      1771402335,
      1771402366,
      1771402395,
      1771402395,
      1771402426,
      1771402455,
      1771402575,
      1771402635,
      1771402635,
      1771402875,
      1771402935,
      1771402935,
      1771402995,
      1771403055,
      1771403115,
      1771403115,
      1771403175,
      1771403355,
      1771403715,
      1771403775,
      1771403835,
      1771403895,
      1771403895,
      1771404075,
      1771404135,
      1771404135,
      1771404375,
      1771404435,
      1771404435,
      1771404470,
      1771404496,
      1771404676,
      1771404676,
      1771404676,
      1771404796,
      1771404827,
      1771404887,
      1771404916,
      1771405036,
      1771405036,
      1771405096,
      1771405130,
      1771405156,
      1771405307,
      1771405456,
      1771405610,
      1771405756,
      1771405756,
      1771405908,
      1771405968,
      1771405968,
      1771406089,
      1771406210,
      1771406269,
      1771406450,
      1771406450,
      1771406628,
      1771407349,
      1771407651,
      1771407891,
      1771408192,
      1771408792,
      1771408811,
      1771409892,
      1771410010,
      1771410131,
      1771410190,
      1771410432,
      1771410446,
      1771410506,
      1771410506,
      1771410567,
      1771410627,
      1771410672,
      1771410687,
      1771410749,
      1771410791,
      1771410986,
      1771411153,
      1771411211,
      1771411226,
      1771411271,
      1771411271,
      1771411346,
      1771411391,
      1771411512,
      1771411529,
      1771411586,
      1771411647,
      1771411767,
      1771411836,
      1771411896,
      1771411947,
      1771412016,
      1771412067,
      1771412076,
      1771412187,
      1771412249,
      1771412249,
      1771412368,
      1771412428,
      1771412488,
      1771412549,
      1771412676,
      1771412796,
      1771412847,
      1771412847,
      1771412856
    ],
    "wof:geomhash": "ac585eadebf3adfb36d848a04a28ba37",
    "wof:id": 2014819487,
    "wof:repo": "sfomuseum-data-flights-2026-02"
  },
  "bbox": [
    -122.36833333333333,
    37.71666666666667,
    -77.45,
    39.15
  ],
  "geometry": {"coordinates":[[-122.35,37.71666666666667],[-122.35,37.71666666666667],[-122.36833333333333,37.80694444444444],[-122.07944444444443,37.98861111111111],[-122.07944444444443,37.98861111111111],[-121.69194444444445,38.02305555555555],[-121.06472222222222,38.10444444444445],[-121.06472222222222,38.10444444444445],[-120.39361111111111,38.1875],[-120.39361111111111,38.1875],[-120.25722222222223,38.20333333333333],[-119.91611111111112,38.243611111111115],[-119.50555555555556,38.29222222222222],[-119.39944444444446,38.302499999999995],[-119.36333333333333,38.30777777777777],[-119.22527777777778,38.32222222222222],[-119.15611111111112,38.33083333333334],[-118.98333333333333,38.349722222222226],[-118.87972222222221,38.36055555555556],[-118.87972222222221,38.36055555555556],[-118.8125,38.368611111111115],[-118.8125,38.368611111111115],[-118.71083333333334,38.37888888888889],[-118.64027777777778,38.38638888888889],[-118.35583333333332,38.41638888888889],[-118.12666666666667,38.44],[-117.65694444444445,38.486111111111114],[-117.65694444444445,38.486111111111114],[-117.435,38.507777777777775],[-117.435,38.507777777777775],[-117.05972222222222,38.51777777777777],[-116.87472222222222,38.51361111111111],[-116.57416666666666,38.506388888888885],[-116.57416666666666,38.506388888888885],[-116.49861111111112,38.504444444444445],[-116.31,38.49888888888889],[-116.12777777777777,38.493611111111115],[-115.83111111111111,38.48444444444444],[-115.83111111111111,38.48444444444444],[-115.6463888888889,38.480000000000004],[-115.09055555555555,38.46222222222222],[-115.09055555555555,38.46222222222222],[-115.09055555555555,38.46222222222222],[-114.35472222222222,38.43416666666666],[-114.17166666666667,38.426944444444445],[-114.17166666666667,38.426944444444445],[-113.98861111111111,38.41888888888889],[-113.80666666666666,38.410555555555554],[-113.62527777777777,38.40222222222222],[-113.26166666666667,38.38444444444444],[-113.26166666666667,38.38444444444444],[-112.71777777777778,38.355555555555554],[-112.53305555555555,38.345555555555556],[-112.53305555555555,38.345555555555556],[-112.3461111111111,38.334722222222226],[-111.50361111111111,38.283055555555556],[-111.20805555555556,38.26361111111111],[-110.64944444444446,38.224444444444444],[-110.38333333333334,38.20416666666667],[-110.38333333333334,38.20416666666667],[-110.26722222222222,38.19583333333333],[-110.19055555555556,38.19],[-110.0736111111111,38.183055555555555],[-109.995,38.18694444444444],[-109.87583333333333,38.20138888888889],[-109.80138888888888,38.21027777777778],[-109.68166666666667,38.224722222222226],[-109.60305555555556,38.23388888888889],[-109.60305555555556,38.23388888888889],[-109.48472222222222,38.24722222222222],[-109.40777777777778,38.25611111111111],[-108.9725,38.305277777777775],[-108.7761111111111,38.32694444444445],[-108.7761111111111,38.32694444444445],[-107.96972222222223,38.41166666666666],[-107.7675,38.4325],[-107.7675,38.4325],[-107.56916666666666,38.45194444444445],[-107.36777777777777,38.47138888888889],[-107.16666666666667,38.49055555555556],[-107.16666666666667,38.49055555555556],[-106.96944444444445,38.50888888888889],[-106.36472222222221,38.56333333333333],[-105.19194444444445,38.708333333333336],[-105.00277777777778,38.730000000000004],[-104.81694444444445,38.743611111111115],[-104.63222222222221,38.75666666666667],[-104.63222222222221,38.75666666666667],[-104.09666666666666,38.791666666666664],[-103.91027777777778,38.80361111111111],[-103.91027777777778,38.80361111111111],[-103.14944444444446,38.84805555555556],[-102.96277777777777,38.858333333333334],[-102.96277777777777,38.858333333333334],[-102.85722222222222,38.86361111111111],[-102.7725,38.868611111111115],[-102.21388888888889,38.896388888888886],[-102.21388888888889,38.896388888888886],[-102.21388888888889,38.896388888888886],[-101.83722222222222,38.913333333333334],[-101.72833333333334,38.918055555555554],[-101.53916666666666,38.92611111111111],[-101.46166666666667,38.92916666666667],[-101.085,38.943888888888885],[-101.085,38.943888888888885],[-100.89527777777778,38.95111111111111],[-100.78361111111111,38.955000000000005],[-100.7025,38.95777777777778],[-100.24361111111111,38.973055555555554],[-99.71333333333334,38.988055555555555],[-99.21000000000001,39],[-98.68472222222222,39.00972222222222],[-98.68472222222222,39.00972222222222],[-98.18166666666667,39.01722222222222],[-97.97333333333333,39.019999999999996],[-97.97333333333333,39.019999999999996],[-97.53277777777778,39.024166666666666],[-97.11138888888888,39.02638888888889],[-96.89666666666668,39.026944444444446],[-96.25416666666666,39.02611111111111],[-96.25416666666666,39.02611111111111],[-95.6036111111111,39.02166666666667],[-92.96694444444445,38.9675],[-91.92333333333333,38.92972222222222],[-91.04583333333333,38.890277777777776],[-90.03055555555555,38.85638888888889],[-88.0325,38.816111111111105],[-87.94944444444445,38.81361111111111],[-84.33749999999999,38.634166666666665],[-83.94888888888889,38.59388888888889],[-83.55888888888889,38.55361111111111],[-83.36611111111111,38.533055555555556],[-82.59416666666667,38.447222222222216],[-82.54888888888888,38.442499999999995],[-82.35888888888888,38.419999999999995],[-82.35888888888888,38.419999999999995],[-82.16972222222223,38.39861111111111],[-81.97888888888889,38.375],[-81.82972222222222,38.356944444444444],[-81.79194444444444,38.3525],[-81.59805555555555,38.34444444444445],[-81.44888888888889,38.33972222222222],[-80.83472222222221,38.31777777777778],[-80.31388888888888,38.3875],[-80.13027777777778,38.42166666666667],[-80.09472222222222,38.42805555555555],[-79.95083333333334,38.45416666666667],[-79.95083333333334,38.45416666666667],[-79.74416666666667,38.49194444444444],[-79.6086111111111,38.516666666666666],[-79.29388888888889,38.57277777777778],[-79.265,38.57805555555556],[-79.10277777777777,38.60638888888889],[-78.9538888888889,38.632222222222225],[-78.67277777777778,38.68055555555555],[-78.51666666666667,38.7],[-78.4,38.733333333333334],[-78.31611111111111,38.77472222222222],[-78.21666666666667,38.85],[-78.14,38.870555555555555],[-78.11666666666666,38.88333333333333],[-77.94472222222223,38.919999999999995],[-77.85249999999999,38.942499999999995],[-77.85249999999999,38.942499999999995],[-77.66277777777778,38.955555555555556],[-77.58944444444444,38.995555555555555],[-77.57472222222222,39.06333333333333],[-77.57444444444444,39.13472222222222],[-77.45,39.15],[-77.45,39.05],[-77.4588888888889,39.00805555555556],[-77.4588888888889,39.00805555555556],[-77.46666666666667,39]],"type":"LineString"}
}
