{
  "id": 2014839205,
  "type": "Feature",
  "properties": {
    "geom:area": 0,
    "geom:bbox": "-122.744444,37.318056,-112.089444,40.862778",
    "geom:latitude": 39.78898043685145,
    "geom:longitude": -118.17177791652036,
    "src:alt_label": "swim-path",
    "src:geom": "swim",
    "swim:altitudes": [
      "076",
      "076",
      "076",
      "076",
      "113",
      "113",
      "113",
      "174",
      "174",
      "199",
      "199",
      "218",
      "218",
      "218",
      "240",
      "240",
      "240",
      "240",
      "294",
      "294",
      "294",
      "312",
      "312",
      "326",
      "326",
      "367",
      "367",
      "367",
      "367",
      "380C",
      "380C",
      "380C",
      "380C",
      "380C",
      "380C",
      "380C",
      "380C",
      "380C",
      "380C",
      "380C",
      "380C",
      "380C",
      "380C",
      "380C",
      "380C",
      "380C",
      "380C",
      "380C",
      "380C",
      "380C",
      "380C",
      "380C",
      "380C",
      "380C",
      "380C",
      "380C",
      "380C",
      "380C",
      "380C",
      "380C",
      "380C",
      "380C",
      "380C",
      "380C",
      "380C",
      "380C",
      "380C",
      "380C",
      "380C",
      "380C",
      "380C",
      "380C",
      "380C",
      "380C",
      "380C",
      "380C",
      "380C",
      "380C",
      "380C",
      "380C",
      "380C",
      "380C",
      "380C",
      "380C",
      "380C",
      "380C",
      "380C",
      "380C",
      "380C",
      "380C",
      "380C",
      "380C",
      "380C",
      "380C",
      "380C",
      "380C",
      "380C",
      "380C",
      "380C",
      "380C",
      "380",
      "380",
      "380",
      "380",
      "380",
      "311",
      "311",
      "270",
      "270",
      "270",
      "270",
      "213",
      "213",
      "213",
      "213",
      "119",
      "119",
      "119",
      "110C",
      "110C",
      "110C",
      "110C",
      "091",
      "091",
      "091",
      "091",
      "076",
      "072",
      "065",
      "052",
      "041",
      "041",
      "041",
      "040",
      "040",
      "040",
      "040",
      "036",
      "030",
      "009",
      "009",
      "009",
      "110",
      "110",
      "110"
    ],
    "swim:geom": "path",
    "swim:speeds": [
      246,
      246,
      246,
      246,
      259,
      259,
      259,
      377,
      377,
      388,
      388,
      406,
      406,
      406,
      419,
      419,
      419,
      419,
      432,
      432,
      432,
      425,
      425,
      423,
      423,
      403,
      403,
      403,
      403,
      417,
      417,
      421,
      421,
      421,
      423,
      427,
      427,
      427,
      427,
      432,
      432,
      432,
      434,
      434,
      433,
      433,
      433,
      433,
      433,
      433,
      434,
      433,
      433,
      433,
      432,
      432,
      432,
      432,
      432,
      432,
      427,
      426,
      426,
      425,
      424,
      424,
      424,
      424,
      423,
      424,
      424,
      424,
      424,
      425,
      425,
      425,
      425,
      420,
      420,
      419,
      419,
      419,
      423,
      423,
      423,
      423,
      426,
      426,
      425,
      425,
      425,
      421,
      421,
      419,
      419,
      419,
      428,
      428,
      428,
      428,
      431,
      433,
      433,
      433,
      433,
      420,
      420,
      404,
      404,
      404,
      404,
      375,
      375,
      375,
      375,
      337,
      337,
      337,
      308,
      308,
      298,
      298,
      292,
      292,
      292,
      292,
      253,
      234,
      217,
      213,
      199,
      199,
      199,
      196,
      196,
      196,
      196,
      191,
      176,
      162,
      162,
      162,
      140,
      140,
      140
    ],
    "swim:timestamps": [
      1771611059,
      1771611059,
      1771611059,
      1771611059,
      1771611138,
      1771611138,
      1771611138,
      1771611318,
      1771611318,
      1771611378,
      1771611378,
      1771611438,
      1771611438,
      1771611438,
      1771611510,
      1771611510,
      1771611510,
      1771611510,
      1771611690,
      1771611690,
      1771611690,
      1771611751,
      1771611751,
      1771611811,
      1771611811,
      1771611991,
      1771611991,
      1771611991,
      1771611991,
      1771612123,
      1771612123,
      1771612285,
      1771612285,
      1771612285,
      1771612303,
      1771612406,
      1771612406,
      1771612406,
      1771612406,
      1771612544,
      1771612544,
      1771612544,
      1771612604,
      1771612604,
      1771612766,
      1771612766,
      1771612766,
      1771612826,
      1771612844,
      1771612844,
      1771612886,
      1771612964,
      1771612964,
      1771612964,
      1771613066,
      1771613066,
      1771613066,
      1771613084,
      1771613127,
      1771613127,
      1771613247,
      1771613307,
      1771613307,
      1771613325,
      1771613367,
      1771613367,
      1771613367,
      1771613367,
      1771613565,
      1771613607,
      1771613625,
      1771613625,
      1771613625,
      1771613667,
      1771613685,
      1771613685,
      1771613685,
      1771613865,
      1771613865,
      1771613908,
      1771613908,
      1771613908,
      1771614148,
      1771614148,
      1771614148,
      1771614148,
      1771614388,
      1771614388,
      1771614448,
      1771614448,
      1771614448,
      1771614569,
      1771614569,
      1771614629,
      1771614629,
      1771614629,
      1771614929,
      1771614929,
      1771614929,
      1771614929,
      1771615049,
      1771615109,
      1771615109,
      1771615109,
      1771615109,
      1771615350,
      1771615350,
      1771615470,
      1771615470,
      1771615470,
      1771615470,
      1771615650,
      1771615650,
      1771615650,
      1771615650,
      1771615951,
      1771615951,
      1771615951,
      1771616011,
      1771616011,
      1771616071,
      1771616071,
      1771616191,
      1771616191,
      1771616191,
      1771616191,
      1771616333,
      1771616371,
      1771616393,
      1771616453,
      1771616518,
      1771616518,
      1771616518,
      1771616551,
      1771616551,
      1771616551,
      1771616551,
      1771616573,
      1771616672,
      1771616813,
      1771616813,
      1771616813,
      1771616912,
      1771616912,
      1771616912
    ],
    "wof:geomhash": "5439fea255904e09749f703f5db4cb87",
    "wof:id": 2014839205,
    "wof:repo": "sfomuseum-data-flights-2026-02"
  },
  "bbox": [
    -122.74444444444444,
    37.31805555555556,
    -112.08944444444444,
    40.86277777777778
  ],
  "geometry": {"coordinates":[[-112.08944444444444,40.849722222222226],[-112.08944444444444,40.849722222222226],[-112.08944444444444,40.849722222222226],[-112.08944444444444,40.849722222222226],[-112.20833333333334,40.859722222222224],[-112.20833333333334,40.859722222222224],[-112.20833333333334,40.859722222222224],[-112.5775,40.86277777777778],[-112.5775,40.86277777777778],[-112.71916666666667,40.85194444444445],[-112.71916666666667,40.85194444444445],[-112.86722222222221,40.8425],[-112.86722222222221,40.8425],[-112.86722222222221,40.8425],[-113.05194444444444,40.84277777777778],[-113.05194444444444,40.84277777777778],[-113.05194444444444,40.84277777777778],[-113.05194444444444,40.84277777777778],[-113.52972222222222,40.84166666666667],[-113.52972222222222,40.84166666666667],[-113.52972222222222,40.84166666666667],[-113.6825,40.841944444444444],[-113.6825,40.841944444444444],[-113.83888888888889,40.84138888888889],[-113.83888888888889,40.84138888888889],[-114.29277777777777,40.83833333333334],[-114.29277777777777,40.83833333333334],[-114.29277777777777,40.83833333333334],[-114.29277777777777,40.83833333333334],[-114.62055555555555,40.835],[-114.62055555555555,40.835],[-115.02166666666666,40.805277777777775],[-115.02166666666666,40.805277777777775],[-115.02166666666666,40.805277777777775],[-115.08111111111111,40.795833333333334],[-115.33194444444445,40.76833333333333],[-115.33194444444445,40.76833333333333],[-115.33194444444445,40.76833333333333],[-115.33194444444445,40.76833333333333],[-115.70527777777778,40.72222222222222],[-115.70527777777778,40.72222222222222],[-115.70527777777778,40.72222222222222],[-115.86222222222221,40.70333333333333],[-115.86222222222221,40.70333333333333],[-116.26944444444445,40.65333333333333],[-116.26944444444445,40.65333333333333],[-116.26944444444445,40.65333333333333],[-116.45694444444445,40.629444444444445],[-116.48361111111112,40.62583333333333],[-116.48361111111112,40.62583333333333],[-116.60944444444443,40.609722222222224],[-116.79555555555555,40.58555555555556],[-116.79555555555555,40.58555555555556],[-116.79555555555555,40.58555555555556],[-117.05499999999999,40.520833333333336],[-117.05499999999999,40.520833333333336],[-117.05499999999999,40.520833333333336],[-117.08222222222221,40.51111111111111],[-117.19805555555556,40.468611111111116],[-117.19805555555556,40.468611111111116],[-117.47527777777778,40.36694444444444],[-117.58444444444444,40.32638888888889],[-117.58444444444444,40.32638888888889],[-117.63777777777779,40.306666666666665],[-117.75055555555555,40.264722222222225],[-117.75055555555555,40.264722222222225],[-117.75055555555555,40.264722222222225],[-117.75055555555555,40.264722222222225],[-118.21583333333334,40.09],[-118.30305555555556,40.05694444444444],[-118.32722222222222,40.047777777777775],[-118.32722222222222,40.047777777777775],[-118.32722222222222,40.047777777777775],[-118.44083333333333,40.004444444444445],[-118.49527777777777,39.98388888888889],[-118.49527777777777,39.98388888888889],[-118.49527777777777,39.98388888888889],[-118.91666666666667,39.85888888888889],[-118.91666666666667,39.85888888888889],[-119.00361111111111,39.83916666666667],[-119.00361111111111,39.83916666666667],[-119.00361111111111,39.83916666666667],[-119.58333333333333,39.70444444444445],[-119.58333333333333,39.70444444444445],[-119.58333333333333,39.70444444444445],[-119.58333333333333,39.70444444444445],[-120.16972222222223,39.56444444444444],[-120.16972222222223,39.56444444444444],[-120.32333333333332,39.527499999999996],[-120.32333333333332,39.527499999999996],[-120.32333333333332,39.527499999999996],[-120.6086111111111,39.45777777777778],[-120.6086111111111,39.45777777777778],[-120.75277777777778,39.42222222222222],[-120.75277777777778,39.42222222222222],[-120.75277777777778,39.42222222222222],[-121.41305555555556,39.151944444444446],[-121.41305555555556,39.151944444444446],[-121.41305555555556,39.151944444444446],[-121.41305555555556,39.151944444444446],[-121.65833333333335,39.00833333333333],[-121.78138888888888,38.93583333333333],[-121.78138888888888,38.93583333333333],[-121.78138888888888,38.93583333333333],[-121.78138888888888,38.93583333333333],[-122.255,38.65361111111111],[-122.255,38.65361111111111],[-122.48138888888889,38.5025],[-122.48138888888889,38.5025],[-122.48138888888889,38.5025],[-122.48138888888889,38.5025],[-122.74444444444444,38.24611111111111],[-122.74444444444444,38.24611111111111],[-122.74444444444444,38.24611111111111],[-122.74444444444444,38.24611111111111],[-122.57222222222222,37.803888888888885],[-122.57222222222222,37.803888888888885],[-122.57222222222222,37.803888888888885],[-122.50027777777778,37.73638888888889],[-122.50027777777778,37.73638888888889],[-122.43388888888889,37.67361111111111],[-122.43388888888889,37.67361111111111],[-122.32555555555555,37.53805555555555],[-122.32555555555555,37.53805555555555],[-122.32555555555555,37.53805555555555],[-122.32555555555555,37.53805555555555],[-122.3,37.35],[-122.28333333333333,37.31805555555556],[-122.25,37.333333333333336],[-122.18333333333334,37.36666666666667],[-122.15,37.416666666666664],[-122.15,37.416666666666664],[-122.15,37.416666666666664],[-122.14888888888889,37.440555555555555],[-122.14888888888889,37.440555555555555],[-122.14888888888889,37.440555555555555],[-122.14888888888889,37.440555555555555],[-122.13333333333334,37.46666666666667],[-122.18833333333333,37.53777777777778],[-122.31666666666666,37.583333333333336],[-122.31666666666666,37.583333333333336],[-122.31666666666666,37.583333333333336],[-122.37527777777777,37.61888888888889],[-122.37527777777777,37.61888888888889],[-122.37527777777777,37.61888888888889]],"type":"LineString"}
}
