{
  "id": 2014824259,
  "type": "Feature",
  "properties": {
    "geom:area": 0,
    "geom:bbox": "-122.290278,32.737222,-117.203333,37.583056",
    "geom:latitude": 35.0096889699396,
    "geom:longitude": -119.93940730499372,
    "src:alt_label": "swim-path",
    "src:geom": "swim",
    "swim:altitudes": [
      "008",
      "008",
      "008",
      "031",
      "031",
      "031",
      "031",
      "056",
      "056",
      "056",
      "056",
      "156",
      "156",
      "201",
      "201",
      "201",
      "201",
      "224",
      "224",
      "224",
      "224",
      "317",
      "317",
      "317",
      "317",
      "317",
      "317",
      "360C",
      "360C",
      "360C",
      "360C",
      "360C",
      "360C",
      "360C",
      "360C",
      "360C",
      "360C",
      "360C",
      "360C",
      "360C",
      "360C",
      "360C",
      "360C",
      "360C",
      "360C",
      "360C",
      "360C",
      "360C",
      "360C",
      "360C",
      "360C",
      "360C",
      "360C",
      "360C",
      "360C",
      "360C",
      "360C",
      "360C",
      "360C",
      "360C",
      "360C",
      "360C",
      "360C",
      "360C",
      "360C",
      "360C",
      "360C",
      "360C",
      "360C",
      "360C",
      "360C",
      "360C",
      "360C",
      "360C",
      "353",
      "353",
      "353",
      "353",
      "343",
      "343",
      "343",
      "333",
      "323",
      "323",
      "323",
      "323",
      "323",
      "292",
      "292",
      "292",
      "284",
      "284",
      "282",
      "282",
      "273",
      "264",
      "264",
      "262",
      "262",
      "242",
      "242",
      "216",
      "215",
      "191",
      "191",
      "165",
      "160",
      "160",
      "143",
      "123",
      "123",
      "123",
      "098",
      "083",
      "083",
      "081",
      "057",
      "055",
      "045",
      "045",
      "045",
      "043",
      "031",
      "028",
      "028",
      "028",
      "012",
      "012",
      "012"
    ],
    "swim:geom": "path",
    "swim:speeds": [
      136,
      136,
      136,
      185,
      185,
      185,
      185,
      240,
      240,
      240,
      240,
      339,
      339,
      328,
      328,
      328,
      328,
      339,
      339,
      339,
      339,
      371,
      371,
      371,
      371,
      371,
      371,
      344,
      344,
      344,
      342,
      342,
      342,
      342,
      341,
      341,
      341,
      341,
      346,
      346,
      346,
      347,
      347,
      347,
      347,
      347,
      350,
      350,
      350,
      352,
      352,
      352,
      353,
      353,
      353,
      355,
      355,
      356,
      356,
      356,
      356,
      356,
      356,
      357,
      357,
      357,
      355,
      355,
      355,
      355,
      355,
      355,
      352,
      352,
      349,
      349,
      349,
      349,
      346,
      346,
      346,
      347,
      345,
      345,
      345,
      345,
      345,
      316,
      316,
      316,
      308,
      308,
      310,
      310,
      302,
      296,
      296,
      299,
      299,
      291,
      291,
      295,
      297,
      296,
      296,
      294,
      294,
      294,
      294,
      286,
      286,
      286,
      236,
      228,
      228,
      229,
      220,
      224,
      219,
      219,
      219,
      222,
      189,
      187,
      187,
      187,
      137,
      137,
      137
    ],
    "swim:timestamps": [
      1771455847,
      1771455847,
      1771455847,
      1771455907,
      1771455907,
      1771455907,
      1771455907,
      1771455968,
      1771455968,
      1771455968,
      1771455968,
      1771456148,
      1771456148,
      1771456208,
      1771456208,
      1771456208,
      1771456208,
      1771456268,
      1771456268,
      1771456268,
      1771456268,
      1771456508,
      1771456508,
      1771456508,
      1771456508,
      1771456508,
      1771456508,
      1771456929,
      1771456929,
      1771456929,
      1771456989,
      1771456989,
      1771456989,
      1771456989,
      1771457109,
      1771457109,
      1771457109,
      1771457109,
      1771457290,
      1771457290,
      1771457290,
      1771457410,
      1771457410,
      1771457410,
      1771457410,
      1771457410,
      1771457590,
      1771457590,
      1771457590,
      1771457650,
      1771457650,
      1771457650,
      1771457710,
      1771457710,
      1771457710,
      1771457834,
      1771457834,
      1771457890,
      1771457890,
      1771457890,
      1771457890,
      1771457890,
      1771457890,
      1771458131,
      1771458131,
      1771458131,
      1771458195,
      1771458195,
      1771458195,
      1771458195,
      1771458195,
      1771458195,
      1771458491,
      1771458491,
      1771458612,
      1771458612,
      1771458612,
      1771458612,
      1771458672,
      1771458672,
      1771458672,
      1771458732,
      1771458796,
      1771458796,
      1771458796,
      1771458796,
      1771458796,
      1771458976,
      1771458976,
      1771458976,
      1771459017,
      1771459017,
      1771459036,
      1771459036,
      1771459077,
      1771459137,
      1771459137,
      1771459156,
      1771459156,
      1771459263,
      1771459263,
      1771459383,
      1771459396,
      1771459456,
      1771459456,
      1771459563,
      1771459576,
      1771459576,
      1771459636,
      1771459697,
      1771459697,
      1771459697,
      1771459803,
      1771459863,
      1771459863,
      1771459877,
      1771459983,
      1771459997,
      1771460043,
      1771460043,
      1771460043,
      1771460057,
      1771460163,
      1771460177,
      1771460177,
      1771460177,
      1771460297,
      1771460297,
      1771460297
    ],
    "wof:geomhash": "bca2eb4cadaf3567d7cfd51616270e80",
    "wof:id": 2014824259,
    "wof:repo": "sfomuseum-data-flights-2026-02"
  },
  "bbox": [
    -122.29027777777777,
    32.73722222222222,
    -117.20333333333333,
    37.58305555555556
  ],
  "geometry": {"coordinates":[[-117.20333333333333,32.73722222222222],[-117.20333333333333,32.73722222222222],[-117.20333333333333,32.73722222222222],[-117.25027777777778,32.7625],[-117.25027777777778,32.7625],[-117.25027777777778,32.7625],[-117.25027777777778,32.7625],[-117.31277777777777,32.79666666666667],[-117.31277777777777,32.79666666666667],[-117.31277777777777,32.79666666666667],[-117.31277777777777,32.79666666666667],[-117.53555555555555,32.939722222222215],[-117.53555555555555,32.939722222222215],[-117.62472222222222,32.99666666666667],[-117.62472222222222,32.99666666666667],[-117.62472222222222,32.99666666666667],[-117.62472222222222,32.99666666666667],[-117.71222222222222,33.052499999999995],[-117.71222222222222,33.052499999999995],[-117.71222222222222,33.052499999999995],[-117.71222222222222,33.052499999999995],[-118.04916666666666,33.35055555555556],[-118.04916666666666,33.35055555555556],[-118.04916666666666,33.35055555555556],[-118.04916666666666,33.35055555555556],[-118.04916666666666,33.35055555555556],[-118.04916666666666,33.35055555555556],[-118.63166666666666,33.83361111111111],[-118.63166666666666,33.83361111111111],[-118.63166666666666,33.83361111111111],[-118.71305555555556,33.900277777777774],[-118.71305555555556,33.900277777777774],[-118.71305555555556,33.900277777777774],[-118.71305555555556,33.900277777777774],[-118.87666666666667,34.034166666666664],[-118.87666666666667,34.034166666666664],[-118.87666666666667,34.034166666666664],[-118.87666666666667,34.034166666666664],[-119.12055555555555,34.23833333333334],[-119.12055555555555,34.23833333333334],[-119.12055555555555,34.23833333333334],[-119.28361111111111,34.37555555555556],[-119.28361111111111,34.37555555555556],[-119.28361111111111,34.37555555555556],[-119.28361111111111,34.37555555555556],[-119.28361111111111,34.37555555555556],[-119.53333333333333,34.58416666666667],[-119.53333333333333,34.58416666666667],[-119.53333333333333,34.58416666666667],[-119.60694444444444,34.64527777777778],[-119.60694444444444,34.64527777777778],[-119.60694444444444,34.64527777777778],[-119.69083333333333,34.71527777777778],[-119.69083333333333,34.71527777777778],[-119.69083333333333,34.71527777777778],[-119.88027777777778,34.87166666666667],[-119.88027777777778,34.87166666666667],[-119.94666666666667,34.92638888888889],[-119.94666666666667,34.92638888888889],[-119.94666666666667,34.92638888888889],[-119.94666666666667,34.92638888888889],[-119.94666666666667,34.92638888888889],[-119.94666666666667,34.92638888888889],[-120.30472222222222,35.21944444444445],[-120.30472222222222,35.21944444444445],[-120.30472222222222,35.21944444444445],[-120.39083333333333,35.28944444444444],[-120.39083333333333,35.28944444444444],[-120.39083333333333,35.28944444444444],[-120.39083333333333,35.28944444444444],[-120.39083333333333,35.28944444444444],[-120.39083333333333,35.28944444444444],[-120.79833333333333,35.64111111111111],[-120.79833333333333,35.64111111111111],[-120.94666666666667,35.78333333333333],[-120.94666666666667,35.78333333333333],[-120.94666666666667,35.78333333333333],[-120.94666666666667,35.78333333333333],[-121.02222222222223,35.85527777777778],[-121.02222222222223,35.85527777777778],[-121.02222222222223,35.85527777777778],[-121.09944444444444,35.92861111111111],[-121.17750000000001,36.00388888888889],[-121.17750000000001,36.00388888888889],[-121.17750000000001,36.00388888888889],[-121.17750000000001,36.00388888888889],[-121.17750000000001,36.00388888888889],[-121.39833333333334,36.212500000000006],[-121.39833333333334,36.212500000000006],[-121.39833333333334,36.212500000000006],[-121.45,36.266666666666666],[-121.45,36.266666666666666],[-121.46666666666667,36.277499999999996],[-121.46666666666667,36.277499999999996],[-121.51666666666667,36.333333333333336],[-121.58333333333333,36.38333333333333],[-121.58333333333333,36.38333333333333],[-121.60055555555554,36.40333333333333],[-121.60055555555554,36.40333333333333],[-121.71666666666667,36.53333333333333],[-121.71666666666667,36.53333333333333],[-121.83333333333333,36.666666666666664],[-121.83388888888888,36.66555555555556],[-121.88833333333334,36.735],[-121.88833333333334,36.735],[-121.93333333333334,36.9],[-121.94166666666668,36.91083333333333],[-121.94166666666668,36.91083333333333],[-121.96722222222222,36.98833333333334],[-121.9975,37.066111111111105],[-121.9975,37.066111111111105],[-121.9975,37.066111111111105],[-122.05,37.18333333333333],[-122.06666666666666,37.25],[-122.06666666666666,37.25],[-122.07333333333332,37.25972222222222],[-122.11666666666666,37.36666666666667],[-122.11972222222222,37.37777777777778],[-122.13333333333334,37.416666666666664],[-122.13333333333334,37.416666666666664],[-122.13333333333334,37.416666666666664],[-122.13972222222223,37.436388888888885],[-122.18333333333334,37.53333333333333],[-122.1888888888889,37.54],[-122.1888888888889,37.54],[-122.1888888888889,37.54],[-122.29027777777777,37.58305555555556],[-122.29027777777777,37.58305555555556],[-122.29027777777777,37.58305555555556]],"type":"LineString"}
}
