{
  "id": 2014884271,
  "type": "Feature",
  "properties": {
    "geom:area": 0,
    "geom:bbox": "-122.436944,30.041667,-90.209722,37.683333",
    "geom:latitude": 32.3319007180395,
    "geom:longitude": -106.79733519416288,
    "src:alt_label": "swim-path",
    "src:geom": "swim",
    "swim:altitudes": [
      "030",
      "030",
      "030",
      "078",
      "136",
      "160",
      "160",
      "160",
      "190",
      "190",
      "190",
      "232",
      "284",
      "284",
      "284",
      "299",
      "299",
      "299",
      "333",
      "356",
      "356",
      "356",
      "389C",
      "390C",
      "390C",
      "390C",
      "390C",
      "390C",
      "390C",
      "390C",
      "390C",
      "390C",
      "390C",
      "390C",
      "390C",
      "390C",
      "390C",
      "390C",
      "390C",
      "390C",
      "390C",
      "390C",
      "390C",
      "390C",
      "390C",
      "390C",
      "390C",
      "390C",
      "390C",
      "390C",
      "390C",
      "390C",
      "390C",
      "390C",
      "390C",
      "390C",
      "390C",
      "390C",
      "390C",
      "390C",
      "390C",
      "390C",
      "390C",
      "390C",
      "390C",
      "390C",
      "390C",
      "390C",
      "390C",
      "390C",
      "390C",
      "390C",
      "390C",
      "390C",
      "390C",
      "390C",
      "390C",
      "390C",
      "390C",
      "390C",
      "390C",
      "390C",
      "390C",
      "390C",
      "390C",
      "390C",
      "390C",
      "390C",
      "390C",
      "390C",
      "390C",
      "390C",
      "390C",
      "390C",
      "390C",
      "390C",
      "390C",
      "390C",
      "390C",
      "390C",
      "390C",
      "390C",
      "390C",
      "390C",
      "390C",
      "390C",
      "390C",
      "390C",
      "390C",
      "390C",
      "390C",
      "390C",
      "390C",
      "390C",
      "390C",
      "390C",
      "390C",
      "390C",
      "390C",
      "390C",
      "390C",
      "390C",
      "390C",
      "390C",
      "390C",
      "390C",
      "390C",
      "390C",
      "390C",
      "390C",
      "390C",
      "390C",
      "390C",
      "390C",
      "390C",
      "390C",
      "390C",
      "390C",
      "390C",
      "390C",
      "390C",
      "390C",
      "390C",
      "390C",
      "390C",
      "390C",
      "390C",
      "390C",
      "390C",
      "390C",
      "390C",
      "390C",
      "390C",
      "390C",
      "390C",
      "390C",
      "390C",
      "384",
      "384",
      "365",
      "365",
      "116",
      "116",
      "088",
      "067",
      "060",
      "055",
      "055",
      "040",
      "036",
      "036",
      "020",
      "020",
      "020",
      "020",
      "020",
      "017",
      "011",
      "009"
    ],
    "swim:geom": "path",
    "swim:speeds": [
      166,
      166,
      166,
      264,
      349,
      379,
      379,
      379,
      403,
      403,
      403,
      427,
      471,
      471,
      471,
      471,
      471,
      471,
      487,
      486,
      486,
      486,
      484,
      484,
      484,
      484,
      488,
      488,
      488,
      488,
      488,
      487,
      486,
      486,
      486,
      484,
      484,
      484,
      484,
      491,
      491,
      491,
      489,
      489,
      489,
      489,
      489,
      488,
      488,
      488,
      488,
      490,
      490,
      490,
      490,
      490,
      489,
      489,
      489,
      489,
      489,
      490,
      490,
      489,
      486,
      486,
      486,
      486,
      486,
      486,
      482,
      482,
      482,
      482,
      484,
      484,
      484,
      482,
      482,
      481,
      481,
      481,
      482,
      482,
      482,
      482,
      471,
      471,
      471,
      469,
      469,
      468,
      470,
      470,
      470,
      472,
      473,
      473,
      475,
      475,
      476,
      476,
      476,
      472,
      472,
      474,
      474,
      474,
      474,
      475,
      475,
      475,
      475,
      475,
      465,
      465,
      470,
      470,
      470,
      471,
      472,
      474,
      481,
      480,
      481,
      471,
      471,
      473,
      473,
      476,
      476,
      473,
      473,
      477,
      475,
      471,
      471,
      470,
      470,
      468,
      468,
      473,
      473,
      474,
      474,
      477,
      477,
      478,
      478,
      472,
      472,
      473,
      473,
      474,
      473,
      473,
      472,
      471,
      471,
      472,
      472,
      364,
      364,
      335,
      322,
      316,
      295,
      295,
      290,
      279,
      279,
      210,
      157,
      126,
      123,
      123,
      114,
      114,
      116
    ],
    "swim:timestamps": [
      1772057226,
      1772057226,
      1772057226,
      1772057346,
      1772057467,
      1772057527,
      1772057527,
      1772057527,
      1772057652,
      1772057652,
      1772057652,
      1772057767,
      1772057947,
      1772057947,
      1772057947,
      1772058012,
      1772058012,
      1772058012,
      1772058127,
      1772058253,
      1772058253,
      1772058253,
      1772058433,
      1772058488,
      1772058488,
      1772058488,
      1772058793,
      1772058793,
      1772058793,
      1772058848,
      1772058848,
      1772058914,
      1772059154,
      1772059154,
      1772059154,
      1772059394,
      1772059394,
      1772059514,
      1772059514,
      1772059755,
      1772059755,
      1772059755,
      1772059995,
      1772059995,
      1772060055,
      1772060055,
      1772060115,
      1772060175,
      1772060175,
      1772060236,
      1772060236,
      1772060356,
      1772060356,
      1772060416,
      1772060416,
      1772060476,
      1772060536,
      1772060596,
      1772060596,
      1772060596,
      1772060714,
      1772060774,
      1772060774,
      1772060894,
      1772060957,
      1772060957,
      1772060957,
      1772061075,
      1772061075,
      1772061075,
      1772061257,
      1772061257,
      1772061317,
      1772061317,
      1772061796,
      1772061796,
      1772061796,
      1772061976,
      1772061976,
      1772062036,
      1772062036,
      1772062036,
      1772062277,
      1772062277,
      1772062397,
      1772062397,
      1772062577,
      1772062577,
      1772062577,
      1772062637,
      1772062637,
      1772062697,
      1772062878,
      1772062878,
      1772062878,
      1772062938,
      1772062998,
      1772062998,
      1772063058,
      1772063058,
      1772063238,
      1772063238,
      1772063238,
      1772063418,
      1772063418,
      1772063539,
      1772063599,
      1772063599,
      1772063599,
      1772063719,
      1772063719,
      1772063839,
      1772063839,
      1772063839,
      1772064084,
      1772064084,
      1772064320,
      1772064380,
      1772064440,
      1772064500,
      1772064620,
      1772064741,
      1772064921,
      1772065166,
      1772065282,
      1772065642,
      1772065642,
      1772065943,
      1772065943,
      1772066187,
      1772066187,
      1772066308,
      1772066368,
      1772066548,
      1772066608,
      1772066969,
      1772066969,
      1772067089,
      1772067089,
      1772067329,
      1772067329,
      1772067690,
      1772067690,
      1772067870,
      1772067870,
      1772068110,
      1772068110,
      1772068170,
      1772068231,
      1772068351,
      1772068351,
      1772068952,
      1772068952,
      1772069252,
      1772069372,
      1772069372,
      1772069433,
      1772069553,
      1772069553,
      1772069673,
      1772069673,
      1772070364,
      1772070364,
      1772070514,
      1772070604,
      1772070634,
      1772070664,
      1772070664,
      1772070725,
      1772070755,
      1772070755,
      1772070875,
      1772070905,
      1772070962,
      1772070995,
      1772070995,
      1772071022,
      1772071082,
      1772071115
    ],
    "wof:geomhash": "aa816f5488d9f980ecf98109e6f5917f",
    "wof:id": 2014884271,
    "wof:repo": "sfomuseum-data-flights-2026-02"
  },
  "bbox": [
    -122.43694444444445,
    30.041666666666668,
    -90.20972222222223,
    37.68333333333333
  ],
  "geometry": {"coordinates":[[-122.36666666666666,37.68333333333333],[-122.36666666666666,37.68333333333333],[-122.36666666666666,37.68333333333333],[-122.43694444444445,37.638888888888886],[-122.40583333333333,37.48416666666667],[-122.30472222222222,37.42166666666667],[-122.30472222222222,37.42166666666667],[-122.30472222222222,37.42166666666667],[-122.09222222222222,37.27166666666667],[-122.09222222222222,37.27166666666667],[-122.09222222222222,37.27166666666667],[-121.86638888888888,37.12361111111111],[-121.50305555555556,36.87444444444444],[-121.50305555555556,36.87444444444444],[-121.50305555555556,36.87444444444444],[-121.3775,36.78583333333333],[-121.3775,36.78583333333333],[-121.3775,36.78583333333333],[-121.11333333333333,36.60416666666667],[-120.86361111111111,36.431666666666665],[-120.86361111111111,36.431666666666665],[-120.86361111111111,36.431666666666665],[-120.47555555555556,36.172777777777775],[-120.34388888888888,36.08277777777778],[-120.34388888888888,36.08277777777778],[-120.34388888888888,36.08277777777778],[-119.70777777777778,35.64138888888889],[-119.70777777777778,35.64138888888889],[-119.70777777777778,35.64138888888889],[-119.6036111111111,35.56777777777778],[-119.6036111111111,35.56777777777778],[-119.45555555555556,35.462500000000006],[-118.95916666666668,35.10638888888889],[-118.95916666666668,35.10638888888889],[-118.95916666666668,35.10638888888889],[-118.48222222222222,34.759166666666665],[-118.48222222222222,34.759166666666665],[-118.23861111111111,34.58027777777778],[-118.23861111111111,34.58027777777778],[-117.66333333333334,34.33777777777778],[-117.66333333333334,34.33777777777778],[-117.66333333333334,34.33777777777778],[-117.01638888888888,34.18388888888889],[-117.01638888888888,34.18388888888889],[-116.86027777777777,34.146388888888886],[-116.86027777777777,34.146388888888886],[-116.71055555555556,34.11],[-116.55361111111111,34.07166666666667],[-116.55361111111111,34.07166666666667],[-116.39805555555556,34.03333333333333],[-116.39805555555556,34.03333333333333],[-116.08083333333333,33.95444444444445],[-116.08083333333333,33.95444444444445],[-115.92611111111111,33.91583333333333],[-115.92611111111111,33.91583333333333],[-115.76805555555555,33.87583333333333],[-115.60972222222222,33.83555555555556],[-115.45416666666667,33.79611111111111],[-115.45416666666667,33.79611111111111],[-115.45416666666667,33.79611111111111],[-115.14166666666668,33.71555555555556],[-114.98944444444444,33.67611111111111],[-114.98944444444444,33.67611111111111],[-114.67583333333334,33.59388888888889],[-114.52166666666666,33.55333333333333],[-114.52166666666666,33.55333333333333],[-114.52166666666666,33.55333333333333],[-114.21111111111111,33.48833333333334],[-114.21111111111111,33.48833333333334],[-114.21111111111111,33.48833333333334],[-113.74138888888889,33.400277777777774],[-113.74138888888889,33.400277777777774],[-113.58805555555556,33.35944444444445],[-113.58805555555556,33.35944444444445],[-112.36972222222222,33.01777777777777],[-112.36972222222222,33.01777777777777],[-112.36972222222222,33.01777777777777],[-111.91583333333334,32.8925],[-111.91583333333334,32.8925],[-111.76694444444445,32.85055555555556],[-111.76694444444445,32.85055555555556],[-111.76694444444445,32.85055555555556],[-111.16555555555556,32.680277777777775],[-111.16555555555556,32.680277777777775],[-110.86694444444444,32.59444444444445],[-110.86694444444444,32.59444444444445],[-110.42361111111111,32.47138888888889],[-110.42361111111111,32.47138888888889],[-110.42361111111111,32.47138888888889],[-110.28472222222221,32.45194444444445],[-110.28472222222221,32.45194444444445],[-110.13361111111112,32.43055555555555],[-109.67944444444444,32.36472222222223],[-109.67944444444444,32.36472222222223],[-109.67944444444444,32.36472222222223],[-109.49583333333334,32.337500000000006],[-109.34416666666667,32.31472222222222],[-109.34416666666667,32.31472222222222],[-109.1913888888889,32.29194444444444],[-109.1913888888889,32.29194444444444],[-108.73305555555555,32.22166666666667],[-108.73305555555555,32.22166666666667],[-108.73305555555555,32.22166666666667],[-108.28861111111111,32.151666666666664],[-108.28861111111111,32.151666666666664],[-107.985,32.10333333333333],[-107.83222222222221,32.078611111111115],[-107.83222222222221,32.078611111111115],[-107.83222222222221,32.078611111111115],[-107.5286111111111,32.02861111111111],[-107.5286111111111,32.02861111111111],[-107.2275,31.97861111111111],[-107.2275,31.97861111111111],[-107.2275,31.97861111111111],[-106.61777777777777,31.874444444444446],[-106.61777777777777,31.874444444444446],[-106.005,31.747222222222224],[-105.85722222222222,31.710555555555555],[-105.71166666666667,31.67388888888889],[-105.58805555555556,31.642777777777777],[-105.29027777777777,31.5675],[-104.99333333333334,31.491111111111113],[-104.54166666666667,31.37388888888889],[-103.9175,31.210555555555555],[-103.64416666666668,31.134722222222223],[-102.76222222222222,30.930555555555557],[-102.76222222222222,30.930555555555557],[-101.98083333333334,30.848888888888887],[-101.98083333333334,30.848888888888887],[-101.365,30.78111111111111],[-101.365,30.78111111111111],[-101.0611111111111,30.746944444444445],[-100.90972222222223,30.729444444444443],[-100.45027777777779,30.67527777777778],[-100.29833333333333,30.65694444444444],[-99.39472222222223,30.54416666666667],[-99.39472222222223,30.54416666666667],[-99.12444444444444,30.509166666666665],[-99.12444444444444,30.509166666666665],[-98.51083333333334,30.427222222222223],[-98.51083333333334,30.427222222222223],[-97.61916666666666,30.303055555555556],[-97.61916666666666,30.303055555555556],[-97.17055555555557,30.238055555555558],[-97.17055555555557,30.238055555555558],[-96.57249999999999,30.148611111111112],[-96.57249999999999,30.148611111111112],[-96.42111111111112,30.125833333333333],[-96.26055555555556,30.101111111111113],[-95.96722222222222,30.055555555555557],[-95.96722222222222,30.055555555555557],[-94.46333333333334,30.075277777777778],[-94.46333333333334,30.075277777777778],[-93.71055555555556,30.092222222222222],[-93.41250000000001,30.0975],[-93.41250000000001,30.0975],[-93.26277777777777,30.1],[-92.96138888888889,30.104444444444447],[-92.96138888888889,30.104444444444447],[-92.65833333333335,30.108055555555556],[-92.65833333333335,30.108055555555556],[-91.04833333333333,30.123055555555556],[-91.04833333333333,30.123055555555556],[-90.78305555555555,30.161388888888887],[-90.62777777777777,30.189444444444444],[-90.57944444444443,30.195833333333333],[-90.53138888888888,30.191111111111113],[-90.53138888888888,30.191111111111113],[-90.43777777777778,30.18638888888889],[-90.39583333333334,30.183888888888887],[-90.39583333333334,30.183888888888887],[-90.24805555555555,30.166944444444447],[-90.22277777777778,30.150555555555552],[-90.20972222222223,30.116944444444446],[-90.21388888888889,30.103055555555557],[-90.21388888888889,30.103055555555557],[-90.22055555555556,30.085833333333333],[-90.22916666666667,30.054722222222225],[-90.23305555555555,30.041666666666668]],"type":"LineString"}
}
