{
  "id": 2014880493,
  "type": "Feature",
  "properties": {
    "geom:area": 0,
    "geom:bbox": "-122.318730,36.723840,-121.879840,37.594990",
    "geom:latitude": 37.1928249039157,
    "geom:longitude": -122.05879046592071,
    "src:alt_label": "swim-approach",
    "src:geom": "swim",
    "swim:elevations": [
      5433,
      5179,
      5012,
      4660,
      4384,
      4121,
      4094,
      3913,
      3682,
      3570,
      3383,
      3111,
      3046,
      2826,
      2611,
      2473,
      2376,
      2314,
      2120,
      1867,
      1769,
      1660,
      1526,
      1268,
      1213,
      1090,
      926,
      871,
      630,
      497,
      340,
      243
    ],
    "swim:geom": "approach",
    "swim:timestamps": [
      1772037285,
      1772037317,
      1772037334,
      1772037374,
      1772037406,
      1772037446,
      1772037450,
      1772037481,
      1772037534,
      1772037551,
      1772037582,
      1772037625,
      1772037636,
      1772037674,
      1772037714,
      1772037734,
      1772037755,
      1772037764,
      1772037794,
      1772037834,
      1772037853,
      1772037882,
      1772037917,
      1772037956,
      1772037964,
      1772037984,
      1772038012,
      1772038020,
      1772038069,
      1772038093,
      1772038131,
      1772038159
    ],
    "wof:geomhash": "707cb92b300a6f2a9656e89695b97707",
    "wof:id": 2014880493,
    "wof:repo": "sfomuseum-data-flights-2026-02"
  },
  "bbox": [
    -122.31873,
    36.72384,
    -121.87984,
    37.59499
  ],
  "geometry": {"coordinates":[[-121.87984,36.72384],[-121.90211,36.76991],[-121.90958,36.79672],[-121.92651,36.857],[-121.93984,36.90471],[-121.95578,36.95853],[-121.95791,36.96366],[-121.97214,37.00047],[-121.99369,37.05623],[-122.00075,37.07431],[-122.01354,37.10755],[-122.03143,37.15264],[-122.03608,37.16447],[-122.05169,37.20422],[-122.06797,37.24613],[-122.07617,37.26735],[-122.08483,37.28891],[-122.08846,37.29802],[-122.10037,37.3284],[-122.11634,37.36899],[-122.12324,37.3875],[-122.13356,37.41796],[-122.14544,37.45242],[-122.16277,37.48719],[-122.16782,37.49414],[-122.17972,37.51102],[-122.19602,37.53433],[-122.20069,37.54087],[-122.24541,37.56422],[-122.26744,37.57363],[-122.2984,37.58647],[-122.31873,37.59499]],"type":"LineString"}
}
