{
  "id": 2014782335,
  "type": "Feature",
  "properties": {
    "geom:area": 0,
    "geom:bbox": "-123.126111,37.433333,-122.116667,45.518056",
    "geom:latitude": 41.396502138618494,
    "geom:longitude": -122.89359663410258,
    "src:alt_label": "swim-path",
    "src:geom": "swim",
    "swim:altitudes": [
      "059",
      "097",
      "114",
      "161",
      "213",
      "251",
      "318",
      "353",
      "359",
      "363",
      "370C",
      "370C",
      "370C",
      "370C",
      "370C",
      "370C",
      "370C",
      "370C",
      "370C",
      "370C",
      "370C",
      "370C",
      "370C",
      "370C",
      "370C",
      "370C",
      "370C",
      "370C",
      "349",
      "330",
      "311",
      "174",
      "155",
      "110",
      "110C",
      "106",
      "066",
      "052",
      "040",
      "038",
      "032",
      "014",
      "012"
    ],
    "swim:geom": "path",
    "swim:speeds": [
      251,
      237,
      276,
      337,
      358,
      382,
      391,
      400,
      403,
      412,
      415,
      411,
      406,
      403,
      386,
      386,
      388,
      389,
      393,
      395,
      396,
      400,
      406,
      411,
      416,
      414,
      411,
      408,
      419,
      429,
      430,
      354,
      345,
      298,
      287,
      255,
      235,
      225,
      228,
      228,
      194,
      164,
      160
    ],
    "swim:timestamps": [
      1771048384,
      1771048444,
      1771048504,
      1771048624,
      1771048745,
      1771048865,
      1771049105,
      1771049285,
      1771049345,
      1771049405,
      1771049465,
      1771049585,
      1771049825,
      1771049943,
      1771050426,
      1771050546,
      1771050606,
      1771050664,
      1771050786,
      1771050844,
      1771050906,
      1771051086,
      1771051204,
      1771051326,
      1771051506,
      1771051625,
      1771051686,
      1771051745,
      1771051985,
      1771052105,
      1771052165,
      1771052585,
      1771052646,
      1771052860,
      1771052946,
      1771052980,
      1771053172,
      1771053246,
      1771053285,
      1771053306,
      1771053366,
      1771053460,
      1771053486
    ],
    "wof:geomhash": "2d39bc925fca400b11c3f3df1f07e472",
    "wof:id": 2014782335,
    "wof:repo": "sfomuseum-data-flights-2026-02"
  },
  "bbox": [
    -123.1261111111111,
    37.43333333333333,
    -122.11666666666666,
    45.518055555555556
  ],
  "geometry": {"coordinates":[[-122.40472222222223,45.518055555555556],[-122.47638888888889,45.475],[-122.55694444444444,45.43416666666666],[-122.76666666666667,45.32638888888889],[-122.97222222222223,45.20027777777778],[-123.02083333333333,45.000277777777775],[-123.12194444444444,44.559444444444445],[-123.1261111111111,44.227222222222224],[-123.12194444444444,44.114444444444445],[-123.11833333333333,44.011944444444445],[-123.11416666666666,43.894444444444446],[-123.10666666666665,43.661944444444444],[-123.09055555555555,43.211666666666666],[-123.08305555555555,42.99305555555556],[-123.05388888888889,42.11333333333334],[-123.04694444444445,41.900555555555556],[-123.0436111111111,41.79222222222222],[-123.04027777777777,41.68444444444444],[-123.03333333333333,41.46611111111111],[-123.02972222222222,41.35527777777778],[-123.0261111111111,41.24],[-123.00666666666666,40.905277777777776],[-122.98777777777778,40.698055555555555],[-122.96666666666667,40.47],[-122.935,40.125277777777775],[-122.91472222222222,39.89805555555556],[-122.90444444444445,39.78138888888889],[-122.89277777777778,39.65222222222222],[-122.85249999999999,39.19638888888888],[-122.83166666666666,38.96055555555556],[-122.82083333333333,38.84055555555556],[-122.72666666666667,38.08416666666667],[-122.7,37.99166666666667],[-122.48333333333333,37.71666666666667],[-122.38972222222223,37.63194444444444],[-122.35,37.6],[-122.2,37.43333333333333],[-122.12583333333333,37.455555555555556],[-122.11666666666666,37.5],[-122.125,37.51416666666667],[-122.18472222222222,37.54083333333333],[-122.28333333333333,37.583333333333336],[-122.29666666666667,37.588055555555556]],"type":"LineString"}
}
