{
  "id": 2014876367,
  "type": "Feature",
  "properties": {
    "geom:area": 0,
    "geom:bbox": "-122.351111,35.754722,-115.165000,37.608889",
    "geom:latitude": 37.00642828224579,
    "geom:longitude": -118.5048216785405,
    "src:alt_label": "swim-path",
    "src:geom": "swim",
    "swim:altitudes": [
      "006",
      "006",
      "030",
      "118",
      "118",
      "118",
      "142",
      "168",
      "189",
      "211",
      "211",
      "226",
      "226",
      "241",
      "259",
      "272",
      "272",
      "310C",
      "310C",
      "310C",
      "310C",
      "310C",
      "310C",
      "310C",
      "310C",
      "310C",
      "310C",
      "310C",
      "310C",
      "310C",
      "310C",
      "310C",
      "310C",
      "310",
      "300",
      "300",
      "300",
      "211",
      "207",
      "188",
      "182",
      "176",
      "173",
      "173",
      "173",
      "141",
      "138",
      "130",
      "120",
      "107",
      "107",
      "093",
      "093",
      "081",
      "079",
      "074",
      "053",
      "047",
      "025",
      "022"
    ],
    "swim:geom": "path",
    "swim:speeds": [
      177,
      177,
      183,
      393,
      393,
      393,
      415,
      414,
      432,
      448,
      448,
      456,
      456,
      478,
      509,
      528,
      528,
      531,
      536,
      536,
      537,
      537,
      533,
      526,
      526,
      526,
      521,
      520,
      520,
      519,
      519,
      509,
      509,
      509,
      499,
      499,
      499,
      425,
      418,
      420,
      423,
      417,
      410,
      410,
      410,
      380,
      367,
      349,
      323,
      312,
      312,
      294,
      294,
      288,
      262,
      267,
      240,
      217,
      161,
      163
    ],
    "swim:timestamps": [
      1771995320,
      1771995320,
      1771995380,
      1771995620,
      1771995620,
      1771995620,
      1771995680,
      1771995739,
      1771995799,
      1771995860,
      1771995860,
      1771995919,
      1771995919,
      1771995979,
      1771996040,
      1771996099,
      1771996099,
      1771996339,
      1771996400,
      1771996400,
      1771996461,
      1771996461,
      1771996700,
      1771996821,
      1771996821,
      1771996821,
      1771996941,
      1771997060,
      1771997060,
      1771997121,
      1771997121,
      1771997241,
      1771997241,
      1771997301,
      1771997541,
      1771997541,
      1771997541,
      1771997781,
      1771997792,
      1771997841,
      1771997853,
      1771997901,
      1771997913,
      1771997913,
      1771997913,
      1771998021,
      1771998035,
      1771998082,
      1771998142,
      1771998223,
      1771998223,
      1771998322,
      1771998322,
      1771998382,
      1771998442,
      1771998461,
      1771998562,
      1771998588,
      1771998710,
      1771998742
    ],
    "wof:geomhash": "14c1d7d8a1e872577785daca32dd4143",
    "wof:id": 2014876367,
    "wof:repo": "sfomuseum-data-flights-2026-02"
  },
  "bbox": [
    -122.35111111111111,
    35.75472222222222,
    -115.165,
    37.60888888888889
  ],
  "geometry": {"coordinates":[[-122.35111111111111,37.60888888888889],[-122.35111111111111,37.60888888888889],[-122.29305555555555,37.58638888888889],[-121.90027777777779,37.464444444444446],[-121.90027777777779,37.464444444444446],[-121.90027777777779,37.464444444444446],[-121.76472222222222,37.42777777777778],[-121.62027777777777,37.38722222222222],[-121.47694444444444,37.344722222222224],[-121.315,37.30444444444444],[-121.315,37.30444444444444],[-121.17111111111112,37.26111111111111],[-121.17111111111112,37.26111111111111],[-121.00694444444444,37.21638888888889],[-120.825,37.18055555555555],[-120.65222222222222,37.19027777777777],[-120.65222222222222,37.19027777777777],[-119.90972222222223,37.242222222222225],[-119.71611111111112,37.25416666666667],[-119.71611111111112,37.25416666666667],[-119.52694444444444,37.26555555555556],[-119.52694444444444,37.26555555555556],[-118.79861111111111,37.3075],[-118.43194444444445,37.32694444444445],[-118.43194444444445,37.32694444444445],[-118.43194444444445,37.32694444444445],[-118.07277777777777,37.34527777777778],[-117.71055555555556,37.36194444444445],[-117.71055555555556,37.36194444444445],[-117.53194444444445,37.37],[-117.53194444444445,37.37],[-117.1888888888889,37.325833333333335],[-117.1888888888889,37.325833333333335],[-117.05749999999999,37.23222222222223],[-116.62083333333332,36.803888888888885],[-116.62083333333332,36.803888888888885],[-116.62083333333332,36.803888888888885],[-116.16888888888889,36.42222222222222],[-116.14277777777778,36.40361111111111],[-116.05972222222222,36.344722222222224],[-116.0325,36.32361111111111],[-115.9525,36.268055555555556],[-115.9238888888889,36.24777777777778],[-115.9238888888889,36.24777777777778],[-115.9238888888889,36.24777777777778],[-115.74055555555556,36.11277777777778],[-115.73222222222222,36.09138888888889],[-115.7025,36.01972222222222],[-115.66777777777779,35.933611111111105],[-115.61444444444444,35.82277777777778],[-115.61444444444444,35.82277777777778],[-115.47666666666667,35.75472222222222],[-115.47666666666667,35.75472222222222],[-115.38333333333334,35.77027777777778],[-115.32805555555555,35.8275],[-115.30916666666667,35.845555555555556],[-115.24388888888889,35.94611111111111],[-115.22916666666667,35.973055555555554],[-115.17916666666667,36.06305555555555],[-115.165,36.08444444444444]],"type":"LineString"}
}
