{
  "id": 2014786463,
  "type": "Feature",
  "properties": {
    "geom:area": 0,
    "geom:bbox": "-122.370940,37.625470,-121.264210,38.413690",
    "geom:latitude": 38.019312352354284,
    "geom:longitude": -121.81799297954747,
    "src:alt_label": "swim-takeoff",
    "src:geom": "swim",
    "swim:elevations": [
      122,
      332,
      750,
      982,
      1079,
      1339,
      1692,
      2088,
      2838,
      3263,
      3423,
      3586,
      4164,
      4520,
      5088,
      5309,
      5576,
      6113,
      7127,
      7363,
      7498,
      7763,
      7926,
      8162
    ],
    "swim:geom": "takeoff",
    "swim:timestamps": [
      1771001112,
      1771001128,
      1771001158,
      1771001178,
      1771001192,
      1771001234,
      1771001271,
      1771001292,
      1771001333,
      1771001368,
      1771001388,
      1771001405,
      1771001451,
      1771001476,
      1771001517,
      1771001541,
      1771001570,
      1771001620,
      1771001723,
      1771001754,
      1771001774,
      1771001807,
      1771001823,
      1771001856
    ],
    "wof:geomhash": "066c634c9e79d8b8feac2d5973209b44",
    "wof:id": 2014786463,
    "wof:repo": "sfomuseum-data-flights-2026-02"
  },
  "bbox": [
    -122.37094,
    37.62547,
    -121.26421,
    38.41369
  ],
  "geometry": {"coordinates":[[-122.37094,37.62547],[-122.36271,37.63491],[-122.34121,37.64882],[-122.32602,37.65735],[-122.316,37.66286],[-122.27811,37.68448],[-122.23169,37.7088],[-122.20635,37.72596],[-122.16031,37.76412],[-122.11735,37.79648],[-122.0905,37.81627],[-122.06512,37.83521],[-121.99502,37.888],[-121.95557,37.91737],[-121.89172,37.96496],[-121.8514,37.99521],[-121.80252,38.03157],[-121.71567,38.09588],[-121.52822,38.23433],[-121.47051,38.27684],[-121.43258,38.30478],[-121.36757,38.34987],[-121.33353,38.37042],[-121.26421,38.41369]],"type":"LineString"}
}
