{
  "id": 2014842803,
  "type": "Feature",
  "properties": {
    "geom:area": 0,
    "geom:bbox": "-122.368720,37.624780,-122.213270,38.461850",
    "geom:latitude": 38.011719995353765,
    "geom:longitude": -122.23874675950826,
    "src:alt_label": "swim-takeoff",
    "src:geom": "swim",
    "swim:elevations": [
      152,
      699,
      886,
      1241,
      1527,
      1655,
      2572,
      2655,
      3381,
      3456,
      3606,
      3849,
      4143,
      4499,
      5007,
      5770,
      5963,
      6440,
      6991,
      7250,
      7575,
      7952,
      8028,
      8099
    ],
    "swim:geom": "takeoff",
    "swim:timestamps": [
      1771578789,
      1771578833,
      1771578849,
      1771578875,
      1771578894,
      1771578900,
      1771578956,
      1771578960,
      1771579015,
      1771579022,
      1771579034,
      1771579051,
      1771579071,
      1771579094,
      1771579131,
      1771579191,
      1771579205,
      1771579242,
      1771579283,
      1771579305,
      1771579334,
      1771579373,
      1771579383,
      1771579392
    ],
    "wof:geomhash": "8a1562f8ce74caff638442381a923044",
    "wof:id": 2014842803,
    "wof:repo": "sfomuseum-data-flights-2026-02"
  },
  "bbox": [
    -122.36872,
    37.62478,
    -122.21327,
    38.46185
  ],
  "geometry": {"coordinates":[[-122.36872,37.62478],[-122.33642,37.64799],[-122.32189,37.65643],[-122.29539,37.67276],[-122.27401,37.68623],[-122.26709,37.69045],[-122.21354,37.73833],[-122.21327,37.74364],[-122.21733,37.81573],[-122.21755,37.82552],[-122.21791,37.8429],[-122.21825,37.8689],[-122.21907,37.89866],[-122.2204,37.93641],[-122.22197,37.99629],[-122.22457,38.09765],[-122.22526,38.12172],[-122.22719,38.18801],[-122.22916,38.2616],[-122.2302,38.30142],[-122.23175,38.35377],[-122.23888,38.42463],[-122.24093,38.44468],[-122.24279,38.46185]],"type":"LineString"}
}
