{
  "id": 2014858093,
  "type": "Feature",
  "properties": {
    "geom:area": 0,
    "geom:bbox": "-122.380000,37.620000,-79.630000,43.680000",
    "geom:latitude": 42.274650263123114,
    "geom:longitude": -101.30325399836212,
    "src:alt_label": "swim-route",
    "src:geom": "swim",
    "swim:geom": "route",
    "wof:geomhash": "86146ecbc96027b68de021f8a2f16c3d",
    "wof:id": 2014858093,
    "wof:repo": "sfomuseum-data-flights-2026-02"
  },
  "bbox": [
    -122.38,
    37.62,
    -79.63,
    43.68
  ],
  "geometry": {"coordinates":[[-122.38,37.62],[-122.29,37.7],[-122.29,37.7],[-122.24,37.75],[-122.24,37.75],[-122.22,37.77],[-122.18,37.81],[-122.16,37.82],[-122.06,37.92],[-122.04,37.94],[-121.87,38.04],[-121.87,38.04],[-121.81,38.08],[-121.75,38.12],[-121.72,38.14],[-121.63,38.19],[-121.54,38.25],[-121.53,38.26],[-121.44,38.31],[-121.42,38.33],[-121.35,38.37],[-121.15,38.49],[-121.07,38.54],[-120.99,38.59],[-120.95,38.61],[-120.91,38.64],[-120.57,38.84],[-120.18,39.08],[-119.88,39.27],[-119.66,39.39],[-118.8,39.88],[-118.02,40.2],[-117.94,40.22],[-114.46,41.2],[-113.84,41.36],[-113.6,41.44],[-113.29,41.54],[-112.91,41.65],[-112.19,41.87],[-111.21,42.16],[-110,42.5],[-109.76,42.53],[-108.01,42.77],[-107.12,42.87],[-106.84,42.91],[-106.62,42.93],[-106,43],[-103.97,43.04],[-102.23,43.04],[-101.4,43.03],[-100.84,43.02],[-100,43],[-99.86,43],[-96.86,43.04],[-96.2,43.04],[-95.69,43.03],[-94.42,43.01],[-94.09,43],[-94,43],[-91.44,43.02],[-90,43],[-89.64,43.03],[-88.28,43.12],[-87,43.15],[-86.04,43.17],[-85,43.22],[-84.46,43.24],[-84.1,43.28],[-83.73,43.32],[-83.7,43.32],[-83.12,43.38],[-83.03,43.39],[-82.9,43.41],[-82.21,43.44],[-82.2,43.44],[-81.95,43.45],[-81.92,43.45],[-81.71,43.46],[-81.56,43.38],[-81.38,43.29],[-81.37,43.28],[-80.98,43.35],[-80.38,43.46],[-80.19,43.51],[-80.17,43.51],[-79.87,43.59],[-79.8,43.66],[-79.8,43.67],[-79.75,43.55],[-79.63,43.68]],"type":"LineString"}
}
