{
  "id": 2014830941,
  "type": "Feature",
  "properties": {
    "geom:area": 0,
    "geom:bbox": "-122.357380,37.491420,-121.264560,37.613340",
    "geom:latitude": 37.54219417803865,
    "geom:longitude": -121.8178944234221,
    "src:alt_label": "swim-approach",
    "src:geom": "swim",
    "swim:elevations": [
      5015,
      4982,
      4684,
      4336,
      4123,
      4018,
      3896,
      3454,
      3416,
      3253,
      3135,
      2892,
      2693,
      2622,
      2579,
      2478,
      2280,
      2086,
      1973,
      1828,
      1829,
      1829,
      1634,
      1465,
      1358,
      1193,
      1067,
      1025,
      1006,
      911,
      849,
      674,
      554,
      286,
      258,
      219,
      38,
      0
    ],
    "swim:geom": "approach",
    "swim:timestamps": [
      1771498879,
      1771498883,
      1771498913,
      1771498948,
      1771498978,
      1771499003,
      1771499021,
      1771499068,
      1771499071,
      1771499118,
      1771499135,
      1771499183,
      1771499211,
      1771499223,
      1771499244,
      1771499262,
      1771499295,
      1771499332,
      1771499357,
      1771499395,
      1771499416,
      1771499426,
      1771499454,
      1771499477,
      1771499507,
      1771499544,
      1771499577,
      1771499598,
      1771499602,
      1771499629,
      1771499642,
      1771499684,
      1771499713,
      1771499782,
      1771499791,
      1771499801,
      1771499848,
      1771499855
    ],
    "wof:geomhash": "2806b93d13ec751f4a63624f8b781690",
    "wof:id": 2014830941,
    "wof:repo": "sfomuseum-data-flights-2026-02"
  },
  "bbox": [
    -122.35738,
    37.49142,
    -121.26456,
    37.61334
  ],
  "geometry": {"coordinates":[[-121.26456,37.59257],[-121.27122,37.59165],[-121.32169,37.58605],[-121.38338,37.57907],[-121.4343,37.57237],[-121.47354,37.56775],[-121.50148,37.56478],[-121.56852,37.55737],[-121.57396,37.55671],[-121.63778,37.54817],[-121.66123,37.54263],[-121.72244,37.52727],[-121.75584,37.52009],[-121.76943,37.51687],[-121.79302,37.51106],[-121.81324,37.50593],[-121.84971,37.49678],[-121.89094,37.49142],[-121.92032,37.49341],[-121.96321,37.49586],[-121.98678,37.49723],[-121.99725,37.49783],[-122.02894,37.49917],[-122.05454,37.50117],[-122.08661,37.50323],[-122.12421,37.51522],[-122.15287,37.52756],[-122.17043,37.53495],[-122.17317,37.53609],[-122.19484,37.54522],[-122.20543,37.54972],[-122.23773,37.56331],[-122.25999,37.5727],[-122.30719,37.59256],[-122.31287,37.59495],[-122.31966,37.59776],[-122.3525,37.61159],[-122.35738,37.61334]],"type":"LineString"}
}
