{
  "id": 2014694283,
  "type": "Feature",
  "properties": {
    "geom:area": 0,
    "geom:bbox": "-123.505620,37.084950,-122.393420,37.655260",
    "geom:latitude": 37.40044414994891,
    "geom:longitude": -122.95661241319756,
    "src:alt_label": "swim-takeoff",
    "src:geom": "swim",
    "swim:elevations": [
      183,
      1458,
      2630,
      3045,
      3389,
      3631,
      3820,
      4082,
      4233,
      4605,
      4934,
      5210,
      5362,
      5655,
      5927,
      6196,
      6489,
      6581
    ],
    "swim:geom": "takeoff",
    "swim:timestamps": [
      1769991935,
      1769992068,
      1769992161,
      1769992191,
      1769992263,
      1769992293,
      1769992317,
      1769992338,
      1769992353,
      1769992396,
      1769992438,
      1769992468,
      1769992483,
      1769992522,
      1769992551,
      1769992580,
      1769992613,
      1769992622
    ],
    "wof:geomhash": "39192cf16d310e216724de5f1a9eae2d",
    "wof:id": 2014694283,
    "wof:repo": "sfomuseum-data-flights-2026-02"
  },
  "bbox": [
    -123.50562,
    37.08495,
    -122.39342,
    37.65526
  ],
  "geometry": {"coordinates":[[-122.39342,37.62867],[-122.54047,37.65526],[-122.65557,37.57999],[-122.6966,37.55669],[-122.80729,37.49271],[-122.85992,37.46223],[-122.90349,37.43717],[-122.94206,37.41483],[-122.96964,37.39886],[-123.04945,37.35233],[-123.13146,37.30447],[-123.19123,37.26962],[-123.22133,37.25205],[-123.3002,37.20598],[-123.36075,37.17051],[-123.41989,37.13568],[-123.48736,37.09586],[-123.50562,37.08495]],"type":"LineString"}
}
