{
  "id": 2014900651,
  "type": "Feature",
  "properties": {
    "date:inception_lower": "2026-02-27",
    "date:inception_upper": "2026-02-27",
    "edtf:cessation": "",
    "edtf:inception": "2026-02-27",
    "flysfo:actual_timestamp": -1,
    "flysfo:airline": "AC",
    "flysfo:base_airline": "",
    "flysfo:base_flight_number": "4058",
    "flysfo:date": "2026-02-27",
    "flysfo:estimated_timestamp": 1772217540,
    "flysfo:event": "D",
    "flysfo:flight_number": "AC4058",
    "flysfo:gate": "D1",
    "flysfo:journey": "SFO-SBA",
    "flysfo:scheduled_timestamp": 1772217600,
    "flysfo:timestamp": 1772217600,
    "geom:area": 0,
    "geom:bbox": "-122.370943,34.427974,-119.837133,37.617990",
    "geom:latitude": 36.022982,
    "geom:longitude": -121.104038,
    "iata:airline": "AC",
    "iata:base_airline": "",
    "icao:airline": "ACA",
    "icao:base_airline": "ACA",
    "lbl:latitude": 37.616987,
    "lbl:longitude": -122.382479,
    "sfomuseum:airline_id": 1159283597,
    "sfomuseum:arrival_id": 102527337,
    "sfomuseum:base_flight_id": "20260227-D-ACA-4058",
    "sfomuseum:departure_id": 102527513,
    "sfomuseum:flight_id": "20260227-D-ACA-4058",
    "sfomuseum:flight_number": [
      "ACA4058",
      "AC4058"
    ],
    "sfomuseum:placetype": "flight",
    "src:geom": "flysfo",
    "wof:belongsto": [
      1947304067,
      102527513,
      1947304595,
      102191575,
      85633793,
      102087579,
      85922583,
      554784711,
      85688637,
      1947304625,
      1947304591,
      102085387
    ],
    "wof:country": "US",
    "wof:created": 1772295042,
    "wof:geomhash": "1d9a5fa2c9575ebb155d9645f1016c57",
    "wof:hierarchy": [
      {
        "building_id": 1947304067,
        "campus_id": 102527513,
        "concourse_id": 1947304595,
        "continent_id": 102191575,
        "country_id": 85633793,
        "county_id": 102087579,
        "custom_id": 2014900651,
        "flight_id": 2014900651,
        "locality_id": 85922583,
        "postalcode_id": 554784711,
        "region_id": 85688637,
        "venue_id": 1947304625,
        "wing_id": 1947304591
      },
      {
        "building_id": 1947304067,
        "campus_id": 102527513,
        "concourse_id": 1947304595,
        "continent_id": 102191575,
        "country_id": 85633793,
        "county_id": 102085387,
        "custom_id": 2014900651,
        "flight_id": 2014900651,
        "region_id": 85688637,
        "venue_id": 1947304625,
        "wing_id": 1947304591
      }
    ],
    "wof:id": 2014900651,
    "wof:involves": [
      102527337,
      102527513,
      1159283597,
      1947304625,
      1159283597
    ],
    "wof:lastmodified": 1772295042,
    "wof:name": "AC4058 (SFO-SBA)",
    "wof:parent_id": 1947304625,
    "wof:placetype": "custom",
    "wof:placetype_alt": [
      "flight"
    ],
    "wof:repo": "sfomuseum-data-flights-2026-02",
    "wof:superseded_by": [],
    "wof:supersedes": []
  },
  "bbox": [
    -122.370943,
    34.427974,
    -119.837133,
    37.61799
  ],
  "geometry": {"coordinates":[[-122.370943,37.61799],[-119.837133,34.427974]],"type":"MultiPoint"}
}
