{
  "id": 2014815819,
  "type": "Feature",
  "properties": {
    "geom:area": 0,
    "geom:bbox": "-122.362270,36.739480,-121.889980,37.613460",
    "geom:latitude": 37.230159596309925,
    "geom:longitude": -122.134881365993,
    "src:alt_label": "swim-approach",
    "src:geom": "swim",
    "swim:elevations": [
      5063,
      4814,
      4699,
      4505,
      4343,
      4114,
      3834,
      3800,
      3736,
      3654,
      3595,
      3474,
      3353,
      3228,
      3136,
      3076,
      2931,
      2854,
      2774,
      2662,
      2526,
      2329,
      2175,
      2083,
      1927,
      1848,
      1829,
      1860,
      1822,
      1682,
      1547,
      1436,
      1280,
      1242,
      1218,
      1219,
      996,
      914,
      914,
      914,
      753,
      612,
      577,
      466,
      273,
      151,
      85,
      0
    ],
    "swim:geom": "approach",
    "swim:timestamps": [
      1771349413,
      1771349447,
      1771349461,
      1771349485,
      1771349504,
      1771349541,
      1771349593,
      1771349608,
      1771349620,
      1771349645,
      1771349654,
      1771349671,
      1771349687,
      1771349717,
      1771349736,
      1771349774,
      1771349808,
      1771349828,
      1771349845,
      1771349873,
      1771349901,
      1771349938,
      1771349965,
      1771349983,
      1771350009,
      1771350024,
      1771350057,
      1771350081,
      1771350105,
      1771350138,
      1771350158,
      1771350178,
      1771350205,
      1771350213,
      1771350231,
      1771350241,
      1771350288,
      1771350324,
      1771350354,
      1771350365,
      1771350406,
      1771350441,
      1771350453,
      1771350480,
      1771350533,
      1771350560,
      1771350585,
      1771350602
    ],
    "wof:geomhash": "3511bd2e4598c774f489045cb3d85ae1",
    "wof:id": 2014815819,
    "wof:repo": "sfomuseum-data-flights-2026-02"
  },
  "bbox": [
    -122.36227,
    36.73948,
    -121.88998,
    37.61346
  ],
  "geometry": {"coordinates":[[-121.88998,36.73948],[-121.90855,36.7922],[-121.91409,36.81289],[-121.9249,36.85191],[-121.93295,36.8799],[-121.94842,36.93442],[-121.97393,37.00584],[-121.98155,37.02496],[-121.98736,37.03992],[-122.00469,37.06426],[-122.01425,37.06964],[-122.03271,37.07953],[-122.04885,37.08815],[-122.08154,37.10458],[-122.10277,37.11495],[-122.14591,37.13557],[-122.18445,37.1537],[-122.20506,37.16346],[-122.22308,37.17194],[-122.25172,37.18659],[-122.26835,37.21078],[-122.28797,37.24404],[-122.30237,37.26641],[-122.31295,37.28156],[-122.32049,37.30588],[-122.31099,37.32027],[-122.269,37.33828],[-122.23615,37.34921],[-122.20454,37.36259],[-122.17434,37.39043],[-122.15966,37.40996],[-122.14561,37.42832],[-122.12801,37.45179],[-122.12277,37.45866],[-122.11163,37.47387],[-122.10568,37.4823],[-122.12546,37.51269],[-122.15278,37.52542],[-122.17588,37.53503],[-122.1842,37.5385],[-122.21525,37.55169],[-122.24176,37.56273],[-122.25106,37.5666],[-122.27192,37.57539],[-122.31024,37.59149],[-122.33042,37.60006],[-122.3492,37.60785],[-122.36227,37.61346]],"type":"LineString"}
}
