{
  "id": 2014908293,
  "type": "Feature",
  "properties": {
    "geom:area": 0,
    "geom:bbox": "-122.364940,37.630530,-121.474290,38.490930",
    "geom:latitude": 38.05253457676752,
    "geom:longitude": -121.91368665311437,
    "src:alt_label": "swim-takeoff",
    "src:geom": "swim",
    "swim:elevations": [
      152,
      608,
      903,
      1333,
      1827,
      2547,
      2945,
      3281,
      3492,
      3817,
      4429,
      4503,
      4953,
      5317,
      5608,
      5814,
      6137,
      6253,
      6733,
      6926,
      7001
    ],
    "swim:geom": "takeoff",
    "swim:timestamps": [
      1772275508,
      1772275549,
      1772275584,
      1772275615,
      1772275654,
      1772275704,
      1772275729,
      1772275768,
      1772275810,
      1772275838,
      1772275886,
      1772275894,
      1772275937,
      1772275971,
      1772276004,
      1772276034,
      1772276065,
      1772276078,
      1772276129,
      1772276151,
      1772276163
    ],
    "wof:geomhash": "ce259306fb0edd16a5f8b9b90fa06db1",
    "wof:id": 2014908293,
    "wof:repo": "sfomuseum-data-flights-2026-02"
  },
  "bbox": [
    -122.36494,
    37.63053,
    -121.47429,
    38.49093
  ],
  "geometry": {"coordinates":[[-122.36494,37.63053],[-122.33198,37.6553],[-122.29237,37.67573],[-122.25325,37.69776],[-122.20436,37.7289],[-122.1531,37.78599],[-122.1274,37.8144],[-122.08553,37.86025],[-122.03238,37.91884],[-121.9951,37.96006],[-121.9285,38.03311],[-121.91728,38.04545],[-121.85631,38.11224],[-121.80447,38.16879],[-121.75539,38.22237],[-121.7085,38.27346],[-121.65746,38.32893],[-121.63765,38.35039],[-121.55007,38.43919],[-121.50173,38.47406],[-121.47429,38.49093]],"type":"LineString"}
}
