{
  "id": 2014731021,
  "type": "Feature",
  "properties": {
    "geom:area": 0,
    "geom:bbox": "-122.354900,37.636390,-122.150350,38.514330",
    "geom:latitude": 38.04561228696067,
    "geom:longitude": -122.2015201759726,
    "src:alt_label": "swim-takeoff",
    "src:geom": "swim",
    "swim:elevations": [
      471,
      675,
      997,
      1098,
      1384,
      1755,
      1922,
      2746,
      2796,
      3284,
      3353,
      3590,
      3807,
      4085,
      4822,
      5133,
      5703,
      6070,
      6294,
      6609,
      6786,
      7141,
      7363,
      7760,
      7868,
      7922
    ],
    "swim:geom": "takeoff",
    "swim:timestamps": [
      1770413782,
      1770413798,
      1770413823,
      1770413838,
      1770413871,
      1770413908,
      1770413919,
      1770413964,
      1770413967,
      1770413997,
      1770414003,
      1770414026,
      1770414044,
      1770414061,
      1770414109,
      1770414133,
      1770414176,
      1770414206,
      1770414223,
      1770414259,
      1770414280,
      1770414323,
      1770414345,
      1770414373,
      1770414382,
      1770414403
    ],
    "wof:geomhash": "941d76f78eec7d6e4184dbc5262b5f12",
    "wof:id": 2014731021,
    "wof:repo": "sfomuseum-data-flights-2026-02"
  },
  "bbox": [
    -122.3549,
    37.63639,
    -122.15035,
    38.51433
  ],
  "geometry": {"coordinates":[[-122.3549,37.63639],[-122.3437,37.64383],[-122.32544,37.6548],[-122.31405,37.66186],[-122.28436,37.68003],[-122.24063,37.70412],[-122.22768,37.71272],[-122.215,37.76898],[-122.21515,37.77301],[-122.21649,37.81404],[-122.21645,37.82258],[-122.21048,37.85708],[-122.20465,37.88471],[-122.19901,37.91294],[-122.18233,37.99178],[-122.17422,38.03144],[-122.16023,38.10323],[-122.15035,38.15462],[-122.1519,38.18509],[-122.16202,38.24868],[-122.16826,38.28678],[-122.18136,38.36564],[-122.18829,38.40798],[-122.19725,38.46097],[-122.19975,38.47742],[-122.20642,38.51433]],"type":"LineString"}
}
