{
  "id": 2014900921,
  "type": "Feature",
  "properties": {
    "geom:area": 0,
    "geom:bbox": "-122.485000,37.638889,-114.254167,48.384722",
    "geom:latitude": 43.23845371541667,
    "geom:longitude": -118.76384611075629,
    "src:alt_label": "swim-path",
    "src:geom": "swim",
    "swim:altitudes": [
      "016",
      "016",
      "016",
      "079",
      "098",
      "130",
      "152",
      "152",
      "174",
      "174",
      "214",
      "214",
      "214",
      "246",
      "246",
      "246",
      "246",
      "287",
      "287",
      "287",
      "320C",
      "320C",
      "320C",
      "320C",
      "320C",
      "320C",
      "320C",
      "320C",
      "320C",
      "320C",
      "320C",
      "320C",
      "320C",
      "320C",
      "320C",
      "320C",
      "320C",
      "320C",
      "320C",
      "320C",
      "320C",
      "320C",
      "320C",
      "320C",
      "320C",
      "320C",
      "320C",
      "320C",
      "320C",
      "320C",
      "320C",
      "320C",
      "320C",
      "320C",
      "320C",
      "320C",
      "320C",
      "320C",
      "320C",
      "320C",
      "320C",
      "320C",
      "320C",
      "320C",
      "320C",
      "320C",
      "320C",
      "320C",
      "320C",
      "320C",
      "320C",
      "320C",
      "320C",
      "320C",
      "320C",
      "320C",
      "320C",
      "320C",
      "320C",
      "320C",
      "320C",
      "320C",
      "320C",
      "320C",
      "320C",
      "320C",
      "320C",
      "320C",
      "320C",
      "320C",
      "320C",
      "320C",
      "320C",
      "320C",
      "320C",
      "320C",
      "320",
      "320",
      "325",
      "325",
      "329C",
      "330C",
      "330C",
      "330C",
      "330C",
      "330C",
      "330C",
      "330C",
      "330C",
      "330C",
      "330C",
      "330C",
      "330C",
      "330C",
      "330C",
      "330C",
      "330C",
      "330C",
      "330C",
      "330C",
      "330C",
      "330C"
    ],
    "swim:geom": "path",
    "swim:speeds": [
      196,
      196,
      196,
      301,
      320,
      385,
      400,
      400,
      421,
      421,
      437,
      437,
      437,
      480,
      480,
      480,
      480,
      519,
      519,
      519,
      530,
      530,
      531,
      531,
      531,
      531,
      518,
      518,
      516,
      519,
      519,
      519,
      513,
      513,
      513,
      513,
      513,
      512,
      512,
      512,
      509,
      509,
      509,
      508,
      507,
      507,
      507,
      506,
      506,
      503,
      503,
      503,
      502,
      502,
      502,
      502,
      502,
      502,
      501,
      500,
      500,
      499,
      499,
      499,
      498,
      497,
      497,
      497,
      497,
      497,
      497,
      497,
      497,
      497,
      497,
      497,
      497,
      497,
      496,
      496,
      497,
      497,
      499,
      496,
      493,
      493,
      492,
      488,
      478,
      478,
      478,
      477,
      475,
      474,
      472,
      472,
      476,
      479,
      481,
      481,
      481,
      481,
      482,
      481,
      482,
      482,
      482,
      478,
      478,
      478,
      473,
      470,
      470,
      470,
      470,
      469,
      469,
      469,
      474,
      474,
      474,
      476
    ],
    "swim:timestamps": [
      1772240562,
      1772240562,
      1772240562,
      1772240742,
      1772240802,
      1772240922,
      1772240986,
      1772240986,
      1772241042,
      1772241042,
      1772241166,
      1772241166,
      1772241166,
      1772241283,
      1772241283,
      1772241283,
      1772241283,
      1772241463,
      1772241463,
      1772241463,
      1772241643,
      1772241643,
      1772241707,
      1772241707,
      1772241707,
      1772241707,
      1772241824,
      1772241824,
      1772241887,
      1772241921,
      1772241921,
      1772241921,
      1772241944,
      1772241981,
      1772241981,
      1772241981,
      1772241981,
      1772242161,
      1772242161,
      1772242161,
      1772242248,
      1772242248,
      1772242248,
      1772242282,
      1772242304,
      1772242304,
      1772242304,
      1772242342,
      1772242342,
      1772242424,
      1772242424,
      1772242462,
      1772242522,
      1772242522,
      1772242544,
      1772242544,
      1772242582,
      1772242582,
      1772242605,
      1772242668,
      1772242668,
      1772242702,
      1772242702,
      1772242702,
      1772242725,
      1772242822,
      1772242822,
      1772242848,
      1772242882,
      1772242882,
      1772242882,
      1772242908,
      1772242908,
      1772243003,
      1772243003,
      1772243003,
      1772243063,
      1772243123,
      1772243220,
      1772243220,
      1772243281,
      1772243281,
      1772243363,
      1772243543,
      1772243701,
      1772243723,
      1772243761,
      1772243784,
      1772244001,
      1772244024,
      1772244024,
      1772244181,
      1772244204,
      1772244241,
      1772244302,
      1772244324,
      1772244444,
      1772244482,
      1772244662,
      1772244662,
      1772244722,
      1772244782,
      1772244842,
      1772244902,
      1772245045,
      1772245082,
      1772245082,
      1772245286,
      1772245286,
      1772245286,
      1772245503,
      1772245586,
      1772245623,
      1772245683,
      1772245706,
      1772245923,
      1772245923,
      1772245923,
      1772246103,
      1772246103,
      1772246127,
      1772246223
    ],
    "wof:geomhash": "fcd08e7d9ee284614c3cee21ea650d48",
    "wof:id": 2014900921,
    "wof:repo": "sfomuseum-data-flights-2026-02"
  },
  "bbox": [
    -122.485,
    37.638888888888886,
    -114.25416666666666,
    48.38472222222222
  ],
  "geometry": {"coordinates":[[-122.42500000000001,37.638888888888886],[-122.42500000000001,37.638888888888886],[-122.42500000000001,37.638888888888886],[-122.485,37.82],[-122.38166666666666,37.84805555555556],[-122.22277777777778,37.99666666666667],[-122.18833333333333,38.105555555555554],[-122.18833333333333,38.105555555555554],[-122.17916666666667,38.22222222222222],[-122.17916666666667,38.22222222222222],[-122.18,38.466944444444444],[-122.18,38.466944444444444],[-122.18,38.466944444444444],[-122.09472222222222,38.690555555555555],[-122.09472222222222,38.690555555555555],[-122.09472222222222,38.690555555555555],[-122.09472222222222,38.690555555555555],[-121.85249999999999,39.07361111111111],[-121.85249999999999,39.07361111111111],[-121.85249999999999,39.07361111111111],[-121.59777777777778,39.473055555555554],[-121.59777777777778,39.473055555555554],[-121.50222222222222,39.61972222222222],[-121.50222222222222,39.61972222222222],[-121.50222222222222,39.61972222222222],[-121.50222222222222,39.61972222222222],[-121.33555555555554,39.87861111111111],[-121.33555555555554,39.87861111111111],[-121.2538888888889,40.00388888888889],[-121.20777777777778,40.074444444444445],[-121.20777777777778,40.074444444444445],[-121.20777777777778,40.074444444444445],[-121.17055555555557,40.13111111111111],[-121.12444444444444,40.2025],[-121.12444444444444,40.2025],[-121.12444444444444,40.2025],[-121.12444444444444,40.2025],[-120.87249999999999,40.58222222222223],[-120.87249999999999,40.58222222222223],[-120.87249999999999,40.58222222222223],[-120.75361111111111,40.76],[-120.75361111111111,40.76],[-120.75361111111111,40.76],[-120.70416666666667,40.83361111111111],[-120.66972222222223,40.88472222222222],[-120.66972222222223,40.88472222222222],[-120.66972222222223,40.88472222222222],[-120.62055555555555,40.95777777777778],[-120.62055555555555,40.95777777777778],[-120.50277777777778,41.13166666666667],[-120.50277777777778,41.13166666666667],[-120.45222222222222,41.20638888888889],[-120.36611111111111,41.33222222222223],[-120.36611111111111,41.33222222222223],[-120.33333333333333,41.38055555555555],[-120.33333333333333,41.38055555555555],[-120.28138888888888,41.45611111111111],[-120.28138888888888,41.45611111111111],[-120.24972222222222,41.50222222222222],[-120.16527777777779,41.625],[-120.16527777777779,41.625],[-120.11222222222221,41.70166666666667],[-120.11222222222221,41.70166666666667],[-120.11222222222221,41.70166666666667],[-120.08111111111111,41.74666666666667],[-119.94194444444445,41.94638888888888],[-119.94194444444445,41.94638888888888],[-119.89361111111111,42.01555555555556],[-119.8561111111111,42.06916666666667],[-119.8561111111111,42.06916666666667],[-119.8561111111111,42.06916666666667],[-119.80777777777777,42.13805555555555],[-119.80777777777777,42.13805555555555],[-119.67444444444445,42.32694444444445],[-119.67444444444445,42.32694444444445],[-119.67444444444445,42.32694444444445],[-119.58722222222222,42.44972222222222],[-119.5,42.57222222222222],[-119.35666666666665,42.77222222222222],[-119.35666666666665,42.77222222222222],[-119.27194444444444,42.88916666666667],[-119.27194444444444,42.88916666666667],[-119.14888888888889,43.05916666666666],[-118.88166666666666,43.42388888888889],[-118.64722222222223,43.74027777777778],[-118.61333333333333,43.78527777777778],[-118.55777777777777,43.85944444444445],[-118.52472222222222,43.90361111111111],[-118.20861111111111,44.32138888888889],[-118.16944444444445,44.3725],[-118.16944444444445,44.3725],[-117.93527777777778,44.67638888888889],[-117.90111111111112,44.720555555555556],[-117.84555555555555,44.79222222222222],[-117.75027777777778,44.902499999999996],[-117.71111111111111,44.945277777777775],[-117.5038888888889,45.16694444444444],[-117.44916666666667,45.224722222222226],[-117.12166666666666,45.57055555555556],[-117.12166666666666,45.57055555555556],[-117.01444444444445,45.68222222222222],[-116.91027777777778,45.79083333333333],[-116.80388888888889,45.90083333333333],[-116.69638888888889,46.01138888888889],[-116.43611111111112,46.27722222222222],[-116.37166666666666,46.342222222222226],[-116.37166666666666,46.342222222222226],[-116.00416666666666,46.711111111111116],[-116.00416666666666,46.711111111111116],[-116.00416666666666,46.711111111111116],[-115.60805555555555,47.10166666666667],[-115.46000000000001,47.24583333333334],[-115.39361111111111,47.31055555555555],[-115.28361111111111,47.41638888888889],[-115.24055555555556,47.45777777777778],[-114.83833333333332,47.840833333333336],[-114.83833333333332,47.840833333333336],[-114.83833333333332,47.840833333333336],[-114.48861111111111,48.16777777777777],[-114.48861111111111,48.16777777777777],[-114.44250000000001,48.21055555555556],[-114.25416666666666,48.38472222222222]],"type":"LineString"}
}
