{
  "id": 2014903087,
  "type": "Feature",
  "properties": {
    "geom:area": 0,
    "geom:bbox": "-122.470000,33.940000,-118.300000,37.680000",
    "geom:latitude": 35.750838924536296,
    "geom:longitude": -120.42187695286101,
    "src:alt_label": "swim-route",
    "src:geom": "swim",
    "swim:geom": "route",
    "wof:geomhash": "b5a783fe135e7243829bec933144d942",
    "wof:id": 2014903087,
    "wof:repo": "sfomuseum-data-flights-2026-02"
  },
  "bbox": [
    -122.47,
    33.94,
    -118.3,
    37.68
  ],
  "geometry": {"coordinates":[[-122.38,37.62],[-122.36,37.68],[-122.38,37.64],[-122.39,37.64],[-122.42,37.58],[-122.42,37.58],[-122.44,37.55],[-122.46,37.51],[-122.47,37.49],[-122.47,37.49],[-122.44,37.46],[-122.34,37.39],[-122.18,37.28],[-122.15,37.25],[-122.13,37.23],[-122.07,37.19],[-121.99,37.12],[-121.98,37.11],[-121.94,37.08],[-121.89,37.03],[-121.78,36.95],[-121.78,36.94],[-121.77,36.94],[-121.71,36.88],[-121.6,36.79],[-121.54,36.75],[-121.42,36.65],[-121.36,36.6],[-121.3,36.55],[-121.19,36.46],[-121.16,36.43],[-120.87,36.19],[-120.84,36.16],[-120.3,35.7],[-120.19,35.6],[-119.87,35.33],[-119.82,35.29],[-119.53,34.98],[-119.48,34.92],[-119.48,34.91],[-119.33,34.75],[-119.33,34.75],[-119.25,34.66],[-119.24,34.65],[-119.17,34.56],[-119.17,34.56],[-119.06,34.44],[-119.06,34.44],[-118.98,34.35],[-118.97,34.34],[-118.89,34.26],[-118.89,34.25],[-118.87,34.23],[-118.85,34.21],[-118.82,34.18],[-118.82,34.17],[-118.81,34.17],[-118.78,34.14],[-118.71,34.07],[-118.67,34.03],[-118.66,34.03],[-118.64,34.03],[-118.61,34.02],[-118.55,34.02],[-118.55,34.02],[-118.49,34.01],[-118.46,34.01],[-118.44,34.01],[-118.43,34.01],[-118.41,34.02],[-118.38,34.02],[-118.36,34.03],[-118.34,34.03],[-118.32,34.03],[-118.3,34.03],[-118.34,34],[-118.4,33.95],[-118.41,33.94]],"type":"LineString"}
}
