{
  "id": 2014770593,
  "type": "Feature",
  "properties": {
    "geom:area": 0,
    "geom:bbox": "-122.850640,37.396830,-122.117290,38.508310",
    "geom:latitude": 37.820691841365914,
    "geom:longitude": -122.49733559463537,
    "src:alt_label": "swim-approach",
    "src:geom": "swim",
    "swim:elevations": [
      7526,
      7186,
      6978,
      6781,
      6472,
      6329,
      6066,
      5775,
      5428,
      5112,
      4997,
      4670,
      4375,
      4110,
      3716,
      3520,
      3355,
      3353,
      3353,
      3353,
      3353,
      3114,
      3068,
      2956,
      2861,
      2677,
      2648,
      2352,
      2063,
      1929,
      1602,
      1453,
      1275,
      1238,
      1156,
      1051,
      968,
      943,
      882,
      759,
      608,
      489,
      453,
      332,
      248,
      148,
      51,
      45
    ],
    "swim:geom": "approach",
    "swim:timestamps": [
      1770937693,
      1770937726,
      1770937747,
      1770937768,
      1770937798,
      1770937813,
      1770937840,
      1770937870,
      1770937906,
      1770937942,
      1770937954,
      1770937987,
      1770938017,
      1770938041,
      1770938086,
      1770938107,
      1770938158,
      1770938170,
      1770938201,
      1770938248,
      1770938278,
      1770938305,
      1770938311,
      1770938334,
      1770938358,
      1770938397,
      1770938403,
      1770938445,
      1770938485,
      1770938503,
      1770938546,
      1770938566,
      1770938608,
      1770938617,
      1770938635,
      1770938656,
      1770938668,
      1770938673,
      1770938695,
      1770938723,
      1770938756,
      1770938787,
      1770938796,
      1770938826,
      1770938850,
      1770938877,
      1770938906,
      1770938914
    ],
    "wof:geomhash": "9e7ab440f0f52370a9bfa241aa281d1d",
    "wof:id": 2014770593,
    "wof:repo": "sfomuseum-data-flights-2026-02"
  },
  "bbox": [
    -122.85064,
    37.39683,
    -122.11729,
    38.50831
  ],
  "geometry": {"coordinates":[[-122.85064,38.50831],[-122.83128,38.44262],[-122.8187,38.39987],[-122.80687,38.3588],[-122.79003,38.30044],[-122.78144,38.27171],[-122.76618,38.22072],[-122.75002,38.16494],[-122.73089,38.0992],[-122.71255,38.03543],[-122.70636,38.0143],[-122.68982,37.95666],[-122.67162,37.90613],[-122.64356,37.87185],[-122.5842,37.81533],[-122.55667,37.78945],[-122.49448,37.73064],[-122.48101,37.71797],[-122.447,37.68605],[-122.39332,37.63579],[-122.36086,37.60279],[-122.34188,37.5685],[-122.33843,37.5606],[-122.32243,37.53315],[-122.30589,37.50574],[-122.28042,37.46399],[-122.27624,37.45816],[-122.23245,37.42946],[-122.18903,37.40348],[-122.16689,37.39683],[-122.12659,37.42048],[-122.11729,37.43962],[-122.12957,37.47924],[-122.1341,37.48646],[-122.14393,37.50032],[-122.15447,37.51598],[-122.16111,37.52449],[-122.16483,37.52747],[-122.18343,37.53798],[-122.20946,37.54911],[-122.23848,37.56129],[-122.26428,37.57213],[-122.27166,37.5753],[-122.29463,37.58493],[-122.31225,37.59233],[-122.33207,37.60067],[-122.35325,37.60955],[-122.35934,37.6121]],"type":"LineString"}
}
