{
  "id": 2014831439,
  "type": "Feature",
  "properties": {
    "geom:area": 0,
    "geom:bbox": "-178.610000,10.820000,163.070000,47.960000",
    "geom:latitude": 44.12090551520467,
    "geom:longitude": -5.143187889772321,
    "src:alt_label": "swim-route",
    "src:geom": "swim",
    "swim:geom": "route",
    "wof:geomhash": "1f8c191f354b4370f78a29aa68566740",
    "wof:id": 2014831439,
    "wof:repo": "sfomuseum-data-flights-2026-02"
  },
  "bbox": [
    -178.61,
    10.82,
    163.07,
    47.96
  ],
  "geometry": {"coordinates":[[[106.66,10.82],[108,12.23],[124,26.97],[128.06,30.01],[128.07,30.02],[129.41,30.95],[131.45,32.32],[133.19,33.43],[133.73,33.76],[134.89,34.47],[135.32,34.72],[135.66,34.92],[136.16,35.21],[136.3,35.29],[136.89,35.62],[136.9,35.63],[138.72,36.62],[140.65,37.62],[142.34,38.45],[143.77,39.11],[147.91,40.88],[159.69,44.71],[161.99,45.27],[163.07,45.51],[163.07,45.51]],[[-178.61,47.9],[-177.22,47.96],[-150,45.61],[-145.19,44.45],[-130,39],[-127,38.47],[-126.99,38.46],[-125.5,38],[-124.48,37.58],[-124.23,37.48],[-124.16,37.45],[-123.87,37.33],[-123.82,37.31],[-123.81,37.3],[-123.6,37.27],[-123.56,37.26],[-123.34,37.23],[-123.13,37.19],[-122.96,37.24],[-122.86,37.26],[-122.84,37.26],[-122.84,37.26],[-122.76,37.28],[-122.71,37.29],[-122.66,37.3],[-122.63,37.31],[-122.5,37.34],[-122.44,37.36],[-122.29,37.39],[-122.28,37.39],[-122.31,37.46],[-122.34,37.54],[-122.37,37.6],[-122.37,37.61],[-122.38,37.62]]],"type":"MultiLineString"}
}
