{
  "id": 2014844491,
  "type": "Feature",
  "properties": {
    "geom:area": 0,
    "geom:bbox": "-122.526090,37.632570,-121.268120,38.146400",
    "geom:latitude": 37.937051071136324,
    "geom:longitude": -121.98915197623623,
    "src:alt_label": "swim-takeoff",
    "src:geom": "swim",
    "swim:elevations": [
      437,
      549,
      769,
      978,
      1199,
      1233,
      1935,
      2365,
      2639,
      3031,
      3142,
      3304,
      3353,
      3443,
      3772,
      4033,
      4285,
      4460,
      4755,
      4964,
      5090,
      5410,
      5427,
      5704,
      5833,
      6019,
      6125,
      6218,
      6413,
      6567
    ],
    "swim:geom": "takeoff",
    "swim:timestamps": [
      1771618102,
      1771618118,
      1771618144,
      1771618170,
      1771618223,
      1771618232,
      1771618301,
      1771618332,
      1771618363,
      1771618398,
      1771618413,
      1771618450,
      1771618464,
      1771618482,
      1771618522,
      1771618551,
      1771618582,
      1771618605,
      1771618644,
      1771618673,
      1771618691,
      1771618736,
      1771618740,
      1771618779,
      1771618797,
      1771618827,
      1771618850,
      1771618870,
      1771618909,
      1771618930
    ],
    "wof:geomhash": "90c8124b5ca026a2b43f7cf693a7eba7",
    "wof:id": 2014844491,
    "wof:repo": "sfomuseum-data-flights-2026-02"
  },
  "bbox": [
    -122.52609,
    37.63257,
    -121.26812,
    38.1464
  ],
  "geometry": {"coordinates":[[-122.4072,37.63257],[-122.42165,37.63892],[-122.44462,37.64881],[-122.46828,37.65891],[-122.52052,37.68857],[-122.5244,37.69948],[-122.52609,37.78592],[-122.49583,37.81594],[-122.45018,37.83273],[-122.39448,37.8487],[-122.37039,37.85515],[-122.30607,37.87247],[-122.27923,37.87967],[-122.24499,37.88896],[-122.16644,37.91008],[-122.10766,37.92582],[-122.04411,37.94271],[-121.99658,37.95545],[-121.91367,37.97738],[-121.85131,37.99391],[-121.81229,38.0042],[-121.71399,38.03011],[-121.70549,38.03236],[-121.61717,38.05554],[-121.5769,38.06606],[-121.5091,38.08378],[-121.45795,38.09718],[-121.41102,38.10939],[-121.31861,38.13337],[-121.26812,38.1464]],"type":"LineString"}
}
