{
  "id": 2014871923,
  "type": "Feature",
  "properties": {
    "geom:area": 0,
    "geom:bbox": "-122.316667,37.515278,-71.050000,46.475833",
    "geom:latitude": 42.79781062571615,
    "geom:longitude": -96.94493754994488,
    "src:alt_label": "swim-path",
    "src:geom": "swim",
    "swim:altitudes": [
      "023",
      "026",
      "026",
      "026",
      "026",
      "026",
      "083",
      "083",
      "083",
      "106",
      "106",
      "106",
      "106",
      "106",
      "164",
      "164",
      "164",
      "230",
      "230",
      "264",
      "264",
      "264",
      "264",
      "289",
      "297",
      "297",
      "297",
      "297",
      "297",
      "314",
      "314",
      "314",
      "320",
      "320",
      "320",
      "340C",
      "340C",
      "340C",
      "340C",
      "340C",
      "340C",
      "340C",
      "340C",
      "340C",
      "340C",
      "340C",
      "340C",
      "340C",
      "340C",
      "340C",
      "340C",
      "340C",
      "340C",
      "340C",
      "340C",
      "340C",
      "340C",
      "340C",
      "340C",
      "340C",
      "340C",
      "340C",
      "340C",
      "340C",
      "341C",
      "340C",
      "340C",
      "340C",
      "340C",
      "340C",
      "340C",
      "340C",
      "340C",
      "340C",
      "340C",
      "340C",
      "340C",
      "340C",
      "340C",
      "340C",
      "340C",
      "340C",
      "340C",
      "340C",
      "340C",
      "340C",
      "340C",
      "340C",
      "340C",
      "340C",
      "340C",
      "340C",
      "340C",
      "340C",
      "340C",
      "340C",
      "340C",
      "340C",
      "340C",
      "340C",
      "340C",
      "340C",
      "340C",
      "340C",
      "340C",
      "340C",
      "340C",
      "340C",
      "340C",
      "340C",
      "340C",
      "340C",
      "340C",
      "340C",
      "340C",
      "340C",
      "340C",
      "340C",
      "340C",
      "340C",
      "340C",
      "340C",
      "340C",
      "340C",
      "340C",
      "340C",
      "340C",
      "340C",
      "340C",
      "340C",
      "340C",
      "340C",
      "340C",
      "340C",
      "340C",
      "340C",
      "340C",
      "340C",
      "340C",
      "340C",
      "340C",
      "340C",
      "340C",
      "340C",
      "340C",
      "340C",
      "340C",
      "340C",
      "340C",
      "340C",
      "340C",
      "340C",
      "340C",
      "340C",
      "340C",
      "340C",
      "340",
      "340",
      "340",
      "344",
      "344",
      "360C",
      "360C",
      "360C",
      "360C",
      "360C",
      "360C",
      "360C",
      "360C",
      "360C",
      "360C",
      "360C",
      "360C",
      "360C",
      "360C",
      "360C",
      "360C",
      "360C",
      "360C",
      "360C",
      "360C",
      "360C",
      "360C",
      "360C",
      "360C",
      "360C",
      "360C",
      "360C",
      "360C",
      "360C",
      "360C",
      "360C",
      "360C",
      "360C",
      "360C",
      "360C",
      "360C",
      "360C",
      "360C",
      "360C",
      "361C",
      "361C",
      "361C",
      "360C",
      "360C",
      "360C",
      "360C",
      "360C",
      "360C",
      "360C",
      "360C",
      "360C",
      "360C",
      "360C",
      "360C",
      "360C",
      "360C",
      "360C",
      "360C",
      "360C",
      "360C",
      "360C",
      "360C",
      "360C",
      "360C",
      "360C",
      "360C",
      "360C",
      "360C",
      "360C",
      "360C",
      "360C",
      "360C",
      "360C",
      "360C",
      "360C",
      "360C",
      "360C",
      "360C",
      "360C",
      "360C",
      "360C",
      "360C",
      "360C",
      "360C",
      "360C",
      "360C",
      "360C",
      "360C",
      "360C",
      "360C",
      "360C",
      "360C",
      "360C",
      "360C",
      "360C",
      "360C",
      "360C",
      "361C",
      "361C",
      "360C",
      "360C",
      "360C",
      "360C",
      "361C",
      "361C",
      "361C",
      "360C",
      "360C",
      "360C",
      "361C",
      "361C",
      "361C",
      "360C",
      "360C",
      "360C",
      "360C",
      "360C",
      "360C",
      "360C",
      "360C",
      "360C",
      "361C",
      "361C",
      "361C",
      "360C",
      "360C",
      "360C",
      "360C",
      "360C",
      "360C",
      "360C",
      "360C",
      "360C",
      "360C",
      "360C",
      "360C",
      "360C",
      "360C",
      "360C",
      "360C",
      "360C",
      "360C",
      "360C",
      "360C",
      "360C",
      "360C",
      "360C",
      "360C",
      "360C",
      "359C",
      "360C",
      "360C",
      "360C",
      "360C",
      "360C",
      "360C",
      "360C",
      "360C",
      "360C",
      "360C",
      "361C",
      "360C",
      "360C",
      "360C",
      "360C",
      "360C",
      "360C",
      "360C",
      "360C",
      "360C",
      "360C",
      "360C",
      "341C",
      "341C",
      "340C",
      "340C",
      "340C",
      "340C",
      "340C",
      "340C",
      "340C",
      "340C",
      "340C",
      "340C",
      "340C",
      "340C",
      "340C",
      "340C",
      "340C",
      "340",
      "335",
      "335",
      "335",
      "305",
      "305",
      "305",
      "289",
      "279",
      "279",
      "270",
      "263",
      "263",
      "246",
      "227",
      "218",
      "200",
      "187",
      "185",
      "153",
      "142",
      "142",
      "138",
      "126",
      "126",
      "095",
      "090",
      "090",
      "082",
      "082",
      "078",
      "070",
      "070",
      "070",
      "054",
      "048",
      "045",
      "039",
      "026",
      "022",
      "022",
      "015"
    ],
    "swim:geom": "path",
    "swim:speeds": [
      155,
      167,
      167,
      167,
      167,
      167,
      259,
      259,
      259,
      262,
      262,
      262,
      262,
      262,
      352,
      352,
      352,
      385,
      385,
      407,
      407,
      407,
      407,
      413,
      413,
      413,
      413,
      413,
      413,
      410,
      410,
      410,
      408,
      408,
      408,
      410,
      410,
      410,
      411,
      411,
      412,
      412,
      412,
      412,
      413,
      413,
      413,
      411,
      411,
      411,
      411,
      411,
      411,
      387,
      387,
      387,
      386,
      386,
      386,
      386,
      388,
      388,
      389,
      389,
      389,
      388,
      388,
      388,
      390,
      395,
      399,
      399,
      399,
      400,
      400,
      400,
      400,
      400,
      400,
      400,
      400,
      399,
      399,
      399,
      399,
      398,
      398,
      398,
      399,
      399,
      399,
      399,
      399,
      399,
      399,
      399,
      398,
      398,
      397,
      395,
      395,
      395,
      402,
      402,
      402,
      401,
      408,
      408,
      408,
      408,
      406,
      406,
      406,
      403,
      403,
      403,
      403,
      402,
      402,
      399,
      399,
      399,
      397,
      397,
      390,
      390,
      390,
      390,
      386,
      386,
      389,
      389,
      389,
      389,
      391,
      391,
      394,
      394,
      394,
      394,
      387,
      387,
      384,
      384,
      384,
      384,
      386,
      386,
      386,
      384,
      384,
      384,
      370,
      370,
      367,
      367,
      362,
      362,
      362,
      360,
      360,
      357,
      357,
      357,
      357,
      354,
      354,
      354,
      354,
      354,
      354,
      354,
      354,
      353,
      353,
      351,
      351,
      348,
      348,
      341,
      341,
      341,
      333,
      333,
      333,
      337,
      337,
      337,
      339,
      341,
      343,
      343,
      343,
      344,
      344,
      345,
      346,
      346,
      348,
      348,
      349,
      349,
      349,
      347,
      346,
      346,
      346,
      348,
      348,
      348,
      348,
      349,
      349,
      349,
      349,
      349,
      349,
      349,
      349,
      350,
      350,
      350,
      350,
      351,
      350,
      350,
      352,
      352,
      352,
      353,
      352,
      354,
      354,
      354,
      354,
      354,
      354,
      354,
      355,
      357,
      357,
      357,
      357,
      357,
      356,
      356,
      358,
      358,
      358,
      359,
      359,
      361,
      360,
      360,
      360,
      359,
      359,
      359,
      364,
      364,
      362,
      362,
      362,
      362,
      365,
      365,
      365,
      368,
      368,
      368,
      370,
      375,
      375,
      379,
      383,
      383,
      383,
      383,
      383,
      379,
      384,
      384,
      396,
      396,
      396,
      394,
      394,
      389,
      389,
      386,
      384,
      372,
      372,
      373,
      373,
      372,
      377,
      377,
      379,
      382,
      382,
      379,
      368,
      368,
      367,
      366,
      366,
      369,
      369,
      369,
      369,
      368,
      368,
      368,
      367,
      367,
      368,
      368,
      370,
      370,
      370,
      372,
      372,
      369,
      365,
      364,
      364,
      364,
      363,
      363,
      363,
      363,
      404,
      409,
      409,
      416,
      403,
      397,
      367,
      367,
      368,
      367,
      367,
      368,
      368,
      368,
      368,
      368,
      368,
      368,
      365,
      373,
      373,
      373,
      378,
      378,
      378,
      367,
      362,
      362,
      356,
      340,
      340,
      333,
      324,
      293,
      277,
      280,
      279,
      276,
      278,
      278,
      275,
      277,
      277,
      260,
      238,
      225,
      220,
      220,
      222,
      221,
      221,
      225,
      220,
      218,
      215,
      209,
      176,
      162,
      162,
      129
    ],
    "swim:timestamps": [
      1771973853,
      1771973873,
      1771973873,
      1771973873,
      1771973873,
      1771973873,
      1771974053,
      1771974053,
      1771974053,
      1771974114,
      1771974114,
      1771974114,
      1771974114,
      1771974114,
      1771974354,
      1771974354,
      1771974354,
      1771974654,
      1771974654,
      1771974894,
      1771974894,
      1771974894,
      1771974894,
      1771975075,
      1771975135,
      1771975135,
      1771975135,
      1771975135,
      1771975135,
      1771975255,
      1771975255,
      1771975255,
      1771975315,
      1771975315,
      1771975315,
      1771975555,
      1771975555,
      1771975555,
      1771975615,
      1771975615,
      1771975675,
      1771975675,
      1771975675,
      1771975675,
      1771975735,
      1771975735,
      1771975735,
      1771975916,
      1771975916,
      1771975976,
      1771975976,
      1771975976,
      1771975976,
      1771978248,
      1771978248,
      1771978248,
      1771978428,
      1771978428,
      1771978428,
      1771978428,
      1771978608,
      1771978668,
      1771978788,
      1771978788,
      1771978849,
      1771979089,
      1771979089,
      1771979089,
      1771979149,
      1771979269,
      1771979449,
      1771979449,
      1771979449,
      1771979570,
      1771979570,
      1771979570,
      1771979570,
      1771979870,
      1771979870,
      1771979930,
      1771979930,
      1771980230,
      1771980230,
      1771980230,
      1771980230,
      1771980411,
      1771980411,
      1771980411,
      1771980651,
      1771980711,
      1771980711,
      1771980771,
      1771980831,
      1771981011,
      1771981011,
      1771981011,
      1771981132,
      1771981132,
      1771981192,
      1771981252,
      1771981252,
      1771981252,
      1771981612,
      1771981612,
      1771981612,
      1771981732,
      1771981852,
      1771981852,
      1771981973,
      1771981973,
      1771982153,
      1771982153,
      1771982153,
      1771982273,
      1771982393,
      1771982393,
      1771982393,
      1771982453,
      1771982453,
      1771982573,
      1771982573,
      1771982573,
      1771982633,
      1771982633,
      1771982814,
      1771982814,
      1771982814,
      1771982814,
      1771982934,
      1771982934,
      1771983294,
      1771983294,
      1771983294,
      1771983294,
      1771983354,
      1771983354,
      1771983535,
      1771983535,
      1771983535,
      1771983535,
      1771983775,
      1771983775,
      1771983895,
      1771983895,
      1771983895,
      1771983895,
      1771984135,
      1771984135,
      1771984135,
      1771984195,
      1771984195,
      1771984195,
      1771984376,
      1771984376,
      1771984436,
      1771984436,
      1771984616,
      1771984616,
      1771984616,
      1771984676,
      1771984676,
      1771984916,
      1771984916,
      1771984916,
      1771984916,
      1771985157,
      1771985217,
      1771985217,
      1771985217,
      1771985217,
      1771985397,
      1771985397,
      1771985397,
      1771985517,
      1771985517,
      1771985577,
      1771985577,
      1771985637,
      1771985637,
      1771985818,
      1771985818,
      1771985818,
      1771986058,
      1771986058,
      1771986058,
      1771986118,
      1771986118,
      1771986118,
      1771986151,
      1771986178,
      1771986271,
      1771986271,
      1771986271,
      1771986391,
      1771986391,
      1771986451,
      1771986511,
      1771986511,
      1771986538,
      1771986538,
      1771986571,
      1771986571,
      1771986571,
      1771986691,
      1771986779,
      1771986779,
      1771986779,
      1771986932,
      1771986932,
      1771986959,
      1771986993,
      1771987019,
      1771987019,
      1771987052,
      1771987079,
      1771987079,
      1771987112,
      1771987173,
      1771987199,
      1771987259,
      1771987292,
      1771987292,
      1771987292,
      1771987319,
      1771987354,
      1771987354,
      1771987534,
      1771987592,
      1771987592,
      1771987652,
      1771987714,
      1771987894,
      1771987894,
      1771987894,
      1771988074,
      1771988074,
      1771988074,
      1771988074,
      1771988133,
      1771988253,
      1771988313,
      1771988313,
      1771988313,
      1771988313,
      1771988433,
      1771988433,
      1771988734,
      1771988734,
      1771988734,
      1771988794,
      1771988794,
      1771988914,
      1771988974,
      1771988974,
      1771988974,
      1771989036,
      1771989036,
      1771989036,
      1771989274,
      1771989274,
      1771989396,
      1771989396,
      1771989515,
      1771989515,
      1771989635,
      1771989635,
      1771989635,
      1771989875,
      1771989875,
      1771989875,
      1771989935,
      1771989997,
      1771989997,
      1771990235,
      1771990476,
      1771990476,
      1771990538,
      1771990538,
      1771990538,
      1771990898,
      1771990956,
      1771990956,
      1771991198,
      1771991198,
      1771991198,
      1771991439,
      1771991439,
      1771991559,
      1771991559,
      1771991679,
      1771991799,
      1771992160,
      1771992160,
      1771992220,
      1771992460,
      1771992520,
      1771992700,
      1771992700,
      1771992820,
      1771993121,
      1771993121,
      1771993181,
      1771993421,
      1771993421,
      1771993470,
      1771993530,
      1771993530,
      1771993541,
      1771993650,
      1771993650,
      1771993770,
      1771993830,
      1771993830,
      1771993890,
      1771993951,
      1771993962,
      1771994011,
      1771994022,
      1771994082,
      1771994082,
      1771994082,
      1771994131,
      1771994142,
      1771994262,
      1771994382,
      1771994431,
      1771994431,
      1771994442,
      1771994551,
      1771994562,
      1771994562,
      1771994562,
      1771994622,
      1771994791,
      1771994791,
      1771994851,
      1771994911,
      1771994923,
      1771995031,
      1771995031,
      1771995043,
      1771995091,
      1771995103,
      1771995152,
      1771995152,
      1771995152,
      1771995163,
      1771995272,
      1771995283,
      1771995283,
      1771995572,
      1771995632,
      1771995632,
      1771995632,
      1771995812,
      1771995812,
      1771995812,
      1771996052,
      1771996112,
      1771996112,
      1771996172,
      1771996299,
      1771996299,
      1771996352,
      1771996413,
      1771996473,
      1771996539,
      1771996593,
      1771996599,
      1771996725,
      1771996773,
      1771996773,
      1771996785,
      1771996833,
      1771996833,
      1771997013,
      1771997073,
      1771997085,
      1771997145,
      1771997145,
      1771997193,
      1771997253,
      1771997253,
      1771997265,
      1771997373,
      1771997433,
      1771997445,
      1771997493,
      1771997613,
      1771997625,
      1771997625,
      1771997685
    ],
    "wof:geomhash": "d5782f5de75981c29445d8303751f3d4",
    "wof:id": 2014871923,
    "wof:repo": "sfomuseum-data-flights-2026-02"
  },
  "bbox": [
    -122.31666666666666,
    37.515277777777776,
    -71.05,
    46.475833333333334
  ],
  "geometry": {"coordinates":[[-71.05,42.4],[-71.06916666666666,42.40083333333333],[-71.06916666666666,42.40083333333333],[-71.06916666666666,42.40083333333333],[-71.06916666666666,42.40083333333333],[-71.06916666666666,42.40083333333333],[-71.18083333333334,42.574444444444445],[-71.18083333333334,42.574444444444445],[-71.18083333333334,42.574444444444445],[-71.21277777777777,42.64361111111111],[-71.21277777777777,42.64361111111111],[-71.21277777777777,42.64361111111111],[-71.21277777777777,42.64361111111111],[-71.21277777777777,42.64361111111111],[-71.57555555555555,42.85027777777778],[-71.57555555555555,42.85027777777778],[-71.57555555555555,42.85027777777778],[-72.25083333333333,43.003055555555555],[-72.25083333333333,43.003055555555555],[-72.815,43.12694444444445],[-72.815,43.12694444444445],[-72.815,43.12694444444445],[-72.815,43.12694444444445],[-73.27555555555556,43.225833333333334],[-73.41972222222223,43.256388888888885],[-73.41972222222223,43.256388888888885],[-73.41972222222223,43.256388888888885],[-73.41972222222223,43.256388888888885],[-73.41972222222223,43.256388888888885],[-73.7225,43.32],[-73.7225,43.32],[-73.7225,43.32],[-73.88861111111112,43.35388888888889],[-73.88861111111112,43.35388888888889],[-73.88861111111112,43.35388888888889],[-74.48861111111111,43.475833333333334],[-74.48861111111111,43.475833333333334],[-74.48861111111111,43.475833333333334],[-74.64027777777778,43.50611111111111],[-74.64027777777778,43.50611111111111],[-74.79222222222222,43.53611111111111],[-74.79222222222222,43.53611111111111],[-74.79222222222222,43.53611111111111],[-74.79222222222222,43.53611111111111],[-74.94333333333334,43.565555555555555],[-74.94333333333334,43.565555555555555],[-74.94333333333334,43.565555555555555],[-75.39555555555556,43.653055555555554],[-75.39555555555556,43.653055555555554],[-75.54638888888888,43.681666666666665],[-75.54638888888888,43.681666666666665],[-75.54638888888888,43.681666666666665],[-75.54638888888888,43.681666666666665],[-81.13861111111112,44.799166666666665],[-81.13861111111112,44.799166666666665],[-81.13861111111112,44.799166666666665],[-81.55305555555556,44.89611111111111],[-81.55305555555556,44.89611111111111],[-81.55305555555556,44.89611111111111],[-81.55305555555556,44.89611111111111],[-81.98583333333333,44.99527777777778],[-82.13277777777778,45.02861111111111],[-82.42472222222223,45.093611111111116],[-82.42472222222223,45.093611111111116],[-82.56972222222223,45.126111111111115],[-83.15083333333334,45.2525],[-83.15083333333334,45.2525],[-83.15083333333334,45.2525],[-83.29833333333333,45.284166666666664],[-83.59833333333333,45.34805555555556],[-84.05166666666666,45.44222222222222],[-84.05166666666666,45.44222222222222],[-84.05166666666666,45.44222222222222],[-84.35388888888889,45.50388888888889],[-84.35388888888889,45.50388888888889],[-84.35388888888889,45.50388888888889],[-84.35388888888889,45.50388888888889],[-85.11611111111111,45.655],[-85.11611111111111,45.655],[-85.29861111111111,45.69027777777777],[-85.29861111111111,45.69027777777777],[-86.05749999999999,45.83444444444444],[-86.05749999999999,45.83444444444444],[-86.05749999999999,45.83444444444444],[-86.05749999999999,45.83444444444444],[-86.51555555555555,45.91833333333333],[-86.51555555555555,45.91833333333333],[-86.51555555555555,45.91833333333333],[-87.13,46.026944444444446],[-87.28388888888888,46.05361111111111],[-87.28388888888888,46.05361111111111],[-87.43694444444445,46.08027777777778],[-87.59333333333333,46.106944444444444],[-88.05638888888889,46.18472222222222],[-88.05638888888889,46.18472222222222],[-88.05638888888889,46.18472222222222],[-88.36305555555555,46.235],[-88.36305555555555,46.235],[-88.51694444444445,46.26],[-88.67055555555557,46.28472222222222],[-88.67055555555557,46.28472222222222],[-88.67055555555557,46.28472222222222],[-89.60499999999999,46.42916666666667],[-89.60499999999999,46.42916666666667],[-89.60499999999999,46.42916666666667],[-89.91861111111112,46.475833333333334],[-90.23666666666666,46.45583333333334],[-90.23666666666666,46.45583333333334],[-90.55138888888888,46.39333333333333],[-90.55138888888888,46.39333333333333],[-91.02083333333333,46.29722222222222],[-91.02083333333333,46.29722222222222],[-91.02083333333333,46.29722222222222],[-91.32972222222222,46.23277777777778],[-91.63555555555556,46.168055555555554],[-91.63555555555556,46.168055555555554],[-91.63555555555556,46.168055555555554],[-91.78833333333333,46.13527777777778],[-91.78833333333333,46.13527777777778],[-92.12027777777777,46.06333333333333],[-92.12027777777777,46.06333333333333],[-92.12027777777777,46.06333333333333],[-92.26944444444445,46.03055555555555],[-92.26944444444445,46.03055555555555],[-92.71361111111112,45.93222222222222],[-92.71361111111112,45.93222222222222],[-92.71361111111112,45.93222222222222],[-92.71361111111112,45.93222222222222],[-93.00138888888888,45.867222222222225],[-93.00138888888888,45.867222222222225],[-93.87222222222222,45.665],[-93.87222222222222,45.665],[-93.87222222222222,45.665],[-93.87222222222222,45.665],[-94.0213888888889,45.62972222222222],[-94.0213888888889,45.62972222222222],[-94.46083333333334,45.52361111111111],[-94.46083333333334,45.52361111111111],[-94.46083333333334,45.52361111111111],[-94.46083333333334,45.52361111111111],[-95.03916666666666,45.38138888888889],[-95.03916666666666,45.38138888888889],[-95.32249999999999,45.31027777777778],[-95.32249999999999,45.31027777777778],[-95.32249999999999,45.31027777777778],[-95.32249999999999,45.31027777777778],[-95.89222222222223,45.16444444444444],[-95.89222222222223,45.16444444444444],[-95.89222222222223,45.16444444444444],[-96.03416666666666,45.1275],[-96.03416666666666,45.1275],[-96.03416666666666,45.1275],[-96.45944444444444,45.01583333333333],[-96.45944444444444,45.01583333333333],[-96.59222222222222,44.980555555555554],[-96.59222222222222,44.980555555555554],[-96.98916666666666,44.87361111111111],[-96.98916666666666,44.87361111111111],[-96.98916666666666,44.87361111111111],[-97.11916666666666,44.83833333333334],[-97.11916666666666,44.83833333333334],[-97.635,44.69638888888888],[-97.635,44.69638888888888],[-97.635,44.69638888888888],[-97.635,44.69638888888888],[-98.14611111111111,44.55222222222222],[-98.27333333333333,44.51611111111111],[-98.27333333333333,44.51611111111111],[-98.27333333333333,44.51611111111111],[-98.27333333333333,44.51611111111111],[-98.66250000000001,44.40416666666667],[-98.66250000000001,44.40416666666667],[-98.66250000000001,44.40416666666667],[-98.91583333333334,44.330000000000005],[-98.91583333333334,44.330000000000005],[-99.04027777777777,44.29361111111111],[-99.04027777777777,44.29361111111111],[-99.16250000000001,44.2575],[-99.16250000000001,44.2575],[-99.52972222222222,44.147777777777776],[-99.52972222222222,44.147777777777776],[-99.52972222222222,44.147777777777776],[-100.005,44.00388888888889],[-100.005,44.00388888888889],[-100.005,44.00388888888889],[-100.12416666666665,43.9675],[-100.12416666666665,43.9675],[-100.12416666666665,43.9675],[-100.18694444444445,43.948055555555555],[-100.24722222222222,43.92916666666667],[-100.41555555555556,43.87694444444445],[-100.41555555555556,43.87694444444445],[-100.41555555555556,43.87694444444445],[-100.66638888888889,43.79861111111111],[-100.66638888888889,43.79861111111111],[-100.78861111111111,43.76027777777778],[-100.91083333333334,43.72138888888889],[-100.91083333333334,43.72138888888889],[-100.9786111111111,43.7],[-100.9786111111111,43.7],[-101.035,43.68194444444444],[-101.035,43.68194444444444],[-101.035,43.68194444444444],[-101.27805555555555,43.60416666666667],[-101.46555555555555,43.54361111111111],[-101.46555555555555,43.54361111111111],[-101.46555555555555,43.54361111111111],[-101.76277777777777,43.44694444444444],[-101.76277777777777,43.44694444444444],[-101.8286111111111,43.42527777777777],[-101.8825,43.404444444444444],[-101.94944444444445,43.385555555555555],[-101.94944444444445,43.385555555555555],[-102.0038888888889,43.3675],[-102.07166666666666,43.345],[-102.07166666666666,43.345],[-102.12638888888888,43.32694444444445],[-102.24555555555555,43.28388888888889],[-102.31361111111111,43.264722222222225],[-102.43444444444445,43.22416666666667],[-102.48944444444444,43.205555555555556],[-102.48944444444444,43.205555555555556],[-102.48944444444444,43.205555555555556],[-102.55749999999999,43.18277777777777],[-102.60888888888888,43.16027777777778],[-102.60888888888888,43.16027777777778],[-102.97416666666666,43.03805555555555],[-103.09527777777777,42.99944444444444],[-103.09527777777777,42.99944444444444],[-103.21805555555555,42.95722222222223],[-103.33833333333332,42.91361111111111],[-103.70361111111112,42.78638888888889],[-103.70361111111112,42.78638888888889],[-103.70361111111112,42.78638888888889],[-104.06611111111111,42.65888888888889],[-104.06611111111111,42.65888888888889],[-104.06611111111111,42.65888888888889],[-104.06611111111111,42.65888888888889],[-104.18666666666667,42.61638888888889],[-104.43111111111112,42.52861111111111],[-104.55611111111111,42.483333333333334],[-104.55611111111111,42.483333333333334],[-104.55611111111111,42.483333333333334],[-104.55611111111111,42.483333333333334],[-104.79777777777778,42.39527777777778],[-104.79777777777778,42.39527777777778],[-105.40027777777779,42.1725],[-105.40027777777779,42.1725],[-105.40027777777779,42.1725],[-105.51972222222223,42.12777777777778],[-105.51972222222223,42.12777777777778],[-105.76,42.03722222222222],[-105.88,41.99166666666667],[-105.88,41.99166666666667],[-105.88,41.99166666666667],[-105.99805555555555,41.946666666666665],[-105.99805555555555,41.946666666666665],[-105.99805555555555,41.946666666666665],[-106.4775,41.76222222222222],[-106.4775,41.76222222222222],[-106.71027777777778,41.67166666666667],[-106.71027777777778,41.67166666666667],[-106.94638888888889,41.57916666666667],[-106.94638888888889,41.57916666666667],[-107.18583333333333,41.48416666666667],[-107.18583333333333,41.48416666666667],[-107.18583333333333,41.48416666666667],[-107.665,41.29222222222222],[-107.665,41.29222222222222],[-107.665,41.29222222222222],[-107.78777777777778,41.2425],[-107.91000000000001,41.19277777777778],[-107.91000000000001,41.19277777777778],[-108.40277777777779,40.99027777777778],[-108.89694444444446,40.78388888888889],[-108.89694444444446,40.78388888888889],[-109.02055555555556,40.731944444444444],[-109.02055555555556,40.731944444444444],[-109.02055555555556,40.731944444444444],[-109.73388888888888,40.42638888888889],[-109.85583333333332,40.37388888888889],[-109.85583333333332,40.37388888888889],[-110.375,40.14611111111111],[-110.375,40.14611111111111],[-110.375,40.14611111111111],[-110.86777777777777,39.92638888888889],[-110.86777777777777,39.92638888888889],[-111.10944444444443,39.81722222222223],[-111.10944444444443,39.81722222222223],[-111.34166666666667,39.711666666666666],[-111.57916666666667,39.60305555555556],[-112.32694444444444,39.37277777777778],[-112.32694444444444,39.37277777777778],[-112.4575,39.346944444444446],[-112.98472222222222,39.240833333333335],[-113.11305555555555,39.21472222222223],[-113.50194444444445,39.134166666666665],[-113.50194444444445,39.134166666666665],[-113.765,39.07888888888889],[-114.41777777777779,38.93833333333333],[-114.41777777777779,38.93833333333333],[-114.54777777777778,38.91],[-115.05305555555556,38.797777777777775],[-115.05305555555556,38.797777777777775],[-115.15222222222222,38.775277777777774],[-115.27722222222222,38.7475],[-115.27722222222222,38.7475],[-115.30138888888888,38.74166666666667],[-115.53416666666666,38.68888888888888],[-115.53416666666666,38.68888888888888],[-115.785,38.63194444444444],[-115.90916666666668,38.602222222222224],[-115.90916666666668,38.602222222222224],[-116.03444444444445,38.57277777777778],[-116.15833333333335,38.54361111111111],[-116.1825,38.53805555555555],[-116.28527777777778,38.51361111111111],[-116.30805555555555,38.50833333333333],[-116.4363888888889,38.47777777777778],[-116.4363888888889,38.47777777777778],[-116.4363888888889,38.47777777777778],[-116.53833333333333,38.453611111111115],[-116.56194444444444,38.448055555555555],[-116.81055555555555,38.38805555555555],[-117.05555555555556,38.32833333333333],[-117.14222222222223,38.30722222222222],[-117.14222222222223,38.30722222222222],[-117.17666666666668,38.29861111111111],[-117.38444444444445,38.24],[-117.40583333333333,38.224444444444444],[-117.40583333333333,38.224444444444444],[-117.40583333333333,38.224444444444444],[-117.44611111111111,38.12638888888889],[-117.46444444444445,37.81083333333333],[-117.46444444444445,37.81083333333333],[-117.47611111111111,37.69416666666666],[-117.50222222222222,37.581388888888895],[-117.51638888888888,37.56444444444444],[-117.72944444444444,37.515277777777776],[-117.72944444444444,37.515277777777776],[-117.75277777777778,37.51722222222222],[-117.8586111111111,37.525277777777774],[-117.88166666666666,37.52722222222222],[-117.9875,37.53527777777778],[-117.9875,37.53527777777778],[-117.9875,37.53527777777778],[-118.01083333333334,37.53722222222222],[-118.2425,37.55472222222222],[-118.26777777777778,37.556666666666665],[-118.26777777777778,37.556666666666665],[-118.88916666666667,37.6025],[-119.01944444444445,37.611666666666665],[-119.01944444444445,37.611666666666665],[-119.01944444444445,37.611666666666665],[-119.41583333333334,37.638333333333335],[-119.41583333333334,37.638333333333335],[-119.41583333333334,37.638333333333335],[-119.93805555555556,37.67166666666667],[-120.06472222222222,37.67916666666667],[-120.06472222222222,37.67916666666667],[-120.1888888888889,37.68666666666666],[-120.45,37.7],[-120.45,37.7],[-120.54666666666667,37.6825],[-120.65777777777778,37.669444444444444],[-120.7625,37.65694444444444],[-120.86666666666666,37.65],[-120.95666666666666,37.63361111111111],[-120.96666666666667,37.63333333333333],[-121.16666666666667,37.666666666666664],[-121.24138888888889,37.68555555555555],[-121.24138888888889,37.68555555555555],[-121.26666666666667,37.68333333333333],[-121.33694444444444,37.70305555555556],[-121.33694444444444,37.70305555555556],[-121.60138888888888,37.75111111111111],[-121.68388888888889,37.76611111111111],[-121.71666666666667,37.766666666666666],[-121.78333333333333,37.78333333333333],[-121.78333333333333,37.78333333333333],[-121.83527777777778,37.79361111111111],[-121.9113888888889,37.80722222222222],[-121.9113888888889,37.80722222222222],[-121.93333333333334,37.81666666666667],[-122.06305555555555,37.83111111111111],[-122.13805555555557,37.82888888888889],[-122.16666666666667,37.833333333333336],[-122.21333333333334,37.823888888888895],[-122.29083333333332,37.742222222222225],[-122.3,37.733333333333334],[-122.3,37.733333333333334],[-122.31666666666666,37.7]],"type":"LineString"}
}
