{
  "id": 2014891757,
  "type": "Feature",
  "properties": {
    "geom:area": 0,
    "geom:bbox": "-122.363333,32.700000,-97.026389,38.518611",
    "geom:latitude": 36.77036274520791,
    "geom:longitude": -109.41197341638346,
    "src:alt_label": "swim-path",
    "src:geom": "swim",
    "swim:altitudes": [
      "025",
      "025",
      "025",
      "042",
      "042",
      "042",
      "068",
      "068",
      "068",
      "109",
      "109",
      "182",
      "193",
      "193",
      "193",
      "193",
      "193",
      "222",
      "222",
      "280",
      "292",
      "292",
      "292",
      "304",
      "310",
      "311",
      "311",
      "311",
      "328C",
      "330C",
      "330C",
      "330C",
      "330C",
      "330C",
      "330C",
      "330C",
      "330C",
      "330C",
      "330C",
      "330C",
      "330C",
      "330C",
      "330C",
      "330C",
      "330C",
      "329",
      "320",
      "320",
      "310C",
      "310C",
      "310C",
      "310C",
      "310C",
      "310C",
      "310C",
      "310C",
      "311C",
      "310C",
      "310C",
      "310C",
      "311C",
      "310C",
      "310C",
      "310C",
      "310C",
      "310C",
      "310C",
      "310C",
      "310C",
      "318",
      "326",
      "335",
      "350C",
      "350C",
      "350C",
      "350C",
      "350C",
      "350C",
      "350C",
      "350C",
      "350C",
      "350C",
      "350C",
      "350C",
      "350C",
      "350C",
      "350C",
      "350C",
      "350C",
      "350C",
      "350C",
      "350C",
      "350C",
      "350C",
      "350C",
      "350C",
      "350C",
      "350C",
      "350C",
      "350C",
      "350C",
      "350C",
      "350C",
      "350C",
      "350C",
      "350C",
      "350C",
      "350C",
      "350C",
      "350C",
      "350C",
      "350C",
      "350C",
      "350C",
      "350C",
      "350C",
      "350C",
      "350C",
      "350C",
      "350C",
      "350C",
      "350C",
      "350C",
      "350C",
      "350C",
      "350C",
      "350",
      "351",
      "351",
      "350",
      "350",
      "350",
      "343",
      "330",
      "330",
      "330",
      "330",
      "303",
      "303",
      "303",
      "303",
      "282",
      "282",
      "176",
      "176",
      "176",
      "176",
      "176",
      "143",
      "143",
      "143",
      "120",
      "115",
      "115",
      "100",
      "060",
      "060",
      "030",
      "030",
      "030",
      "023",
      "023",
      "017",
      "017",
      "014",
      "014",
      "009",
      "009",
      "009",
      "009"
    ],
    "swim:geom": "path",
    "swim:speeds": [
      200,
      200,
      200,
      257,
      257,
      257,
      268,
      268,
      268,
      347,
      347,
      421,
      444,
      444,
      444,
      444,
      444,
      473,
      473,
      548,
      545,
      545,
      545,
      539,
      536,
      537,
      537,
      537,
      538,
      538,
      538,
      538,
      539,
      539,
      538,
      538,
      538,
      538,
      538,
      538,
      538,
      538,
      537,
      542,
      542,
      542,
      543,
      543,
      544,
      545,
      547,
      550,
      550,
      554,
      554,
      554,
      554,
      552,
      550,
      550,
      549,
      548,
      548,
      549,
      549,
      549,
      550,
      551,
      551,
      555,
      558,
      561,
      561,
      560,
      561,
      557,
      557,
      552,
      552,
      548,
      548,
      548,
      554,
      554,
      554,
      542,
      542,
      544,
      545,
      546,
      546,
      546,
      547,
      547,
      554,
      554,
      555,
      556,
      554,
      554,
      554,
      556,
      554,
      554,
      555,
      555,
      557,
      557,
      557,
      556,
      555,
      554,
      554,
      554,
      554,
      553,
      553,
      553,
      553,
      553,
      553,
      552,
      551,
      551,
      551,
      551,
      552,
      552,
      552,
      552,
      552,
      551,
      550,
      551,
      551,
      551,
      551,
      554,
      554,
      554,
      554,
      544,
      544,
      454,
      454,
      454,
      454,
      454,
      415,
      415,
      415,
      307,
      279,
      281,
      263,
      241,
      241,
      211,
      211,
      197,
      176,
      176,
      155,
      155,
      151,
      151,
      152,
      152,
      152,
      152
    ],
    "swim:timestamps": [
      1772095187,
      1772095187,
      1772095187,
      1772095247,
      1772095247,
      1772095247,
      1772095307,
      1772095307,
      1772095307,
      1772095427,
      1772095427,
      1772095667,
      1772095727,
      1772095727,
      1772095727,
      1772095727,
      1772095727,
      1772095847,
      1772095847,
      1772096267,
      1772096327,
      1772096327,
      1772096327,
      1772096387,
      1772096429,
      1772096447,
      1772096447,
      1772096447,
      1772096567,
      1772096627,
      1772096687,
      1772096747,
      1772096849,
      1772096849,
      1772096867,
      1772096867,
      1772096927,
      1772096927,
      1772096969,
      1772096969,
      1772096969,
      1772096969,
      1772097149,
      1772097527,
      1772097527,
      1772097569,
      1772097629,
      1772097629,
      1772097869,
      1772097989,
      1772098169,
      1772098350,
      1772098350,
      1772098517,
      1772098517,
      1772098590,
      1772098637,
      1772098697,
      1772098817,
      1772098830,
      1772098877,
      1772099130,
      1772099190,
      1772099237,
      1772099297,
      1772099310,
      1772099417,
      1772099490,
      1772099490,
      1772099717,
      1772099777,
      1772099837,
      1772100017,
      1772100077,
      1772100377,
      1772100557,
      1772100557,
      1772100617,
      1772100617,
      1772100677,
      1772100677,
      1772100677,
      1772100798,
      1772100798,
      1772100798,
      1772101097,
      1772101097,
      1772101278,
      1772101340,
      1772101399,
      1772101399,
      1772101399,
      1772101461,
      1772101461,
      1772101639,
      1772101639,
      1772101665,
      1772101725,
      1772101759,
      1772101759,
      1772101759,
      1772101785,
      1772101820,
      1772101845,
      1772101965,
      1772101965,
      1772102145,
      1772102145,
      1772102145,
      1772102205,
      1772102239,
      1772102325,
      1772102359,
      1772102359,
      1772102419,
      1772102506,
      1772102539,
      1772102566,
      1772102566,
      1772102566,
      1772102626,
      1772102686,
      1772102719,
      1772102719,
      1772102746,
      1772102746,
      1772102899,
      1772102926,
      1772102926,
      1772102959,
      1772102959,
      1772103166,
      1772103226,
      1772103286,
      1772103286,
      1772103286,
      1772103286,
      1772103346,
      1772103346,
      1772103346,
      1772103346,
      1772103406,
      1772103406,
      1772103706,
      1772103706,
      1772103706,
      1772103706,
      1772103706,
      1772103825,
      1772103825,
      1772103825,
      1772104005,
      1772104059,
      1772104066,
      1772104126,
      1772104246,
      1772104246,
      1772104366,
      1772104366,
      1772104426,
      1772104497,
      1772104497,
      1772104546,
      1772104546,
      1772104563,
      1772104563,
      1772104606,
      1772104606,
      1772104606,
      1772104606
    ],
    "wof:geomhash": "c43698ea15fae7872b5525a2f2a096ba",
    "wof:id": 2014891757,
    "wof:repo": "sfomuseum-data-flights-2026-02"
  },
  "bbox": [
    -122.36333333333333,
    32.7,
    -97.02638888888889,
    38.51861111111111
  ],
  "geometry": {"coordinates":[[-122.3236111111111,37.668055555555554],[-122.3236111111111,37.668055555555554],[-122.3236111111111,37.668055555555554],[-122.32777777777777,37.731388888888894],[-122.32777777777777,37.731388888888894],[-122.32777777777777,37.731388888888894],[-122.36333333333333,37.799166666666665],[-122.36333333333333,37.799166666666665],[-122.36333333333333,37.799166666666665],[-122.34222222222222,37.948055555555555],[-122.34222222222222,37.948055555555555],[-121.7911111111111,38.02444444444444],[-121.64,38.04388888888889],[-121.64,38.04388888888889],[-121.64,38.04388888888889],[-121.64,38.04388888888889],[-121.64,38.04388888888889],[-121.285,38.08916666666667],[-121.285,38.08916666666667],[-119.99305555555556,38.244166666666665],[-119.80222222222221,38.26555555555556],[-119.80222222222221,38.26555555555556],[-119.80222222222221,38.26555555555556],[-119.61472222222221,38.28638888888889],[-119.49527777777777,38.29861111111111],[-119.42833333333334,38.30694444444444],[-119.42833333333334,38.30694444444444],[-119.42833333333334,38.30694444444444],[-119.045,38.348333333333336],[-118.85749999999999,38.36805555555556],[-118.66916666666667,38.38722222222222],[-118.48083333333334,38.406388888888884],[-118.16861111111112,38.4375],[-118.16861111111112,38.4375],[-118.10499999999999,38.44361111111111],[-118.10499999999999,38.44361111111111],[-117.94,38.459722222222226],[-117.94,38.459722222222226],[-117.78722222222223,38.474444444444444],[-117.78722222222223,38.474444444444444],[-117.78722222222223,38.474444444444444],[-117.78722222222223,38.474444444444444],[-117.21666666666667,38.51861111111111],[-116.01416666666667,38.47777777777778],[-116.01416666666667,38.47777777777778],[-115.90194444444445,38.473333333333336],[-115.70805555555556,38.46555555555556],[-115.70805555555556,38.46555555555556],[-114.92722222222223,38.430277777777775],[-114.54055555555556,38.41111111111111],[-113.97638888888889,38.316111111111105],[-113.42083333333333,38.183055555555555],[-113.42083333333333,38.183055555555555],[-112.89444444444445,38.053888888888885],[-112.89444444444445,38.053888888888885],[-112.66888888888889,37.99805555555556],[-112.51888888888888,37.96027777777778],[-112.33583333333333,37.91416666666667],[-111.96388888888889,37.82],[-111.92750000000001,37.81194444444444],[-111.78083333333333,37.77861111111111],[-111.00527777777778,37.598888888888894],[-110.82027777777778,37.56055555555555],[-110.67055555555557,37.5375],[-110.51833333333333,37.51416666666667],[-110.44250000000001,37.50222222222222],[-110.13361111111112,37.453611111111115],[-109.89861111111112,37.41611111111111],[-109.89861111111112,37.41611111111111],[-109.18833333333333,37.29972222222222],[-108.99416666666667,37.26694444444444],[-108.80305555555556,37.23444444444444],[-108.22944444444444,37.135],[-108.03861111111111,37.10111111111111],[-107.08611111111111,36.92777777777778],[-106.52333333333333,36.821111111111115],[-106.52333333333333,36.821111111111115],[-106.33944444444444,36.78583333333333],[-106.33944444444444,36.78583333333333],[-106.13333333333334,36.745555555555555],[-106.13333333333334,36.745555555555555],[-106.13333333333334,36.745555555555555],[-105.78138888888888,36.64861111111111],[-105.78138888888888,36.64861111111111],[-105.78138888888888,36.64861111111111],[-104.91583333333334,36.339444444444446],[-104.91583333333334,36.339444444444446],[-104.39083333333333,36.1475],[-104.21888888888888,36.08388888888889],[-104.04916666666666,36.020833333333336],[-104.04916666666666,36.020833333333336],[-104.04916666666666,36.020833333333336],[-103.87694444444443,35.95638888888889],[-103.87694444444443,35.95638888888889],[-103.39083333333333,35.77305555555555],[-103.39083333333333,35.77305555555555],[-103.3086111111111,35.74166666666667],[-103.1363888888889,35.67611111111111],[-103.04694444444445,35.64138888888889],[-103.04694444444445,35.64138888888889],[-103.04694444444445,35.64138888888889],[-102.96611111111112,35.61027777777778],[-102.86416666666666,35.57083333333334],[-102.79583333333333,35.544444444444444],[-102.45694444444445,35.4125],[-102.45694444444445,35.4125],[-101.9475,35.211111111111116],[-101.9475,35.211111111111116],[-101.9475,35.211111111111116],[-101.78111111111112,35.14472222222222],[-101.6825,35.10527777777778],[-101.41777777777779,34.99888888888889],[-101.33388888888888,34.96472222222223],[-101.33388888888888,34.96472222222223],[-101.18277777777779,34.90361111111111],[-100.91666666666667,34.79472222222222],[-100.85055555555554,34.7675],[-100.75055555555555,34.72638888888889],[-100.75055555555555,34.72638888888889],[-100.75055555555555,34.72638888888889],[-100.58611111111111,34.65833333333333],[-100.42055555555557,34.58972222222222],[-100.3536111111111,34.56166666666666],[-100.3536111111111,34.56166666666666],[-100.27,34.526944444444446],[-100.27,34.526944444444446],[-99.83555555555554,34.343611111111116],[-99.76805555555555,34.31527777777777],[-99.76805555555555,34.31527777777777],[-99.66972222222223,34.27333333333333],[-99.66972222222223,34.27333333333333],[-99.10972222222222,34.032777777777774],[-98.95472222222223,33.965833333333336],[-98.79305555555555,33.89527777777778],[-98.79305555555555,33.89527777777778],[-98.79305555555555,33.89527777777778],[-98.79305555555555,33.89527777777778],[-98.62666666666667,33.822500000000005],[-98.62666666666667,33.822500000000005],[-98.62666666666667,33.822500000000005],[-98.62666666666667,33.822500000000005],[-98.46722222222222,33.75222222222222],[-98.46722222222222,33.75222222222222],[-97.7213888888889,33.419999999999995],[-97.7213888888889,33.419999999999995],[-97.7213888888889,33.419999999999995],[-97.7213888888889,33.419999999999995],[-97.7213888888889,33.419999999999995],[-97.5,33.266666666666666],[-97.5,33.266666666666666],[-97.5,33.266666666666666],[-97.25,33.05],[-97.18333333333334,33],[-97.18444444444445,32.993611111111115],[-97.1675,32.924166666666665],[-97.16027777777778,32.78666666666666],[-97.16027777777778,32.78666666666666],[-97.10444444444444,32.7],[-97.10444444444444,32.7],[-97.05611111111111,32.73027777777778],[-97.03333333333333,32.78333333333333],[-97.03333333333333,32.78333333333333],[-97.02666666666667,32.824444444444445],[-97.02666666666667,32.824444444444445],[-97.03333333333333,32.833333333333336],[-97.03333333333333,32.833333333333336],[-97.02638888888889,32.86694444444444],[-97.02638888888889,32.86694444444444],[-97.02638888888889,32.86694444444444],[-97.02638888888889,32.86694444444444]],"type":"LineString"}
}
