{
  "id": 2014797793,
  "type": "Feature",
  "properties": {
    "geom:area": 0,
    "geom:bbox": "-127.345556,37.666667,-122.274167,40.911667",
    "geom:latitude": 39.43373599666707,
    "geom:longitude": -124.57184253499257,
    "src:alt_label": "swim-path",
    "src:geom": "swim",
    "swim:altitudes": [
      "410C",
      "410C",
      "410C",
      "410C",
      "408",
      "408",
      "379",
      "369",
      "369",
      "359",
      "330C",
      "330C",
      "330C",
      "330C",
      "330C",
      "330C",
      "322",
      "308",
      "294",
      "290C",
      "290C",
      "290C",
      "290C",
      "290C",
      "290C",
      "290C",
      "281",
      "271",
      "271",
      "255",
      "255",
      "255",
      "243",
      "233",
      "228",
      "228",
      "177",
      "177",
      "141",
      "114",
      "114",
      "108",
      "108",
      "086",
      "086",
      "066",
      "031",
      "024",
      "024",
      "016",
      "009",
      "009"
    ],
    "swim:geom": "path",
    "swim:speeds": [
      484,
      484,
      482,
      488,
      476,
      476,
      466,
      467,
      467,
      465,
      439,
      424,
      424,
      424,
      422,
      422,
      452,
      447,
      443,
      390,
      390,
      327,
      327,
      327,
      325,
      325,
      346,
      304,
      304,
      305,
      305,
      305,
      301,
      333,
      331,
      331,
      319,
      319,
      332,
      302,
      302,
      242,
      242,
      233,
      233,
      252,
      168,
      149,
      149,
      125,
      126,
      126
    ],
    "swim:timestamps": [
      1771206999,
      1771206999,
      1771207059,
      1771207180,
      1771207240,
      1771207240,
      1771207420,
      1771207480,
      1771207480,
      1771207540,
      1771207720,
      1771207780,
      1771207780,
      1771207780,
      1771208021,
      1771208021,
      1771208141,
      1771208261,
      1771208381,
      1771208441,
      1771208441,
      1771208621,
      1771208621,
      1771208621,
      1771208741,
      1771208741,
      1771208861,
      1771208982,
      1771208982,
      1771209162,
      1771209162,
      1771209162,
      1771209282,
      1771209402,
      1771209462,
      1771209462,
      1771209642,
      1771209642,
      1771209753,
      1771209882,
      1771209882,
      1771209933,
      1771209933,
      1771210123,
      1771210123,
      1771210233,
      1771210423,
      1771210483,
      1771210483,
      1771210533,
      1771210593,
      1771210593
    ],
    "wof:geomhash": "c7cd9d76df479bb22ebd95005b53fdbf",
    "wof:id": 2014797793,
    "wof:repo": "sfomuseum-data-flights-2026-02"
  },
  "bbox": [
    -127.34555555555555,
    37.666666666666664,
    -122.27416666666666,
    40.91166666666666
  ],
  "geometry": {"coordinates":[[-127.34555555555555,40.91166666666666],[-127.34555555555555,40.91166666666666],[-127.22583333333334,40.81305555555555],[-126.94888888888889,40.6025],[-126.80333333333333,40.532222222222224],[-126.80333333333333,40.532222222222224],[-126.37388888888889,40.32527777777778],[-126.23027777777779,40.25527777777778],[-126.23027777777779,40.25527777777778],[-126.08833333333332,40.18611111111111],[-125.66777777777779,39.97944444444445],[-125.54027777777777,39.91611111111111],[-125.54027777777777,39.91611111111111],[-125.54027777777777,39.91611111111111],[-125.02972222222222,39.66],[-125.02972222222222,39.66],[-124.73222222222222,39.64138888888889],[-124.41861111111112,39.695277777777775],[-124.1086111111111,39.75333333333333],[-123.96611111111112,39.745555555555555],[-123.96611111111112,39.745555555555555],[-123.74333333333334,39.510555555555555],[-123.74333333333334,39.510555555555555],[-123.74333333333334,39.510555555555555],[-123.6236111111111,39.355555555555554],[-123.6236111111111,39.355555555555554],[-123.50194444444445,39.197222222222216],[-123.45194444444445,39.031666666666666],[-123.45194444444445,39.031666666666666],[-123.35583333333332,38.77611111111111],[-123.35583333333332,38.77611111111111],[-123.35583333333332,38.77611111111111],[-123.24361111111111,38.634166666666665],[-123.11972222222222,38.47527777777778],[-123.0586111111111,38.39722222222222],[-123.0586111111111,38.39722222222222],[-122.88027777777778,38.168055555555554],[-122.88027777777778,38.168055555555554],[-122.76666666666667,38.03333333333333],[-122.57472222222222,37.94638888888888],[-122.57472222222222,37.94638888888888],[-122.56666666666666,37.88333333333333],[-122.56666666666666,37.88333333333333],[-122.51,37.749722222222225],[-122.51,37.749722222222225],[-122.38333333333334,37.833333333333336],[-122.27416666666666,37.76722222222222],[-122.29888888888888,37.730000000000004],[-122.29888888888888,37.730000000000004],[-122.31666666666666,37.7],[-122.33333333333333,37.666666666666664],[-122.33333333333333,37.666666666666664]],"type":"LineString"}
}
