{
  "id": 2014799197,
  "type": "Feature",
  "properties": {
    "geom:area": 0,
    "geom:bbox": "-122.213889,37.620278,-87.500000,42.563056",
    "geom:latitude": 41.39197375424994,
    "geom:longitude": -104.87442320220988,
    "src:alt_label": "swim-path",
    "src:geom": "swim",
    "swim:altitudes": [
      "043",
      "052",
      "052",
      "052",
      "052",
      "071",
      "071",
      "099",
      "099",
      "110",
      "110",
      "135",
      "135",
      "135",
      "135",
      "135",
      "135",
      "214",
      "214",
      "214",
      "214",
      "214",
      "214",
      "228",
      "228",
      "228",
      "274",
      "274",
      "274",
      "274",
      "274",
      "274",
      "324",
      "324",
      "324",
      "324",
      "350C",
      "350C",
      "350C",
      "350C",
      "350C",
      "350C",
      "350C",
      "360C",
      "360C",
      "360C",
      "360C",
      "360C",
      "360C",
      "360C",
      "360C",
      "350C",
      "350C",
      "350C",
      "350C",
      "350C",
      "350C",
      "350C",
      "350C",
      "350C",
      "350C",
      "350C",
      "350C",
      "350C",
      "350C",
      "350C",
      "350C",
      "350C",
      "350C",
      "350C",
      "350C",
      "350C",
      "350C",
      "350C",
      "350C",
      "350C",
      "350C",
      "350C",
      "350C",
      "350C",
      "350C",
      "350C",
      "350C",
      "350C",
      "350C",
      "350C",
      "350C",
      "350C",
      "350C",
      "350C",
      "350C",
      "350C",
      "350C",
      "350C",
      "350C",
      "350C",
      "350C",
      "350C",
      "350C",
      "350C",
      "350C",
      "350C",
      "350C",
      "350C",
      "350C",
      "350C",
      "350C",
      "350C",
      "350C",
      "350C",
      "350C",
      "350C",
      "350C",
      "350C",
      "350C",
      "350C",
      "350C",
      "350C",
      "350C",
      "350C",
      "350C",
      "350C",
      "350C",
      "350C",
      "350C",
      "350C",
      "350C",
      "350C",
      "350C",
      "350C",
      "350C",
      "350C",
      "350C",
      "350C",
      "350C",
      "350C",
      "350C",
      "350C",
      "350C",
      "350C",
      "350C",
      "350C",
      "350C",
      "350C",
      "350C",
      "350C",
      "350C",
      "350C",
      "350C",
      "350C",
      "350C",
      "350C",
      "350C",
      "350C",
      "350C",
      "350C",
      "350C",
      "350C",
      "350C",
      "350C",
      "350C",
      "350C",
      "350C",
      "350C",
      "350C",
      "350C",
      "350C",
      "350C",
      "350C",
      "350C",
      "350C",
      "350C",
      "350C",
      "350C",
      "350C",
      "350C",
      "350C",
      "350C",
      "350C",
      "350C",
      "350C",
      "350C",
      "350C",
      "350C",
      "350C",
      "350C",
      "350C",
      "350C",
      "350C",
      "350C",
      "350C",
      "350C",
      "350C",
      "350C",
      "350C",
      "350C",
      "350C",
      "350C",
      "350C",
      "350C",
      "350C",
      "350C",
      "350C",
      "350C",
      "350C",
      "350C",
      "350C",
      "350C",
      "350C",
      "350C",
      "350C",
      "350C",
      "350C",
      "350C",
      "350C",
      "350C",
      "350C",
      "350C",
      "350C",
      "350C",
      "350C",
      "350C",
      "350C",
      "350C",
      "350C",
      "350C",
      "350C",
      "350C",
      "350C",
      "350C",
      "350C",
      "350C",
      "350C",
      "350C",
      "350C",
      "350C",
      "350C",
      "350C",
      "350C",
      "350C",
      "350C",
      "350C",
      "350C",
      "350C",
      "350C",
      "350C",
      "350C",
      "350C",
      "350C",
      "350C",
      "350C",
      "350C",
      "350C",
      "350C",
      "350C",
      "350C",
      "350C",
      "350C",
      "350C",
      "350C",
      "350C",
      "350C",
      "350C",
      "350C",
      "350C",
      "350C",
      "350C",
      "350C",
      "350C",
      "350C",
      "350C",
      "350C",
      "350C",
      "350C",
      "350C",
      "350C",
      "350C",
      "350C",
      "350C",
      "350C",
      "350C",
      "350C",
      "350C",
      "350C",
      "350C",
      "350C",
      "350C",
      "350C",
      "350C",
      "350C",
      "350C",
      "350C",
      "350C",
      "350C",
      "350C",
      "350C",
      "350C",
      "350C",
      "350C",
      "350C",
      "350C",
      "350C",
      "350C",
      "350C",
      "350C",
      "350C",
      "350C",
      "350C",
      "350C",
      "350C",
      "350C",
      "350C",
      "350C",
      "350C",
      "350C",
      "350C",
      "350C",
      "350C",
      "350C",
      "350C",
      "350C",
      "350C",
      "350C",
      "350C",
      "350C",
      "350C",
      "350C",
      "350C",
      "350C",
      "350C",
      "350C",
      "350C",
      "350C",
      "350C",
      "350C",
      "350C",
      "350C",
      "350C",
      "350C",
      "350C",
      "350C",
      "350C",
      "350C",
      "350C",
      "350C",
      "350C",
      "350C",
      "350C",
      "344",
      "344",
      "344",
      "344",
      "344",
      "344",
      "317",
      "317",
      "317",
      "316",
      "316",
      "316",
      "316",
      "290C",
      "290C",
      "290C",
      "290C",
      "290C",
      "290",
      "290",
      "290",
      "290",
      "290",
      "278",
      "278",
      "268",
      "268",
      "268",
      "268",
      "230",
      "230",
      "230",
      "230",
      "230",
      "149",
      "149",
      "149",
      "149",
      "129",
      "129",
      "129",
      "129",
      "100",
      "100",
      "100",
      "101",
      "101",
      "101",
      "100",
      "100",
      "100",
      "100",
      "100",
      "100",
      "096",
      "096",
      "096",
      "084",
      "084",
      "084",
      "080",
      "071",
      "071",
      "059",
      "059",
      "059",
      "048",
      "046",
      "046",
      "046",
      "046",
      "040",
      "040",
      "040",
      "041",
      "040",
      "040",
      "040",
      "040",
      "040",
      "018",
      "018",
      "009",
      "009",
      "009",
      "009",
      "009",
      "009"
    ],
    "swim:geom": "path",
    "swim:speeds": [
      258,
      267,
      267,
      267,
      267,
      270,
      270,
      310,
      310,
      334,
      334,
      378,
      378,
      378,
      378,
      378,
      378,
      450,
      450,
      450,
      450,
      450,
      450,
      475,
      475,
      475,
      512,
      512,
      512,
      512,
      512,
      512,
      536,
      536,
      536,
      536,
      543,
      543,
      543,
      543,
      543,
      543,
      543,
      536,
      536,
      536,
      537,
      537,
      537,
      537,
      537,
      540,
      540,
      540,
      540,
      540,
      540,
      537,
      537,
      537,
      537,
      537,
      532,
      532,
      532,
      529,
      529,
      529,
      531,
      531,
      531,
      531,
      531,
      531,
      533,
      533,
      535,
      535,
      535,
      535,
      535,
      539,
      539,
      540,
      540,
      540,
      540,
      540,
      540,
      540,
      540,
      540,
      540,
      538,
      538,
      538,
      542,
      542,
      544,
      544,
      544,
      545,
      545,
      545,
      545,
      546,
      546,
      546,
      546,
      546,
      546,
      549,
      551,
      551,
      551,
      551,
      551,
      553,
      553,
      553,
      553,
      553,
      553,
      553,
      553,
      552,
      552,
      552,
      549,
      549,
      549,
      549,
      549,
      549,
      548,
      548,
      548,
      548,
      549,
      549,
      550,
      550,
      550,
      550,
      555,
      555,
      551,
      554,
      552,
      553,
      553,
      552,
      552,
      552,
      552,
      552,
      552,
      551,
      551,
      551,
      550,
      549,
      549,
      549,
      549,
      549,
      549,
      549,
      549,
      549,
      549,
      549,
      549,
      549,
      549,
      549,
      549,
      549,
      549,
      549,
      548,
      548,
      548,
      547,
      547,
      547,
      547,
      547,
      546,
      546,
      546,
      546,
      546,
      547,
      547,
      547,
      548,
      548,
      548,
      548,
      548,
      549,
      549,
      549,
      549,
      547,
      547,
      547,
      548,
      548,
      548,
      549,
      549,
      549,
      547,
      547,
      543,
      543,
      543,
      544,
      544,
      544,
      544,
      544,
      542,
      542,
      542,
      542,
      543,
      543,
      543,
      543,
      544,
      544,
      544,
      544,
      549,
      549,
      546,
      546,
      546,
      549,
      549,
      549,
      546,
      546,
      546,
      549,
      549,
      551,
      551,
      551,
      552,
      552,
      551,
      551,
      551,
      551,
      551,
      552,
      552,
      550,
      551,
      549,
      549,
      549,
      549,
      548,
      549,
      549,
      549,
      549,
      549,
      549,
      549,
      548,
      548,
      548,
      548,
      546,
      546,
      546,
      546,
      546,
      544,
      544,
      544,
      544,
      545,
      545,
      545,
      545,
      545,
      542,
      542,
      542,
      542,
      542,
      542,
      542,
      542,
      543,
      543,
      543,
      543,
      543,
      543,
      543,
      542,
      542,
      542,
      542,
      542,
      542,
      542,
      542,
      542,
      545,
      545,
      545,
      545,
      545,
      545,
      547,
      547,
      547,
      546,
      546,
      546,
      545,
      545,
      545,
      545,
      543,
      543,
      542,
      541,
      541,
      542,
      542,
      542,
      542,
      542,
      542,
      543,
      543,
      543,
      543,
      543,
      543,
      543,
      543,
      543,
      543,
      532,
      532,
      532,
      532,
      532,
      532,
      532,
      491,
      491,
      491,
      490,
      490,
      487,
      486,
      486,
      486,
      486,
      479,
      479,
      507,
      507,
      507,
      507,
      474,
      474,
      474,
      474,
      474,
      404,
      404,
      404,
      404,
      395,
      395,
      395,
      395,
      378,
      378,
      378,
      374,
      374,
      374,
      375,
      375,
      375,
      357,
      357,
      357,
      327,
      327,
      327,
      300,
      300,
      300,
      293,
      294,
      294,
      290,
      290,
      290,
      264,
      246,
      246,
      246,
      246,
      238,
      238,
      238,
      230,
      213,
      213,
      213,
      213,
      213,
      153,
      153,
      149,
      149,
      149,
      149,
      149,
      153
    ],
    "swim:timestamps": [
      1771181925,
      1771181936,
      1771181936,
      1771181936,
      1771181936,
      1771181985,
      1771181985,
      1771182056,
      1771182056,
      1771182105,
      1771182105,
      1771182176,
      1771182176,
      1771182176,
      1771182176,
      1771182176,
      1771182176,
      1771182405,
      1771182405,
      1771182405,
      1771182405,
      1771182405,
      1771182405,
      1771182465,
      1771182465,
      1771182465,
      1771182646,
      1771182646,
      1771182646,
      1771182646,
      1771182646,
      1771182646,
      1771182886,
      1771182886,
      1771182886,
      1771182886,
      1771183066,
      1771183066,
      1771183066,
      1771183066,
      1771183066,
      1771183066,
      1771183066,
      1771183246,
      1771183246,
      1771183246,
      1771183302,
      1771183302,
      1771183302,
      1771183302,
      1771183302,
      1771183482,
      1771183482,
      1771183482,
      1771183482,
      1771183482,
      1771183482,
      1771183727,
      1771183727,
      1771183727,
      1771183727,
      1771183727,
      1771183843,
      1771183843,
      1771183843,
      1771183967,
      1771183967,
      1771183967,
      1771184083,
      1771184083,
      1771184083,
      1771184083,
      1771184083,
      1771184083,
      1771184324,
      1771184324,
      1771184384,
      1771184384,
      1771184384,
      1771184384,
      1771184384,
      1771184444,
      1771184444,
      1771184504,
      1771184504,
      1771184564,
      1771184564,
      1771184564,
      1771184564,
      1771184564,
      1771184624,
      1771184624,
      1771184624,
      1771184804,
      1771184804,
      1771184804,
      1771184924,
      1771184924,
      1771184984,
      1771184984,
      1771184984,
      1771185045,
      1771185045,
      1771185045,
      1771185045,
      1771185165,
      1771185165,
      1771185165,
      1771185165,
      1771185165,
      1771185165,
      1771185285,
      1771185345,
      1771185345,
      1771185345,
      1771185345,
      1771185345,
      1771185465,
      1771185465,
      1771185465,
      1771185525,
      1771185525,
      1771185525,
      1771185525,
      1771185525,
      1771185585,
      1771185585,
      1771185585,
      1771185705,
      1771185705,
      1771185705,
      1771185705,
      1771185705,
      1771185705,
      1771185886,
      1771185886,
      1771185886,
      1771185886,
      1771186006,
      1771186006,
      1771186066,
      1771186066,
      1771186066,
      1771186066,
      1771186111,
      1771186111,
      1771186126,
      1771186171,
      1771186186,
      1771186231,
      1771186231,
      1771186306,
      1771186306,
      1771186306,
      1771186306,
      1771186351,
      1771186351,
      1771186412,
      1771186412,
      1771186412,
      1771186472,
      1771186499,
      1771186499,
      1771186532,
      1771186532,
      1771186592,
      1771186652,
      1771186652,
      1771186652,
      1771186652,
      1771186679,
      1771186739,
      1771186739,
      1771186832,
      1771186832,
      1771186832,
      1771186859,
      1771186859,
      1771186892,
      1771186892,
      1771186952,
      1771186952,
      1771186952,
      1771187012,
      1771187012,
      1771187012,
      1771187012,
      1771187012,
      1771187099,
      1771187133,
      1771187133,
      1771187133,
      1771187133,
      1771187193,
      1771187193,
      1771187219,
      1771187253,
      1771187280,
      1771187280,
      1771187313,
      1771187313,
      1771187340,
      1771187340,
      1771187373,
      1771187373,
      1771187433,
      1771187433,
      1771187433,
      1771187553,
      1771187553,
      1771187553,
      1771187613,
      1771187613,
      1771187613,
      1771187673,
      1771187673,
      1771187793,
      1771187793,
      1771187793,
      1771187914,
      1771187914,
      1771187914,
      1771187914,
      1771187914,
      1771188094,
      1771188094,
      1771188094,
      1771188094,
      1771188214,
      1771188214,
      1771188214,
      1771188214,
      1771188274,
      1771188274,
      1771188274,
      1771188274,
      1771188384,
      1771188384,
      1771188394,
      1771188394,
      1771188394,
      1771188444,
      1771188504,
      1771188504,
      1771188514,
      1771188514,
      1771188514,
      1771188635,
      1771188635,
      1771188695,
      1771188695,
      1771188695,
      1771188815,
      1771188815,
      1771188875,
      1771188875,
      1771188875,
      1771188875,
      1771188875,
      1771188924,
      1771188924,
      1771188935,
      1771188984,
      1771188995,
      1771188995,
      1771188995,
      1771189055,
      1771189115,
      1771189165,
      1771189225,
      1771189225,
      1771189225,
      1771189225,
      1771189225,
      1771189285,
      1771189295,
      1771189295,
      1771189295,
      1771189356,
      1771189405,
      1771189405,
      1771189405,
      1771189405,
      1771189405,
      1771189476,
      1771189476,
      1771189585,
      1771189585,
      1771189645,
      1771189645,
      1771189645,
      1771189645,
      1771189645,
      1771189826,
      1771189826,
      1771189826,
      1771189826,
      1771189826,
      1771189826,
      1771190126,
      1771190126,
      1771190186,
      1771190186,
      1771190186,
      1771190246,
      1771190246,
      1771190246,
      1771190246,
      1771190426,
      1771190426,
      1771190426,
      1771190426,
      1771190546,
      1771190546,
      1771190546,
      1771190607,
      1771190607,
      1771190727,
      1771190727,
      1771190787,
      1771190787,
      1771190787,
      1771190787,
      1771190920,
      1771190920,
      1771190920,
      1771190980,
      1771190980,
      1771190980,
      1771191027,
      1771191027,
      1771191027,
      1771191027,
      1771191100,
      1771191100,
      1771191147,
      1771191207,
      1771191207,
      1771191220,
      1771191220,
      1771191220,
      1771191280,
      1771191280,
      1771191341,
      1771191388,
      1771191388,
      1771191401,
      1771191401,
      1771191461,
      1771191461,
      1771191461,
      1771191461,
      1771191461,
      1771191461,
      1771191628,
      1771191628,
      1771191628,
      1771191641,
      1771191641,
      1771191641,
      1771191641,
      1771191808,
      1771191808,
      1771191808,
      1771191821,
      1771191821,
      1771191881,
      1771191928,
      1771191928,
      1771191941,
      1771191941,
      1771192049,
      1771192049,
      1771192122,
      1771192122,
      1771192122,
      1771192122,
      1771192302,
      1771192302,
      1771192302,
      1771192302,
      1771192302,
      1771192531,
      1771192531,
      1771192531,
      1771192531,
      1771192602,
      1771192602,
      1771192602,
      1771192602,
      1771192790,
      1771192790,
      1771192790,
      1771192843,
      1771192843,
      1771192843,
      1771192903,
      1771192903,
      1771192903,
      1771192916,
      1771192916,
      1771192916,
      1771192963,
      1771192963,
      1771192963,
      1771193023,
      1771193023,
      1771193023,
      1771193036,
      1771193083,
      1771193083,
      1771193156,
      1771193156,
      1771193156,
      1771193222,
      1771193263,
      1771193263,
      1771193263,
      1771193263,
      1771193337,
      1771193337,
      1771193337,
      1771193383,
      1771193462,
      1771193462,
      1771193462,
      1771193462,
      1771193462,
      1771193637,
      1771193637,
      1771193697,
      1771193697,
      1771193697,
      1771193697,
      1771193697,
      1771193744
    ],
    "wof:geomhash": "5c815b75e538d32cb6d04f30b37d19fb",
    "wof:id": 2014799197,
    "wof:repo": "sfomuseum-data-flights-2026-02"
  },
  "bbox": [
    -122.21388888888889,
    37.62027777777778,
    -87.5,
    42.56305555555555
  ],
  "geometry": {"coordinates":[[-122.21388888888889,37.62027777777778],[-122.18333333333334,37.63333333333333],[-122.18333333333334,37.63333333333333],[-122.18333333333334,37.63333333333333],[-122.18333333333334,37.63333333333333],[-122.12166666666666,37.63777777777778],[-122.12166666666666,37.63777777777778],[-121.98333333333333,37.666666666666664],[-121.98333333333333,37.666666666666664],[-121.94194444444445,37.712500000000006],[-121.94194444444445,37.712500000000006],[-121.85,37.81666666666667],[-121.85,37.81666666666667],[-121.85,37.81666666666667],[-121.85,37.81666666666667],[-121.85,37.81666666666667],[-121.85,37.81666666666667],[-121.435,38.099722222222226],[-121.435,38.099722222222226],[-121.435,38.099722222222226],[-121.435,38.099722222222226],[-121.435,38.099722222222226],[-121.435,38.099722222222226],[-121.2936111111111,38.16722222222222],[-121.2936111111111,38.16722222222222],[-121.2936111111111,38.16722222222222],[-120.84194444444444,38.38333333333333],[-120.84194444444444,38.38333333333333],[-120.84194444444444,38.38333333333333],[-120.84194444444444,38.38333333333333],[-120.84194444444444,38.38333333333333],[-120.84194444444444,38.38333333333333],[-120.20138888888889,38.68472222222222],[-120.20138888888889,38.68472222222222],[-120.20138888888889,38.68472222222222],[-120.20138888888889,38.68472222222222],[-119.70472222222223,38.93944444444444],[-119.70472222222223,38.93944444444444],[-119.70472222222223,38.93944444444444],[-119.70472222222223,38.93944444444444],[-119.70472222222223,38.93944444444444],[-119.70472222222223,38.93944444444444],[-119.70472222222223,38.93944444444444],[-119.21944444444445,39.183055555555555],[-119.21944444444445,39.183055555555555],[-119.21944444444445,39.183055555555555],[-119.08527777777778,39.24055555555556],[-119.08527777777778,39.24055555555556],[-119.08527777777778,39.24055555555556],[-119.08527777777778,39.24055555555556],[-119.08527777777778,39.24055555555556],[-118.56472222222222,39.467777777777776],[-118.56472222222222,39.467777777777776],[-118.56472222222222,39.467777777777776],[-118.56472222222222,39.467777777777776],[-118.56472222222222,39.467777777777776],[-118.56472222222222,39.467777777777776],[-117.8863888888889,39.75972222222222],[-117.8863888888889,39.75972222222222],[-117.8863888888889,39.75972222222222],[-117.8863888888889,39.75972222222222],[-117.8863888888889,39.75972222222222],[-117.54583333333333,39.86388888888889],[-117.54583333333333,39.86388888888889],[-117.54583333333333,39.86388888888889],[-117.14250000000001,39.95527777777778],[-117.14250000000001,39.95527777777778],[-117.14250000000001,39.95527777777778],[-116.81472222222222,40.02833333333333],[-116.81472222222222,40.02833333333333],[-116.81472222222222,40.02833333333333],[-116.81472222222222,40.02833333333333],[-116.81472222222222,40.02833333333333],[-116.81472222222222,40.02833333333333],[-116.0425,40.19583333333333],[-116.0425,40.19583333333333],[-115.85416666666666,40.23583333333333],[-115.85416666666666,40.23583333333333],[-115.85416666666666,40.23583333333333],[-115.85416666666666,40.23583333333333],[-115.85416666666666,40.23583333333333],[-115.66666666666667,40.275555555555556],[-115.66666666666667,40.275555555555556],[-115.47722222222222,40.31472222222222],[-115.47722222222222,40.31472222222222],[-115.28999999999999,40.35305555555556],[-115.28999999999999,40.35305555555556],[-115.28999999999999,40.35305555555556],[-115.28999999999999,40.35305555555556],[-115.28999999999999,40.35305555555556],[-115.13805555555557,40.38444444444444],[-115.13805555555557,40.38444444444444],[-115.13805555555557,40.38444444444444],[-114.525,40.50805555555556],[-114.525,40.50805555555556],[-114.525,40.50805555555556],[-114.14166666666668,40.583333333333336],[-114.14166666666668,40.583333333333336],[-113.94916666666667,40.620555555555555],[-113.94916666666667,40.620555555555555],[-113.94916666666667,40.620555555555555],[-113.7575,40.657222222222224],[-113.7575,40.657222222222224],[-113.7575,40.657222222222224],[-113.7575,40.657222222222224],[-113.37027777777777,40.73027777777778],[-113.37027777777777,40.73027777777778],[-113.37027777777777,40.73027777777778],[-113.37027777777777,40.73027777777778],[-113.37027777777777,40.73027777777778],[-113.37027777777777,40.73027777777778],[-112.97916666666667,40.802499999999995],[-112.78111111111112,40.83888888888889],[-112.78111111111112,40.83888888888889],[-112.78111111111112,40.83888888888889],[-112.78111111111112,40.83888888888889],[-112.78111111111112,40.83888888888889],[-112.38694444444445,40.90972222222222],[-112.38694444444445,40.90972222222222],[-112.38694444444445,40.90972222222222],[-112.19055555555556,40.94416666666666],[-112.19055555555556,40.94416666666666],[-112.19055555555556,40.94416666666666],[-112.19055555555556,40.94416666666666],[-112.19055555555556,40.94416666666666],[-111.99444444444444,40.978611111111114],[-111.99444444444444,40.978611111111114],[-111.99444444444444,40.978611111111114],[-111.61972222222222,41.04277777777778],[-111.61972222222222,41.04277777777778],[-111.61972222222222,41.04277777777778],[-111.61972222222222,41.04277777777778],[-111.61972222222222,41.04277777777778],[-111.61972222222222,41.04277777777778],[-111.02888888888889,41.14194444444444],[-111.02888888888889,41.14194444444444],[-111.02888888888889,41.14194444444444],[-111.02888888888889,41.14194444444444],[-110.62527777777777,41.2075],[-110.62527777777777,41.2075],[-110.42805555555556,41.23888888888889],[-110.42805555555556,41.23888888888889],[-110.42805555555556,41.23888888888889],[-110.42805555555556,41.23888888888889],[-110.26888888888888,41.26416666666667],[-110.26888888888888,41.26416666666667],[-110.22666666666667,41.27055555555555],[-110.06944444444444,41.294999999999995],[-110.02694444444444,41.30166666666666],[-109.87083333333332,41.325833333333335],[-109.87083333333332,41.325833333333335],[-109.62916666666666,41.36277777777778],[-109.62916666666666,41.36277777777778],[-109.62916666666666,41.36277777777778],[-109.62916666666666,41.36277777777778],[-109.47111111111111,41.38666666666666],[-109.47111111111111,41.38666666666666],[-109.27055555555556,41.41638888888889],[-109.27055555555556,41.41638888888889],[-109.27055555555556,41.41638888888889],[-109.10083333333333,41.44166666666666],[-108.97416666666666,41.46027777777778],[-108.97416666666666,41.46027777777778],[-108.89305555555556,41.47166666666667],[-108.89305555555556,41.47166666666667],[-108.69444444444444,41.5],[-108.4975,41.528055555555554],[-108.4975,41.528055555555554],[-108.4975,41.528055555555554],[-108.4975,41.528055555555554],[-108.37416666666665,41.54527777777778],[-108.17555555555556,41.573055555555555],[-108.17555555555556,41.573055555555555],[-107.89361111111111,41.61138888888889],[-107.89361111111111,41.61138888888889],[-107.89361111111111,41.61138888888889],[-107.77388888888889,41.6275],[-107.77388888888889,41.6275],[-107.69527777777778,41.63805555555555],[-107.69527777777778,41.63805555555555],[-107.495,41.66444444444444],[-107.495,41.66444444444444],[-107.495,41.66444444444444],[-107.29972222222221,41.69],[-107.29972222222221,41.69],[-107.29972222222221,41.69],[-107.29972222222221,41.69],[-107.29972222222221,41.69],[-106.9775,41.731388888888894],[-106.89916666666667,41.74138888888889],[-106.89916666666667,41.74138888888889],[-106.89916666666667,41.74138888888889],[-106.89916666666667,41.74138888888889],[-106.69638888888889,41.76638888888889],[-106.69638888888889,41.76638888888889],[-106.61138888888888,41.776944444444446],[-106.49583333333334,41.79138888888889],[-106.40083333333334,41.80277777777778],[-106.40083333333334,41.80277777777778],[-106.2825,41.81722222222223],[-106.2825,41.81722222222223],[-106.20083333333334,41.82694444444445],[-106.20083333333334,41.82694444444445],[-106.08055555555555,41.84111111111111],[-106.08055555555555,41.84111111111111],[-105.88027777777778,41.86472222222223],[-105.88027777777778,41.86472222222223],[-105.88027777777778,41.86472222222223],[-105.48055555555555,41.910555555555554],[-105.48055555555555,41.910555555555554],[-105.48055555555555,41.910555555555554],[-105.27722222222222,41.93333333333333],[-105.27722222222222,41.93333333333333],[-105.27722222222222,41.93333333333333],[-105.07777777777777,41.95527777777778],[-105.07777777777777,41.95527777777778],[-104.68,41.99805555555556],[-104.68,41.99805555555556],[-104.68,41.99805555555556],[-104.28,42.03972222222222],[-104.28,42.03972222222222],[-104.28,42.03972222222222],[-104.28,42.03972222222222],[-104.28,42.03972222222222],[-103.64444444444445,42.1025],[-103.64444444444445,42.1025],[-103.64444444444445,42.1025],[-103.64444444444445,42.1025],[-103.24083333333333,42.14083333333333],[-103.24083333333333,42.14083333333333],[-103.24083333333333,42.14083333333333],[-103.24083333333333,42.14083333333333],[-103.04138888888889,42.159166666666664],[-103.04138888888889,42.159166666666664],[-103.04138888888889,42.159166666666664],[-103.04138888888889,42.159166666666664],[-102.6763888888889,42.196666666666665],[-102.6763888888889,42.196666666666665],[-102.63472222222222,42.195277777777775],[-102.63472222222222,42.195277777777775],[-102.63472222222222,42.195277777777775],[-102.47416666666666,42.213055555555556],[-102.27055555555556,42.23083333333334],[-102.27055555555556,42.23083333333334],[-102.23305555555555,42.22972222222222],[-102.23305555555555,42.22972222222222],[-102.23305555555555,42.22972222222222],[-101.82277777777777,42.263333333333335],[-101.82277777777777,42.263333333333335],[-101.6388888888889,42.27777777777778],[-101.6388888888889,42.27777777777778],[-101.6388888888889,42.27777777777778],[-101.22694444444444,42.309444444444445],[-101.22694444444444,42.309444444444445],[-101.02,42.324444444444445],[-101.02,42.324444444444445],[-101.02,42.324444444444445],[-101.02,42.324444444444445],[-101.02,42.324444444444445],[-100.8286111111111,42.33833333333334],[-100.8286111111111,42.33833333333334],[-100.81638888888888,42.33916666666667],[-100.62249999999999,42.35277777777778],[-100.61083333333333,42.353611111111114],[-100.61083333333333,42.353611111111114],[-100.61083333333333,42.353611111111114],[-100.40722222222223,42.3675],[-100.19972222222222,42.38111111111111],[-100.00416666666666,42.39388888888889],[-99.80222222222221,42.406666666666666],[-99.80222222222221,42.406666666666666],[-99.80222222222221,42.406666666666666],[-99.80222222222221,42.406666666666666],[-99.80222222222221,42.406666666666666],[-99.59555555555555,42.41916666666666],[-99.59555555555555,42.419444444444444],[-99.59555555555555,42.419444444444444],[-99.59555555555555,42.419444444444444],[-99.39083333333333,42.431666666666665],[-99.22416666666666,42.441111111111105],[-99.22416666666666,42.441111111111105],[-99.22416666666666,42.441111111111105],[-99.22416666666666,42.441111111111105],[-99.22416666666666,42.441111111111105],[-98.98305555555555,42.45472222222222],[-98.98305555555555,42.45472222222222],[-98.61138888888888,42.47416666666667],[-98.61138888888888,42.47416666666667],[-98.4063888888889,42.48277777777778],[-98.4063888888889,42.48277777777778],[-98.4063888888889,42.48277777777778],[-98.4063888888889,42.48277777777778],[-98.4063888888889,42.48277777777778],[-97.7713888888889,42.50805555555556],[-97.7713888888889,42.50805555555556],[-97.7713888888889,42.50805555555556],[-97.7713888888889,42.50805555555556],[-97.7713888888889,42.50805555555556],[-97.7713888888889,42.50805555555556],[-96.7538888888889,42.54111111111111],[-96.7538888888889,42.54111111111111],[-96.54805555555555,42.544999999999995],[-96.54805555555555,42.544999999999995],[-96.54805555555555,42.544999999999995],[-96.34444444444443,42.54833333333333],[-96.34444444444443,42.54833333333333],[-96.34444444444443,42.54833333333333],[-96.34444444444443,42.54833333333333],[-95.73055555555555,42.556666666666665],[-95.73055555555555,42.556666666666665],[-95.73055555555555,42.556666666666665],[-95.73055555555555,42.556666666666665],[-95.32222222222222,42.56027777777778],[-95.32222222222222,42.56027777777778],[-95.32222222222222,42.56027777777778],[-95.11916666666666,42.56166666666666],[-95.11916666666666,42.56166666666666],[-94.70722222222223,42.56305555555555],[-94.70722222222223,42.56305555555555],[-94.53694444444444,42.56305555555555],[-94.53694444444444,42.56305555555555],[-94.53694444444444,42.56305555555555],[-94.53694444444444,42.56305555555555],[-94.0411111111111,42.56222222222222],[-94.0411111111111,42.56222222222222],[-94.0411111111111,42.56222222222222],[-93.83555555555554,42.56111111111111],[-93.83555555555554,42.56111111111111],[-93.83555555555554,42.56111111111111],[-93.71333333333334,42.56055555555555],[-93.71333333333334,42.56055555555555],[-93.71333333333334,42.56055555555555],[-93.71333333333334,42.56055555555555],[-93.42916666666667,42.558055555555555],[-93.42916666666667,42.558055555555555],[-93.30555555555556,42.55694444444444],[-93.06138888888889,42.55416666666667],[-93.06138888888889,42.55416666666667],[-93.01972222222223,42.55305555555555],[-93.01972222222223,42.55305555555555],[-93.01972222222223,42.55305555555555],[-92.8175,42.54694444444444],[-92.8175,42.54694444444444],[-92.61333333333333,42.54111111111111],[-92.45,42.53638888888889],[-92.45,42.53638888888889],[-92.41333333333334,42.535],[-92.41333333333334,42.535],[-92.20833333333334,42.52861111111111],[-92.20833333333334,42.52861111111111],[-92.20833333333334,42.52861111111111],[-92.20833333333334,42.52861111111111],[-92.20833333333334,42.52861111111111],[-92.20833333333334,42.52861111111111],[-91.64833333333334,42.52583333333333],[-91.64833333333334,42.52583333333333],[-91.64833333333334,42.52583333333333],[-91.61305555555555,42.52611111111111],[-91.61305555555555,42.52611111111111],[-91.61305555555555,42.52611111111111],[-91.61305555555555,42.52611111111111],[-91.08333333333333,42.526944444444446],[-91.08333333333333,42.526944444444446],[-91.08333333333333,42.526944444444446],[-91.05,42.526944444444446],[-91.05,42.526944444444446],[-90.86666666666666,42.52638888888889],[-90.72027777777778,42.52583333333333],[-90.72027777777778,42.52583333333333],[-90.68694444444445,42.525555555555556],[-90.68694444444445,42.525555555555556],[-90.36,42.52333333333333],[-90.36,42.52333333333333],[-90.13472222222222,42.50611111111111],[-90.13472222222222,42.50611111111111],[-90.13472222222222,42.50611111111111],[-90.13472222222222,42.50611111111111],[-89.59194444444444,42.461666666666666],[-89.59194444444444,42.461666666666666],[-89.59194444444444,42.461666666666666],[-89.59194444444444,42.461666666666666],[-89.59194444444444,42.461666666666666],[-88.95,42.4],[-88.95,42.4],[-88.95,42.4],[-88.95,42.4],[-88.80527777777777,42.39277777777778],[-88.80527777777777,42.39277777777778],[-88.80527777777777,42.39277777777778],[-88.80527777777777,42.39277777777778],[-88.35,42.31666666666667],[-88.35,42.31666666666667],[-88.35,42.31666666666667],[-88.25888888888889,42.26638888888889],[-88.25888888888889,42.26638888888889],[-88.25888888888889,42.26638888888889],[-88.15222222222222,42.198611111111106],[-88.15222222222222,42.198611111111106],[-88.15222222222222,42.198611111111106],[-88.13333333333334,42.18333333333333],[-88.13333333333334,42.18333333333333],[-88.13333333333334,42.18333333333333],[-88.06888888888888,42.128055555555555],[-88.06888888888888,42.128055555555555],[-88.06888888888888,42.128055555555555],[-87.96861111111112,42.091944444444444],[-87.96861111111112,42.091944444444444],[-87.96861111111112,42.091944444444444],[-87.95,42.1],[-87.85888888888888,42.09166666666667],[-87.85888888888888,42.09166666666667],[-87.73333333333333,42.1],[-87.73333333333333,42.1],[-87.73333333333333,42.1],[-87.61666666666666,42.083333333333336],[-87.56916666666666,42.09138888888889],[-87.56916666666666,42.09138888888889],[-87.56916666666666,42.09138888888889],[-87.56916666666666,42.09138888888889],[-87.5,42.03333333333333],[-87.5,42.03333333333333],[-87.5,42.03333333333333],[-87.51805555555555,42.00861111111111],[-87.63333333333334,42],[-87.63333333333334,42],[-87.63333333333334,42],[-87.63333333333334,42],[-87.63333333333334,42],[-87.83333333333333,42],[-87.83333333333333,42],[-87.88333333333334,42],[-87.88333333333334,42],[-87.88333333333334,42],[-87.88333333333334,42],[-87.88333333333334,42],[-87.92111111111112,42.00277777777778]],"type":"LineString"}
}
