{
  "id": 2014828295,
  "type": "Feature",
  "properties": {
    "geom:area": 0,
    "geom:bbox": "-122.356860,37.607970,-121.245380,37.940300",
    "geom:latitude": 37.74704055585264,
    "geom:longitude": -121.79608021439415,
    "src:alt_label": "swim-takeoff",
    "src:geom": "swim",
    "swim:elevations": [
      122,
      712,
      938,
      1132,
      1438,
      1978,
      2307,
      2715,
      3169,
      3453,
      3610,
      3866,
      4187,
      4298,
      4643,
      4967,
      5262,
      5508,
      5762,
      5874,
      6149
    ],
    "swim:geom": "takeoff",
    "swim:timestamps": [
      1771460255,
      1771460302,
      1771460323,
      1771460354,
      1771460384,
      1771460418,
      1771460440,
      1771460468,
      1771460500,
      1771460546,
      1771460573,
      1771460603,
      1771460634,
      1771460646,
      1771460685,
      1771460715,
      1771460747,
      1771460778,
      1771460810,
      1771460825,
      1771460864
    ],
    "wof:geomhash": "a1a6bf9129b82d7312f411bb72eee19d",
    "wof:id": 2014828295,
    "wof:repo": "sfomuseum-data-flights-2026-02"
  },
  "bbox": [
    -122.35686,
    37.60797,
    -121.24538,
    37.9403
  ],
  "geometry": {"coordinates":[[-122.35686,37.61339],[-122.30781,37.60797],[-122.28332,37.60836],[-122.24258,37.60903],[-122.19612,37.6098],[-122.14099,37.61642],[-122.10655,37.62789],[-122.06277,37.64319],[-122.01279,37.6609],[-121.93314,37.6912],[-121.88189,37.71015],[-121.82235,37.73162],[-121.75849,37.75382],[-121.73348,37.76288],[-121.65078,37.7937],[-121.58523,37.8177],[-121.51555,37.84305],[-121.4466,37.8679],[-121.37386,37.89411],[-121.33794,37.90704],[-121.24538,37.9403]],"type":"LineString"}
}
