{
  "id": 2014790257,
  "type": "Feature",
  "properties": {
    "geom:area": 0,
    "geom:bbox": "-122.309444,26.075833,-80.056389,38.201111",
    "geom:latitude": 31.50038159920688,
    "geom:longitude": -101.37485358111499,
    "src:alt_label": "swim-path",
    "src:geom": "swim",
    "swim:altitudes": [
      "007",
      "018",
      "018",
      "037",
      "037",
      "060",
      "060",
      "064",
      "064",
      "099",
      "108",
      "108",
      "108",
      "116",
      "126",
      "126",
      "126",
      "126",
      "130",
      "130",
      "137",
      "137",
      "162",
      "171",
      "171",
      "191",
      "191",
      "199",
      "199",
      "199",
      "203",
      "225",
      "233",
      "233",
      "236",
      "236",
      "236",
      "236",
      "254",
      "254",
      "269",
      "269",
      "275",
      "275",
      "275",
      "288",
      "288",
      "292",
      "292",
      "300C",
      "300C",
      "300C",
      "300C",
      "300C",
      "300C",
      "300C",
      "300C",
      "300C",
      "300C",
      "300C",
      "300C",
      "300C",
      "300C",
      "300C",
      "300C",
      "300C",
      "300C",
      "300C",
      "300C",
      "300C",
      "300C",
      "300C",
      "300C",
      "300C",
      "300C",
      "300C",
      "300C",
      "300C",
      "300C",
      "300C",
      "300C",
      "300C",
      "300C",
      "300C",
      "300C",
      "300C",
      "300C",
      "300C",
      "300C",
      "300C",
      "300C",
      "300C",
      "300C",
      "300C",
      "300C",
      "300C",
      "300C",
      "300C",
      "300C",
      "300C",
      "300C",
      "300C",
      "300C",
      "300C",
      "300C",
      "300C",
      "300C",
      "300C",
      "300C",
      "300C",
      "300C",
      "300C",
      "300C",
      "300C",
      "300C",
      "300C",
      "310",
      "310",
      "328",
      "328",
      "328",
      "340C",
      "340C",
      "340C",
      "340C",
      "340C",
      "340C",
      "340C",
      "340C",
      "340C",
      "340C",
      "340C",
      "340C",
      "340C",
      "340C",
      "340C",
      "340C",
      "340C",
      "340C",
      "340C",
      "340C",
      "340C",
      "340C",
      "340C",
      "340C",
      "340C",
      "340C",
      "340C",
      "340C",
      "340C",
      "340C",
      "340C",
      "340C",
      "340C",
      "340C",
      "340C",
      "340C",
      "340C",
      "340C",
      "340C",
      "340C",
      "340C",
      "340C",
      "340C",
      "340C",
      "340C",
      "340C",
      "340C",
      "340C",
      "340C",
      "340C",
      "340C",
      "340C",
      "340C",
      "340C",
      "340C",
      "340C",
      "340C",
      "340C",
      "340C",
      "340C",
      "340C",
      "340C",
      "340C",
      "340C",
      "340C",
      "340C",
      "340C",
      "340C",
      "340C",
      "340C",
      "340C",
      "340C",
      "340C",
      "340C",
      "340C",
      "340C",
      "340C",
      "340C",
      "340C",
      "340C",
      "340C",
      "340C",
      "340C",
      "340C",
      "340C",
      "340C",
      "340C",
      "340C",
      "340C",
      "340C",
      "340C",
      "340C",
      "340C",
      "340C",
      "340C",
      "340C",
      "340C",
      "340C",
      "340C",
      "340C",
      "340C",
      "340C",
      "340C",
      "340C",
      "340C",
      "340C",
      "340C",
      "340C",
      "340C",
      "340C",
      "340C",
      "340C",
      "340C",
      "340C",
      "340C",
      "340C",
      "340C",
      "340C",
      "340C",
      "340C",
      "340C",
      "340C",
      "340C",
      "340C",
      "340C",
      "340C",
      "340C",
      "340C",
      "340C",
      "340C",
      "340C",
      "340C",
      "340C",
      "340C",
      "340C",
      "340C",
      "340C",
      "340C",
      "340C",
      "340C",
      "340C",
      "340C",
      "340C",
      "340C",
      "340C",
      "340C",
      "340C",
      "340C",
      "340C",
      "340C",
      "340C",
      "340C",
      "340C",
      "340C",
      "340C",
      "340C",
      "340C",
      "340C",
      "340C",
      "340C",
      "340C",
      "340C",
      "340C",
      "340C",
      "340C",
      "340C",
      "340C",
      "340C",
      "340C",
      "340C",
      "340C",
      "340C",
      "340C",
      "340C",
      "340C",
      "340C",
      "340C",
      "340C",
      "340C",
      "340C",
      "340C",
      "340C",
      "340C",
      "340C",
      "340C",
      "340C",
      "340C",
      "340C",
      "340C",
      "340C",
      "340C",
      "340C",
      "340C",
      "340C",
      "340C",
      "340C",
      "340C",
      "340C",
      "340C",
      "340C",
      "340C",
      "340C",
      "340C",
      "340C",
      "340C",
      "340C",
      "340C",
      "340C",
      "340C",
      "340C",
      "340C",
      "340C",
      "340C",
      "340C",
      "340C",
      "340C",
      "340C",
      "340C",
      "340C",
      "340C",
      "340C",
      "340C",
      "340C",
      "340C",
      "340C",
      "340C",
      "340C",
      "340C",
      "340C",
      "340C",
      "340C",
      "331",
      "325",
      "325",
      "320C",
      "320C",
      "320C",
      "320C",
      "320C",
      "320C",
      "320C",
      "320C",
      "320C",
      "320",
      "320",
      "320",
      "320",
      "320",
      "320",
      "317",
      "317",
      "289",
      "268",
      "245",
      "245",
      "223",
      "200",
      "200",
      "179",
      "160",
      "160",
      "160",
      "062",
      "062",
      "017",
      "009"
    ],
    "swim:geom": "path",
    "swim:speeds": [
      170,
      197,
      197,
      235,
      235,
      270,
      270,
      275,
      275,
      276,
      288,
      288,
      288,
      284,
      323,
      323,
      323,
      323,
      362,
      362,
      359,
      359,
      389,
      390,
      390,
      394,
      394,
      397,
      397,
      397,
      393,
      397,
      401,
      401,
      411,
      411,
      411,
      411,
      418,
      418,
      422,
      422,
      422,
      422,
      422,
      420,
      420,
      421,
      421,
      418,
      418,
      417,
      417,
      417,
      417,
      417,
      417,
      416,
      416,
      411,
      412,
      412,
      412,
      412,
      412,
      413,
      413,
      413,
      413,
      413,
      413,
      413,
      413,
      413,
      413,
      413,
      413,
      413,
      412,
      412,
      412,
      411,
      412,
      412,
      412,
      412,
      412,
      412,
      412,
      412,
      412,
      412,
      414,
      414,
      414,
      414,
      414,
      414,
      414,
      414,
      414,
      414,
      414,
      414,
      414,
      414,
      414,
      413,
      411,
      412,
      412,
      409,
      410,
      410,
      408,
      408,
      403,
      403,
      399,
      399,
      399,
      383,
      383,
      383,
      379,
      377,
      377,
      376,
      376,
      376,
      376,
      376,
      377,
      377,
      377,
      377,
      375,
      375,
      375,
      373,
      373,
      374,
      374,
      374,
      377,
      377,
      381,
      381,
      385,
      385,
      385,
      384,
      384,
      384,
      381,
      381,
      379,
      379,
      379,
      374,
      374,
      373,
      373,
      373,
      372,
      372,
      375,
      375,
      375,
      376,
      376,
      369,
      369,
      370,
      370,
      370,
      370,
      381,
      377,
      377,
      377,
      377,
      371,
      374,
      374,
      374,
      374,
      399,
      402,
      402,
      399,
      398,
      404,
      404,
      404,
      404,
      406,
      406,
      406,
      414,
      414,
      402,
      402,
      398,
      398,
      398,
      400,
      400,
      403,
      389,
      389,
      387,
      381,
      381,
      392,
      392,
      392,
      398,
      398,
      399,
      400,
      400,
      400,
      401,
      401,
      402,
      403,
      404,
      404,
      404,
      411,
      411,
      411,
      410,
      410,
      411,
      411,
      412,
      416,
      416,
      415,
      409,
      407,
      407,
      406,
      406,
      407,
      409,
      409,
      411,
      411,
      419,
      419,
      422,
      422,
      419,
      419,
      418,
      411,
      411,
      411,
      411,
      410,
      410,
      402,
      402,
      402,
      402,
      403,
      406,
      404,
      404,
      405,
      405,
      405,
      405,
      405,
      405,
      407,
      409,
      411,
      411,
      413,
      415,
      415,
      415,
      415,
      415,
      415,
      415,
      415,
      415,
      415,
      416,
      416,
      416,
      415,
      415,
      415,
      415,
      415,
      414,
      413,
      412,
      412,
      411,
      411,
      412,
      412,
      412,
      412,
      413,
      413,
      414,
      414,
      414,
      414,
      407,
      407,
      407,
      407,
      408,
      410,
      410,
      411,
      411,
      413,
      415,
      416,
      416,
      419,
      422,
      424,
      424,
      424,
      426,
      425,
      425,
      420,
      420,
      420,
      420,
      442,
      443,
      418,
      418,
      418,
      416,
      416,
      414,
      412,
      417,
      420,
      421,
      421,
      369,
      369,
      362,
      357,
      353,
      353,
      347,
      351,
      351,
      340,
      340,
      339,
      339,
      340,
      340,
      344,
      344,
      355,
      351,
      346,
      346,
      341,
      335,
      335,
      321,
      321,
      321,
      321,
      251,
      251,
      189,
      164
    ],
    "swim:timestamps": [
      1771111354,
      1771111397,
      1771111397,
      1771111455,
      1771111455,
      1771111575,
      1771111575,
      1771111581,
      1771111581,
      1771111683,
      1771111695,
      1771111695,
      1771111695,
      1771111743,
      1771111803,
      1771111803,
      1771111803,
      1771111803,
      1771111815,
      1771111815,
      1771111863,
      1771111863,
      1771111935,
      1771111983,
      1771111983,
      1771112056,
      1771112056,
      1771112103,
      1771112103,
      1771112103,
      1771112116,
      1771112224,
      1771112284,
      1771112284,
      1771112296,
      1771112296,
      1771112296,
      1771112296,
      1771112404,
      1771112404,
      1771112476,
      1771112476,
      1771112524,
      1771112524,
      1771112524,
      1771112597,
      1771112597,
      1771112644,
      1771112644,
      1771112704,
      1771112704,
      1771112764,
      1771112764,
      1771112764,
      1771112777,
      1771112777,
      1771112777,
      1771112824,
      1771112824,
      1771113017,
      1771113077,
      1771113077,
      1771113077,
      1771113138,
      1771113138,
      1771113198,
      1771113198,
      1771113245,
      1771113258,
      1771113305,
      1771113318,
      1771113318,
      1771113378,
      1771113378,
      1771113378,
      1771113378,
      1771113378,
      1771113425,
      1771113485,
      1771113498,
      1771113498,
      1771113545,
      1771113551,
      1771113551,
      1771113551,
      1771113551,
      1771113551,
      1771113726,
      1771113726,
      1771113786,
      1771113786,
      1771113786,
      1771113979,
      1771114026,
      1771114026,
      1771114039,
      1771114146,
      1771114152,
      1771114152,
      1771114206,
      1771114327,
      1771114387,
      1771114387,
      1771114520,
      1771114580,
      1771114580,
      1771114580,
      1771114627,
      1771114747,
      1771114753,
      1771114753,
      1771114867,
      1771114873,
      1771114873,
      1771114927,
      1771114993,
      1771115174,
      1771115174,
      1771115294,
      1771115294,
      1771115294,
      1771115474,
      1771115474,
      1771115474,
      1771115648,
      1771115769,
      1771115769,
      1771115829,
      1771115889,
      1771115889,
      1771116135,
      1771116135,
      1771116496,
      1771116496,
      1771116496,
      1771116496,
      1771116736,
      1771116736,
      1771116736,
      1771116856,
      1771116856,
      1771116916,
      1771116916,
      1771116977,
      1771117157,
      1771117157,
      1771117277,
      1771117277,
      1771117397,
      1771117397,
      1771117397,
      1771117517,
      1771117517,
      1771117517,
      1771117638,
      1771117638,
      1771117698,
      1771117698,
      1771117698,
      1771117878,
      1771117878,
      1771117938,
      1771117938,
      1771117938,
      1771118058,
      1771118058,
      1771118238,
      1771118238,
      1771118238,
      1771118359,
      1771118359,
      1771118419,
      1771118419,
      1771118899,
      1771118899,
      1771118899,
      1771118899,
      1771119440,
      1771119560,
      1771119560,
      1771119560,
      1771119560,
      1771119741,
      1771119801,
      1771119801,
      1771119801,
      1771119801,
      1771119981,
      1771120221,
      1771120221,
      1771120342,
      1771120402,
      1771120762,
      1771120762,
      1771120882,
      1771120882,
      1771121243,
      1771121243,
      1771121243,
      1771121423,
      1771121423,
      1771121663,
      1771121663,
      1771121844,
      1771121844,
      1771121844,
      1771121964,
      1771121964,
      1771122204,
      1771122306,
      1771122306,
      1771122426,
      1771122607,
      1771122625,
      1771122968,
      1771122968,
      1771122968,
      1771123208,
      1771123208,
      1771123346,
      1771123387,
      1771123406,
      1771123406,
      1771123447,
      1771123447,
      1771123508,
      1771123568,
      1771123628,
      1771123628,
      1771123628,
      1771124109,
      1771124109,
      1771124109,
      1771124229,
      1771124289,
      1771124409,
      1771124409,
      1771124469,
      1771124650,
      1771124650,
      1771124770,
      1771124830,
      1771124891,
      1771124891,
      1771124951,
      1771124951,
      1771125009,
      1771125069,
      1771125069,
      1771125129,
      1771125129,
      1771125369,
      1771125369,
      1771125489,
      1771125489,
      1771125549,
      1771125549,
      1771125609,
      1771125910,
      1771125910,
      1771125910,
      1771125970,
      1771126030,
      1771126030,
      1771126512,
      1771126512,
      1771126572,
      1771126572,
      1771126693,
      1771126735,
      1771126753,
      1771126753,
      1771126795,
      1771126813,
      1771126855,
      1771126915,
      1771126915,
      1771126915,
      1771126975,
      1771127035,
      1771127051,
      1771127051,
      1771127111,
      1771127155,
      1771127232,
      1771127232,
      1771127275,
      1771127292,
      1771127292,
      1771127335,
      1771127352,
      1771127456,
      1771127456,
      1771127576,
      1771127593,
      1771127713,
      1771127816,
      1771127816,
      1771127816,
      1771127835,
      1771127835,
      1771127952,
      1771127996,
      1771128072,
      1771128072,
      1771128192,
      1771128192,
      1771128237,
      1771128252,
      1771128297,
      1771128297,
      1771128312,
      1771128372,
      1771128417,
      1771128417,
      1771128537,
      1771128537,
      1771128717,
      1771128717,
      1771128777,
      1771128777,
      1771128838,
      1771129078,
      1771129078,
      1771129138,
      1771129138,
      1771129198,
      1771129258,
      1771129318,
      1771129318,
      1771129559,
      1771129619,
      1771129679,
      1771129679,
      1771129679,
      1771129739,
      1771129835,
      1771129859,
      1771129955,
      1771130039,
      1771130039,
      1771130039,
      1771130159,
      1771130219,
      1771130340,
      1771130340,
      1771130340,
      1771130435,
      1771130435,
      1771130495,
      1771130700,
      1771130795,
      1771130880,
      1771130916,
      1771130916,
      1771131036,
      1771131036,
      1771131096,
      1771131156,
      1771131276,
      1771131276,
      1771131456,
      1771131516,
      1771131516,
      1771131696,
      1771131756,
      1771131876,
      1771131876,
      1771132080,
      1771132080,
      1771132117,
      1771132117,
      1771132177,
      1771132237,
      1771132297,
      1771132297,
      1771132357,
      1771132416,
      1771132416,
      1771132476,
      1771132537,
      1771132537,
      1771132537,
      1771132957,
      1771132957,
      1771133196,
      1771133258
    ],
    "wof:geomhash": "b23700a608add2eed1d833e001fa1bfc",
    "wof:id": 2014790257,
    "wof:repo": "sfomuseum-data-flights-2026-02"
  },
  "bbox": [
    -122.30944444444444,
    26.075833333333332,
    -80.05638888888889,
    38.20111111111111
  ],
  "geometry": {"coordinates":[[-80.13333333333334,26.075833333333332],[-80.09222222222222,26.0825],[-80.09222222222222,26.0825],[-80.05638888888889,26.128333333333334],[-80.05638888888889,26.128333333333334],[-80.12638888888888,26.24277777777778],[-80.12638888888888,26.24277777777778],[-80.13694444444445,26.24527777777778],[-80.13694444444445,26.24527777777778],[-80.26694444444445,26.269444444444442],[-80.29666666666667,26.273888888888887],[-80.29666666666667,26.273888888888887],[-80.29666666666667,26.273888888888887],[-80.35527777777777,26.284722222222225],[-80.46083333333334,26.29888888888889],[-80.46083333333334,26.29888888888889],[-80.46083333333334,26.29888888888889],[-80.46083333333334,26.29888888888889],[-80.49833333333333,26.302777777777777],[-80.49833333333333,26.302777777777777],[-80.57583333333334,26.314722222222223],[-80.57583333333334,26.314722222222223],[-80.74555555555555,26.336944444444445],[-80.81722222222221,26.3475],[-80.81722222222221,26.3475],[-80.97055555555556,26.4025],[-80.97055555555556,26.4025],[-81.02416666666666,26.45111111111111],[-81.02416666666666,26.45111111111111],[-81.02416666666666,26.45111111111111],[-81.04833333333333,26.477777777777778],[-81.19305555555556,26.613611111111112],[-81.28111111111112,26.69527777777778],[-81.28111111111112,26.69527777777778],[-81.2975,26.71388888888889],[-81.2975,26.71388888888889],[-81.2975,26.71388888888889],[-81.2975,26.71388888888889],[-81.46083333333334,26.866388888888892],[-81.46083333333334,26.866388888888892],[-81.58722222222222,26.985277777777778],[-81.58722222222222,26.985277777777778],[-81.64333333333335,27.03611111111111],[-81.64333333333335,27.03611111111111],[-81.64333333333335,27.03611111111111],[-81.76944444444445,27.154999999999998],[-81.76944444444445,27.154999999999998],[-81.82444444444444,27.20611111111111],[-81.82444444444444,27.20611111111111],[-81.92083333333333,27.283333333333335],[-81.92083333333333,27.283333333333335],[-82.04805555555555,27.31138888888889],[-82.04805555555555,27.31138888888889],[-82.04805555555555,27.31138888888889],[-82.07388888888889,27.31638888888889],[-82.07388888888889,27.31638888888889],[-82.07388888888889,27.31638888888889],[-82.17472222222223,27.335277777777776],[-82.17472222222223,27.335277777777776],[-82.57944444444443,27.40972222222222],[-82.70611111111111,27.433888888888887],[-82.70611111111111,27.433888888888887],[-82.70611111111111,27.433888888888887],[-82.83277777777778,27.4575],[-82.83277777777778,27.4575],[-82.95972222222223,27.480833333333333],[-82.95972222222223,27.480833333333333],[-83.06,27.499166666666667],[-83.08694444444444,27.503888888888888],[-83.1875,27.522222222222222],[-83.21277777777777,27.526944444444442],[-83.21277777777777,27.526944444444442],[-83.33944444444444,27.55],[-83.33944444444444,27.55],[-83.33944444444444,27.55],[-83.33944444444444,27.55],[-83.33944444444444,27.55],[-83.44055555555556,27.56833333333333],[-83.56611111111111,27.59111111111111],[-83.59166666666667,27.59583333333333],[-83.59166666666667,27.59583333333333],[-83.69361111111111,27.61388888888889],[-83.71777777777778,27.61916666666667],[-83.71777777777778,27.61916666666667],[-83.71777777777778,27.61916666666667],[-83.71777777777778,27.61916666666667],[-83.71777777777778,27.61916666666667],[-84.07138888888889,27.680833333333336],[-84.07138888888889,27.680833333333336],[-84.19972222222222,27.703333333333333],[-84.19972222222222,27.703333333333333],[-84.19972222222222,27.703333333333333],[-84.60666666666665,27.773888888888887],[-84.70722222222223,27.791111111111114],[-84.70722222222223,27.791111111111114],[-84.73333333333333,27.795555555555556],[-84.96000000000001,27.833888888888886],[-84.98583333333333,27.83833333333333],[-84.98583333333333,27.83833333333333],[-85.08666666666666,27.85527777777778],[-85.33972222222222,27.90888888888889],[-85.46472222222222,27.946666666666665],[-85.46472222222222,27.946666666666665],[-85.75833333333334,28.035],[-85.87944444444443,28.07111111111111],[-85.87944444444443,28.07111111111111],[-85.87944444444443,28.07111111111111],[-85.95666666666666,28.094166666666666],[-86.20444444444445,28.153333333333332],[-86.23,28.15583333333333],[-86.23,28.15583333333333],[-86.46166666666667,28.178333333333335],[-86.48722222222223,28.180833333333336],[-86.48722222222223,28.180833333333336],[-86.58805555555556,28.190555555555555],[-86.73944444444444,28.205],[-87.12083333333332,28.240277777777777],[-87.12083333333332,28.240277777777777],[-87.36527777777778,28.26222222222222],[-87.36527777777778,28.26222222222222],[-87.36527777777778,28.26222222222222],[-87.72722222222222,28.29416666666667],[-87.72722222222222,28.29416666666667],[-87.72722222222222,28.29416666666667],[-88.07222222222222,28.32361111111111],[-88.30666666666666,28.343333333333334],[-88.30666666666666,28.343333333333334],[-88.42444444444445,28.352777777777778],[-88.54305555555555,28.3625],[-88.54305555555555,28.3625],[-89.03083333333333,28.40083333333333],[-89.03083333333333,28.40083333333333],[-89.74305555555556,28.453888888888887],[-89.74305555555556,28.453888888888887],[-89.74305555555556,28.453888888888887],[-89.74305555555556,28.453888888888887],[-90.21416666666667,28.486944444444447],[-90.21416666666667,28.486944444444447],[-90.21416666666667,28.486944444444447],[-90.44833333333334,28.5025],[-90.44833333333334,28.5025],[-90.56611111111111,28.510277777777777],[-90.56611111111111,28.510277777777777],[-90.68583333333333,28.51361111111111],[-91.04333333333334,28.522222222222222],[-91.04333333333334,28.522222222222222],[-91.28416666666666,28.52722222222222],[-91.28416666666666,28.52722222222222],[-91.5286111111111,28.531944444444445],[-91.5286111111111,28.531944444444445],[-91.5286111111111,28.531944444444445],[-91.76833333333333,28.53638888888889],[-91.76833333333333,28.53638888888889],[-91.76833333333333,28.53638888888889],[-92.0075,28.540277777777778],[-92.0075,28.540277777777778],[-92.12777777777777,28.541944444444447],[-92.12777777777777,28.541944444444447],[-92.12777777777777,28.541944444444447],[-92.48194444444445,28.546666666666667],[-92.48194444444445,28.546666666666667],[-92.5975,28.547777777777778],[-92.5975,28.547777777777778],[-92.5975,28.547777777777778],[-92.83333333333333,28.55027777777778],[-92.83333333333333,28.55027777777778],[-93.18916666666667,28.553055555555556],[-93.18916666666667,28.553055555555556],[-93.18916666666667,28.553055555555556],[-93.42888888888889,28.554444444444446],[-93.42888888888889,28.554444444444446],[-93.54472222222222,28.554722222222225],[-93.54472222222222,28.554722222222225],[-94.47277777777778,28.55527777777778],[-94.47277777777778,28.55527777777778],[-94.47277777777778,28.55527777777778],[-94.47277777777778,28.55527777777778],[-95.54583333333333,28.523888888888887],[-95.76722222222222,28.445555555555554],[-95.76722222222222,28.445555555555554],[-95.76722222222222,28.445555555555554],[-95.76722222222222,28.445555555555554],[-96.09416666666667,28.429166666666667],[-96.20916666666668,28.454722222222223],[-96.20916666666668,28.454722222222223],[-96.20916666666668,28.454722222222223],[-96.20916666666668,28.454722222222223],[-96.55555555555556,28.57638888888889],[-97.02777777777777,28.755555555555556],[-97.02777777777777,28.755555555555556],[-97.26055555555556,28.843055555555555],[-97.37805555555555,28.886944444444445],[-98.08777777777777,29.149444444444445],[-98.08777777777777,29.149444444444445],[-98.32527777777777,29.23611111111111],[-98.32527777777777,29.23611111111111],[-99.03999999999999,29.493333333333336],[-99.03999999999999,29.493333333333336],[-99.03999999999999,29.493333333333336],[-99.39916666666667,29.621111111111112],[-99.39916666666667,29.621111111111112],[-99.88055555555555,29.789444444444445],[-99.88055555555555,29.789444444444445],[-100.24,29.914166666666667],[-100.24,29.914166666666667],[-100.24,29.914166666666667],[-100.48277777777778,29.997500000000002],[-100.48277777777778,29.997500000000002],[-100.96888888888888,30.162499999999998],[-101.15722222222223,30.225555555555555],[-101.15722222222223,30.225555555555555],[-101.39333333333335,30.304722222222225],[-101.7363888888889,30.41861111111111],[-101.75777777777778,30.425555555555558],[-102.44305555555556,30.648888888888887],[-102.44305555555556,30.648888888888887],[-102.44305555555556,30.648888888888887],[-102.9263888888889,30.80388888888889],[-102.9263888888889,30.80388888888889],[-103.19277777777778,30.888333333333332],[-103.2911111111111,30.91916666666667],[-103.31527777777778,30.926944444444445],[-103.31527777777778,30.926944444444445],[-103.41305555555556,30.9575],[-103.41305555555556,30.9575],[-103.53611111111111,30.995833333333334],[-103.65861111111111,31.03388888888889],[-103.78222222222222,31.072499999999998],[-103.78222222222222,31.072499999999998],[-103.78222222222222,31.072499999999998],[-104.785,31.378055555555555],[-104.785,31.378055555555555],[-104.785,31.378055555555555],[-105.03333333333333,31.451944444444443],[-105.15833333333335,31.489166666666666],[-105.40972222222223,31.563333333333333],[-105.40972222222223,31.563333333333333],[-105.53805555555556,31.600833333333334],[-105.93305555555555,31.715833333333332],[-105.93305555555555,31.715833333333332],[-106.19,31.789444444444445],[-106.3025,31.828611111111112],[-106.4113888888889,31.890555555555554],[-106.4113888888889,31.890555555555554],[-106.5275,31.95722222222222],[-106.5275,31.95722222222222],[-106.63277777777778,32.0175],[-106.745,32.081944444444446],[-106.745,32.081944444444446],[-106.85805555555555,32.14611111111111],[-106.85805555555555,32.14611111111111],[-107.31166666666667,32.403055555555554],[-107.31166666666667,32.403055555555554],[-107.5461111111111,32.53472222222222],[-107.5461111111111,32.53472222222222],[-107.6613888888889,32.59861111111111],[-107.6613888888889,32.59861111111111],[-107.77694444444444,32.66277777777778],[-108.34666666666666,32.97694444444445],[-108.34666666666666,32.97694444444445],[-108.34666666666666,32.97694444444445],[-108.46000000000001,33.03916666666667],[-108.57388888888889,33.10111111111111],[-108.57388888888889,33.10111111111111],[-109.46555555555555,33.580000000000005],[-109.46555555555555,33.580000000000005],[-109.5775,33.63916666666667],[-109.5775,33.63916666666667],[-109.80444444444444,33.759166666666665],[-109.89333333333335,33.81166666666666],[-109.92,33.819722222222225],[-109.92,33.819722222222225],[-110.00777777777778,33.87166666666667],[-110.035,33.88],[-110.12277777777777,33.93222222222222],[-110.23944444444444,33.99],[-110.23944444444444,33.99],[-110.23944444444444,33.99],[-110.3561111111111,34.051111111111105],[-110.47305555555556,34.11138888888889],[-110.50055555555555,34.12138888888889],[-110.50055555555555,34.12138888888889],[-110.61833333333333,34.18194444444444],[-110.71000000000001,34.23305555555556],[-110.85472222222222,34.30305555555555],[-110.85472222222222,34.30305555555555],[-110.94722222222222,34.3525],[-110.97416666666666,34.36388888888889],[-110.97416666666666,34.36388888888889],[-111.06555555555555,34.41222222222222],[-111.09166666666667,34.42361111111111],[-111.30361111111111,34.530833333333334],[-111.30361111111111,34.530833333333334],[-111.54138888888889,34.650277777777774],[-111.56722222222221,34.663333333333334],[-111.8111111111111,34.78472222222222],[-112.02972222222222,34.89277777777778],[-112.02972222222222,34.89277777777778],[-112.02972222222222,34.89277777777778],[-112.05166666666666,34.90361111111111],[-112.05166666666666,34.90361111111111],[-112.29083333333332,35.02166666666667],[-112.3888888888889,35.06944444444445],[-112.52972222222222,35.13805555555555],[-112.52972222222222,35.13805555555555],[-112.76944444444445,35.254444444444445],[-112.76944444444445,35.254444444444445],[-112.86638888888888,35.301111111111105],[-112.90722222222223,35.32083333333334],[-112.9825,35.356944444444444],[-112.9825,35.356944444444444],[-113.0286111111111,35.37916666666667],[-113.14694444444446,35.43583333333333],[-113.22583333333334,35.47361111111111],[-113.22583333333334,35.47361111111111],[-113.46305555555556,35.586111111111116],[-113.46305555555556,35.586111111111116],[-113.85,35.71222222222222],[-113.85,35.71222222222222],[-113.98555555555555,35.75083333333333],[-113.98555555555555,35.75083333333333],[-114.11777777777777,35.78805555555555],[-114.64972222222222,35.93694444444444],[-114.64972222222222,35.93694444444444],[-114.78277777777778,35.97361111111111],[-114.78277777777778,35.97361111111111],[-114.91305555555556,36.01777777777777],[-115.0375,36.07194444444445],[-115.16361111111112,36.12694444444445],[-115.16361111111112,36.12694444444445],[-115.68361111111112,36.35166666666667],[-115.81444444444445,36.407777777777774],[-115.94944444444445,36.46527777777778],[-115.94944444444445,36.46527777777778],[-115.94944444444445,36.46527777777778],[-116.08027777777778,36.520833333333336],[-116.28861111111111,36.60861111111111],[-116.33916666666666,36.63],[-116.54583333333333,36.71666666666667],[-116.72583333333334,36.79333333333333],[-116.72583333333334,36.79333333333333],[-116.72583333333334,36.79333333333333],[-116.93666666666667,36.971944444444446],[-117.04055555555556,37.065555555555555],[-117.21611111111112,37.22416666666667],[-117.21611111111112,37.22416666666667],[-117.21611111111112,37.22416666666667],[-117.3711111111111,37.36361111111111],[-117.3711111111111,37.36361111111111],[-117.46611111111112,37.44833333333333],[-117.79277777777777,37.74527777777778],[-117.94638888888889,37.88777777777778],[-118.08194444444445,38.015],[-118.1388888888889,38.06888888888889],[-118.1388888888889,38.06888888888889],[-118.35722222222222,38.20111111111111],[-118.35722222222222,38.20111111111111],[-118.48,38.17361111111111],[-118.60111111111111,38.144999999999996],[-118.83472222222221,38.08861111111111],[-118.83472222222221,38.08861111111111],[-119.18472222222222,38.00416666666667],[-119.30361111111111,37.975],[-119.30361111111111,37.975],[-119.6463888888889,37.89055555555556],[-119.76166666666667,37.861666666666665],[-119.9888888888889,37.80472222222222],[-119.9888888888889,37.80472222222222],[-120.38333333333334,37.7],[-120.38333333333334,37.7],[-120.44666666666667,37.69416666666666],[-120.44666666666667,37.69416666666666],[-120.57055555555556,37.67972222222222],[-120.69194444444445,37.66555555555556],[-120.81138888888889,37.65138888888889],[-120.81138888888889,37.65138888888889],[-120.92916666666667,37.636944444444445],[-121.05,37.61666666666667],[-121.05,37.61666666666667],[-121.16666666666667,37.6],[-121.26888888888888,37.591944444444444],[-121.26888888888888,37.591944444444444],[-121.26888888888888,37.591944444444444],[-121.95611111111111,37.49305555555556],[-121.95611111111111,37.49305555555556],[-122.25,37.583333333333336],[-122.30944444444444,37.59722222222222]],"type":"LineString"}
}
