{
  "id": 2014856849,
  "type": "Feature",
  "properties": {
    "geom:area": 0,
    "geom:bbox": "-122.359420,36.755610,-121.897510,37.614300",
    "geom:latitude": 37.233917453446224,
    "geom:longitude": -122.07724967932928,
    "src:alt_label": "swim-approach",
    "src:geom": "swim",
    "swim:elevations": [
      4535,
      4354,
      4164,
      3880,
      3487,
      3381,
      3271,
      3023,
      2831,
      2709,
      2469,
      2440,
      2440,
      2356,
      2182,
      1905,
      1697,
      1512,
      1353,
      1251,
      981,
      789,
      612,
      528,
      393,
      304,
      100,
      0
    ],
    "swim:geom": "approach",
    "swim:timestamps": [
      1771748666,
      1771748687,
      1771748707,
      1771748741,
      1771748786,
      1771748801,
      1771748826,
      1771748873,
      1771748892,
      1771748910,
      1771748945,
      1771748975,
      1771749028,
      1771749043,
      1771749067,
      1771749106,
      1771749134,
      1771749178,
      1771749207,
      1771749221,
      1771749265,
      1771749296,
      1771749327,
      1771749344,
      1771749373,
      1771749393,
      1771749447,
      1771749466
    ],
    "wof:geomhash": "b736b5485520d4429ff27f3bcb4d92cc",
    "wof:id": 2014856849,
    "wof:repo": "sfomuseum-data-flights-2026-02"
  },
  "bbox": [
    -122.35942,
    36.75561,
    -121.89751,
    37.6143
  ],
  "geometry": {"coordinates":[[-121.89751,36.75561],[-121.9075,36.79008],[-121.91645,36.82177],[-121.93198,36.87732],[-121.95186,36.94783],[-121.96062,36.9716],[-121.97449,37.00702],[-122.00021,37.07316],[-122.01038,37.09915],[-122.01986,37.12352],[-122.03755,37.16845],[-122.05303,37.2073],[-122.07861,37.27331],[-122.08548,37.29077],[-122.09678,37.31932],[-122.11524,37.36635],[-122.12762,37.40104],[-122.14462,37.45144],[-122.15533,37.48254],[-122.1603,37.49761],[-122.17614,37.54549],[-122.20496,37.5651],[-122.23874,37.57588],[-122.2562,37.58158],[-122.28352,37.5897],[-122.30031,37.59462],[-122.34479,37.60833],[-122.35942,37.6143]],"type":"LineString"}
}
