{
  "id": 2014852307,
  "type": "Feature",
  "properties": {
    "geom:area": 0,
    "geom:bbox": "-122.380000,37.620000,-74.170000,42.050000",
    "geom:latitude": 40.554419280553034,
    "geom:longitude": -98.32578970088986,
    "src:alt_label": "swim-route",
    "src:geom": "swim",
    "swim:geom": "route",
    "wof:geomhash": "eb2efb10d5662806435bf4afd424c1e3",
    "wof:id": 2014852307,
    "wof:repo": "sfomuseum-data-flights-2026-02"
  },
  "bbox": [
    -122.38,
    37.62,
    -74.17,
    42.05
  ],
  "geometry": {"coordinates":[[-122.38,37.62],[-122.27,37.69],[-122.26,37.69],[-122.26,37.69],[-122.21,37.72],[-122.17,37.74],[-122.17,37.74],[-122.16,37.75],[-122.14,37.76],[-122.13,37.76],[-122.06,37.8],[-122.05,37.8],[-122,37.83],[-121.94,37.85],[-121.77,37.92],[-121.75,37.93],[-121.56,38],[-121.41,38.06],[-121.38,38.07],[-121.13,38.17],[-121.04,38.21],[-120.98,38.21],[-120.94,38.22],[-120.83,38.23],[-120.64,38.26],[-120.63,38.26],[-120.55,38.27],[-120.46,38.29],[-120.38,38.3],[-120,38.35],[-119.83,38.37],[-119.49,38.42],[-119.22,38.45],[-118.23,38.57],[-118,38.6],[-117.66,38.64],[-117.3,38.68],[-117.29,38.68],[-116.05,38.89],[-115.19,39.02],[-114.68,39.1],[-114.23,39.16],[-113.32,39.29],[-113.25,39.3],[-113.24,39.3],[-112.94,39.35],[-112,39.5],[-110.21,39.77],[-109.56,39.86],[-109.25,39.9],[-109.01,39.93],[-108.07,40.02],[-106.97,40.12],[-106.7,40.14],[-105.06,40.26],[-104.65,40.28],[-104.23,40.31],[-102.34,40.4],[-100.92,40.45],[-99.05,40.74],[-95.89,41.15],[-95.74,41.17],[-94.69,41.31],[-94.17,41.37],[-93.65,41.44],[-93.51,41.45],[-91.27,41.65],[-88.55,41.82],[-87.52,41.87],[-87,41.89],[-85.23,41.95],[-84.95,41.97],[-83.46,42.05],[-82.95,42.01],[-81.83,41.92],[-81.23,41.86],[-80.58,41.8],[-79.21,41.66],[-77.97,41.51],[-77.77,41.48],[-77.69,41.47],[-77.55,41.45],[-77.49,41.44],[-77.45,41.44],[-77.06,41.38],[-76.98,41.37],[-76.77,41.34],[-76.54,41.28],[-76.16,41.17],[-76.05,41.14],[-75.74,41.06],[-75.69,41.04],[-75.64,41.03],[-75.6,41.02],[-75.58,41.01],[-75.47,40.98],[-75.4,40.96],[-75.17,40.9],[-75.11,40.88],[-75.05,40.86],[-74.92,40.83],[-74.92,40.83],[-74.87,40.82],[-74.82,40.81],[-74.76,40.8],[-74.71,40.79],[-74.7,40.79],[-74.65,40.78],[-74.61,40.77],[-74.49,40.75],[-74.44,40.74],[-74.38,40.73],[-74.27,40.71],[-74.17,40.69]],"type":"LineString"}
}
