{
  "id": 2014836535,
  "type": "Feature",
  "properties": {
    "geom:area": 0,
    "geom:bbox": "-122.401720,37.624140,-121.257620,37.963590",
    "geom:latitude": 37.8310290300821,
    "geom:longitude": -121.85121563360335,
    "src:alt_label": "swim-takeoff",
    "src:geom": "swim",
    "swim:elevations": [
      152,
      485,
      601,
      1131,
      1218,
      1459,
      1793,
      1922,
      2413,
      2913,
      3246,
      3399,
      3867,
      4034,
      4117,
      4326,
      4598,
      4634,
      5413,
      5857,
      6455,
      6694,
      6810
    ],
    "swim:geom": "takeoff",
    "swim:timestamps": [
      1771509713,
      1771509742,
      1771509752,
      1771509807,
      1771509823,
      1771509844,
      1771509865,
      1771509874,
      1771509912,
      1771509951,
      1771509988,
      1771510009,
      1771510046,
      1771510062,
      1771510068,
      1771510099,
      1771510136,
      1771510142,
      1771510221,
      1771510256,
      1771510318,
      1771510346,
      1771510364
    ],
    "wof:geomhash": "7bf7c3c75120e85b5064880e365d7cce",
    "wof:id": 2014836535,
    "wof:repo": "sfomuseum-data-flights-2026-02"
  },
  "bbox": [
    -122.40172,
    37.62414,
    -121.25762,
    37.96359
  ],
  "geometry": {"coordinates":[[-122.38794,37.62414],[-122.40172,37.64001],[-122.39869,37.64878],[-122.34028,37.67468],[-122.31812,37.68219],[-122.28807,37.69269],[-122.25729,37.70318],[-122.24416,37.70763],[-122.19087,37.72952],[-122.1375,37.75764],[-122.08369,37.78535],[-122.05026,37.80266],[-121.98524,37.82942],[-121.95326,37.83588],[-121.94109,37.83809],[-121.87754,37.84955],[-121.79728,37.86486],[-121.78377,37.86737],[-121.59874,37.90127],[-121.51421,37.91665],[-121.36727,37.94348],[-121.29978,37.95591],[-121.25762,37.96359]],"type":"LineString"}
}
