{
  "id": 2014819437,
  "type": "Feature",
  "properties": {
    "geom:area": 0,
    "geom:bbox": "-122.409010,37.632780,-121.436790,38.514470",
    "geom:latitude": 38.076565634154925,
    "geom:longitude": -121.94285495254492,
    "src:alt_label": "swim-takeoff",
    "src:geom": "swim",
    "swim:elevations": [
      335,
      706,
      836,
      1041,
      1124,
      1361,
      1710,
      2018,
      2636,
      2747,
      3231,
      3381,
      3521,
      3969,
      4261,
      4655,
      4761,
      4996,
      5121,
      5531,
      5730,
      6073,
      6244,
      6379,
      6553,
      6830,
      6919,
      7224
    ],
    "swim:geom": "takeoff",
    "swim:timestamps": [
      1771327645,
      1771327676,
      1771327689,
      1771327710,
      1771327721,
      1771327754,
      1771327787,
      1771327808,
      1771327856,
      1771327865,
      1771327916,
      1771327944,
      1771327966,
      1771328004,
      1771328028,
      1771328064,
      1771328073,
      1771328093,
      1771328112,
      1771328150,
      1771328164,
      1771328209,
      1771328225,
      1771328237,
      1771328265,
      1771328304,
      1771328317,
      1771328359
    ],
    "wof:geomhash": "2386026e7aae9b04e300bc3ce428cf2d",
    "wof:id": 2014819437,
    "wof:repo": "sfomuseum-data-flights-2026-02"
  },
  "bbox": [
    -122.40901,
    37.63278,
    -121.43679,
    38.51447
  ],
  "geometry": {"coordinates":[[-122.40025,37.63278],[-122.40901,37.65821],[-122.40025,37.66971],[-122.37537,37.67893],[-122.35992,37.68077],[-122.31126,37.69157],[-122.26005,37.70969],[-122.23928,37.73332],[-122.20134,37.79326],[-122.19411,37.80477],[-122.15089,37.87353],[-122.12589,37.91288],[-122.10312,37.94814],[-122.05555,38.00384],[-122.01847,38.03642],[-121.96216,38.08601],[-121.9487,38.0979],[-121.91646,38.12628],[-121.88599,38.15241],[-121.82093,38.20936],[-121.79776,38.22983],[-121.72145,38.29638],[-121.69451,38.31919],[-121.67369,38.33724],[-121.62406,38.38114],[-121.55305,38.44027],[-121.52765,38.45798],[-121.43679,38.51447]],"type":"LineString"}
}
