{
  "id": 2014836563,
  "type": "Feature",
  "properties": {
    "geom:area": 0,
    "geom:bbox": "-122.366667,37.633333,-116.558611,48.272222",
    "geom:latitude": 42.96041208733837,
    "geom:longitude": -119.53350625303679,
    "src:alt_label": "swim-path",
    "src:geom": "swim",
    "swim:altitudes": [
      "006",
      "006",
      "029",
      "050",
      "050",
      "050",
      "050",
      "050",
      "050",
      "179",
      "179",
      "179",
      "179",
      "179",
      "206",
      "206",
      "206",
      "206",
      "229",
      "229",
      "229",
      "229",
      "229",
      "330",
      "330",
      "330",
      "330",
      "330",
      "330",
      "330",
      "340C",
      "340C",
      "340C",
      "340C",
      "340C",
      "340C",
      "340C",
      "340C",
      "340C",
      "340C",
      "340C",
      "340C",
      "340C",
      "340C",
      "340C",
      "340C",
      "340C",
      "340C",
      "340C",
      "340C",
      "340C",
      "340C",
      "340C",
      "340C",
      "340C",
      "340C",
      "340C",
      "340C",
      "340C",
      "340C",
      "340C",
      "340C",
      "340C",
      "340C",
      "340C",
      "340C",
      "340C",
      "340C",
      "340C",
      "340C",
      "340C",
      "340C",
      "340C",
      "340C",
      "340C",
      "340C",
      "340C",
      "340C",
      "340C",
      "340C",
      "340C",
      "340C",
      "340C",
      "340C",
      "340C",
      "340C",
      "340C",
      "340C",
      "340C",
      "340C",
      "340C",
      "340C",
      "340C",
      "340C",
      "340C",
      "340C",
      "340C",
      "340C",
      "340C",
      "340C",
      "340C",
      "340C",
      "340C",
      "340C",
      "340C",
      "340C",
      "340C",
      "340C",
      "340C",
      "340C",
      "340C",
      "340C",
      "340C",
      "340C",
      "340C",
      "340C",
      "340C",
      "340C",
      "340C",
      "340C",
      "340C",
      "340C",
      "340C",
      "340C",
      "340C",
      "340C",
      "340C",
      "340C",
      "340C",
      "340C",
      "340C",
      "340C",
      "340C",
      "340C",
      "340C",
      "340C",
      "340C",
      "340C",
      "340C",
      "340C",
      "340C",
      "340C",
      "340C",
      "340C",
      "340C",
      "340C",
      "340C",
      "340C",
      "340C",
      "340C",
      "340C",
      "340C",
      "340C",
      "340C",
      "340C",
      "340C",
      "340C",
      "340",
      "340",
      "340",
      "350C",
      "350C",
      "350C",
      "350C",
      "350C",
      "350C",
      "350C",
      "350C",
      "350C",
      "350C",
      "350C",
      "350C",
      "350C",
      "350C",
      "350C",
      "350C",
      "350C",
      "350C",
      "350C",
      "350C",
      "350C",
      "350C",
      "350C",
      "350C",
      "350C",
      "350C",
      "350C",
      "350C",
      "350C",
      "350C",
      "350C",
      "350C",
      "350C",
      "350C",
      "350C",
      "350C",
      "350C",
      "350C",
      "350C",
      "350C",
      "350C",
      "350C",
      "350C",
      "350C",
      "350C",
      "350C",
      "350C",
      "350C",
      "350C",
      "350C",
      "350C",
      "350C",
      "350C",
      "350C",
      "350C",
      "350C",
      "350C",
      "350C",
      "350C",
      "350C",
      "350C",
      "350C",
      "350C",
      "350C",
      "350C",
      "350C",
      "350C",
      "350C",
      "350C",
      "350C",
      "350C",
      "350C",
      "350C",
      "350C",
      "350C",
      "350C",
      "350C",
      "350C",
      "350C",
      "350C",
      "350C",
      "350C",
      "350C",
      "350C",
      "350C",
      "350C"
    ],
    "swim:geom": "path",
    "swim:speeds": [
      173,
      173,
      195,
      242,
      242,
      242,
      242,
      242,
      242,
      347,
      347,
      347,
      347,
      347,
      355,
      355,
      355,
      355,
      378,
      378,
      378,
      378,
      378,
      450,
      450,
      450,
      450,
      450,
      450,
      450,
      456,
      456,
      456,
      456,
      456,
      456,
      445,
      445,
      445,
      445,
      445,
      446,
      446,
      446,
      446,
      447,
      447,
      447,
      447,
      447,
      449,
      449,
      449,
      449,
      448,
      448,
      448,
      452,
      452,
      452,
      452,
      452,
      452,
      452,
      452,
      452,
      452,
      448,
      448,
      448,
      448,
      448,
      448,
      448,
      448,
      448,
      448,
      447,
      447,
      447,
      447,
      447,
      447,
      447,
      447,
      447,
      447,
      447,
      447,
      447,
      447,
      447,
      447,
      447,
      447,
      447,
      447,
      447,
      447,
      447,
      447,
      446,
      446,
      446,
      446,
      446,
      446,
      446,
      446,
      446,
      446,
      449,
      449,
      449,
      449,
      450,
      450,
      450,
      450,
      450,
      450,
      450,
      450,
      450,
      450,
      450,
      450,
      448,
      448,
      448,
      448,
      448,
      448,
      445,
      445,
      445,
      445,
      445,
      445,
      446,
      446,
      446,
      447,
      447,
      447,
      447,
      447,
      447,
      447,
      448,
      448,
      448,
      448,
      449,
      449,
      449,
      449,
      449,
      449,
      449,
      449,
      449,
      449,
      449,
      449,
      449,
      449,
      449,
      449,
      449,
      448,
      448,
      448,
      448,
      448,
      448,
      448,
      448,
      447,
      447,
      447,
      446,
      446,
      447,
      447,
      447,
      447,
      447,
      447,
      447,
      449,
      449,
      449,
      449,
      449,
      449,
      449,
      450,
      450,
      450,
      449,
      449,
      449,
      449,
      449,
      449,
      449,
      449,
      449,
      449,
      449,
      449,
      449,
      449,
      449,
      449,
      449,
      449,
      449,
      449,
      449,
      449,
      449,
      449,
      449,
      449,
      449,
      449,
      449,
      449,
      449,
      449,
      450,
      450,
      450,
      450,
      450,
      450,
      450,
      450,
      450,
      450,
      450,
      450,
      450,
      450
    ],
    "swim:timestamps": [
      1771520815,
      1771520815,
      1771520871,
      1771520931,
      1771520931,
      1771520931,
      1771520931,
      1771520931,
      1771520931,
      1771521227,
      1771521227,
      1771521227,
      1771521227,
      1771521227,
      1771521287,
      1771521287,
      1771521287,
      1771521287,
      1771521351,
      1771521351,
      1771521351,
      1771521351,
      1771521351,
      1771521768,
      1771521768,
      1771521768,
      1771521768,
      1771521768,
      1771521768,
      1771521768,
      1771521828,
      1771521828,
      1771521828,
      1771521828,
      1771521828,
      1771521828,
      1771522188,
      1771522188,
      1771522188,
      1771522188,
      1771522188,
      1771522313,
      1771522313,
      1771522313,
      1771522313,
      1771522368,
      1771522368,
      1771522368,
      1771522368,
      1771522368,
      1771522493,
      1771522493,
      1771522493,
      1771522493,
      1771522499,
      1771522499,
      1771522499,
      1771522619,
      1771522619,
      1771522619,
      1771522619,
      1771522619,
      1771522679,
      1771522679,
      1771522679,
      1771522679,
      1771522679,
      1771522853,
      1771522853,
      1771522853,
      1771522853,
      1771522853,
      1771522853,
      1771522859,
      1771522859,
      1771522919,
      1771522919,
      1771522969,
      1771522979,
      1771522979,
      1771522979,
      1771522979,
      1771522979,
      1771523099,
      1771523099,
      1771523099,
      1771523099,
      1771523099,
      1771523214,
      1771523214,
      1771523214,
      1771523269,
      1771523269,
      1771523269,
      1771523280,
      1771523280,
      1771523280,
      1771523389,
      1771523389,
      1771523389,
      1771523389,
      1771523460,
      1771523460,
      1771523509,
      1771523509,
      1771523520,
      1771523520,
      1771523520,
      1771523520,
      1771523520,
      1771523520,
      1771523749,
      1771523749,
      1771523749,
      1771523749,
      1771523810,
      1771523810,
      1771523820,
      1771523820,
      1771523820,
      1771523820,
      1771523941,
      1771523941,
      1771523941,
      1771523941,
      1771523941,
      1771523941,
      1771524061,
      1771524061,
      1771524061,
      1771524061,
      1771524061,
      1771524061,
      1771524230,
      1771524230,
      1771524230,
      1771524230,
      1771524230,
      1771524230,
      1771524361,
      1771524361,
      1771524361,
      1771524398,
      1771524398,
      1771524398,
      1771524398,
      1771524398,
      1771524398,
      1771524421,
      1771524481,
      1771524481,
      1771524481,
      1771524481,
      1771524601,
      1771524601,
      1771524601,
      1771524601,
      1771524638,
      1771524638,
      1771524638,
      1771524722,
      1771524722,
      1771524794,
      1771524794,
      1771524794,
      1771524819,
      1771524819,
      1771524819,
      1771524854,
      1771524854,
      1771524879,
      1771524879,
      1771524914,
      1771524914,
      1771524914,
      1771524914,
      1771524914,
      1771524914,
      1771524939,
      1771524999,
      1771524999,
      1771525119,
      1771525119,
      1771525154,
      1771525154,
      1771525154,
      1771525154,
      1771525154,
      1771525154,
      1771525154,
      1771525299,
      1771525299,
      1771525299,
      1771525299,
      1771525334,
      1771525334,
      1771525334,
      1771525394,
      1771525394,
      1771525394,
      1771525659,
      1771525659,
      1771525659,
      1771525659,
      1771525659,
      1771525719,
      1771525719,
      1771525719,
      1771525719,
      1771525900,
      1771525900,
      1771525900,
      1771525900,
      1771525900,
      1771525900,
      1771525900,
      1771526020,
      1771526020,
      1771526020,
      1771526020,
      1771526020,
      1771526020,
      1771526020,
      1771526080,
      1771526080,
      1771526080,
      1771526080,
      1771526140,
      1771526140,
      1771526140,
      1771526140,
      1771526140,
      1771526380,
      1771526380,
      1771526380,
      1771526380,
      1771526380,
      1771526380,
      1771526380,
      1771526560,
      1771526560,
      1771526560,
      1771526560,
      1771526560,
      1771526560,
      1771526560
    ],
    "wof:geomhash": "a28da34b323d3cf3786dbb0bce35eccd",
    "wof:id": 2014836563,
    "wof:repo": "sfomuseum-data-flights-2026-02"
  },
  "bbox": [
    -122.36666666666666,
    37.63333333333333,
    -116.5586111111111,
    48.27222222222222
  ],
  "geometry": {"coordinates":[[-122.36666666666666,37.63333333333333],[-122.36666666666666,37.63333333333333],[-122.32555555555555,37.656666666666666],[-122.26444444444445,37.692499999999995],[-122.26444444444445,37.692499999999995],[-122.26444444444445,37.692499999999995],[-122.26444444444445,37.692499999999995],[-122.26444444444445,37.692499999999995],[-122.26444444444445,37.692499999999995],[-122.16000000000001,38.087500000000006],[-122.16000000000001,38.087500000000006],[-122.16000000000001,38.087500000000006],[-122.16000000000001,38.087500000000006],[-122.16000000000001,38.087500000000006],[-122.14111111111112,38.18611111111111],[-122.14111111111112,38.18611111111111],[-122.14111111111112,38.18611111111111],[-122.14111111111112,38.18611111111111],[-122.11972222222222,38.29972222222222],[-122.11972222222222,38.29972222222222],[-122.11972222222222,38.29972222222222],[-122.11972222222222,38.29972222222222],[-122.11972222222222,38.29972222222222],[-121.52388888888889,38.986666666666665],[-121.52388888888889,38.986666666666665],[-121.52388888888889,38.986666666666665],[-121.52388888888889,38.986666666666665],[-121.52388888888889,38.986666666666665],[-121.52388888888889,38.986666666666665],[-121.52388888888889,38.986666666666665],[-121.45611111111111,39.13],[-121.45611111111111,39.13],[-121.45611111111111,39.13],[-121.45611111111111,39.13],[-121.45611111111111,39.13],[-121.45611111111111,39.13],[-121.1363888888889,39.82555555555556],[-121.1363888888889,39.82555555555556],[-121.1363888888889,39.82555555555556],[-121.1363888888889,39.82555555555556],[-121.1363888888889,39.82555555555556],[-121.02638888888889,40.058055555555555],[-121.02638888888889,40.058055555555555],[-121.02638888888889,40.058055555555555],[-121.02638888888889,40.058055555555555],[-120.97166666666666,40.17472222222222],[-120.97166666666666,40.17472222222222],[-120.97166666666666,40.17472222222222],[-120.97166666666666,40.17472222222222],[-120.97166666666666,40.17472222222222],[-120.86166666666666,40.40861111111111],[-120.86166666666666,40.40861111111111],[-120.86166666666666,40.40861111111111],[-120.86166666666666,40.40861111111111],[-120.85249999999999,40.42805555555555],[-120.85249999999999,40.42805555555555],[-120.85249999999999,40.42805555555555],[-120.73916666666666,40.664722222222224],[-120.73916666666666,40.664722222222224],[-120.73916666666666,40.664722222222224],[-120.73916666666666,40.664722222222224],[-120.73916666666666,40.664722222222224],[-120.68277777777779,40.782222222222224],[-120.68277777777779,40.782222222222224],[-120.68277777777779,40.782222222222224],[-120.68277777777779,40.782222222222224],[-120.68277777777779,40.782222222222224],[-120.52333333333333,41.111111111111114],[-120.52333333333333,41.111111111111114],[-120.52333333333333,41.111111111111114],[-120.52333333333333,41.111111111111114],[-120.52333333333333,41.111111111111114],[-120.52333333333333,41.111111111111114],[-120.51194444444444,41.13444444444444],[-120.51194444444444,41.13444444444444],[-120.45583333333333,41.25],[-120.45583333333333,41.25],[-120.41055555555556,41.34277777777778],[-120.39861111111112,41.367222222222225],[-120.39861111111112,41.367222222222225],[-120.39861111111112,41.367222222222225],[-120.39861111111112,41.367222222222225],[-120.39861111111112,41.367222222222225],[-120.28388888888888,41.60055555555556],[-120.28388888888888,41.60055555555556],[-120.28388888888888,41.60055555555556],[-120.28388888888888,41.60055555555556],[-120.28388888888888,41.60055555555556],[-120.18138888888889,41.808055555555555],[-120.18138888888889,41.808055555555555],[-120.18138888888889,41.808055555555555],[-120.12444444444444,41.92305555555555],[-120.12444444444444,41.92305555555555],[-120.12444444444444,41.92305555555555],[-120.11166666666666,41.948611111111106],[-120.11166666666666,41.948611111111106],[-120.11166666666666,41.948611111111106],[-120.00722222222223,42.156388888888884],[-120.00722222222223,42.156388888888884],[-120.00722222222223,42.156388888888884],[-120.00722222222223,42.156388888888884],[-119.94,42.288888888888884],[-119.94,42.288888888888884],[-119.89083333333333,42.38666666666666],[-119.89083333333333,42.38666666666666],[-119.88222222222221,42.40333333333333],[-119.88222222222221,42.40333333333333],[-119.88222222222221,42.40333333333333],[-119.88222222222221,42.40333333333333],[-119.88222222222221,42.40333333333333],[-119.88222222222221,42.40333333333333],[-119.6525,42.85277777777778],[-119.6525,42.85277777777778],[-119.6525,42.85277777777778],[-119.6525,42.85277777777778],[-119.5925,42.96944444444445],[-119.5925,42.96944444444445],[-119.58305555555555,42.98777777777778],[-119.58305555555555,42.98777777777778],[-119.58305555555555,42.98777777777778],[-119.58305555555555,42.98777777777778],[-119.46111111111111,43.221944444444446],[-119.46111111111111,43.221944444444446],[-119.46111111111111,43.221944444444446],[-119.46111111111111,43.221944444444446],[-119.46111111111111,43.221944444444446],[-119.46111111111111,43.221944444444446],[-119.34055555555555,43.45194444444445],[-119.34055555555555,43.45194444444445],[-119.34055555555555,43.45194444444445],[-119.34055555555555,43.45194444444445],[-119.34055555555555,43.45194444444445],[-119.34055555555555,43.45194444444445],[-119.15611111111112,43.79972222222222],[-119.15611111111112,43.79972222222222],[-119.15611111111112,43.79972222222222],[-119.15611111111112,43.79972222222222],[-119.15611111111112,43.79972222222222],[-119.15611111111112,43.79972222222222],[-119.02194444444444,44.051111111111105],[-119.02194444444444,44.051111111111105],[-119.02194444444444,44.051111111111105],[-118.98361111111112,44.123333333333335],[-118.98361111111112,44.123333333333335],[-118.98361111111112,44.123333333333335],[-118.98361111111112,44.123333333333335],[-118.98361111111112,44.123333333333335],[-118.98361111111112,44.123333333333335],[-118.95916666666668,44.16833333333333],[-118.89611111111111,44.28444444444444],[-118.89611111111111,44.28444444444444],[-118.89611111111111,44.28444444444444],[-118.89611111111111,44.28444444444444],[-118.76972222222223,44.51638888888889],[-118.76972222222223,44.51638888888889],[-118.76972222222223,44.51638888888889],[-118.76972222222223,44.51638888888889],[-118.73194444444445,44.58555555555556],[-118.73194444444445,44.58555555555556],[-118.73194444444445,44.58555555555556],[-118.64361111111111,44.74583333333334],[-118.64361111111111,44.74583333333334],[-118.57972222222222,44.861666666666665],[-118.57972222222222,44.861666666666665],[-118.57972222222222,44.861666666666665],[-118.53972222222222,44.933611111111105],[-118.53972222222222,44.933611111111105],[-118.53972222222222,44.933611111111105],[-118.5025,45.00083333333333],[-118.5025,45.00083333333333],[-118.47555555555556,45.04888888888889],[-118.47555555555556,45.04888888888889],[-118.4388888888889,45.114444444444445],[-118.4388888888889,45.114444444444445],[-118.4388888888889,45.114444444444445],[-118.4388888888889,45.114444444444445],[-118.4388888888889,45.114444444444445],[-118.4388888888889,45.114444444444445],[-118.41166666666668,45.16305555555555],[-118.34722222222221,45.27777777777778],[-118.34722222222221,45.27777777777778],[-118.2175,45.507777777777775],[-118.2175,45.507777777777775],[-118.17833333333334,45.57666666666667],[-118.17833333333334,45.57666666666667],[-118.17833333333334,45.57666666666667],[-118.17833333333334,45.57666666666667],[-118.17833333333334,45.57666666666667],[-118.17833333333334,45.57666666666667],[-118.17833333333334,45.57666666666667],[-118.01638888888888,45.86027777777778],[-118.01638888888888,45.86027777777778],[-118.01638888888888,45.86027777777778],[-118.01638888888888,45.86027777777778],[-117.97972222222222,45.92361111111111],[-117.97972222222222,45.92361111111111],[-117.97972222222222,45.92361111111111],[-117.91055555555556,46.0425],[-117.91055555555556,46.0425],[-117.91055555555556,46.0425],[-117.61055555555555,46.555],[-117.61055555555555,46.555],[-117.61055555555555,46.555],[-117.61055555555555,46.555],[-117.61055555555555,46.555],[-117.54277777777777,46.66916666666666],[-117.54277777777777,46.66916666666666],[-117.54277777777777,46.66916666666666],[-117.54277777777777,46.66916666666666],[-117.33527777777778,47.01638888888889],[-117.33527777777778,47.01638888888889],[-117.33527777777778,47.01638888888889],[-117.33527777777778,47.01638888888889],[-117.33527777777778,47.01638888888889],[-117.33527777777778,47.01638888888889],[-117.33527777777778,47.01638888888889],[-117.19611111111111,47.24638888888889],[-117.19611111111111,47.24638888888889],[-117.19611111111111,47.24638888888889],[-117.19611111111111,47.24638888888889],[-117.19611111111111,47.24638888888889],[-117.19611111111111,47.24638888888889],[-117.19611111111111,47.24638888888889],[-117.12666666666667,47.359722222222224],[-117.12666666666667,47.359722222222224],[-117.12666666666667,47.359722222222224],[-117.12666666666667,47.359722222222224],[-117.05555555555556,47.47555555555556],[-117.05555555555556,47.47555555555556],[-117.05555555555556,47.47555555555556],[-117.05555555555556,47.47555555555556],[-117.05555555555556,47.47555555555556],[-116.77527777777777,47.92805555555555],[-116.77527777777777,47.92805555555555],[-116.77527777777777,47.92805555555555],[-116.77527777777777,47.92805555555555],[-116.77527777777777,47.92805555555555],[-116.77527777777777,47.92805555555555],[-116.77527777777777,47.92805555555555],[-116.5586111111111,48.27222222222222],[-116.5586111111111,48.27222222222222],[-116.5586111111111,48.27222222222222],[-116.5586111111111,48.27222222222222],[-116.5586111111111,48.27222222222222],[-116.5586111111111,48.27222222222222],[-116.5586111111111,48.27222222222222]],"type":"LineString"}
}
