{
  "id": 2014832815,
  "type": "Feature",
  "properties": {
    "geom:area": 0,
    "geom:bbox": "-122.895610,37.390970,-121.690360,38.501430",
    "geom:latitude": 37.74687324007497,
    "geom:longitude": -122.25126517183767,
    "src:alt_label": "swim-approach",
    "src:geom": "swim",
    "swim:elevations": [
      7018,
      6853,
      6659,
      6500,
      6161,
      6102,
      5874,
      5733,
      5441,
      5301,
      4940,
      4890,
      4724,
      4582,
      4365,
      4243,
      3972,
      3699,
      3525,
      3377,
      3352,
      3353,
      3353,
      3353,
      3353,
      3353,
      3353,
      3353,
      3353,
      3353,
      3353,
      3353,
      3353,
      3353,
      3353,
      3353,
      3234,
      3132,
      3050,
      3020,
      3042,
      3048,
      3048,
      3048,
      2912,
      2803,
      2745,
      2743,
      2743,
      2723,
      2620,
      2467,
      2206,
      2144,
      2134,
      2134,
      2134,
      2134,
      2134,
      2134,
      2134,
      1930,
      1826,
      1829,
      1829,
      1765,
      1493,
      1450,
      1234,
      1090,
      888,
      789,
      726,
      600,
      413,
      396,
      329,
      241,
      212,
      54,
      0
    ],
    "swim:geom": "approach",
    "swim:timestamps": [
      1771504452,
      1771504468,
      1771504494,
      1771504512,
      1771504557,
      1771504565,
      1771504593,
      1771504612,
      1771504640,
      1771504660,
      1771504707,
      1771504713,
      1771504736,
      1771504756,
      1771504778,
      1771504797,
      1771504820,
      1771504844,
      1771504864,
      1771504916,
      1771504924,
      1771504969,
      1771505001,
      1771505019,
      1771505058,
      1771505087,
      1771505118,
      1771505151,
      1771505165,
      1771505204,
      1771505236,
      1771505264,
      1771505293,
      1771505308,
      1771505319,
      1771505336,
      1771505360,
      1771505378,
      1771505403,
      1771505436,
      1771505462,
      1771505485,
      1771505498,
      1771505507,
      1771505541,
      1771505564,
      1771505591,
      1771505615,
      1771505655,
      1771505690,
      1771505709,
      1771505737,
      1771505787,
      1771505801,
      1771505846,
      1771505855,
      1771505878,
      1771505896,
      1771505937,
      1771505955,
      1771505975,
      1771506023,
      1771506044,
      1771506064,
      1771506102,
      1771506122,
      1771506173,
      1771506182,
      1771506224,
      1771506254,
      1771506297,
      1771506323,
      1771506338,
      1771506368,
      1771506413,
      1771506423,
      1771506446,
      1771506472,
      1771506481,
      1771506533,
      1771506548
    ],
    "wof:geomhash": "3bd48a9259ec424810d98dc3d43f81e5",
    "wof:id": 2014832815,
    "wof:repo": "sfomuseum-data-flights-2026-02"
  },
  "bbox": [
    -122.89561,
    37.39097,
    -121.69036,
    38.50143
  ],
  "geometry": {"coordinates":[[-122.89561,38.50143],[-122.88192,38.47173],[-122.85958,38.42359],[-122.84451,38.39115],[-122.8064,38.30901],[-122.79962,38.29424],[-122.77678,38.24417],[-122.76391,38.21061],[-122.74854,38.15965],[-122.73803,38.1235],[-122.71494,38.04433],[-122.71208,38.03446],[-122.70134,37.99725],[-122.69208,37.96493],[-122.68196,37.92947],[-122.6677,37.89862],[-122.63639,37.86394],[-122.60144,37.83112],[-122.57407,37.80575],[-122.50558,37.74158],[-122.49641,37.73295],[-122.4227,37.69828],[-122.3656,37.68414],[-122.33176,37.6756],[-122.26182,37.65807],[-122.21293,37.64644],[-122.16551,37.63514],[-122.11823,37.63481],[-122.10002,37.63691],[-122.04709,37.64273],[-122.0041,37.64706],[-121.96609,37.65073],[-121.92673,37.65481],[-121.90736,37.65689],[-121.892,37.65842],[-121.86914,37.66082],[-121.83726,37.66431],[-121.81319,37.66729],[-121.77871,37.66367],[-121.7383,37.64343],[-121.71266,37.62296],[-121.69627,37.60182],[-121.69036,37.5887],[-121.69074,37.57924],[-121.71694,37.56153],[-121.73964,37.56086],[-121.76651,37.56021],[-121.79082,37.55959],[-121.81874,37.53688],[-121.79175,37.50833],[-121.76849,37.49841],[-121.75298,37.47282],[-121.75742,37.42382],[-121.76057,37.41063],[-121.79776,37.39502],[-121.80634,37.39335],[-121.82771,37.39097],[-121.84382,37.39567],[-121.87774,37.41057],[-121.89234,37.4171],[-121.9096,37.42456],[-121.95347,37.44312],[-121.97284,37.45134],[-121.99126,37.45912],[-122.02702,37.47432],[-122.04518,37.48201],[-122.09275,37.50213],[-122.10083,37.50551],[-122.13744,37.52102],[-122.1629,37.53179],[-122.19703,37.54621],[-122.21731,37.55473],[-122.22931,37.55981],[-122.25259,37.5696],[-122.28496,37.58325],[-122.29046,37.5856],[-122.30346,37.59105],[-122.31769,37.59707],[-122.32284,37.5991],[-122.35247,37.61161],[-122.36234,37.61561]],"type":"LineString"}
}
