{
  "id": 2014867443,
  "type": "Feature",
  "properties": {
    "geom:area": 0,
    "geom:bbox": "-122.266667,33.649444,-84.166667,38.514167",
    "geom:latitude": 37.215898960853494,
    "geom:longitude": -102.95212801882698,
    "src:alt_label": "swim-path",
    "src:geom": "swim",
    "swim:altitudes": [
      "047",
      "047",
      "114",
      "114",
      "137",
      "137",
      "137",
      "187",
      "187",
      "187",
      "187",
      "228",
      "228",
      "228",
      "228",
      "295",
      "295",
      "295",
      "295",
      "295",
      "295",
      "333",
      "333",
      "335",
      "335",
      "335",
      "358",
      "358",
      "367",
      "367",
      "367",
      "370C",
      "370C",
      "370C",
      "370C",
      "370C",
      "370C",
      "370C",
      "370C",
      "370C",
      "370C",
      "370C",
      "370C",
      "370C",
      "370C",
      "370C",
      "370C",
      "370C",
      "370C",
      "370C",
      "370C",
      "370C",
      "370C",
      "370C",
      "370C",
      "370C",
      "370C",
      "370C",
      "370C",
      "370C",
      "370C",
      "370C",
      "370C",
      "370C",
      "370C",
      "370C",
      "370C",
      "370C",
      "370C",
      "370C",
      "370C",
      "370C",
      "370C",
      "370C",
      "370C",
      "370C",
      "370C",
      "370C",
      "370C",
      "370C",
      "370C",
      "370C",
      "370C",
      "370C",
      "370C",
      "370C",
      "370C",
      "370C",
      "370C",
      "370C",
      "370C",
      "370C",
      "370C",
      "370C",
      "370C",
      "370C",
      "370C",
      "370C",
      "370C",
      "370C",
      "370C",
      "370C",
      "375",
      "375",
      "375",
      "375",
      "375",
      "384",
      "384",
      "384",
      "390C",
      "390C",
      "390C",
      "390C",
      "390C",
      "390C",
      "390C",
      "390C",
      "390C",
      "390C",
      "390C",
      "390C",
      "390C",
      "390C",
      "390C",
      "390C",
      "390C",
      "390C",
      "390C",
      "390C",
      "390C",
      "390C",
      "390C",
      "390C",
      "390C",
      "390C",
      "390C",
      "390C",
      "390C",
      "390C",
      "390C",
      "390C",
      "390C",
      "390C",
      "390C",
      "390C",
      "390C",
      "390C",
      "390C",
      "390C",
      "390C",
      "390C",
      "390C",
      "390C",
      "390C",
      "390C",
      "390C",
      "390C",
      "390C",
      "390C",
      "390C",
      "390C",
      "390C",
      "390C",
      "390C",
      "390C",
      "390C",
      "390C",
      "390C",
      "390C",
      "390C",
      "390C",
      "390C",
      "390C",
      "390C",
      "390C",
      "390C",
      "390C",
      "390C",
      "390C",
      "390C",
      "390C",
      "390C",
      "390C",
      "390C",
      "390C",
      "390C",
      "390C",
      "390C",
      "390C",
      "390C",
      "390C",
      "390C",
      "390C",
      "390C",
      "390C",
      "390C",
      "390C",
      "390C",
      "390C",
      "390C",
      "390C",
      "390C",
      "390C",
      "390C",
      "390C",
      "390C",
      "390C",
      "390C",
      "390C",
      "390C",
      "390C",
      "390C",
      "390C",
      "390C",
      "390C",
      "390C",
      "390C",
      "390C",
      "390C",
      "390C",
      "390C",
      "390C",
      "390C",
      "390C",
      "390C",
      "390C",
      "390C",
      "390C",
      "390C",
      "390C",
      "390C",
      "390C",
      "390C",
      "390C",
      "390C",
      "390C",
      "390C",
      "390C",
      "390C",
      "390C",
      "390C",
      "390C",
      "390C",
      "390C",
      "390C",
      "390C",
      "390C",
      "390C",
      "390C",
      "390C",
      "390C",
      "390C",
      "390C",
      "390C",
      "390C",
      "390C",
      "390C",
      "390C",
      "390C",
      "390C",
      "390C",
      "390C",
      "390C",
      "390C",
      "390C",
      "390C",
      "390C",
      "390C",
      "390C",
      "390C",
      "390C",
      "390C",
      "390C",
      "390C",
      "390C",
      "390C",
      "390C",
      "390C",
      "390C",
      "390C",
      "390C",
      "390C",
      "390C",
      "390C",
      "390C",
      "390C",
      "390C",
      "390C",
      "390C",
      "390C",
      "390C",
      "390C",
      "390C",
      "390C",
      "390C",
      "390C",
      "390C",
      "390C",
      "390C",
      "390C",
      "390C",
      "390C",
      "390C",
      "390C",
      "390C",
      "390C",
      "390C",
      "390C",
      "390C",
      "390C",
      "390C",
      "390C",
      "390C",
      "390C",
      "390C",
      "390C",
      "390C",
      "390C",
      "390C",
      "390C",
      "390C",
      "390C",
      "390C",
      "390C",
      "370",
      "370",
      "353",
      "353",
      "350",
      "350",
      "350",
      "341",
      "341",
      "341",
      "330C",
      "330C",
      "330C",
      "330C",
      "330C",
      "330C",
      "325",
      "325",
      "286",
      "286",
      "286",
      "272",
      "262",
      "262",
      "258",
      "258",
      "258",
      "196",
      "196",
      "196",
      "196",
      "195",
      "195",
      "132",
      "120",
      "120",
      "120",
      "120",
      "120",
      "097",
      "097",
      "097",
      "097",
      "063",
      "046",
      "040",
      "040",
      "040",
      "040",
      "040",
      "040",
      "040",
      "040",
      "040",
      "040",
      "025",
      "025",
      "014"
    ],
    "swim:geom": "path",
    "swim:speeds": [
      270,
      270,
      353,
      353,
      403,
      403,
      403,
      446,
      446,
      446,
      446,
      484,
      484,
      484,
      484,
      540,
      540,
      540,
      540,
      540,
      540,
      543,
      543,
      543,
      543,
      543,
      543,
      543,
      545,
      545,
      545,
      547,
      547,
      547,
      548,
      548,
      548,
      547,
      547,
      547,
      547,
      546,
      546,
      546,
      546,
      545,
      545,
      544,
      544,
      544,
      544,
      547,
      547,
      547,
      547,
      548,
      548,
      548,
      548,
      548,
      547,
      547,
      547,
      545,
      545,
      545,
      535,
      535,
      535,
      535,
      535,
      533,
      533,
      529,
      529,
      528,
      528,
      528,
      528,
      528,
      527,
      526,
      526,
      526,
      525,
      525,
      525,
      525,
      513,
      513,
      513,
      513,
      513,
      512,
      512,
      512,
      510,
      510,
      509,
      509,
      509,
      509,
      509,
      509,
      509,
      509,
      509,
      509,
      509,
      509,
      508,
      507,
      507,
      507,
      507,
      507,
      507,
      506,
      506,
      506,
      506,
      505,
      505,
      505,
      505,
      505,
      505,
      505,
      505,
      505,
      505,
      506,
      506,
      507,
      507,
      508,
      509,
      510,
      510,
      510,
      510,
      512,
      512,
      512,
      512,
      513,
      513,
      513,
      513,
      513,
      512,
      512,
      509,
      509,
      509,
      509,
      509,
      509,
      509,
      509,
      509,
      509,
      507,
      507,
      504,
      502,
      502,
      502,
      502,
      502,
      501,
      500,
      500,
      500,
      500,
      502,
      503,
      503,
      504,
      504,
      504,
      504,
      504,
      503,
      503,
      502,
      502,
      502,
      502,
      502,
      500,
      500,
      496,
      496,
      496,
      496,
      495,
      495,
      495,
      495,
      495,
      495,
      498,
      498,
      498,
      504,
      504,
      504,
      509,
      509,
      509,
      511,
      511,
      511,
      514,
      514,
      514,
      514,
      516,
      516,
      516,
      515,
      515,
      515,
      516,
      516,
      516,
      516,
      515,
      515,
      515,
      515,
      515,
      515,
      515,
      516,
      515,
      515,
      516,
      516,
      515,
      515,
      515,
      515,
      516,
      516,
      516,
      516,
      516,
      516,
      516,
      516,
      516,
      516,
      516,
      518,
      518,
      519,
      519,
      519,
      520,
      520,
      521,
      522,
      522,
      523,
      523,
      524,
      524,
      523,
      523,
      525,
      524,
      524,
      526,
      525,
      526,
      526,
      526,
      526,
      527,
      527,
      527,
      530,
      530,
      530,
      530,
      530,
      530,
      530,
      530,
      531,
      531,
      531,
      531,
      531,
      535,
      535,
      532,
      532,
      535,
      535,
      535,
      534,
      534,
      534,
      535,
      523,
      523,
      523,
      521,
      521,
      521,
      521,
      521,
      520,
      521,
      521,
      521,
      521,
      521,
      521,
      521,
      521,
      521,
      506,
      506,
      509,
      509,
      509,
      509,
      509,
      507,
      507,
      507,
      507,
      507,
      509,
      509,
      509,
      512,
      522,
      522,
      526,
      526,
      526,
      528,
      527,
      527,
      527,
      527,
      527,
      464,
      464,
      464,
      464,
      467,
      467,
      428,
      406,
      406,
      406,
      289,
      289,
      255,
      255,
      255,
      255,
      244,
      228,
      229,
      229,
      229,
      209,
      209,
      209,
      209,
      177,
      181,
      181,
      154,
      154,
      140
    ],
    "swim:timestamps": [
      1771886964,
      1771886964,
      1771887117,
      1771887117,
      1771887178,
      1771887178,
      1771887178,
      1771887298,
      1771887298,
      1771887298,
      1771887298,
      1771887418,
      1771887418,
      1771887418,
      1771887418,
      1771887653,
      1771887653,
      1771887653,
      1771887653,
      1771887653,
      1771887653,
      1771887953,
      1771887953,
      1771887959,
      1771887959,
      1771887959,
      1771888079,
      1771888079,
      1771888133,
      1771888139,
      1771888139,
      1771888193,
      1771888193,
      1771888193,
      1771888314,
      1771888314,
      1771888314,
      1771888374,
      1771888434,
      1771888434,
      1771888434,
      1771888494,
      1771888494,
      1771888494,
      1771888494,
      1771888554,
      1771888554,
      1771888614,
      1771888674,
      1771888674,
      1771888674,
      1771888800,
      1771888800,
      1771888800,
      1771888800,
      1771888854,
      1771888854,
      1771888914,
      1771888914,
      1771888914,
      1771888980,
      1771888980,
      1771888980,
      1771889035,
      1771889035,
      1771889035,
      1771889275,
      1771889275,
      1771889275,
      1771889275,
      1771889275,
      1771889335,
      1771889335,
      1771889575,
      1771889575,
      1771889695,
      1771889695,
      1771889695,
      1771889695,
      1771889756,
      1771889816,
      1771889876,
      1771889876,
      1771889876,
      1771889936,
      1771889936,
      1771889936,
      1771889936,
      1771890296,
      1771890296,
      1771890296,
      1771890296,
      1771890296,
      1771890356,
      1771890356,
      1771890356,
      1771890476,
      1771890476,
      1771890484,
      1771890484,
      1771890484,
      1771890484,
      1771890657,
      1771890657,
      1771890665,
      1771890665,
      1771890665,
      1771890717,
      1771890725,
      1771890725,
      1771890837,
      1771890905,
      1771890905,
      1771890957,
      1771890957,
      1771890957,
      1771890957,
      1771891017,
      1771891025,
      1771891025,
      1771891025,
      1771891077,
      1771891137,
      1771891137,
      1771891145,
      1771891145,
      1771891197,
      1771891197,
      1771891318,
      1771891318,
      1771891318,
      1771891378,
      1771891386,
      1771891438,
      1771891438,
      1771891566,
      1771891626,
      1771891746,
      1771891746,
      1771891746,
      1771891746,
      1771891926,
      1771891926,
      1771891986,
      1771892046,
      1771892167,
      1771892167,
      1771892167,
      1771892227,
      1771892227,
      1771892407,
      1771892407,
      1771892527,
      1771892527,
      1771892527,
      1771892527,
      1771892647,
      1771892647,
      1771892707,
      1771892827,
      1771892827,
      1771892827,
      1771893008,
      1771893008,
      1771893128,
      1771893248,
      1771893248,
      1771893308,
      1771893308,
      1771893308,
      1771893368,
      1771893488,
      1771893548,
      1771893548,
      1771893548,
      1771893609,
      1771893669,
      1771893669,
      1771893729,
      1771893729,
      1771893729,
      1771893789,
      1771893789,
      1771894089,
      1771894089,
      1771894147,
      1771894147,
      1771894147,
      1771894147,
      1771894147,
      1771894267,
      1771894267,
      1771894447,
      1771894447,
      1771894447,
      1771894447,
      1771894507,
      1771894507,
      1771894567,
      1771894567,
      1771894567,
      1771894567,
      1771894687,
      1771894687,
      1771894687,
      1771894808,
      1771894808,
      1771894808,
      1771894928,
      1771894928,
      1771894928,
      1771894988,
      1771894988,
      1771894988,
      1771895108,
      1771895108,
      1771895108,
      1771895108,
      1771895348,
      1771895348,
      1771895348,
      1771895397,
      1771895397,
      1771895397,
      1771895469,
      1771895469,
      1771895469,
      1771895469,
      1771895589,
      1771895589,
      1771895637,
      1771895649,
      1771895649,
      1771895709,
      1771895709,
      1771895757,
      1771895769,
      1771895769,
      1771895817,
      1771895817,
      1771895829,
      1771895829,
      1771895889,
      1771895889,
      1771896009,
      1771896009,
      1771896057,
      1771896057,
      1771896070,
      1771896070,
      1771896118,
      1771896118,
      1771896178,
      1771896178,
      1771896178,
      1771896310,
      1771896310,
      1771896370,
      1771896370,
      1771896370,
      1771896418,
      1771896418,
      1771896490,
      1771896538,
      1771896538,
      1771896598,
      1771896598,
      1771896658,
      1771896658,
      1771896670,
      1771896670,
      1771896718,
      1771896731,
      1771896731,
      1771896778,
      1771896791,
      1771896839,
      1771896839,
      1771896839,
      1771896839,
      1771896911,
      1771896911,
      1771896911,
      1771897139,
      1771897139,
      1771897139,
      1771897199,
      1771897199,
      1771897259,
      1771897259,
      1771897259,
      1771897439,
      1771897439,
      1771897439,
      1771897439,
      1771897439,
      1771897581,
      1771897581,
      1771897620,
      1771897620,
      1771897761,
      1771897761,
      1771897761,
      1771897821,
      1771897821,
      1771897821,
      1771898001,
      1771898040,
      1771898040,
      1771898040,
      1771898134,
      1771898160,
      1771898194,
      1771898194,
      1771898194,
      1771898220,
      1771898254,
      1771898254,
      1771898254,
      1771898314,
      1771898314,
      1771898341,
      1771898434,
      1771898434,
      1771898434,
      1771898641,
      1771898641,
      1771898734,
      1771898734,
      1771898761,
      1771898761,
      1771898761,
      1771898821,
      1771898821,
      1771898821,
      1771898881,
      1771898881,
      1771898975,
      1771898975,
      1771898975,
      1771899035,
      1771899155,
      1771899155,
      1771899302,
      1771899302,
      1771899302,
      1771899362,
      1771899395,
      1771899395,
      1771899422,
      1771899422,
      1771899422,
      1771899625,
      1771899625,
      1771899625,
      1771899625,
      1771899636,
      1771899636,
      1771899816,
      1771899936,
      1771899936,
      1771899936,
      1771900033,
      1771900033,
      1771900116,
      1771900116,
      1771900116,
      1771900116,
      1771900237,
      1771900297,
      1771900357,
      1771900357,
      1771900357,
      1771900393,
      1771900393,
      1771900393,
      1771900393,
      1771900454,
      1771900477,
      1771900477,
      1771900573,
      1771900573,
      1771900657
    ],
    "wof:geomhash": "c583282d3b4cebc85a4face9eb07b0d1",
    "wof:id": 2014867443,
    "wof:repo": "sfomuseum-data-flights-2026-02"
  },
  "bbox": [
    -122.26666666666667,
    33.64944444444444,
    -84.16666666666667,
    38.51416666666667
  ],
  "geometry": {"coordinates":[[-122.26666666666667,37.7],[-122.26666666666667,37.7],[-122.0436111111111,37.80583333333333],[-122.0436111111111,37.80583333333333],[-121.915,37.843333333333334],[-121.915,37.843333333333334],[-121.915,37.843333333333334],[-121.61722222222221,37.89722222222222],[-121.61722222222221,37.89722222222222],[-121.61722222222221,37.89722222222222],[-121.61722222222221,37.89722222222222],[-121.295,37.95638888888889],[-121.295,37.95638888888889],[-121.295,37.95638888888889],[-121.295,37.95638888888889],[-120.56916666666666,38.07027777777778],[-120.56916666666666,38.07027777777778],[-120.56916666666666,38.07027777777778],[-120.56916666666666,38.07027777777778],[-120.56916666666666,38.07027777777778],[-120.56916666666666,38.07027777777778],[-119.63416666666667,38.209722222222226],[-119.63416666666667,38.209722222222226],[-119.60472222222222,38.21472222222223],[-119.60472222222222,38.21472222222223],[-119.60472222222222,38.21472222222223],[-119.25805555555556,38.263333333333335],[-119.25805555555556,38.263333333333335],[-119.06833333333333,38.288333333333334],[-119.06833333333333,38.28972222222222],[-119.06833333333333,38.28972222222222],[-118.87777777777777,38.315],[-118.87777777777777,38.315],[-118.87777777777777,38.315],[-118.49888888888889,38.36666666666667],[-118.49888888888889,38.36666666666667],[-118.49888888888889,38.36666666666667],[-118.31055555555555,38.39138888888889],[-118.11999999999999,38.41611111111111],[-118.11999999999999,38.41611111111111],[-118.11999999999999,38.41611111111111],[-117.92888888888889,38.440555555555555],[-117.92888888888889,38.440555555555555],[-117.92888888888889,38.440555555555555],[-117.92888888888889,38.440555555555555],[-117.73527777777778,38.465],[-117.73527777777778,38.465],[-117.54527777777777,38.48888888888889],[-117.35416666666666,38.51222222222222],[-117.35416666666666,38.51222222222222],[-117.35416666666666,38.51222222222222],[-116.95583333333333,38.51416666666667],[-116.95583333333333,38.51416666666667],[-116.95583333333333,38.51416666666667],[-116.95583333333333,38.51416666666667],[-116.76166666666667,38.509166666666665],[-116.76166666666667,38.509166666666665],[-116.56777777777778,38.504444444444445],[-116.56777777777778,38.504444444444445],[-116.56777777777778,38.504444444444445],[-116.37055555555555,38.49944444444444],[-116.37055555555555,38.49944444444444],[-116.37055555555555,38.49944444444444],[-116.18,38.49388888888889],[-116.18,38.49388888888889],[-116.18,38.49388888888889],[-115.41972222222223,38.469722222222224],[-115.41972222222223,38.469722222222224],[-115.41972222222223,38.469722222222224],[-115.41972222222223,38.469722222222224],[-115.41972222222223,38.469722222222224],[-115.2461111111111,38.46361111111111],[-115.2461111111111,38.46361111111111],[-114.4975,38.433611111111105],[-114.4975,38.433611111111105],[-114.12472222222222,38.41694444444444],[-114.12472222222222,38.41694444444444],[-114.12472222222222,38.41694444444444],[-114.12472222222222,38.41694444444444],[-113.93861111111111,38.40833333333333],[-113.75305555555556,38.399166666666666],[-113.56944444444444,38.39],[-113.56944444444444,38.39],[-113.56944444444444,38.39],[-113.38305555555554,38.38055555555555],[-113.38305555555554,38.38055555555555],[-113.38305555555554,38.38055555555555],[-113.38305555555554,38.38055555555555],[-112.285,38.38777777777778],[-112.285,38.38777777777778],[-112.285,38.38777777777778],[-112.285,38.38777777777778],[-112.285,38.38777777777778],[-112.10305555555556,38.39388888888889],[-112.10305555555556,38.39388888888889],[-112.10305555555556,38.39388888888889],[-111.74194444444444,38.40555555555555],[-111.74194444444444,38.40555555555555],[-111.70916666666668,38.406388888888884],[-111.70916666666668,38.406388888888884],[-111.70916666666668,38.406388888888884],[-111.70916666666668,38.406388888888884],[-111.20194444444445,38.42027777777778],[-111.20194444444445,38.42027777777778],[-111.20444444444445,38.419999999999995],[-111.20444444444445,38.419999999999995],[-111.20444444444445,38.419999999999995],[-111.02194444444444,38.42472222222222],[-111.02527777777777,38.42472222222222],[-111.02527777777777,38.42472222222222],[-110.67805555555556,38.4325],[-110.46333333333334,38.43666666666666],[-110.46333333333334,38.43666666666666],[-110.31888888888888,38.43944444444444],[-110.31888888888888,38.43944444444444],[-110.31888888888888,38.43944444444444],[-110.31888888888888,38.43944444444444],[-110.14166666666668,38.442499999999995],[-110.1061111111111,38.44305555555555],[-110.1061111111111,38.44305555555555],[-110.1061111111111,38.44305555555555],[-109.96416666666667,38.445277777777775],[-109.78694444444444,38.44777777777777],[-109.78694444444444,38.44777777777777],[-109.75138888888888,38.448055555555555],[-109.75138888888888,38.448055555555555],[-109.60944444444443,38.45],[-109.60944444444443,38.45],[-109.25111111111111,38.453611111111115],[-109.25111111111111,38.453611111111115],[-109.25111111111111,38.453611111111115],[-109.07194444444444,38.455000000000005],[-109.03972222222222,38.45527777777778],[-108.89527777777778,38.45638888888889],[-108.89527777777778,38.45638888888889],[-108.50166666666667,38.45777777777778],[-108.32083333333333,38.45805555555556],[-107.96277777777777,38.45777777777778],[-107.96277777777777,38.45777777777778],[-107.96277777777777,38.45777777777778],[-107.96277777777777,38.45777777777778],[-107.42027777777778,38.45527777777778],[-107.42027777777778,38.45527777777778],[-107.23694444444445,38.45416666666667],[-107.05722222222222,38.452222222222225],[-106.69722222222222,38.43444444444444],[-106.69722222222222,38.43444444444444],[-106.69722222222222,38.43444444444444],[-106.51666666666667,38.42472222222222],[-106.51666666666667,38.42472222222222],[-105.95777777777778,38.39388888888889],[-105.95777777777778,38.39388888888889],[-105.60638888888889,38.37277777777778],[-105.60638888888889,38.37277777777778],[-105.60638888888889,38.37277777777778],[-105.60638888888889,38.37277777777778],[-105.24833333333333,38.35],[-105.24833333333333,38.35],[-105.06583333333333,38.338055555555556],[-104.70027777777779,38.31333333333333],[-104.70027777777779,38.31333333333333],[-104.70027777777779,38.31333333333333],[-104.16277777777778,38.28111111111111],[-104.16277777777778,38.28111111111111],[-103.80749999999999,38.26277777777778],[-103.45416666666667,38.24305555555556],[-103.45416666666667,38.24305555555556],[-103.27555555555556,38.23305555555556],[-103.27555555555556,38.23305555555556],[-103.27555555555556,38.23305555555556],[-103.10055555555554,38.222500000000004],[-102.74888888888889,38.200833333333335],[-102.57444444444444,38.18222222222222],[-102.57444444444444,38.18222222222222],[-102.57444444444444,38.18222222222222],[-102.4,38.15861111111111],[-102.22444444444444,38.13472222222222],[-102.22444444444444,38.13472222222222],[-102.04805555555555,38.11027777777778],[-102.04805555555555,38.11027777777778],[-102.04805555555555,38.11027777777778],[-101.87416666666665,38.08583333333333],[-101.87416666666665,38.08583333333333],[-100.99805555555555,37.959722222222226],[-100.99805555555555,37.959722222222226],[-100.86083333333333,37.939166666666665],[-100.86083333333333,37.939166666666665],[-100.86083333333333,37.939166666666665],[-100.86083333333333,37.939166666666665],[-100.86083333333333,37.939166666666665],[-100.51222222222222,37.879444444444445],[-100.51222222222222,37.879444444444445],[-100.00472222222223,37.78333333333333],[-100.00472222222223,37.78333333333333],[-100.00472222222223,37.78333333333333],[-100.00472222222223,37.78333333333333],[-99.83555555555554,37.75083333333333],[-99.83555555555554,37.75083333333333],[-99.66472222222222,37.717777777777776],[-99.66472222222222,37.717777777777776],[-99.66472222222222,37.717777777777776],[-99.66472222222222,37.717777777777776],[-99.32833333333333,37.651666666666664],[-99.32833333333333,37.651666666666664],[-99.32833333333333,37.651666666666664],[-98.98666666666666,37.583333333333336],[-98.98666666666666,37.583333333333336],[-98.98666666666666,37.583333333333336],[-98.64250000000001,37.51361111111111],[-98.64250000000001,37.51361111111111],[-98.64250000000001,37.51361111111111],[-98.46972222222223,37.47805555555556],[-98.46972222222223,37.47805555555556],[-98.46972222222223,37.47805555555556],[-98.12333333333332,37.40611111111111],[-98.12333333333332,37.40611111111111],[-98.12333333333332,37.40611111111111],[-98.12333333333332,37.40611111111111],[-97.42972222222222,37.25861111111111],[-97.42972222222222,37.25861111111111],[-97.42972222222222,37.25861111111111],[-97.26222222222222,37.22],[-97.26222222222222,37.22],[-97.26222222222222,37.22],[-97.08638888888889,37.183611111111105],[-97.08638888888889,37.183611111111105],[-97.08638888888889,37.183611111111105],[-97.08638888888889,37.183611111111105],[-96.70805555555556,37.1],[-96.70805555555556,37.1],[-96.56888888888888,37.06888888888889],[-96.53444444444445,37.06083333333333],[-96.53444444444445,37.06083333333333],[-96.36055555555555,37.02166666666667],[-96.36055555555555,37.02166666666667],[-96.2213888888889,36.989444444444445],[-96.18694444444445,36.98222222222223],[-96.18694444444445,36.98222222222223],[-96.04888888888888,36.95111111111111],[-96.04888888888888,36.95111111111111],[-96.05027777777778,36.95055555555556],[-96.05027777777778,36.95055555555556],[-95.87888888888888,36.90472222222222],[-95.87888888888888,36.90472222222222],[-95.53888888888889,36.80611111111111],[-95.53888888888889,36.80611111111111],[-95.36916666666666,36.75611111111111],[-95.36916666666666,36.75611111111111],[-95.36916666666666,36.75611111111111],[-95.36916666666666,36.75611111111111],[-95.20166666666667,36.706944444444446],[-95.20166666666667,36.706944444444446],[-95.06555555555555,36.66638888888889],[-95.06555555555555,36.66638888888889],[-95.06555555555555,36.66638888888889],[-94.69,36.55416666666667],[-94.69,36.55416666666667],[-94.5225,36.50361111111111],[-94.5225,36.50361111111111],[-94.5225,36.50361111111111],[-94.38722222222223,36.462500000000006],[-94.38722222222223,36.462500000000006],[-94.18444444444445,36.400555555555556],[-94.04666666666667,36.35805555555556],[-94.04666666666667,36.35805555555556],[-93.88194444444444,36.30722222222222],[-93.88194444444444,36.30722222222222],[-93.71222222222222,36.254444444444445],[-93.71222222222222,36.254444444444445],[-93.68027777777779,36.24444444444445],[-93.68027777777779,36.24444444444445],[-93.54416666666667,36.20194444444445],[-93.51055555555556,36.19138888888889],[-93.51055555555556,36.19138888888889],[-93.37416666666665,36.14833333333333],[-93.33888888888889,36.13722222222222],[-93.20611111111111,36.09527777777778],[-93.20611111111111,36.09527777777778],[-93.20611111111111,36.09527777777778],[-93.20611111111111,36.09527777777778],[-93.00305555555556,36.03055555555555],[-93.00305555555556,36.03055555555555],[-93.00305555555556,36.03055555555555],[-92.35472222222222,35.821111111111115],[-92.35472222222222,35.821111111111115],[-92.35472222222222,35.821111111111115],[-92.18583333333333,35.76583333333333],[-92.18583333333333,35.76583333333333],[-92.01861111111111,35.71055555555556],[-92.01861111111111,35.71055555555556],[-92.01861111111111,35.71055555555556],[-91.51472222222222,35.54277777777778],[-91.51472222222222,35.54277777777778],[-91.51472222222222,35.54277777777778],[-91.51472222222222,35.54277777777778],[-91.51472222222222,35.54277777777778],[-91.11722222222221,35.408055555555556],[-91.11722222222221,35.408055555555556],[-91.00722222222223,35.37083333333334],[-91.00722222222223,35.37083333333334],[-90.61666666666666,35.23694444444445],[-90.61666666666666,35.23694444444445],[-90.61666666666666,35.23694444444445],[-90.45027777777779,35.17972222222222],[-90.45027777777779,35.17972222222222],[-90.45027777777779,35.17972222222222],[-89.94805555555556,35.01027777777778],[-89.83166666666666,34.993611111111115],[-89.83166666666666,34.993611111111115],[-89.83166666666666,34.993611111111115],[-89.56805555555555,34.95777777777778],[-89.47666666666667,34.94361111111111],[-89.39361111111111,34.93416666666666],[-89.39361111111111,34.93416666666666],[-89.39361111111111,34.93416666666666],[-89.3025,34.91888888888889],[-89.22111111111111,34.908055555555556],[-89.22111111111111,34.908055555555556],[-89.22111111111111,34.908055555555556],[-89.0475,34.882777777777775],[-89.0475,34.882777777777775],[-88.95555555555556,34.86805555555556],[-88.70222222222222,34.831388888888895],[-88.70222222222222,34.831388888888895],[-88.70222222222222,34.831388888888895],[-88.12638888888888,34.7425],[-88.12638888888888,34.7425],[-87.85388888888889,34.69972222222222],[-87.85388888888889,34.69972222222222],[-87.78527777777778,34.68888888888888],[-87.78527777777778,34.68888888888888],[-87.78527777777778,34.68888888888888],[-87.61611111111111,34.66222222222222],[-87.61611111111111,34.66222222222222],[-87.61611111111111,34.66222222222222],[-87.44638888888889,34.635],[-87.44638888888889,34.635],[-87.20777777777778,34.59166666666667],[-87.20777777777778,34.59166666666667],[-87.20777777777778,34.59166666666667],[-87.00527777777778,34.55472222222222],[-86.66777777777779,34.473888888888894],[-86.66777777777779,34.473888888888894],[-86.26055555555556,34.36611111111111],[-86.26055555555556,34.36611111111111],[-86.26055555555556,34.36611111111111],[-86.09305555555555,34.32194444444445],[-85.99222222222222,34.295833333333334],[-85.99222222222222,34.295833333333334],[-85.92472222222223,34.278055555555554],[-85.92472222222223,34.278055555555554],[-85.92472222222223,34.278055555555554],[-85.38333333333334,34.13333333333333],[-85.38333333333334,34.13333333333333],[-85.38333333333334,34.13333333333333],[-85.38333333333334,34.13333333333333],[-85.37277777777777,34.13333333333333],[-85.37277777777777,34.13333333333333],[-84.97833333333334,33.99333333333333],[-84.76583333333333,33.85305555555556],[-84.76583333333333,33.85305555555556],[-84.76583333333333,33.85305555555556],[-84.61666666666666,33.75],[-84.61666666666666,33.75],[-84.49333333333334,33.73277777777778],[-84.49333333333334,33.73277777777778],[-84.49333333333334,33.73277777777778],[-84.49333333333334,33.73277777777778],[-84.32972222222222,33.73277777777778],[-84.25333333333333,33.73305555555556],[-84.18055555555556,33.725],[-84.18055555555556,33.725],[-84.18055555555556,33.725],[-84.16666666666667,33.68333333333333],[-84.16666666666667,33.68333333333333],[-84.16666666666667,33.68333333333333],[-84.16666666666667,33.68333333333333],[-84.21666666666667,33.65],[-84.23055555555555,33.650555555555556],[-84.23055555555555,33.650555555555556],[-84.31666666666666,33.65],[-84.31666666666666,33.65],[-84.38527777777779,33.64944444444444]],"type":"LineString"}
}
