{
  "id": 2014840655,
  "type": "Feature",
  "properties": {
    "geom:area": 0,
    "geom:bbox": "-123.475130,37.295930,-122.099310,37.612560",
    "geom:latitude": 37.38581925173094,
    "geom:longitude": -122.68121416868786,
    "src:alt_label": "swim-approach",
    "src:geom": "swim",
    "swim:elevations": [
      5167,
      4853,
      4629,
      4416,
      4185,
      4028,
      3846,
      3487,
      3368,
      3115,
      3091,
      3048,
      3048,
      3048,
      3048,
      3048,
      3018,
      2661,
      2524,
      2399,
      2245,
      2196,
      1944,
      1827,
      1725,
      1647,
      1432,
      1252,
      1219,
      1219,
      1186,
      1064,
      1070,
      1007,
      1000,
      852,
      698,
      501,
      399,
      337,
      272,
      246,
      58,
      0
    ],
    "swim:geom": "approach",
    "swim:timestamps": [
      1771622362,
      1771622394,
      1771622416,
      1771622439,
      1771622465,
      1771622480,
      1771622499,
      1771622544,
      1771622560,
      1771622602,
      1771622610,
      1771622641,
      1771622650,
      1771622689,
      1771622700,
      1771622746,
      1771622766,
      1771622814,
      1771622838,
      1771622854,
      1771622878,
      1771622885,
      1771622923,
      1771622955,
      1771622994,
      1771623005,
      1771623031,
      1771623051,
      1771623075,
      1771623107,
      1771623134,
      1771623178,
      1771623183,
      1771623207,
      1771623215,
      1771623258,
      1771623288,
      1771623326,
      1771623357,
      1771623371,
      1771623386,
      1771623393,
      1771623447,
      1771623459
    ],
    "wof:geomhash": "ebe7cfae7f77509391511581ba4feef1",
    "wof:id": 2014840655,
    "wof:repo": "sfomuseum-data-flights-2026-02"
  },
  "bbox": [
    -123.47513,
    37.29593,
    -122.09931,
    37.61256
  ],
  "geometry": {"coordinates":[[-123.47513,37.35891],[-123.39981,37.34645],[-123.34911,37.33819],[-123.29666,37.3295],[-123.2406,37.3203],[-123.20782,37.31488],[-123.16501,37.30785],[-123.07087,37.29593],[-123.03479,37.29703],[-122.94792,37.30774],[-122.93078,37.3099],[-122.8651,37.3183],[-122.84602,37.32081],[-122.76331,37.33145],[-122.74003,37.33445],[-122.64943,37.34612],[-122.61432,37.35069],[-122.53341,37.36105],[-122.49405,37.36578],[-122.46883,37.36892],[-122.42962,37.37368],[-122.41775,37.37524],[-122.35804,37.38303],[-122.30825,37.38915],[-122.24885,37.40086],[-122.23284,37.40662],[-122.19951,37.42064],[-122.17526,37.43104],[-122.14806,37.44286],[-122.11467,37.45753],[-122.09931,37.47689],[-122.12363,37.51047],[-122.12779,37.51337],[-122.15059,37.52414],[-122.15799,37.52722],[-122.20018,37.54519],[-122.22862,37.55724],[-122.26444,37.57217],[-122.2882,37.58222],[-122.29837,37.58654],[-122.30944,37.59112],[-122.31461,37.59325],[-122.3525,37.60924],[-122.36087,37.61256]],"type":"LineString"}
}
