{
  "id": 2014856591,
  "type": "Feature",
  "properties": {
    "geom:area": 0,
    "geom:bbox": "-122.380000,35.700000,-78.790000,39.500000",
    "geom:latitude": 38.27145345305403,
    "geom:longitude": -100.36902009130331,
    "src:alt_label": "swim-route",
    "src:geom": "swim",
    "swim:geom": "route",
    "wof:geomhash": "12ad542aebf5720ba45c7ffe026bf1d0",
    "wof:id": 2014856591,
    "wof:repo": "sfomuseum-data-flights-2026-02"
  },
  "bbox": [
    -122.38,
    35.7,
    -78.79,
    39.5
  ],
  "geometry": {"coordinates":[[-78.79,35.88],[-79.3,35.84],[-79.45,35.82],[-79.51,35.82],[-79.53,35.82],[-79.65,35.8],[-79.77,35.78],[-79.79,35.77],[-79.93,35.75],[-80.03,35.74],[-80.06,35.74],[-80.07,35.74],[-80.08,35.74],[-80.14,35.72],[-80.16,35.71],[-80.19,35.7],[-80.27,35.75],[-80.33,35.77],[-80.34,35.78],[-80.41,35.81],[-80.48,35.85],[-80.91,36.06],[-81.12,36.16],[-81.34,36.27],[-81.51,36.35],[-81.67,36.42],[-82.22,36.68],[-82.41,36.78],[-82.61,36.88],[-83.02,37.06],[-83.42,37.24],[-83.71,37.37],[-84,37.5],[-84.07,37.53],[-84.31,37.63],[-85.02,37.94],[-85.3,38.06],[-85.59,38.19],[-85.8,38.26],[-86.1,38.36],[-86.4,38.47],[-86.63,38.55],[-86.8,38.6],[-87.05,38.69],[-87.81,38.94],[-88,39],[-88.12,39.03],[-88.35,39.08],[-88.59,39.13],[-88.95,39.21],[-89.52,39.34],[-89.78,39.39],[-90.13,39.41],[-91.22,39.44],[-92.22,39.47],[-93.89,39.5],[-94,39.5],[-95,39.5],[-95.34,39.5],[-95.97,39.5],[-96,39.5],[-96.22,39.47],[-97.44,39.32],[-98.17,39.23],[-98.39,39.2],[-98.62,39.16],[-98.91,39.12],[-99,39.11],[-99.45,39.02],[-99.84,38.95],[-101.37,38.59],[-101.69,38.57],[-101.86,38.33],[-102.54,38.26],[-103.56,38.25],[-106.07,38.07],[-107.29,37.97],[-109.04,38.1],[-110.09,38.16],[-111.62,38.23],[-112.13,38.25],[-113.43,38.3],[-113.95,38.31],[-114.35,38.54],[-114.89,38.51],[-115.42,38.4],[-115.68,38.36],[-115.86,38.34],[-117.27,38.13],[-117.47,38.12],[-117.89,38.05],[-118.21,37.99],[-118.59,37.93],[-118.76,37.9],[-119.1,37.86],[-119.28,37.84],[-119.89,37.76],[-119.99,37.75],[-120.04,37.74],[-120.26,37.72],[-120.28,37.72],[-120.38,37.7],[-120.4,37.7],[-120.75,37.66],[-120.78,37.66],[-120.83,37.65],[-120.96,37.63],[-121,37.63],[-121.08,37.62],[-121.18,37.6],[-121.26,37.59],[-121.39,37.58],[-121.41,37.58],[-121.6,37.55],[-121.61,37.55],[-121.62,37.55],[-121.7,37.53],[-121.8,37.51],[-121.83,37.5],[-121.88,37.49],[-122.08,37.54],[-122.14,37.56],[-122.18,37.57],[-122.28,37.59],[-122.33,37.61],[-122.36,37.61],[-122.38,37.62]],"type":"LineString"}
}
