{
  "id": 2014746173,
  "type": "Feature",
  "properties": {
    "geom:area": 0,
    "geom:bbox": "-122.351050,37.640230,-121.247500,37.964180",
    "geom:latitude": 37.84107443975331,
    "geom:longitude": -121.8128487077794,
    "src:alt_label": "swim-takeoff",
    "src:geom": "swim",
    "swim:elevations": [
      457,
      923,
      1059,
      1424,
      1746,
      2216,
      2639,
      2921,
      3356,
      3631,
      3684,
      4372,
      4856,
      5131,
      5472,
      5684,
      5949,
      6185,
      6493,
      6927,
      7020
    ],
    "swim:geom": "takeoff",
    "swim:timestamps": [
      1770556012,
      1770556048,
      1770556064,
      1770556101,
      1770556128,
      1770556161,
      1770556189,
      1770556207,
      1770556253,
      1770556288,
      1770556291,
      1770556339,
      1770556377,
      1770556397,
      1770556425,
      1770556462,
      1770556495,
      1770556517,
      1770556545,
      1770556582,
      1770556591
    ],
    "wof:geomhash": "c60cead62aceca1a88f94bd4518741b9",
    "wof:id": 2014746173,
    "wof:repo": "sfomuseum-data-flights-2026-02"
  },
  "bbox": [
    -122.35105,
    37.64023,
    -121.2475,
    37.96418
  ],
  "geometry": {"coordinates":[[-122.35105,37.64023],[-122.32104,37.65873],[-122.3056,37.66787],[-122.26556,37.69148],[-122.2313,37.70907],[-122.1852,37.73244],[-122.14486,37.75307],[-122.11825,37.76684],[-122.04719,37.80315],[-121.97923,37.83018],[-121.97285,37.8317],[-121.86851,37.85147],[-121.78108,37.86731],[-121.73519,37.87585],[-121.66993,37.88753],[-121.58167,37.90335],[-121.49744,37.91901],[-121.43994,37.92985],[-121.36861,37.94286],[-121.27077,37.9602],[-121.2475,37.96418]],"type":"LineString"}
}
