{
  "id": 2014809725,
  "type": "Feature",
  "properties": {
    "geom:area": 0,
    "geom:bbox": "-122.385556,37.678056,-73.595278,44.401944",
    "geom:latitude": 42.46619958204591,
    "geom:longitude": -98.06447605318343,
    "src:alt_label": "swim-path",
    "src:geom": "swim",
    "swim:altitudes": [
      "023",
      "023",
      "023",
      "023",
      "023",
      "101",
      "115",
      "115",
      "115",
      "137",
      "137",
      "150",
      "186",
      "186",
      "186",
      "186",
      "201",
      "201",
      "201",
      "255",
      "255",
      "255",
      "255",
      "255",
      "265",
      "265",
      "265",
      "265",
      "265",
      "302",
      "302",
      "309C",
      "309C",
      "309C",
      "309C",
      "309C",
      "310C",
      "310C",
      "310C",
      "310C",
      "310C",
      "310C",
      "310C",
      "310C",
      "310C",
      "310C",
      "310C",
      "310C",
      "310C",
      "310C",
      "310C",
      "310C",
      "310C",
      "310C",
      "310C",
      "310C",
      "310C",
      "310C",
      "310C",
      "310C",
      "310C",
      "310C",
      "310C",
      "310C",
      "310C",
      "310C",
      "310C",
      "310C",
      "310C",
      "310C",
      "310C",
      "310C",
      "310C",
      "310C",
      "310C",
      "310C",
      "310C",
      "310C",
      "310C",
      "310",
      "310",
      "314",
      "314",
      "316",
      "316",
      "319",
      "330C",
      "330C",
      "330C",
      "330C",
      "330C",
      "330C",
      "330C",
      "330C",
      "330C",
      "330C",
      "330C",
      "330C",
      "330C",
      "330C",
      "330C",
      "330C",
      "330C",
      "330C",
      "330C",
      "330C",
      "330C",
      "330C",
      "330C",
      "330C",
      "330C",
      "330C",
      "330C",
      "330C",
      "330C",
      "330C",
      "330C",
      "330C",
      "330C",
      "330C",
      "330C",
      "330C",
      "330C",
      "330C",
      "330C",
      "330C",
      "330C",
      "330C",
      "330C",
      "330C",
      "330C",
      "330C",
      "330C",
      "330C",
      "330C",
      "330C",
      "330C",
      "330C",
      "330C",
      "330C",
      "330C",
      "330C",
      "330C",
      "330C",
      "330C",
      "330C",
      "330C",
      "330C",
      "330C",
      "330C",
      "330C",
      "330C",
      "330C",
      "330C",
      "330C",
      "330C",
      "330C",
      "330C",
      "346",
      "346",
      "346",
      "346",
      "346",
      "346",
      "346",
      "350C",
      "350C",
      "350C",
      "350C",
      "350C",
      "350C",
      "350C",
      "350C",
      "350C",
      "350C",
      "350C",
      "350C",
      "350C",
      "350C",
      "350C",
      "350C",
      "350C",
      "350C",
      "350C",
      "350C",
      "350C",
      "350C",
      "350C",
      "350C",
      "350C",
      "350C",
      "350C",
      "350C",
      "350C",
      "350C",
      "350C",
      "350C",
      "350C",
      "350C",
      "350C",
      "350C",
      "350C",
      "350C",
      "350C",
      "350C",
      "350C",
      "350C",
      "350C",
      "350C",
      "350C",
      "350C",
      "350C",
      "350C",
      "350C",
      "350C",
      "350C",
      "350C",
      "350C",
      "350C",
      "350C",
      "350C",
      "350C",
      "350C",
      "350C",
      "350C",
      "350C",
      "350C",
      "350C",
      "350C",
      "350C",
      "350C",
      "350C",
      "350C",
      "350C",
      "350C",
      "350C",
      "350C",
      "350C",
      "350C",
      "350C",
      "350C",
      "350C",
      "350C",
      "350C",
      "350C",
      "350C",
      "350C",
      "350C",
      "350C",
      "350C",
      "350C",
      "350C",
      "350C",
      "350C",
      "350C",
      "350C",
      "350C",
      "350C",
      "350C",
      "350C",
      "350C",
      "350C",
      "350C",
      "350C",
      "350C",
      "350C",
      "350C",
      "350C",
      "350C",
      "350C",
      "350C",
      "350C",
      "350C",
      "350C",
      "350C",
      "350C",
      "350C",
      "350C",
      "350C",
      "350C",
      "350C",
      "350C",
      "350C",
      "350C",
      "350C",
      "350C",
      "350C",
      "350C",
      "350C",
      "350C",
      "350C",
      "363",
      "363",
      "363",
      "363",
      "363",
      "370C",
      "370C",
      "370C",
      "370C",
      "370C",
      "370C",
      "370C",
      "370C",
      "370C",
      "370C",
      "370C",
      "370C",
      "370C",
      "370C",
      "370C",
      "370C",
      "370C",
      "370C",
      "370C",
      "370C",
      "370C",
      "370C",
      "370C",
      "370C",
      "370C",
      "370C",
      "370C",
      "370C",
      "370C",
      "370C",
      "370C",
      "370C",
      "370C",
      "370C",
      "370C",
      "370C",
      "370C",
      "370C",
      "370C",
      "370C",
      "370C",
      "370C",
      "370C",
      "370C",
      "370C",
      "370C",
      "370C",
      "370C",
      "370C",
      "370C",
      "370C",
      "370C",
      "370C",
      "370C",
      "370C",
      "370C",
      "370C",
      "370C",
      "370C",
      "370C",
      "370C",
      "370C",
      "370C",
      "370C",
      "370C",
      "370C",
      "370C",
      "370C",
      "370C",
      "370C",
      "370C",
      "370C",
      "370C",
      "370C",
      "370C",
      "370C",
      "370C",
      "370C",
      "370C",
      "370C",
      "370C",
      "370C",
      "370C",
      "370C",
      "370C",
      "370C",
      "370C",
      "370C",
      "370C",
      "370C",
      "370C",
      "370C",
      "370C",
      "370C",
      "370C",
      "370C",
      "370C",
      "370C",
      "370C",
      "370C",
      "370C",
      "370C",
      "370C",
      "370C",
      "370C",
      "370C",
      "370C",
      "370C",
      "370C",
      "370C",
      "370C",
      "370C",
      "370C",
      "370C",
      "370C",
      "370C",
      "370C",
      "370C",
      "370C",
      "370C",
      "370C",
      "370C",
      "370C",
      "370C",
      "370C",
      "370C",
      "370C",
      "370C",
      "370C",
      "370C",
      "370C",
      "370C",
      "370C",
      "370C",
      "370C",
      "370C",
      "370C",
      "370C",
      "370C",
      "370C",
      "370C",
      "370C",
      "370C",
      "370C",
      "370C",
      "370C",
      "370C",
      "370C",
      "370C",
      "370C",
      "370C",
      "370C",
      "370C",
      "370C",
      "370C",
      "370C",
      "370C",
      "370C",
      "370C",
      "370C",
      "370C",
      "370C",
      "370C",
      "370C",
      "370C",
      "370C",
      "370C",
      "370C",
      "370C",
      "370C",
      "370C",
      "370C",
      "370C",
      "370C",
      "370C",
      "370C",
      "370C",
      "370C",
      "370C",
      "370C",
      "370C",
      "370C",
      "370C",
      "370C",
      "370C",
      "370C",
      "370C",
      "370C",
      "370C",
      "370C",
      "370C",
      "370C",
      "370C",
      "370C",
      "370C",
      "370C",
      "370C",
      "370C",
      "370C",
      "370C",
      "370C",
      "370C",
      "370C",
      "370C",
      "370C",
      "370C",
      "370C",
      "370C",
      "370C",
      "370C",
      "370C",
      "370C",
      "370C",
      "370C",
      "370C",
      "370C",
      "370C",
      "370C",
      "370C",
      "370C",
      "370C",
      "370C",
      "370C",
      "370C",
      "370C",
      "370C",
      "370C",
      "370C",
      "370C",
      "370C",
      "370C",
      "370C",
      "370C",
      "370C",
      "370C",
      "370C",
      "370C",
      "370C",
      "370C",
      "370C",
      "370C",
      "370C",
      "370C",
      "370C",
      "370C",
      "370C",
      "370C",
      "370C",
      "370C",
      "370C",
      "370C",
      "370C",
      "370C",
      "370C",
      "370C",
      "370C",
      "370C",
      "370C",
      "370C",
      "370C",
      "370C",
      "370C",
      "370C",
      "341",
      "313",
      "313",
      "313",
      "313",
      "298",
      "298",
      "298",
      "298",
      "244",
      "244",
      "230C",
      "230C",
      "230C",
      "230C",
      "230C",
      "230",
      "230",
      "230",
      "230",
      "230",
      "230",
      "230",
      "217",
      "217",
      "217",
      "217",
      "217",
      "197",
      "197",
      "197",
      "197",
      "197",
      "192C",
      "192C",
      "192C",
      "192C",
      "192C",
      "174",
      "174",
      "174",
      "169",
      "169",
      "169",
      "090",
      "090",
      "090",
      "090",
      "090",
      "067",
      "067",
      "067",
      "067",
      "050",
      "050",
      "050",
      "050",
      "040",
      "040",
      "040",
      "031",
      "031",
      "031",
      "020",
      "020",
      "019",
      "019",
      "019",
      "019",
      "019",
      "020",
      "020",
      "020",
      "020",
      "020",
      "020",
      "020",
      "017",
      "017",
      "017",
      "017"
    ],
    "swim:geom": "path",
    "swim:speeds": [
      231,
      231,
      231,
      231,
      231,
      285,
      327,
      327,
      327,
      334,
      334,
      367,
      401,
      401,
      401,
      401,
      411,
      411,
      411,
      450,
      450,
      450,
      450,
      450,
      465,
      465,
      465,
      465,
      465,
      498,
      498,
      504,
      504,
      504,
      504,
      504,
      521,
      521,
      519,
      519,
      519,
      523,
      523,
      523,
      522,
      524,
      524,
      524,
      523,
      532,
      537,
      537,
      537,
      537,
      537,
      537,
      537,
      537,
      537,
      537,
      529,
      529,
      529,
      529,
      529,
      529,
      529,
      531,
      531,
      531,
      531,
      531,
      531,
      531,
      531,
      531,
      531,
      530,
      529,
      529,
      529,
      532,
      532,
      538,
      538,
      545,
      547,
      547,
      547,
      547,
      547,
      547,
      547,
      547,
      546,
      547,
      547,
      547,
      547,
      547,
      547,
      548,
      548,
      548,
      548,
      548,
      548,
      548,
      545,
      545,
      545,
      545,
      545,
      545,
      545,
      545,
      545,
      551,
      551,
      551,
      551,
      551,
      551,
      551,
      551,
      551,
      551,
      551,
      551,
      551,
      551,
      550,
      550,
      550,
      550,
      550,
      550,
      550,
      550,
      550,
      550,
      550,
      551,
      551,
      552,
      552,
      552,
      552,
      552,
      552,
      552,
      553,
      553,
      553,
      553,
      553,
      553,
      553,
      557,
      557,
      557,
      557,
      557,
      557,
      557,
      560,
      560,
      560,
      560,
      560,
      560,
      563,
      563,
      563,
      563,
      563,
      562,
      562,
      563,
      563,
      563,
      563,
      563,
      563,
      564,
      564,
      565,
      565,
      565,
      564,
      565,
      565,
      568,
      568,
      568,
      568,
      568,
      567,
      567,
      565,
      565,
      565,
      563,
      563,
      560,
      560,
      560,
      560,
      560,
      560,
      567,
      567,
      567,
      567,
      567,
      567,
      567,
      567,
      568,
      568,
      568,
      568,
      570,
      571,
      571,
      571,
      571,
      571,
      568,
      568,
      568,
      568,
      568,
      572,
      574,
      574,
      574,
      574,
      574,
      574,
      576,
      576,
      576,
      577,
      577,
      577,
      577,
      577,
      577,
      576,
      576,
      576,
      576,
      576,
      576,
      576,
      576,
      576,
      576,
      573,
      573,
      573,
      573,
      573,
      573,
      572,
      572,
      572,
      572,
      572,
      572,
      572,
      572,
      572,
      573,
      573,
      573,
      573,
      573,
      573,
      573,
      573,
      573,
      573,
      571,
      571,
      571,
      571,
      571,
      571,
      571,
      572,
      572,
      572,
      572,
      572,
      571,
      571,
      571,
      571,
      571,
      568,
      568,
      568,
      568,
      568,
      568,
      568,
      568,
      566,
      566,
      565,
      565,
      565,
      561,
      561,
      561,
      561,
      561,
      561,
      561,
      561,
      561,
      561,
      561,
      561,
      565,
      565,
      565,
      565,
      565,
      565,
      565,
      565,
      565,
      565,
      565,
      565,
      565,
      565,
      565,
      565,
      565,
      565,
      565,
      566,
      566,
      566,
      566,
      566,
      566,
      566,
      566,
      566,
      566,
      566,
      566,
      566,
      566,
      566,
      566,
      565,
      565,
      565,
      561,
      561,
      561,
      560,
      560,
      560,
      560,
      560,
      560,
      560,
      559,
      559,
      559,
      559,
      559,
      559,
      560,
      560,
      560,
      560,
      561,
      561,
      561,
      561,
      561,
      561,
      561,
      561,
      561,
      562,
      562,
      562,
      562,
      562,
      562,
      562,
      562,
      562,
      562,
      562,
      562,
      562,
      560,
      560,
      560,
      560,
      560,
      559,
      559,
      556,
      556,
      556,
      556,
      557,
      557,
      557,
      557,
      556,
      556,
      556,
      556,
      556,
      556,
      555,
      555,
      555,
      555,
      555,
      556,
      556,
      556,
      556,
      556,
      556,
      556,
      553,
      553,
      553,
      554,
      554,
      554,
      554,
      554,
      554,
      554,
      554,
      554,
      553,
      553,
      553,
      553,
      553,
      553,
      551,
      551,
      551,
      550,
      550,
      550,
      548,
      548,
      548,
      548,
      547,
      547,
      547,
      547,
      547,
      547,
      547,
      543,
      543,
      543,
      543,
      542,
      542,
      542,
      542,
      542,
      541,
      541,
      541,
      541,
      541,
      542,
      542,
      542,
      542,
      542,
      542,
      543,
      543,
      543,
      543,
      543,
      544,
      544,
      544,
      543,
      543,
      543,
      543,
      543,
      543,
      543,
      543,
      532,
      532,
      532,
      532,
      532,
      532,
      532,
      532,
      532,
      532,
      532,
      532,
      527,
      527,
      527,
      527,
      527,
      527,
      527,
      523,
      523,
      523,
      523,
      521,
      521,
      521,
      521,
      521,
      521,
      521,
      521,
      521,
      521,
      521,
      521,
      521,
      521,
      521,
      521,
      521,
      524,
      524,
      525,
      525,
      525,
      525,
      525,
      527,
      527,
      530,
      531,
      531,
      531,
      531,
      517,
      517,
      517,
      517,
      508,
      508,
      473,
      473,
      473,
      473,
      473,
      463,
      463,
      463,
      463,
      463,
      463,
      463,
      451,
      451,
      451,
      451,
      451,
      431,
      431,
      431,
      431,
      431,
      382,
      382,
      382,
      382,
      382,
      365,
      365,
      365,
      362,
      362,
      362,
      308,
      308,
      308,
      308,
      308,
      291,
      291,
      291,
      291,
      269,
      269,
      269,
      269,
      266,
      266,
      266,
      260,
      260,
      260,
      199,
      199,
      200,
      200,
      200,
      200,
      200,
      172,
      172,
      172,
      172,
      172,
      172,
      172,
      171,
      171,
      171,
      171
    ],
    "swim:timestamps": [
      1771252807,
      1771252807,
      1771252807,
      1771252807,
      1771252807,
      1771252987,
      1771253047,
      1771253047,
      1771253047,
      1771253107,
      1771253107,
      1771253168,
      1771253288,
      1771253288,
      1771253288,
      1771253288,
      1771253348,
      1771253348,
      1771253348,
      1771253588,
      1771253588,
      1771253588,
      1771253588,
      1771253588,
      1771253648,
      1771253648,
      1771253648,
      1771253648,
      1771253648,
      1771253888,
      1771253888,
      1771253965,
      1771253965,
      1771253965,
      1771253965,
      1771253965,
      1771254008,
      1771254008,
      1771254025,
      1771254025,
      1771254025,
      1771254068,
      1771254068,
      1771254068,
      1771254085,
      1771254188,
      1771254188,
      1771254188,
      1771254205,
      1771254248,
      1771254308,
      1771254308,
      1771254325,
      1771254325,
      1771254505,
      1771254505,
      1771254505,
      1771254505,
      1771254505,
      1771254505,
      1771254669,
      1771254669,
      1771254669,
      1771254669,
      1771254669,
      1771254669,
      1771254669,
      1771254866,
      1771254866,
      1771254866,
      1771254866,
      1771254866,
      1771254909,
      1771254909,
      1771254909,
      1771254926,
      1771254926,
      1771254969,
      1771255089,
      1771255149,
      1771255149,
      1771255209,
      1771255209,
      1771255226,
      1771255226,
      1771255269,
      1771255887,
      1771255887,
      1771255887,
      1771255887,
      1771255887,
      1771255887,
      1771255887,
      1771255887,
      1771256067,
      1771256127,
      1771256127,
      1771256127,
      1771256127,
      1771256127,
      1771256127,
      1771256248,
      1771256248,
      1771256248,
      1771256248,
      1771256248,
      1771256248,
      1771256248,
      1771256548,
      1771256548,
      1771256548,
      1771256548,
      1771256548,
      1771256548,
      1771256548,
      1771256548,
      1771256548,
      1771256848,
      1771256848,
      1771256848,
      1771256848,
      1771256848,
      1771256848,
      1771256848,
      1771256848,
      1771257029,
      1771257029,
      1771257029,
      1771257029,
      1771257029,
      1771257029,
      1771257149,
      1771257149,
      1771257149,
      1771257149,
      1771257209,
      1771257209,
      1771257209,
      1771257209,
      1771257209,
      1771257209,
      1771257209,
      1771257269,
      1771257269,
      1771257389,
      1771257389,
      1771257389,
      1771257389,
      1771257389,
      1771257389,
      1771257389,
      1771257449,
      1771257449,
      1771257449,
      1771257449,
      1771257449,
      1771257449,
      1771257449,
      1771257810,
      1771257810,
      1771257810,
      1771257810,
      1771257810,
      1771257810,
      1771257810,
      1771257930,
      1771257930,
      1771257930,
      1771257930,
      1771257930,
      1771257930,
      1771257977,
      1771258050,
      1771258050,
      1771258098,
      1771258098,
      1771258110,
      1771258110,
      1771258170,
      1771258170,
      1771258218,
      1771258218,
      1771258218,
      1771258230,
      1771258278,
      1771258278,
      1771258338,
      1771258338,
      1771258338,
      1771258351,
      1771258398,
      1771258398,
      1771258531,
      1771258531,
      1771258531,
      1771258578,
      1771258578,
      1771258591,
      1771258591,
      1771258638,
      1771258638,
      1771258638,
      1771258711,
      1771258711,
      1771258771,
      1771258771,
      1771258771,
      1771258819,
      1771258819,
      1771258819,
      1771259011,
      1771259011,
      1771259011,
      1771259072,
      1771259072,
      1771259132,
      1771259132,
      1771259132,
      1771259179,
      1771259179,
      1771259179,
      1771259179,
      1771259192,
      1771259312,
      1771259312,
      1771259312,
      1771259359,
      1771259359,
      1771259433,
      1771259433,
      1771259433,
      1771259433,
      1771259433,
      1771259600,
      1771259660,
      1771259660,
      1771259660,
      1771259660,
      1771259660,
      1771259660,
      1771259720,
      1771259720,
      1771259720,
      1771259840,
      1771259840,
      1771259840,
      1771259840,
      1771259840,
      1771259840,
      1771259960,
      1771259960,
      1771259960,
      1771259986,
      1771259986,
      1771259986,
      1771259986,
      1771260080,
      1771260080,
      1771260080,
      1771260227,
      1771260227,
      1771260227,
      1771260227,
      1771260227,
      1771260227,
      1771260347,
      1771260347,
      1771260347,
      1771260407,
      1771260407,
      1771260407,
      1771260407,
      1771260407,
      1771260407,
      1771260587,
      1771260587,
      1771260587,
      1771260587,
      1771260587,
      1771260647,
      1771260647,
      1771260647,
      1771260647,
      1771260647,
      1771260827,
      1771260827,
      1771260827,
      1771260827,
      1771260827,
      1771260827,
      1771260827,
      1771261008,
      1771261008,
      1771261008,
      1771261008,
      1771261008,
      1771261128,
      1771261128,
      1771261128,
      1771261128,
      1771261128,
      1771261308,
      1771261308,
      1771261368,
      1771261368,
      1771261368,
      1771261368,
      1771261368,
      1771261368,
      1771261488,
      1771261488,
      1771261548,
      1771261548,
      1771261548,
      1771261668,
      1771261668,
      1771261668,
      1771261668,
      1771261668,
      1771261729,
      1771261789,
      1771261789,
      1771261789,
      1771261789,
      1771261789,
      1771261789,
      1771262029,
      1771262029,
      1771262029,
      1771262029,
      1771262029,
      1771262149,
      1771262149,
      1771262149,
      1771262149,
      1771262149,
      1771262269,
      1771262269,
      1771262269,
      1771262301,
      1771262301,
      1771262301,
      1771262301,
      1771262301,
      1771262301,
      1771262389,
      1771262389,
      1771262389,
      1771262389,
      1771262450,
      1771262450,
      1771262450,
      1771262542,
      1771262542,
      1771262542,
      1771262542,
      1771262542,
      1771262542,
      1771262602,
      1771262602,
      1771262602,
      1771262690,
      1771262690,
      1771262690,
      1771262810,
      1771262810,
      1771262810,
      1771262842,
      1771262842,
      1771262842,
      1771262842,
      1771262842,
      1771262902,
      1771262902,
      1771262930,
      1771262930,
      1771262930,
      1771262962,
      1771262962,
      1771262962,
      1771262990,
      1771262990,
      1771262990,
      1771262990,
      1771263050,
      1771263050,
      1771263050,
      1771263050,
      1771263082,
      1771263171,
      1771263171,
      1771263171,
      1771263171,
      1771263203,
      1771263203,
      1771263203,
      1771263203,
      1771263231,
      1771263231,
      1771263231,
      1771263231,
      1771263231,
      1771263531,
      1771263531,
      1771263531,
      1771263531,
      1771263563,
      1771263563,
      1771263563,
      1771263563,
      1771263563,
      1771263623,
      1771263623,
      1771263651,
      1771263651,
      1771263651,
      1771263651,
      1771263743,
      1771263743,
      1771263743,
      1771263743,
      1771263803,
      1771263803,
      1771263803,
      1771263803,
      1771263803,
      1771263803,
      1771263891,
      1771263891,
      1771263891,
      1771263891,
      1771263891,
      1771264104,
      1771264104,
      1771264104,
      1771264104,
      1771264104,
      1771264104,
      1771264104,
      1771264284,
      1771264284,
      1771264284,
      1771264344,
      1771264344,
      1771264344,
      1771264344,
      1771264344,
      1771264344,
      1771264467,
      1771264467,
      1771264467,
      1771264524,
      1771264524,
      1771264524,
      1771264524,
      1771264524,
      1771264587,
      1771264645,
      1771264645,
      1771264645,
      1771264705,
      1771264705,
      1771264705,
      1771264767,
      1771264767,
      1771264767,
      1771264767,
      1771264827,
      1771264827,
      1771264827,
      1771264827,
      1771264827,
      1771264827,
      1771264827,
      1771265007,
      1771265007,
      1771265007,
      1771265007,
      1771265067,
      1771265067,
      1771265067,
      1771265067,
      1771265067,
      1771265128,
      1771265128,
      1771265128,
      1771265128,
      1771265128,
      1771265188,
      1771265188,
      1771265188,
      1771265188,
      1771265188,
      1771265188,
      1771265308,
      1771265308,
      1771265308,
      1771265308,
      1771265308,
      1771265428,
      1771265428,
      1771265428,
      1771265548,
      1771265548,
      1771265548,
      1771265548,
      1771265548,
      1771265548,
      1771265548,
      1771265548,
      1771265846,
      1771265846,
      1771265846,
      1771265846,
      1771265846,
      1771265846,
      1771265846,
      1771265909,
      1771265909,
      1771265909,
      1771265909,
      1771265909,
      1771266149,
      1771266149,
      1771266149,
      1771266149,
      1771266149,
      1771266149,
      1771266149,
      1771266326,
      1771266326,
      1771266326,
      1771266326,
      1771266390,
      1771266390,
      1771266390,
      1771266390,
      1771266446,
      1771266446,
      1771266446,
      1771266446,
      1771266446,
      1771266446,
      1771266687,
      1771266687,
      1771266687,
      1771266687,
      1771266687,
      1771266687,
      1771266687,
      1771267051,
      1771267051,
      1771267111,
      1771267111,
      1771267111,
      1771267111,
      1771267111,
      1771267168,
      1771267168,
      1771267291,
      1771267348,
      1771267348,
      1771267348,
      1771267348,
      1771267408,
      1771267408,
      1771267408,
      1771267408,
      1771267528,
      1771267528,
      1771267588,
      1771267588,
      1771267588,
      1771267588,
      1771267588,
      1771267768,
      1771267768,
      1771267768,
      1771267768,
      1771267768,
      1771267768,
      1771267768,
      1771267889,
      1771267889,
      1771267889,
      1771267889,
      1771267889,
      1771267949,
      1771267949,
      1771267949,
      1771267949,
      1771267949,
      1771268009,
      1771268009,
      1771268009,
      1771268009,
      1771268009,
      1771268104,
      1771268104,
      1771268104,
      1771268129,
      1771268129,
      1771268129,
      1771268404,
      1771268404,
      1771268404,
      1771268404,
      1771268404,
      1771268489,
      1771268489,
      1771268489,
      1771268489,
      1771268550,
      1771268550,
      1771268550,
      1771268550,
      1771268579,
      1771268579,
      1771268579,
      1771268610,
      1771268610,
      1771268610,
      1771268704,
      1771268704,
      1771268730,
      1771268730,
      1771268730,
      1771268730,
      1771268730,
      1771268910,
      1771268910,
      1771268910,
      1771268910,
      1771268910,
      1771268910,
      1771268910,
      1771269090,
      1771269090,
      1771269090,
      1771269090
    ],
    "wof:geomhash": "8bd35a792df593fad0440a85c935e801",
    "wof:id": 2014809725,
    "wof:repo": "sfomuseum-data-flights-2026-02"
  },
  "bbox": [
    -122.38555555555556,
    37.67805555555555,
    -73.59527777777777,
    44.401944444444446
  ],
  "geometry": {"coordinates":[[-122.31583333333333,37.67805555555555],[-122.31583333333333,37.67805555555555],[-122.31583333333333,37.67805555555555],[-122.31583333333333,37.67805555555555],[-122.31583333333333,37.67805555555555],[-122.38555555555556,37.89083333333333],[-122.34166666666667,37.96527777777778],[-122.34166666666667,37.96527777777778],[-122.34166666666667,37.96527777777778],[-122.24861111111112,38.02305555555555],[-122.24861111111112,38.02305555555555],[-122.14888888888889,38.08388888888889],[-121.93027777777779,38.21611111111111],[-121.93027777777779,38.21611111111111],[-121.93027777777779,38.21611111111111],[-121.93027777777779,38.21611111111111],[-121.81527777777778,38.285555555555554],[-121.81527777777778,38.285555555555554],[-121.81527777777778,38.285555555555554],[-121.32833333333333,38.58027777777778],[-121.32833333333333,38.58027777777778],[-121.32833333333333,38.58027777777778],[-121.32833333333333,38.58027777777778],[-121.32833333333333,38.58027777777778],[-121.19333333333334,38.66222222222222],[-121.19333333333334,38.66222222222222],[-121.19333333333334,38.66222222222222],[-121.19333333333334,38.66222222222222],[-121.19333333333334,38.66222222222222],[-120.64111111111112,38.994166666666665],[-120.64111111111112,38.994166666666665],[-120.45416666666667,39.10333333333333],[-120.45416666666667,39.10333333333333],[-120.45416666666667,39.10333333333333],[-120.45416666666667,39.10333333333333],[-120.45416666666667,39.10333333333333],[-120.34527777777777,39.169999999999995],[-120.34527777777777,39.169999999999995],[-120.30555555555556,39.19222222222222],[-120.30555555555556,39.19222222222222],[-120.30555555555556,39.19222222222222],[-120.19666666666667,39.257222222222225],[-120.19666666666667,39.257222222222225],[-120.19666666666667,39.257222222222225],[-120.15527777777778,39.28],[-119.88277777777778,39.440555555555555],[-119.88277777777778,39.440555555555555],[-119.88277777777778,39.440555555555555],[-119.8536111111111,39.45527777777778],[-119.76138888888889,39.51138888888889],[-119.60499999999999,39.60194444444445],[-119.60499999999999,39.60194444444445],[-119.54388888888889,39.63638888888889],[-119.54388888888889,39.63638888888889],[-119.07166666666666,39.905],[-119.07166666666666,39.905],[-119.07166666666666,39.905],[-119.07166666666666,39.905],[-119.07166666666666,39.905],[-119.07166666666666,39.905],[-118.63777777777779,40.10111111111111],[-118.63777777777779,40.10111111111111],[-118.63777777777779,40.10111111111111],[-118.63777777777779,40.10111111111111],[-118.63777777777779,40.10111111111111],[-118.63777777777779,40.10111111111111],[-118.63777777777779,40.10111111111111],[-118.06666666666666,40.339444444444446],[-118.06666666666666,40.339444444444446],[-118.06666666666666,40.339444444444446],[-118.06666666666666,40.339444444444446],[-118.06666666666666,40.339444444444446],[-117.95944444444444,40.37861111111111],[-117.95944444444444,40.37861111111111],[-117.95944444444444,40.37861111111111],[-117.89250000000001,40.403055555555554],[-117.89250000000001,40.403055555555554],[-117.78444444444445,40.44222222222222],[-117.43527777777778,40.56805555555556],[-117.25777777777778,40.63138888888889],[-117.25777777777778,40.63138888888889],[-117.07944444444443,40.69444444444444],[-117.07944444444443,40.69444444444444],[-117.00944444444444,40.719166666666666],[-117.00944444444444,40.719166666666666],[-116.89611111111111,40.75888888888889],[-115.01833333333333,41.39666666666667],[-115.01833333333333,41.39666666666667],[-115.01833333333333,41.39666666666667],[-115.01833333333333,41.39666666666667],[-115.01833333333333,41.39666666666667],[-115.01833333333333,41.39666666666667],[-115.01833333333333,41.39666666666667],[-115.01833333333333,41.39666666666667],[-114.45361111111112,41.580000000000005],[-114.26527777777778,41.640277777777776],[-114.26527777777778,41.640277777777776],[-114.26527777777778,41.640277777777776],[-114.26527777777778,41.640277777777776],[-114.26527777777778,41.640277777777776],[-114.26527777777778,41.640277777777776],[-113.88944444444445,41.75944444444445],[-113.88944444444445,41.75944444444445],[-113.88944444444445,41.75944444444445],[-113.88944444444445,41.75944444444445],[-113.88944444444445,41.75944444444445],[-113.88944444444445,41.75944444444445],[-113.88944444444445,41.75944444444445],[-112.95083333333334,42.04972222222222],[-112.95083333333334,42.04972222222222],[-112.95083333333334,42.04972222222222],[-112.95083333333334,42.04972222222222],[-112.95083333333334,42.04972222222222],[-112.95083333333334,42.04972222222222],[-112.95083333333334,42.04972222222222],[-112.95083333333334,42.04972222222222],[-112.95083333333334,42.04972222222222],[-112.00222222222222,42.34638888888889],[-112.00222222222222,42.34638888888889],[-112.00222222222222,42.34638888888889],[-112.00222222222222,42.34638888888889],[-112.00222222222222,42.34638888888889],[-112.00222222222222,42.34638888888889],[-112.00222222222222,42.34638888888889],[-112.00222222222222,42.34638888888889],[-111.43083333333334,42.52916666666667],[-111.43083333333334,42.52916666666667],[-111.43083333333334,42.52916666666667],[-111.43083333333334,42.52916666666667],[-111.43083333333334,42.52916666666667],[-111.43083333333334,42.52916666666667],[-111.04972222222221,42.649166666666666],[-111.04972222222221,42.649166666666666],[-111.04972222222221,42.649166666666666],[-111.04972222222221,42.649166666666666],[-110.87444444444444,42.703611111111115],[-110.87444444444444,42.703611111111115],[-110.87444444444444,42.703611111111115],[-110.87444444444444,42.703611111111115],[-110.87444444444444,42.703611111111115],[-110.87444444444444,42.703611111111115],[-110.87444444444444,42.703611111111115],[-110.65472222222223,42.771388888888886],[-110.65472222222223,42.771388888888886],[-110.27166666666666,42.888333333333335],[-110.27166666666666,42.888333333333335],[-110.27166666666666,42.888333333333335],[-110.27166666666666,42.888333333333335],[-110.27166666666666,42.888333333333335],[-110.27166666666666,42.888333333333335],[-110.27166666666666,42.888333333333335],[-110.07833333333333,42.946666666666665],[-110.07833333333333,42.946666666666665],[-110.07833333333333,42.946666666666665],[-110.07833333333333,42.946666666666665],[-110.07833333333333,42.946666666666665],[-110.07833333333333,42.946666666666665],[-110.07833333333333,42.946666666666665],[-108.89555555555556,43.29416666666666],[-108.89555555555556,43.29416666666666],[-108.89555555555556,43.29416666666666],[-108.89555555555556,43.29416666666666],[-108.89555555555556,43.29416666666666],[-108.89555555555556,43.29416666666666],[-108.89555555555556,43.29416666666666],[-108.49916666666667,43.407222222222224],[-108.49916666666667,43.407222222222224],[-108.49916666666667,43.407222222222224],[-108.49916666666667,43.407222222222224],[-108.49916666666667,43.407222222222224],[-108.49916666666667,43.407222222222224],[-108.33972222222222,43.45194444444445],[-108.10222222222221,43.52166666666667],[-108.10222222222221,43.52166666666667],[-107.94388888888889,43.56888888888889],[-107.94388888888889,43.56888888888889],[-107.90416666666667,43.58083333333334],[-107.90416666666667,43.58083333333334],[-107.70527777777778,43.638888888888886],[-107.70527777777778,43.638888888888886],[-107.54555555555555,43.68527777777778],[-107.54555555555555,43.68527777777778],[-107.54555555555555,43.68527777777778],[-107.50611111111111,43.696666666666665],[-107.34555555555555,43.74277777777778],[-107.34555555555555,43.74277777777778],[-107.14527777777778,43.8],[-107.14527777777778,43.8],[-107.14527777777778,43.8],[-107.10527777777777,43.81166666666666],[-106.94416666666667,43.8575],[-106.94416666666667,43.8575],[-106.49388888888889,43.98222222222223],[-106.49388888888889,43.98222222222223],[-106.49388888888889,43.98222222222223],[-106.30777777777777,44.000277777777775],[-106.30777777777777,44.000277777777775],[-106.2786111111111,44.000277777777775],[-106.2786111111111,44.000277777777775],[-106.0911111111111,44.00194444444445],[-106.0911111111111,44.00194444444445],[-106.0911111111111,44.00194444444445],[-105.83138888888888,44.003055555555555],[-105.83138888888888,44.003055555555555],[-105.61638888888888,44.00333333333333],[-105.61638888888888,44.00333333333333],[-105.61638888888888,44.00333333333333],[-105.44305555555556,44.00333333333333],[-105.44305555555556,44.00333333333333],[-105.44305555555556,44.00333333333333],[-104.74527777777777,44.00055555555556],[-104.74527777777777,44.00055555555556],[-104.74527777777777,44.00055555555556],[-104.52638888888889,43.99861111111111],[-104.52638888888889,43.99861111111111],[-104.30666666666666,43.99583333333334],[-104.30666666666666,43.99583333333334],[-104.30666666666666,43.99583333333334],[-104.1325,43.995],[-104.1325,43.995],[-104.1325,43.995],[-104.1325,43.995],[-104.08638888888889,43.993611111111115],[-103.64361111111111,43.98777777777778],[-103.64361111111111,43.98777777777778],[-103.64361111111111,43.98777777777778],[-103.47111111111111,43.98527777777778],[-103.47111111111111,43.98527777777778],[-103.21333333333334,43.98027777777778],[-103.21333333333334,43.98027777777778],[-103.21333333333334,43.98027777777778],[-103.21333333333334,43.98027777777778],[-103.21333333333334,43.98027777777778],[-102.59083333333332,44.01638888888889],[-102.37222222222222,44.03666666666666],[-102.37222222222222,44.03666666666666],[-102.37222222222222,44.03666666666666],[-102.37222222222222,44.03666666666666],[-102.37222222222222,44.03666666666666],[-102.37222222222222,44.03666666666666],[-102.14888888888889,44.05694444444444],[-102.14888888888889,44.05694444444444],[-102.14888888888889,44.05694444444444],[-101.70666666666666,44.09583333333334],[-101.70666666666666,44.09583333333334],[-101.70666666666666,44.09583333333334],[-101.70666666666666,44.09583333333334],[-101.70666666666666,44.09583333333334],[-101.70666666666666,44.09583333333334],[-101.26527777777778,44.132777777777775],[-101.26527777777778,44.132777777777775],[-101.26527777777778,44.132777777777775],[-101.18555555555555,44.13916666666667],[-101.18555555555555,44.13916666666667],[-101.18555555555555,44.13916666666667],[-101.18555555555555,44.13916666666667],[-100.82388888888889,44.16777777777777],[-100.82388888888889,44.16777777777777],[-100.82388888888889,44.16777777777777],[-100.31,44.20666666666667],[-100.31,44.20666666666667],[-100.31,44.20666666666667],[-100.31,44.20666666666667],[-100.31,44.20666666666667],[-100.31,44.20666666666667],[-99.87305555555555,44.238055555555555],[-99.87305555555555,44.238055555555555],[-99.87305555555555,44.238055555555555],[-99.65305555555557,44.253055555555555],[-99.65305555555557,44.253055555555555],[-99.65305555555557,44.253055555555555],[-99.65305555555557,44.253055555555555],[-99.65305555555557,44.253055555555555],[-99.65305555555557,44.253055555555555],[-98.995,44.29555555555555],[-98.995,44.29555555555555],[-98.995,44.29555555555555],[-98.995,44.29555555555555],[-98.995,44.29555555555555],[-98.77472222222222,44.308611111111105],[-98.77472222222222,44.308611111111105],[-98.77472222222222,44.308611111111105],[-98.77472222222222,44.308611111111105],[-98.77472222222222,44.308611111111105],[-98.0786111111111,44.34777777777778],[-98.0786111111111,44.34777777777778],[-98.0786111111111,44.34777777777778],[-98.0786111111111,44.34777777777778],[-98.0786111111111,44.34777777777778],[-98.0786111111111,44.34777777777778],[-98.0786111111111,44.34777777777778],[-97.41722222222222,44.38166666666667],[-97.41722222222222,44.38166666666667],[-97.41722222222222,44.38166666666667],[-97.41722222222222,44.38166666666667],[-97.41722222222222,44.38166666666667],[-96.97527777777778,44.40138888888889],[-96.97527777777778,44.40138888888889],[-96.97527777777778,44.40138888888889],[-96.97527777777778,44.40138888888889],[-96.97527777777778,44.40138888888889],[-96.35694444444444,44.401944444444446],[-96.35694444444444,44.401944444444446],[-96.13444444444445,44.375],[-96.13444444444445,44.375],[-96.13444444444445,44.375],[-96.13444444444445,44.375],[-96.13444444444445,44.375],[-96.13444444444445,44.375],[-95.69416666666667,44.32],[-95.69416666666667,44.32],[-95.48083333333334,44.29277777777778],[-95.48083333333334,44.29277777777778],[-95.48083333333334,44.29277777777778],[-95.05305555555556,44.23638888888889],[-95.05305555555556,44.23638888888889],[-95.05305555555556,44.23638888888889],[-95.05305555555556,44.23638888888889],[-95.05305555555556,44.23638888888889],[-94.83972222222222,44.20777777777778],[-94.62555555555555,44.178888888888885],[-94.62555555555555,44.178888888888885],[-94.62555555555555,44.178888888888885],[-94.62555555555555,44.178888888888885],[-94.62555555555555,44.178888888888885],[-94.62555555555555,44.178888888888885],[-93.77277777777778,44.05833333333333],[-93.77277777777778,44.05833333333333],[-93.77277777777778,44.05833333333333],[-93.77277777777778,44.05833333333333],[-93.77277777777778,44.05833333333333],[-93.34861111111111,43.99611111111111],[-93.34861111111111,43.99611111111111],[-93.34861111111111,43.99611111111111],[-93.34861111111111,43.99611111111111],[-93.34861111111111,43.99611111111111],[-92.92861111111111,43.9325],[-92.92861111111111,43.9325],[-92.92861111111111,43.9325],[-92.79055555555556,43.91138888888889],[-92.79055555555556,43.91138888888889],[-92.79055555555556,43.91138888888889],[-92.79055555555556,43.91138888888889],[-92.79055555555556,43.91138888888889],[-92.79055555555556,43.91138888888889],[-92.46305555555556,43.86],[-92.46305555555556,43.86],[-92.46305555555556,43.86],[-92.46305555555556,43.86],[-92.25138888888888,43.82638888888889],[-92.25138888888888,43.82638888888889],[-92.25138888888888,43.82638888888889],[-91.93861111111111,43.77638888888889],[-91.93861111111111,43.77638888888889],[-91.93861111111111,43.77638888888889],[-91.93861111111111,43.77638888888889],[-91.93861111111111,43.77638888888889],[-91.93861111111111,43.77638888888889],[-91.7238888888889,43.74111111111111],[-91.7238888888889,43.74111111111111],[-91.7238888888889,43.74111111111111],[-91.42722222222223,43.69166666666666],[-91.42722222222223,43.69166666666666],[-91.42722222222223,43.69166666666666],[-91.00777777777778,43.620555555555555],[-91.00777777777778,43.620555555555555],[-91.00777777777778,43.620555555555555],[-90.88472222222222,43.59916666666667],[-90.88472222222222,43.59916666666667],[-90.88472222222222,43.59916666666667],[-90.88472222222222,43.59916666666667],[-90.88472222222222,43.59916666666667],[-90.67500000000001,43.56305555555555],[-90.67500000000001,43.56305555555555],[-90.59194444444444,43.54861111111111],[-90.59194444444444,43.54861111111111],[-90.59194444444444,43.54861111111111],[-90.46777777777778,43.526666666666664],[-90.46777777777778,43.526666666666664],[-90.46777777777778,43.526666666666664],[-90.38138888888888,43.51138888888889],[-90.38138888888888,43.51138888888889],[-90.38138888888888,43.51138888888889],[-90.38138888888888,43.51138888888889],[-90.17083333333333,43.47361111111111],[-90.17083333333333,43.47361111111111],[-90.17083333333333,43.47361111111111],[-90.17083333333333,43.47361111111111],[-90.05,43.45194444444445],[-89.75472222222223,43.397777777777776],[-89.75472222222223,43.397777777777776],[-89.75472222222223,43.397777777777776],[-89.75472222222223,43.397777777777776],[-89.63583333333334,43.37583333333333],[-89.63583333333334,43.37583333333333],[-89.63583333333334,43.37583333333333],[-89.63583333333334,43.37583333333333],[-89.5475,43.35944444444445],[-89.5475,43.35944444444445],[-89.5475,43.35944444444445],[-89.5475,43.35944444444445],[-89.5475,43.35944444444445],[-88.53194444444445,43.164722222222224],[-88.53194444444445,43.164722222222224],[-88.53194444444445,43.164722222222224],[-88.53194444444445,43.164722222222224],[-88.4075,43.14111111111111],[-88.4075,43.14111111111111],[-88.4075,43.14111111111111],[-88.4075,43.14111111111111],[-88.4075,43.14111111111111],[-88.21055555555556,43.095555555555556],[-88.21055555555556,43.095555555555556],[-88.1275,43.07166666666667],[-88.1275,43.07166666666667],[-88.1275,43.07166666666667],[-88.1275,43.07166666666667],[-87.82027777777778,42.98277777777778],[-87.82027777777778,42.98277777777778],[-87.82027777777778,42.98277777777778],[-87.82027777777778,42.98277777777778],[-87.62666666666667,42.92638888888889],[-87.62666666666667,42.92638888888889],[-87.62666666666667,42.92638888888889],[-87.62666666666667,42.92638888888889],[-87.62666666666667,42.92638888888889],[-87.62666666666667,42.92638888888889],[-87.33527777777778,42.84027777777778],[-87.33527777777778,42.84027777777778],[-87.33527777777778,42.84027777777778],[-87.33527777777778,42.84027777777778],[-87.33527777777778,42.84027777777778],[-86.61,42.660555555555554],[-86.61,42.660555555555554],[-86.61,42.660555555555554],[-86.61,42.660555555555554],[-86.61,42.660555555555554],[-86.61,42.660555555555554],[-86.61,42.660555555555554],[-85.99888888888889,42.615833333333335],[-85.99888888888889,42.615833333333335],[-85.99888888888889,42.615833333333335],[-85.78944444444444,42.599722222222226],[-85.78944444444444,42.599722222222226],[-85.78944444444444,42.599722222222226],[-85.78944444444444,42.599722222222226],[-85.78944444444444,42.599722222222226],[-85.78944444444444,42.599722222222226],[-85.37777777777777,42.56722222222223],[-85.37777777777777,42.56722222222223],[-85.37777777777777,42.56722222222223],[-85.1713888888889,42.55027777777777],[-85.1713888888889,42.55027777777777],[-85.1713888888889,42.55027777777777],[-85.1713888888889,42.55027777777777],[-85.1713888888889,42.55027777777777],[-84.96944444444445,42.53333333333333],[-84.76666666666667,42.52055555555555],[-84.76666666666667,42.52055555555555],[-84.76666666666667,42.52055555555555],[-84.56277777777777,42.50805555555556],[-84.56277777777777,42.50805555555556],[-84.56277777777777,42.50805555555556],[-84.34388888888888,42.49305555555556],[-84.34388888888888,42.49305555555556],[-84.34388888888888,42.49305555555556],[-84.34388888888888,42.49305555555556],[-84.1413888888889,42.47916666666667],[-84.1413888888889,42.47916666666667],[-84.1413888888889,42.47916666666667],[-84.1413888888889,42.47916666666667],[-84.1413888888889,42.47916666666667],[-84.1413888888889,42.47916666666667],[-84.1413888888889,42.47916666666667],[-83.52583333333334,42.434999999999995],[-83.52583333333334,42.434999999999995],[-83.52583333333334,42.434999999999995],[-83.52583333333334,42.434999999999995],[-83.33999999999999,42.420833333333334],[-83.33999999999999,42.420833333333334],[-83.33999999999999,42.420833333333334],[-83.33999999999999,42.420833333333334],[-83.33999999999999,42.420833333333334],[-83.15805555555556,42.40694444444444],[-83.15805555555556,42.40694444444444],[-83.15805555555556,42.40694444444444],[-83.15805555555556,42.40694444444444],[-83.15805555555556,42.40694444444444],[-82.9538888888889,42.39055555555556],[-82.9538888888889,42.39055555555556],[-82.9538888888889,42.39055555555556],[-82.9538888888889,42.39055555555556],[-82.9538888888889,42.39055555555556],[-82.9538888888889,42.39055555555556],[-82.54722222222222,42.35722222222223],[-82.54722222222222,42.35722222222223],[-82.54722222222222,42.35722222222223],[-82.54722222222222,42.35722222222223],[-82.54722222222222,42.35722222222223],[-82.14111111111112,42.322500000000005],[-82.14111111111112,42.322500000000005],[-82.14111111111112,42.322500000000005],[-81.71666666666667,42.28444444444444],[-81.71666666666667,42.28444444444444],[-81.71666666666667,42.28444444444444],[-81.71666666666667,42.28444444444444],[-81.71666666666667,42.28444444444444],[-81.71666666666667,42.28444444444444],[-81.71666666666667,42.28444444444444],[-81.71666666666667,42.28444444444444],[-80.75361111111111,42.17388888888889],[-80.75361111111111,42.17388888888889],[-80.75361111111111,42.17388888888889],[-80.75361111111111,42.17388888888889],[-80.75361111111111,42.17388888888889],[-80.75361111111111,42.17388888888889],[-80.75361111111111,42.17388888888889],[-80.5286111111111,42.14694444444444],[-80.5286111111111,42.14694444444444],[-80.5286111111111,42.14694444444444],[-80.5286111111111,42.14694444444444],[-80.5286111111111,42.14694444444444],[-79.74083333333333,42.04722222222222],[-79.74083333333333,42.04722222222222],[-79.74083333333333,42.04722222222222],[-79.74083333333333,42.04722222222222],[-79.74083333333333,42.04722222222222],[-79.74083333333333,42.04722222222222],[-79.74083333333333,42.04722222222222],[-79.20361111111112,41.97555555555556],[-79.20361111111112,41.97555555555556],[-79.20361111111112,41.97555555555556],[-79.20361111111112,41.97555555555556],[-78.97361111111111,41.94472222222222],[-78.97361111111111,41.94472222222222],[-78.97361111111111,41.94472222222222],[-78.97361111111111,41.94472222222222],[-78.80666666666666,41.92166666666667],[-78.80666666666666,41.92166666666667],[-78.80666666666666,41.92166666666667],[-78.80666666666666,41.92166666666667],[-78.80666666666666,41.92166666666667],[-78.80666666666666,41.92166666666667],[-78.05166666666666,41.81388888888888],[-78.05166666666666,41.81388888888888],[-78.05166666666666,41.81388888888888],[-78.05166666666666,41.81388888888888],[-78.05166666666666,41.81388888888888],[-78.05166666666666,41.81388888888888],[-78.05166666666666,41.81388888888888],[-76.92416666666666,41.61694444444444],[-76.92416666666666,41.61694444444444],[-76.73861111111111,41.566944444444445],[-76.73861111111111,41.566944444444445],[-76.73861111111111,41.566944444444445],[-76.73861111111111,41.566944444444445],[-76.73861111111111,41.566944444444445],[-76.54972222222221,41.514722222222225],[-76.54972222222221,41.514722222222225],[-76.16472222222222,41.40694444444444],[-75.98277777777778,41.35666666666667],[-75.98277777777778,41.35666666666667],[-75.98277777777778,41.35666666666667],[-75.98277777777778,41.35666666666667],[-75.8286111111111,41.312777777777775],[-75.8286111111111,41.312777777777775],[-75.8286111111111,41.312777777777775],[-75.8286111111111,41.312777777777775],[-75.4475,41.19222222222222],[-75.4475,41.19222222222222],[-75.27583333333334,41.134166666666665],[-75.27583333333334,41.134166666666665],[-75.27583333333334,41.134166666666665],[-75.27583333333334,41.134166666666665],[-75.27583333333334,41.134166666666665],[-74.80805555555555,40.98888888888889],[-74.80805555555555,40.98888888888889],[-74.80805555555555,40.98888888888889],[-74.80805555555555,40.98888888888889],[-74.80805555555555,40.98888888888889],[-74.80805555555555,40.98888888888889],[-74.80805555555555,40.98888888888889],[-74.47777777777777,40.95027777777778],[-74.47777777777777,40.95027777777778],[-74.47777777777777,40.95027777777778],[-74.47777777777777,40.95027777777778],[-74.47777777777777,40.95027777777778],[-74.32138888888889,40.93111111111111],[-74.32138888888889,40.93111111111111],[-74.32138888888889,40.93111111111111],[-74.32138888888889,40.93111111111111],[-74.32138888888889,40.93111111111111],[-74.17777777777778,40.91361111111111],[-74.17777777777778,40.91361111111111],[-74.17777777777778,40.91361111111111],[-74.17777777777778,40.91361111111111],[-74.17777777777778,40.91361111111111],[-74,40.833333333333336],[-74,40.833333333333336],[-74,40.833333333333336],[-73.9538888888889,40.805277777777775],[-73.9538888888889,40.805277777777775],[-73.9538888888889,40.805277777777775],[-73.6,40.5],[-73.6,40.5],[-73.6,40.5],[-73.6,40.5],[-73.6,40.5],[-73.59527777777777,40.38666666666666],[-73.59527777777777,40.38666666666666],[-73.59527777777777,40.38666666666666],[-73.59527777777777,40.38666666666666],[-73.64500000000001,40.328611111111115],[-73.64500000000001,40.328611111111115],[-73.64500000000001,40.328611111111115],[-73.64500000000001,40.328611111111115],[-73.68333333333334,40.31666666666667],[-73.68333333333334,40.31666666666667],[-73.68333333333334,40.31666666666667],[-73.73388888888888,40.308611111111105],[-73.73388888888888,40.308611111111105],[-73.73388888888888,40.308611111111105],[-73.86666666666666,40.333333333333336],[-73.86666666666666,40.333333333333336],[-73.8888888888889,40.34527777777778],[-73.8888888888889,40.34527777777778],[-73.8888888888889,40.34527777777778],[-73.8888888888889,40.34527777777778],[-73.8888888888889,40.34527777777778],[-73.93583333333333,40.447222222222216],[-73.93583333333333,40.447222222222216],[-73.93583333333333,40.447222222222216],[-73.93583333333333,40.447222222222216],[-73.93583333333333,40.447222222222216],[-73.93583333333333,40.447222222222216],[-73.93583333333333,40.447222222222216],[-73.8236111111111,40.55722222222222],[-73.8236111111111,40.55722222222222],[-73.8236111111111,40.55722222222222],[-73.8236111111111,40.55722222222222]],"type":"LineString"}
}
