{
  "id": 2014836389,
  "type": "Feature",
  "properties": {
    "geom:area": 0,
    "geom:bbox": "-122.560000,23.150000,-109.430000,37.660000",
    "geom:latitude": 30.71115946250131,
    "geom:longitude": -115.70184172395733,
    "src:alt_label": "swim-route",
    "src:geom": "swim",
    "swim:geom": "route",
    "wof:geomhash": "ff31dfb58b06bc6f1bc84f88b230e5f6",
    "wof:id": 2014836389,
    "wof:repo": "sfomuseum-data-flights-2026-02"
  },
  "bbox": [
    -122.56,
    23.15,
    -109.43,
    37.66
  ],
  "geometry": {"coordinates":[[-122.38,37.62],[-122.48,37.66],[-122.48,37.65],[-122.48,37.64],[-122.48,37.57],[-122.48,37.57],[-122.48,37.54],[-122.47,37.49],[-122.47,37.49],[-122.48,37.48],[-122.48,37.46],[-122.5,37.34],[-122.53,37.18],[-122.55,37.08],[-122.55,37.08],[-122.56,37.06],[-122.56,37.01],[-122.55,36.98],[-122.43,36.82],[-122.42,36.81],[-122.4,36.78],[-122.3,36.64],[-122.18,36.48],[-122.12,36.4],[-122.11,36.39],[-121.93,36.14],[-121.86,36.04],[-121.83,36],[-121.65,35.89],[-121.42,35.74],[-121.18,35.59],[-121.07,35.52],[-120.99,35.47],[-119.13,34.36],[-118.65,34.07],[-118.43,33.93],[-116.98,32.57],[-116.97,32.55],[-116.95,32.54],[-116.58,32.15],[-116.18,31.75],[-115.35,30.81],[-114.36,29.72],[-113.78,29.08],[-112.27,27.33],[-112.16,27.17],[-111.35,25.98],[-110.22,25.01],[-109.95,24.77],[-109.91,24.74],[-109.86,24.7],[-109.67,24.53],[-109.48,24.36],[-109.43,24.31],[-109.52,23.93],[-109.57,23.76],[-109.62,23.55],[-109.66,23.4],[-109.66,23.39],[-109.68,23.31],[-109.7,23.23],[-109.72,23.15]],"type":"LineString"}
}
