{
  "id": 2014827951,
  "type": "Feature",
  "properties": {
    "geom:area": 0,
    "geom:bbox": "-122.439722,33.275833,-111.812222,37.701667",
    "geom:latitude": 34.845172096139656,
    "geom:longitude": -117.35931751241583,
    "src:alt_label": "swim-path",
    "src:geom": "swim",
    "swim:altitudes": [
      "008",
      "013",
      "013",
      "032",
      "032",
      "058",
      "058",
      "058",
      "058",
      "110",
      "110",
      "122",
      "122",
      "122",
      "122",
      "122",
      "243",
      "243",
      "243",
      "243",
      "243",
      "243",
      "259",
      "259",
      "259",
      "259",
      "259",
      "370C",
      "370C",
      "370C",
      "370C",
      "370C",
      "370C",
      "370C",
      "370C",
      "370C",
      "370C",
      "370C",
      "370C",
      "370C",
      "361",
      "350C",
      "350C",
      "350C",
      "350C",
      "350C",
      "350C",
      "350C",
      "350C",
      "350C",
      "350C",
      "350C",
      "350C",
      "350C",
      "350C",
      "350C",
      "350C",
      "350C",
      "350C",
      "350C",
      "350C",
      "350C",
      "350C",
      "350C",
      "350C",
      "350C",
      "350C",
      "350C",
      "350C",
      "350C",
      "350C",
      "350C",
      "350C",
      "347",
      "347",
      "347",
      "347",
      "250",
      "250",
      "250",
      "250",
      "250",
      "209",
      "209",
      "209",
      "187",
      "187",
      "179",
      "179",
      "179",
      "146",
      "146",
      "133",
      "099",
      "099",
      "099",
      "099",
      "092",
      "082",
      "078",
      "078",
      "065",
      "060",
      "060",
      "033",
      "033",
      "033",
      "018",
      "015",
      "011"
    ],
    "swim:geom": "path",
    "swim:speeds": [
      161,
      164,
      164,
      230,
      230,
      256,
      256,
      256,
      256,
      322,
      322,
      335,
      335,
      335,
      335,
      335,
      522,
      522,
      522,
      522,
      522,
      522,
      539,
      539,
      539,
      539,
      539,
      542,
      542,
      540,
      540,
      540,
      539,
      539,
      539,
      539,
      537,
      535,
      534,
      534,
      538,
      548,
      548,
      547,
      542,
      542,
      540,
      540,
      540,
      561,
      562,
      562,
      562,
      562,
      562,
      567,
      567,
      567,
      567,
      569,
      569,
      572,
      572,
      572,
      572,
      572,
      576,
      576,
      576,
      572,
      572,
      572,
      572,
      569,
      569,
      569,
      569,
      531,
      531,
      531,
      529,
      529,
      493,
      493,
      493,
      453,
      453,
      446,
      446,
      446,
      389,
      389,
      376,
      338,
      338,
      338,
      338,
      311,
      292,
      244,
      244,
      209,
      215,
      215,
      159,
      159,
      159,
      151,
      146,
      149
    ],
    "swim:timestamps": [
      1771457715,
      1771457738,
      1771457738,
      1771457798,
      1771457798,
      1771457859,
      1771457859,
      1771457859,
      1771457859,
      1771457979,
      1771457979,
      1771458035,
      1771458035,
      1771458035,
      1771458035,
      1771458035,
      1771458455,
      1771458455,
      1771458455,
      1771458455,
      1771458455,
      1771458455,
      1771458515,
      1771458515,
      1771458515,
      1771458515,
      1771458515,
      1771458996,
      1771458996,
      1771459056,
      1771459056,
      1771459056,
      1771459116,
      1771459116,
      1771459116,
      1771459116,
      1771459176,
      1771459236,
      1771459300,
      1771459300,
      1771459357,
      1771459417,
      1771459417,
      1771459480,
      1771459537,
      1771459537,
      1771459597,
      1771459597,
      1771459597,
      1771459717,
      1771459837,
      1771459837,
      1771459837,
      1771459837,
      1771459837,
      1771460078,
      1771460078,
      1771460078,
      1771460078,
      1771460138,
      1771460138,
      1771460378,
      1771460378,
      1771460378,
      1771460378,
      1771460378,
      1771460679,
      1771460679,
      1771460679,
      1771460859,
      1771460859,
      1771460859,
      1771460859,
      1771460919,
      1771460919,
      1771460919,
      1771460919,
      1771461219,
      1771461219,
      1771461219,
      1771461279,
      1771461279,
      1771461460,
      1771461460,
      1771461460,
      1771461542,
      1771461542,
      1771461584,
      1771461584,
      1771461584,
      1771461722,
      1771461722,
      1771461782,
      1771461944,
      1771461944,
      1771461944,
      1771461944,
      1771462004,
      1771462065,
      1771462125,
      1771462125,
      1771462208,
      1771462245,
      1771462245,
      1771462365,
      1771462365,
      1771462365,
      1771462485,
      1771462503,
      1771462545
    ],
    "wof:geomhash": "d8624c60180b1cca971e97f633f1dd32",
    "wof:id": 2014827951,
    "wof:repo": "sfomuseum-data-flights-2026-02"
  },
  "bbox": [
    -122.43972222222223,
    33.27583333333333,
    -111.81222222222222,
    37.70166666666667
  ],
  "geometry": {"coordinates":[[-122.36666666666666,37.63333333333333],[-122.36277777777777,37.64333333333333],[-122.36277777777777,37.64333333333333],[-122.36944444444444,37.70166666666667],[-122.36944444444444,37.70166666666667],[-122.43972222222223,37.69222222222222],[-122.43972222222223,37.69222222222222],[-122.43972222222223,37.69222222222222],[-122.43972222222223,37.69222222222222],[-122.42027777777778,37.54722222222222],[-122.42027777777778,37.54722222222222],[-122.33027777777778,37.47972222222222],[-122.33027777777778,37.47972222222222],[-122.33027777777778,37.47972222222222],[-122.33027777777778,37.47972222222222],[-122.33027777777778,37.47972222222222],[-121.46111111111111,36.8575],[-121.46111111111111,36.8575],[-121.46111111111111,36.8575],[-121.46111111111111,36.8575],[-121.46111111111111,36.8575],[-121.46111111111111,36.8575],[-121.32055555555556,36.75555555555555],[-121.32055555555556,36.75555555555555],[-121.32055555555556,36.75555555555555],[-121.32055555555556,36.75555555555555],[-121.32055555555556,36.75555555555555],[-120.13194444444444,35.93722222222222],[-120.13194444444444,35.93722222222222],[-119.99055555555556,35.84055555555556],[-119.99055555555556,35.84055555555556],[-119.99055555555556,35.84055555555556],[-119.84888888888888,35.740833333333335],[-119.84888888888888,35.740833333333335],[-119.84888888888888,35.740833333333335],[-119.84888888888888,35.740833333333335],[-119.71111111111111,35.64388888888889],[-119.57222222222222,35.545833333333334],[-119.43277777777779,35.446666666666665],[-119.43277777777779,35.446666666666665],[-119.29583333333333,35.348333333333336],[-119.15555555555557,35.24777777777778],[-119.15555555555557,35.24777777777778],[-119.01388888888889,35.14611111111111],[-118.88,35.04888888888889],[-118.88,35.04888888888889],[-118.74194444444444,34.948611111111106],[-118.74194444444444,34.948611111111106],[-118.74194444444444,34.948611111111106],[-118.42722222222223,34.81083333333333],[-118.07277777777777,34.69944444444444],[-118.07277777777777,34.69944444444444],[-118.07277777777777,34.69944444444444],[-118.07277777777777,34.69944444444444],[-118.07277777777777,34.69944444444444],[-117.36777777777777,34.474444444444444],[-117.36777777777777,34.474444444444444],[-117.36777777777777,34.474444444444444],[-117.36777777777777,34.474444444444444],[-117.19,34.41694444444444],[-117.19,34.41694444444444],[-116.44277777777778,34.17111111111111],[-116.44277777777778,34.17111111111111],[-116.44277777777778,34.17111111111111],[-116.44277777777778,34.17111111111111],[-116.44277777777778,34.17111111111111],[-115.57166666666666,33.876666666666665],[-115.57166666666666,33.876666666666665],[-115.57166666666666,33.876666666666665],[-115.03611111111111,33.692499999999995],[-115.03611111111111,33.692499999999995],[-115.03611111111111,33.692499999999995],[-115.03611111111111,33.692499999999995],[-114.86166666666666,33.63138888888889],[-114.86166666666666,33.63138888888889],[-114.86166666666666,33.63138888888889],[-114.86166666666666,33.63138888888889],[-113.96722222222222,33.43944444444444],[-113.96722222222222,33.43944444444444],[-113.96722222222222,33.43944444444444],[-113.79694444444445,33.405277777777776],[-113.79694444444445,33.405277777777776],[-113.30972222222222,33.31111111111111],[-113.30972222222222,33.31111111111111],[-113.30972222222222,33.31111111111111],[-113.06666666666666,33.28333333333333],[-113.06666666666666,33.28333333333333],[-113.00444444444445,33.27583333333333],[-113.00444444444445,33.27583333333333],[-113.00444444444445,33.27583333333333],[-112.66666666666667,33.3],[-112.66666666666667,33.3],[-112.53333333333333,33.3],[-112.23694444444445,33.33444444444444],[-112.23694444444445,33.33444444444444],[-112.23694444444445,33.33444444444444],[-112.23694444444445,33.33444444444444],[-112.1325,33.34388888888889],[-112.0363888888889,33.34666666666667],[-111.94944444444445,33.346111111111114],[-111.94944444444445,33.346111111111114],[-111.83333333333333,33.35],[-111.81222222222222,33.35611111111111],[-111.81222222222222,33.35611111111111],[-111.86277777777777,33.427499999999995],[-111.86277777777777,33.427499999999995],[-111.86277777777777,33.427499999999995],[-111.96055555555556,33.42861111111111],[-111.98333333333333,33.43333333333333],[-112.00916666666667,33.428888888888885]],"type":"LineString"}
}
