{
  "id": 2014884031,
  "type": "Feature",
  "properties": {
    "geom:area": 0,
    "geom:bbox": "-122.370556,30.200556,-97.679167,37.698333",
    "geom:latitude": 32.990219487377196,
    "geom:longitude": -110.35708550786853,
    "src:alt_label": "swim-path",
    "src:geom": "swim",
    "swim:altitudes": [
      "037",
      "232",
      "232",
      "265",
      "265",
      "302",
      "302",
      "302",
      "317",
      "317",
      "350C",
      "350C",
      "350C",
      "350C",
      "350C",
      "350C",
      "350C",
      "350C",
      "350C",
      "350C",
      "350C",
      "350C",
      "350C",
      "350C",
      "350C",
      "350C",
      "350C",
      "350C",
      "350C",
      "350",
      "350",
      "350",
      "358",
      "370C",
      "370C",
      "370C",
      "370C",
      "370C",
      "370C",
      "370C",
      "370C",
      "370C",
      "370C",
      "370C",
      "370C",
      "370C",
      "370C",
      "370C",
      "370C",
      "370C",
      "370C",
      "370C",
      "370C",
      "370C",
      "370C",
      "370C",
      "370C",
      "370C",
      "370C",
      "370C",
      "370C",
      "370C",
      "370C",
      "370C",
      "370C",
      "370C",
      "370C",
      "370C",
      "370C",
      "370C",
      "370C",
      "370C",
      "370C",
      "370C",
      "370C",
      "370C",
      "370C",
      "370C",
      "370C",
      "370C",
      "370C",
      "370C",
      "370C",
      "370C",
      "370C",
      "370C",
      "370C",
      "370C",
      "370C",
      "370C",
      "370C",
      "370C",
      "370C",
      "370C",
      "370C",
      "370C",
      "370C",
      "370C",
      "370C",
      "370C",
      "370C",
      "370C",
      "370C",
      "370C",
      "370C",
      "370C",
      "370C",
      "370C",
      "370C",
      "370C",
      "370C",
      "370C",
      "370C",
      "370C",
      "370C",
      "370C",
      "370C",
      "370C",
      "370C",
      "370C",
      "370C",
      "370C",
      "370C",
      "370C",
      "370C",
      "370C",
      "357",
      "357",
      "350",
      "350",
      "337",
      "337",
      "337",
      "330C",
      "321",
      "321",
      "290C",
      "290C",
      "290C",
      "290C",
      "290C",
      "290C",
      "290C",
      "275",
      "275",
      "255",
      "255",
      "235",
      "235",
      "206",
      "196",
      "177",
      "142",
      "142",
      "092",
      "092",
      "053",
      "044",
      "030",
      "005",
      "005"
    ],
    "swim:geom": "path",
    "swim:speeds": [
      179,
      456,
      456,
      473,
      473,
      494,
      494,
      494,
      495,
      495,
      493,
      493,
      493,
      493,
      493,
      492,
      492,
      491,
      489,
      489,
      488,
      488,
      488,
      488,
      494,
      496,
      496,
      496,
      497,
      500,
      500,
      500,
      500,
      497,
      497,
      498,
      500,
      500,
      501,
      501,
      501,
      501,
      500,
      500,
      500,
      503,
      502,
      502,
      503,
      503,
      502,
      501,
      501,
      501,
      500,
      498,
      498,
      498,
      498,
      496,
      496,
      497,
      497,
      497,
      497,
      500,
      500,
      500,
      501,
      502,
      502,
      501,
      501,
      500,
      500,
      498,
      498,
      499,
      500,
      500,
      499,
      499,
      499,
      494,
      494,
      494,
      492,
      492,
      494,
      495,
      495,
      489,
      489,
      489,
      489,
      488,
      489,
      489,
      489,
      488,
      488,
      487,
      487,
      484,
      484,
      479,
      479,
      479,
      479,
      479,
      480,
      480,
      480,
      483,
      483,
      483,
      489,
      489,
      490,
      490,
      490,
      493,
      490,
      490,
      490,
      490,
      480,
      480,
      482,
      482,
      482,
      482,
      482,
      490,
      492,
      492,
      494,
      494,
      494,
      495,
      495,
      496,
      496,
      468,
      468,
      447,
      447,
      436,
      436,
      426,
      417,
      406,
      383,
      383,
      331,
      331,
      296,
      246,
      190,
      144,
      144
    ],
    "swim:timestamps": [
      1772054595,
      1772055136,
      1772055136,
      1772055256,
      1772055256,
      1772055436,
      1772055436,
      1772055436,
      1772055496,
      1772055496,
      1772055676,
      1772055676,
      1772055676,
      1772056097,
      1772056097,
      1772056157,
      1772056157,
      1772056217,
      1772056337,
      1772056337,
      1772056397,
      1772056397,
      1772056457,
      1772056457,
      1772057003,
      1772057063,
      1772057063,
      1772057063,
      1772057123,
      1772057243,
      1772057243,
      1772057243,
      1772057303,
      1772057423,
      1772057423,
      1772057483,
      1772057604,
      1772057604,
      1772057724,
      1772057724,
      1772057724,
      1772057844,
      1772057878,
      1772057878,
      1772057878,
      1772057964,
      1772057998,
      1772057998,
      1772058058,
      1772058058,
      1772058178,
      1772058204,
      1772058238,
      1772058238,
      1772058298,
      1772058325,
      1772058325,
      1772058419,
      1772058419,
      1772058445,
      1772058445,
      1772058539,
      1772058599,
      1772058745,
      1772058745,
      1772058839,
      1772058839,
      1772058839,
      1772058899,
      1772058959,
      1772058959,
      1772059140,
      1772059140,
      1772059200,
      1772059200,
      1772059380,
      1772059380,
      1772059500,
      1772059620,
      1772059681,
      1772059741,
      1772059741,
      1772059741,
      1772060041,
      1772060041,
      1772060041,
      1772060101,
      1772060101,
      1772060161,
      1772060281,
      1772060281,
      1772060642,
      1772060642,
      1772060702,
      1772060702,
      1772060762,
      1772060822,
      1772060822,
      1772060822,
      1772060882,
      1772060882,
      1772061123,
      1772061123,
      1772061183,
      1772061183,
      1772061363,
      1772061363,
      1772061363,
      1772061423,
      1772061423,
      1772061543,
      1772061543,
      1772061543,
      1772061724,
      1772061724,
      1772061724,
      1772062029,
      1772062029,
      1772062084,
      1772062084,
      1772062084,
      1772062144,
      1772062325,
      1772062325,
      1772062385,
      1772062385,
      1772062570,
      1772062570,
      1772062625,
      1772062625,
      1772062745,
      1772062745,
      1772062745,
      1772062805,
      1772062926,
      1772062926,
      1772063231,
      1772063231,
      1772063231,
      1772063291,
      1772063291,
      1772063351,
      1772063351,
      1772063832,
      1772063832,
      1772063952,
      1772063952,
      1772064072,
      1772064072,
      1772064253,
      1772064313,
      1772064373,
      1772064490,
      1772064490,
      1772064694,
      1772064694,
      1772064875,
      1772064935,
      1772065055,
      1772065274,
      1772065274
    ],
    "wof:geomhash": "8abf8f4cf5c0d717ac619fa694d050df",
    "wof:id": 2014884031,
    "wof:repo": "sfomuseum-data-flights-2026-02"
  },
  "bbox": [
    -122.37055555555555,
    30.200555555555553,
    -97.67916666666667,
    37.69833333333333
  ],
  "geometry": {"coordinates":[[-122.37055555555555,37.69833333333333],[-121.81555555555555,37.06944444444445],[-121.81555555555555,37.06944444444445],[-121.56416666666667,36.90277777777778],[-121.56416666666667,36.90277777777778],[-121.19,36.65222222222222],[-121.19,36.65222222222222],[-121.19,36.65222222222222],[-121.05805555555555,36.56305555555555],[-121.05805555555555,36.56305555555555],[-120.66611111111112,36.29944444444444],[-120.66611111111112,36.29944444444444],[-120.66611111111112,36.29944444444444],[-119.7575,35.67666666666666],[-119.7575,35.67666666666666],[-119.62916666666666,35.58583333333333],[-119.62916666666666,35.58583333333333],[-119.50222222222222,35.495555555555555],[-119.25055555555555,35.316111111111105],[-119.25055555555555,35.316111111111105],[-119.12638888888888,35.22666666666667],[-119.12638888888888,35.22666666666667],[-119.00194444444445,35.136944444444445],[-119.00194444444445,35.136944444444445],[-117.85694444444444,34.38333333333333],[-117.68194444444445,34.342222222222226],[-117.68194444444445,34.342222222222226],[-117.68194444444445,34.342222222222226],[-117.52027777777778,34.30416666666667],[-117.19666666666667,34.227222222222224],[-117.19666666666667,34.227222222222224],[-117.19666666666667,34.227222222222224],[-117.02277777777778,34.18583333333333],[-116.71194444444444,34.11027777777778],[-116.71194444444444,34.11027777777778],[-116.55055555555555,34.07083333333334],[-116.22944444444444,33.99166666666667],[-116.22944444444444,33.99166666666667],[-115.90777777777778,33.91111111111111],[-115.90777777777778,33.91111111111111],[-115.90777777777778,33.91111111111111],[-115.58666666666666,33.830000000000005],[-115.49305555555556,33.80555555555555],[-115.49305555555556,33.80555555555555],[-115.49305555555556,33.80555555555555],[-115.26277777777777,33.746944444444445],[-115.16805555555555,33.722500000000004],[-115.16805555555555,33.722500000000004],[-115.00972222222222,33.68138888888889],[-115.00972222222222,33.68138888888889],[-114.68916666666667,33.59777777777778],[-114.625,33.58083333333334],[-114.53111111111112,33.55583333333333],[-114.53111111111112,33.55583333333333],[-114.37444444444444,33.52111111111111],[-114.30666666666666,33.507777777777775],[-114.30666666666666,33.507777777777775],[-114.05499999999999,33.4575],[-114.05499999999999,33.4575],[-113.98555555555555,33.44472222222222],[-113.98555555555555,33.44472222222222],[-113.72944444444444,33.397777777777776],[-113.57277777777777,33.355000000000004],[-113.19361111111111,33.249722222222225],[-113.19361111111111,33.249722222222225],[-112.94111111111111,33.178888888888885],[-112.94111111111111,33.178888888888885],[-112.94111111111111,33.178888888888885],[-112.78111111111112,33.13361111111111],[-112.62444444444444,33.08916666666667],[-112.62444444444444,33.08916666666667],[-112.18111111111112,32.96611111111111],[-112.18111111111112,32.96611111111111],[-112.02444444444444,32.922777777777775],[-112.02444444444444,32.922777777777775],[-111.52805555555555,32.78333333333333],[-111.52805555555555,32.78333333333333],[-111.21777777777778,32.695277777777775],[-110.90722222222223,32.60611111111111],[-110.74972222222222,32.56055555555555],[-110.5961111111111,32.51583333333333],[-110.5961111111111,32.51583333333333],[-110.5961111111111,32.51583333333333],[-109.84416666666667,32.29555555555555],[-109.84416666666667,32.29555555555555],[-109.84416666666667,32.29555555555555],[-109.68444444444445,32.27444444444444],[-109.68444444444445,32.27444444444444],[-109.52388888888889,32.255],[-109.2038888888889,32.21555555555556],[-109.2038888888889,32.21555555555556],[-108.2388888888889,32.09138888888889],[-108.2388888888889,32.09138888888889],[-108.08222222222221,32.07055555555556],[-108.08222222222221,32.07055555555556],[-107.92472222222223,32.04944444444444],[-107.76805555555555,32.02777777777778],[-107.76805555555555,32.02777777777778],[-107.76805555555555,32.02777777777778],[-107.61027777777777,32.006388888888885],[-107.61027777777777,32.006388888888885],[-106.98805555555556,31.91888888888889],[-106.98805555555556,31.91888888888889],[-106.8325,31.89638888888889],[-106.8325,31.89638888888889],[-106.3736111111111,31.829722222222223],[-106.3736111111111,31.829722222222223],[-106.3736111111111,31.829722222222223],[-106.20222222222222,31.80638888888889],[-106.20222222222222,31.80638888888889],[-105.89111111111112,31.76972222222222],[-105.89111111111112,31.76972222222222],[-105.89111111111112,31.76972222222222],[-105.43583333333333,31.71388888888889],[-105.43583333333333,31.71388888888889],[-105.43583333333333,31.71388888888889],[-104.64305555555556,31.61277777777778],[-104.64305555555556,31.61277777777778],[-104.4863888888889,31.592222222222222],[-104.4863888888889,31.592222222222222],[-104.4863888888889,31.592222222222222],[-104.34166666666667,31.528055555555554],[-103.92888888888889,31.321666666666665],[-103.92888888888889,31.321666666666665],[-103.78999999999999,31.253611111111113],[-103.78999999999999,31.253611111111113],[-103.33166666666666,31.18777777777778],[-103.33166666666666,31.18777777777778],[-103.17500000000001,31.17666666666667],[-103.17500000000001,31.17666666666667],[-102.86611111111111,31.154999999999998],[-102.86611111111111,31.154999999999998],[-102.86611111111111,31.154999999999998],[-102.70805555555556,31.14361111111111],[-102.40222222222222,31.120833333333334],[-102.40222222222222,31.120833333333334],[-101.56,31.054166666666667],[-101.56,31.054166666666667],[-101.56,31.054166666666667],[-101.40027777777779,31.04138888888889],[-101.40027777777779,31.04138888888889],[-101.26888888888888,31.030555555555555],[-101.26888888888888,31.030555555555555],[-99.97527777777778,30.91472222222222],[-99.97527777777778,30.91472222222222],[-99.685,30.886388888888888],[-99.685,30.886388888888888],[-99.40222222222222,30.85888888888889],[-99.40222222222222,30.85888888888889],[-99.00111111111111,30.806944444444444],[-98.87194444444444,30.7825],[-98.74333333333334,30.75888888888889],[-98.48,30.709166666666665],[-98.48,30.709166666666665],[-98.09083333333332,30.63361111111111],[-98.09083333333332,30.63361111111111],[-97.85666666666665,30.480833333333333],[-97.79722222222222,30.429166666666667],[-97.69666666666667,30.340277777777775],[-97.67916666666667,30.200555555555553],[-97.67916666666667,30.200555555555553]],"type":"LineString"}
}
