{
  "id": 2014807537,
  "type": "Feature",
  "properties": {
    "geom:area": 0,
    "geom:bbox": "-122.350000,37.493889,-74.083333,40.818889",
    "geom:latitude": 39.76095774991624,
    "geom:longitude": -98.11798570313147,
    "src:alt_label": "swim-path",
    "src:geom": "swim",
    "swim:altitudes": [
      "004",
      "004",
      "004",
      "004",
      "004",
      "030",
      "030",
      "030",
      "041",
      "041",
      "041",
      "041",
      "052",
      "052",
      "100",
      "100",
      "100",
      "100",
      "100",
      "100",
      "140",
      "149",
      "149",
      "160",
      "160",
      "185",
      "206",
      "206",
      "206",
      "206",
      "206",
      "206",
      "240",
      "240",
      "252",
      "252",
      "252",
      "252",
      "289",
      "289",
      "289",
      "316",
      "316",
      "316",
      "316",
      "316",
      "316",
      "360",
      "360",
      "360",
      "360",
      "360",
      "360",
      "370",
      "370",
      "370",
      "370",
      "370",
      "370",
      "370",
      "370",
      "370",
      "370",
      "370",
      "370",
      "380C",
      "380C",
      "380C",
      "380C",
      "380C",
      "380C",
      "380C",
      "380C",
      "380C",
      "380C",
      "380C",
      "380C",
      "380C",
      "380C",
      "380C",
      "380C",
      "380C",
      "380C",
      "380C",
      "380C",
      "380C",
      "380C",
      "380C",
      "380C",
      "380C",
      "380C",
      "380C",
      "380C",
      "380C",
      "380C",
      "380C",
      "380C",
      "380C",
      "380C",
      "380C",
      "380C",
      "380C",
      "380C",
      "380C",
      "380C",
      "380C",
      "380C",
      "380C",
      "380C",
      "380C",
      "380C",
      "380C",
      "380C",
      "380C",
      "380C",
      "380C",
      "380C",
      "380C",
      "380C",
      "380C",
      "380C",
      "380C",
      "380C",
      "380C",
      "380C",
      "380C",
      "380C",
      "380C",
      "380C",
      "380C",
      "380C",
      "380C",
      "380C",
      "380C",
      "380C",
      "380C",
      "380C",
      "380C",
      "380C",
      "380C",
      "380C",
      "380C",
      "380C",
      "380C",
      "380C",
      "380C",
      "380C",
      "380C",
      "380C",
      "380C",
      "380C",
      "380C",
      "380C",
      "380C",
      "380C",
      "380C",
      "380C",
      "380C",
      "380C",
      "380C",
      "380",
      "380",
      "380",
      "380",
      "380",
      "380",
      "380",
      "380",
      "380",
      "370",
      "370",
      "360C",
      "360C",
      "360C",
      "360C",
      "360C",
      "360C",
      "360C",
      "360C",
      "360C",
      "360C",
      "360C",
      "360C",
      "360C",
      "360C",
      "360C",
      "360C",
      "360C",
      "360C",
      "360C",
      "360C",
      "360C",
      "360C",
      "360C",
      "360C",
      "360C",
      "360C",
      "360C",
      "360C",
      "360C",
      "360C",
      "360C",
      "360C",
      "360C",
      "360C",
      "360C",
      "360C",
      "360C",
      "360C",
      "360C",
      "360C",
      "360C",
      "360C",
      "360C",
      "360C",
      "360C",
      "360C",
      "360C",
      "360C",
      "360C",
      "360C",
      "360C",
      "360C",
      "360C",
      "360C",
      "360C",
      "360C",
      "360C",
      "360C",
      "360C",
      "360C",
      "360C",
      "360C",
      "360C",
      "360C",
      "360C",
      "360C",
      "360C",
      "360C",
      "360C",
      "360C",
      "360C",
      "360C",
      "360C",
      "360C",
      "360C",
      "360C",
      "360C",
      "360C",
      "360C",
      "360C",
      "360C",
      "360C",
      "378C",
      "378C",
      "380C",
      "380C",
      "380C",
      "380C",
      "380C",
      "380C",
      "380C",
      "380C",
      "380C",
      "380C",
      "380C",
      "380C",
      "380C",
      "380C",
      "380C",
      "380C",
      "380C",
      "380C",
      "380C",
      "380C",
      "380C",
      "380C",
      "380C",
      "380C",
      "380C",
      "380C",
      "380C",
      "380C",
      "380C",
      "380",
      "380",
      "380",
      "380",
      "381",
      "381",
      "381",
      "392",
      "397",
      "397",
      "397",
      "400C",
      "400C",
      "400C",
      "400C",
      "400C",
      "400C",
      "400C",
      "400C",
      "400C",
      "400C",
      "400C",
      "400C",
      "400C",
      "400C",
      "400C",
      "400C",
      "400C",
      "400C",
      "400C",
      "400C",
      "400C",
      "400C",
      "400C",
      "400C",
      "400C",
      "400C",
      "400C",
      "400C",
      "400C",
      "400C",
      "400C",
      "400C",
      "400C",
      "400C",
      "400C",
      "400C",
      "400C",
      "400C",
      "400C",
      "400C",
      "400C",
      "400C",
      "400C",
      "400C",
      "400C",
      "400C",
      "400C",
      "400C",
      "400C",
      "400C",
      "400C",
      "400C",
      "400C",
      "400C",
      "400C",
      "400C",
      "400C",
      "400C",
      "400C",
      "400C",
      "400C",
      "400C",
      "400C",
      "400C",
      "400C",
      "400C",
      "400C",
      "400C",
      "400C",
      "400C",
      "400C",
      "400C",
      "400C",
      "400C",
      "400C",
      "400C",
      "400C",
      "400C",
      "400C",
      "400C",
      "400C",
      "400C",
      "400C",
      "400C",
      "400C",
      "400C",
      "400C",
      "400C",
      "400C",
      "400C",
      "400C",
      "400C",
      "400C",
      "400C",
      "400C",
      "400C",
      "400C",
      "400C",
      "400C",
      "400C",
      "400C",
      "400C",
      "400C",
      "400C",
      "400C",
      "400C",
      "400C",
      "400C",
      "400C",
      "400C",
      "400C",
      "400C",
      "400C",
      "400C",
      "400C",
      "400C",
      "400C",
      "400C",
      "400C",
      "400C",
      "400C",
      "400C",
      "400C",
      "400C",
      "400C",
      "400C",
      "400C",
      "400C",
      "400C",
      "400C",
      "400C",
      "400C",
      "400C",
      "400C",
      "400C",
      "400C",
      "400C",
      "400C",
      "400C",
      "400C",
      "400C",
      "400C",
      "400C",
      "400C",
      "400C",
      "400C",
      "400C",
      "400C",
      "400C",
      "400C",
      "400C",
      "400C",
      "400C",
      "400C",
      "400C",
      "400C",
      "400C",
      "400C",
      "400C",
      "400C",
      "400C",
      "400C",
      "400C",
      "400C",
      "400C",
      "400C",
      "400C",
      "400C",
      "400C",
      "400C",
      "400C",
      "400C",
      "400C",
      "400C",
      "400C",
      "400C",
      "400C",
      "400C",
      "400C",
      "400C",
      "400C",
      "400C",
      "400C",
      "400C",
      "400C",
      "400C",
      "400C",
      "400C",
      "400C",
      "400C",
      "400C",
      "400C",
      "400C",
      "400C",
      "400C",
      "400C",
      "400C",
      "400C",
      "400C",
      "400C",
      "400C",
      "400C",
      "400C",
      "400C",
      "400C",
      "400C",
      "400C",
      "400C",
      "400C",
      "400C",
      "400C",
      "400C",
      "400C",
      "400C",
      "400C",
      "400C",
      "400C",
      "400C",
      "400C",
      "400C",
      "400C",
      "400C",
      "400C",
      "400C",
      "400C",
      "400C",
      "400C",
      "400C",
      "400C",
      "400C",
      "400C",
      "400C",
      "400C",
      "400C",
      "400C",
      "400C",
      "400C",
      "400C",
      "400C",
      "400C",
      "400C",
      "400C",
      "400C",
      "400C",
      "400C",
      "400C",
      "400C",
      "400C",
      "400C",
      "400C",
      "400C",
      "400C",
      "400C",
      "400C",
      "400C",
      "400C",
      "400C",
      "400C",
      "400C",
      "400C",
      "400C",
      "400C",
      "400C",
      "400C",
      "400C",
      "400C",
      "400C",
      "400C",
      "400C",
      "400C",
      "400C",
      "400C",
      "400C",
      "400C",
      "400C",
      "400C",
      "400C",
      "400C",
      "400C",
      "400C",
      "400C",
      "400C",
      "400C",
      "400C",
      "400C",
      "400C",
      "400C",
      "400C",
      "400C",
      "400C",
      "400C",
      "400C",
      "400C",
      "400C",
      "400C",
      "400C",
      "400C",
      "400C",
      "400C",
      "400C",
      "400C",
      "400C",
      "400C",
      "400C",
      "400C",
      "400C",
      "400C",
      "400C",
      "400C",
      "400C",
      "400C",
      "400C",
      "400C",
      "400C",
      "400C",
      "400C",
      "400C",
      "400C",
      "400C",
      "400C",
      "400C",
      "400C",
      "400C",
      "400C",
      "400C",
      "400C",
      "400C",
      "400C",
      "400C",
      "400C",
      "400C",
      "400C",
      "400C",
      "400C",
      "400C",
      "400C",
      "400C",
      "400C",
      "400C",
      "400C",
      "400C",
      "400C",
      "400C",
      "400C",
      "400C",
      "400C",
      "400C",
      "400C",
      "400C",
      "400C",
      "400C",
      "400C",
      "400C",
      "400C",
      "400C",
      "400C",
      "400C",
      "400C",
      "400C",
      "400C",
      "400C",
      "400C",
      "400C",
      "400C",
      "400C",
      "400C",
      "400C",
      "400C",
      "400C",
      "400C",
      "400C",
      "400C",
      "400C",
      "400C",
      "400C",
      "400C",
      "400C",
      "400C",
      "400C",
      "400C",
      "400C",
      "400C",
      "400C",
      "400C",
      "400C",
      "400C",
      "400C",
      "400C",
      "400C",
      "400C",
      "400C",
      "400C",
      "400C",
      "400C",
      "400C",
      "400C",
      "400C",
      "400C",
      "400C",
      "400C",
      "400C",
      "400C",
      "400C",
      "400C",
      "400C",
      "400C",
      "400C",
      "400C",
      "400C",
      "400C",
      "400C",
      "400C",
      "400C",
      "400C",
      "400C",
      "400C",
      "400C",
      "400C",
      "400C",
      "400C",
      "400C",
      "400C",
      "400C",
      "400C",
      "400C",
      "400C",
      "400C",
      "400C",
      "400C",
      "400C",
      "400C",
      "400C",
      "400C",
      "400C",
      "400C",
      "400C",
      "400C",
      "400C",
      "400C",
      "400C",
      "399C",
      "399C",
      "400C",
      "400C",
      "400C",
      "400C",
      "400C",
      "400C",
      "400C",
      "400C",
      "400C",
      "400C",
      "400C",
      "400C",
      "400C",
      "400C",
      "400C",
      "400C",
      "400C",
      "400C",
      "400C",
      "400C",
      "400C",
      "400C",
      "400C",
      "400C",
      "400C",
      "400C",
      "400C",
      "400C",
      "400C",
      "400C",
      "400C",
      "400C",
      "400C",
      "400C",
      "400C",
      "400C",
      "400C",
      "400C",
      "400C",
      "400C",
      "400C",
      "400C",
      "400C",
      "400C",
      "400C",
      "400C",
      "400C",
      "400C",
      "400C",
      "400C",
      "400C",
      "400C",
      "400C",
      "400C",
      "400C",
      "400C",
      "400C",
      "400C",
      "400C",
      "400C",
      "400C",
      "400C",
      "400C",
      "400C",
      "400C",
      "400C",
      "389",
      "389",
      "389",
      "366",
      "366",
      "366",
      "328",
      "328",
      "328",
      "328",
      "242",
      "242",
      "242",
      "242",
      "206",
      "206",
      "160",
      "160",
      "151",
      "151",
      "151",
      "145",
      "145",
      "145",
      "108",
      "108",
      "108",
      "105",
      "105",
      "102",
      "102",
      "078",
      "078",
      "078",
      "072",
      "066",
      "060",
      "060",
      "051",
      "051",
      "051",
      "051",
      "051",
      "028",
      "028",
      "028",
      "023",
      "019",
      "019",
      "019",
      "009",
      "009",
      "005",
      "005",
      "003",
      "003"
    ],
    "swim:geom": "path",
    "swim:speeds": [
      171,
      171,
      171,
      171,
      171,
      248,
      248,
      248,
      257,
      257,
      257,
      257,
      255,
      255,
      273,
      271,
      271,
      271,
      271,
      271,
      291,
      305,
      305,
      334,
      334,
      341,
      357,
      357,
      357,
      357,
      357,
      357,
      385,
      385,
      395,
      395,
      395,
      395,
      407,
      407,
      407,
      432,
      432,
      432,
      432,
      432,
      432,
      432,
      432,
      432,
      432,
      432,
      432,
      417,
      417,
      417,
      414,
      414,
      414,
      414,
      414,
      414,
      413,
      413,
      413,
      423,
      423,
      423,
      423,
      423,
      423,
      421,
      421,
      421,
      421,
      421,
      421,
      421,
      421,
      421,
      421,
      421,
      421,
      422,
      422,
      422,
      422,
      422,
      424,
      424,
      422,
      422,
      422,
      422,
      422,
      422,
      417,
      417,
      417,
      417,
      416,
      416,
      416,
      416,
      409,
      409,
      409,
      408,
      408,
      408,
      408,
      408,
      408,
      409,
      409,
      410,
      410,
      410,
      410,
      410,
      410,
      403,
      403,
      403,
      403,
      402,
      402,
      401,
      401,
      401,
      401,
      401,
      401,
      401,
      401,
      403,
      403,
      403,
      403,
      403,
      403,
      402,
      402,
      402,
      402,
      402,
      397,
      397,
      396,
      396,
      392,
      392,
      392,
      392,
      392,
      392,
      380,
      380,
      380,
      380,
      380,
      380,
      380,
      381,
      381,
      380,
      380,
      380,
      380,
      379,
      379,
      387,
      387,
      390,
      390,
      390,
      395,
      395,
      395,
      396,
      396,
      396,
      396,
      396,
      396,
      396,
      396,
      396,
      392,
      392,
      392,
      392,
      392,
      392,
      392,
      393,
      393,
      393,
      393,
      393,
      393,
      395,
      395,
      395,
      395,
      394,
      394,
      394,
      394,
      394,
      394,
      394,
      394,
      394,
      394,
      394,
      394,
      394,
      393,
      393,
      393,
      393,
      394,
      394,
      392,
      393,
      393,
      392,
      392,
      392,
      392,
      392,
      392,
      392,
      392,
      393,
      394,
      394,
      394,
      394,
      394,
      394,
      394,
      394,
      394,
      393,
      393,
      393,
      393,
      393,
      393,
      393,
      393,
      381,
      381,
      380,
      380,
      378,
      378,
      378,
      376,
      376,
      376,
      375,
      375,
      375,
      375,
      375,
      374,
      374,
      374,
      374,
      374,
      374,
      374,
      374,
      374,
      374,
      374,
      374,
      374,
      374,
      374,
      374,
      374,
      374,
      374,
      374,
      374,
      374,
      374,
      373,
      371,
      371,
      371,
      370,
      366,
      366,
      366,
      366,
      365,
      365,
      365,
      365,
      365,
      365,
      365,
      365,
      365,
      365,
      367,
      367,
      367,
      371,
      371,
      371,
      371,
      371,
      371,
      371,
      371,
      371,
      371,
      371,
      371,
      371,
      371,
      371,
      371,
      371,
      371,
      371,
      371,
      370,
      370,
      370,
      370,
      370,
      369,
      370,
      371,
      371,
      371,
      372,
      372,
      371,
      372,
      372,
      373,
      373,
      373,
      373,
      373,
      373,
      373,
      373,
      373,
      373,
      373,
      373,
      373,
      373,
      373,
      373,
      373,
      373,
      373,
      373,
      373,
      373,
      373,
      372,
      372,
      372,
      372,
      372,
      372,
      372,
      372,
      372,
      372,
      372,
      372,
      373,
      373,
      373,
      373,
      373,
      373,
      374,
      375,
      375,
      375,
      375,
      375,
      377,
      377,
      377,
      377,
      377,
      377,
      380,
      380,
      382,
      382,
      382,
      383,
      383,
      383,
      383,
      382,
      382,
      382,
      383,
      383,
      383,
      383,
      383,
      383,
      384,
      384,
      384,
      384,
      384,
      385,
      385,
      385,
      390,
      390,
      390,
      388,
      388,
      386,
      386,
      386,
      386,
      386,
      386,
      386,
      385,
      385,
      385,
      385,
      385,
      385,
      385,
      385,
      385,
      385,
      386,
      386,
      386,
      386,
      385,
      385,
      385,
      385,
      384,
      386,
      386,
      386,
      386,
      386,
      388,
      387,
      387,
      387,
      387,
      391,
      391,
      391,
      392,
      392,
      392,
      392,
      393,
      393,
      393,
      393,
      395,
      395,
      394,
      394,
      394,
      393,
      393,
      393,
      393,
      393,
      399,
      399,
      399,
      399,
      393,
      393,
      393,
      398,
      398,
      398,
      394,
      394,
      395,
      395,
      397,
      397,
      397,
      397,
      397,
      405,
      405,
      405,
      405,
      408,
      408,
      408,
      408,
      401,
      401,
      401,
      401,
      401,
      401,
      401,
      398,
      398,
      398,
      398,
      398,
      388,
      388,
      388,
      388,
      388,
      391,
      391,
      387,
      387,
      387,
      387,
      387,
      387,
      387,
      387,
      387,
      387,
      391,
      391,
      391,
      392,
      392,
      392,
      392,
      391,
      391,
      391,
      391,
      391,
      391,
      391,
      391,
      391,
      391,
      391,
      391,
      391,
      391,
      391,
      394,
      402,
      402,
      402,
      399,
      399,
      399,
      399,
      402,
      399,
      401,
      401,
      401,
      401,
      400,
      400,
      400,
      401,
      401,
      401,
      401,
      410,
      410,
      410,
      407,
      407,
      404,
      404,
      404,
      401,
      401,
      401,
      401,
      400,
      400,
      400,
      400,
      400,
      401,
      394,
      394,
      394,
      394,
      391,
      391,
      391,
      391,
      391,
      391,
      394,
      394,
      394,
      394,
      394,
      399,
      402,
      402,
      402,
      402,
      402,
      402,
      400,
      400,
      400,
      401,
      401,
      401,
      401,
      400,
      400,
      397,
      397,
      397,
      397,
      396,
      396,
      396,
      396,
      396,
      395,
      395,
      395,
      397,
      397,
      398,
      398,
      398,
      398,
      398,
      398,
      398,
      396,
      396,
      396,
      394,
      394,
      391,
      391,
      391,
      391,
      391,
      390,
      390,
      390,
      390,
      390,
      390,
      392,
      392,
      392,
      392,
      393,
      393,
      393,
      397,
      397,
      397,
      397,
      397,
      397,
      403,
      403,
      403,
      403,
      403,
      403,
      403,
      403,
      403,
      403,
      401,
      402,
      402,
      402,
      402,
      403,
      403,
      403,
      403,
      414,
      414,
      414,
      414,
      414,
      414,
      414,
      414,
      414,
      413,
      413,
      413,
      413,
      413,
      413,
      413,
      413,
      415,
      415,
      415,
      409,
      409,
      409,
      409,
      409,
      406,
      406,
      406,
      406,
      405,
      405,
      405,
      405,
      406,
      406,
      408,
      408,
      408,
      408,
      408,
      408,
      407,
      407,
      405,
      405,
      405,
      406,
      406,
      406,
      406,
      406,
      406,
      404,
      404,
      404,
      404,
      405,
      405,
      408,
      408,
      415,
      415,
      419,
      419,
      419,
      419,
      420,
      420,
      420,
      422,
      422,
      422,
      422,
      422,
      422,
      426,
      426,
      426,
      426,
      427,
      428,
      430,
      430,
      430,
      430,
      436,
      436,
      436,
      441,
      441,
      441,
      441,
      441,
      442,
      442,
      442,
      442,
      445,
      445,
      445,
      442,
      442,
      442,
      364,
      364,
      364,
      364,
      336,
      336,
      336,
      336,
      310,
      310,
      294,
      294,
      289,
      289,
      289,
      269,
      269,
      269,
      274,
      274,
      274,
      262,
      262,
      266,
      266,
      254,
      254,
      254,
      253,
      256,
      241,
      241,
      204,
      204,
      204,
      204,
      204,
      163,
      163,
      163,
      159,
      157,
      157,
      157,
      119,
      119,
      123,
      123,
      124,
      124
    ],
    "swim:timestamps": [
      1771278912,
      1771278912,
      1771278912,
      1771278912,
      1771278912,
      1771279008,
      1771279008,
      1771279008,
      1771279089,
      1771279089,
      1771279089,
      1771279089,
      1771279149,
      1771279149,
      1771279314,
      1771279330,
      1771279330,
      1771279330,
      1771279330,
      1771279330,
      1771279450,
      1771279510,
      1771279510,
      1771279570,
      1771279570,
      1771279690,
      1771279750,
      1771279750,
      1771279750,
      1771279750,
      1771279750,
      1771279750,
      1771279870,
      1771279870,
      1771279931,
      1771279931,
      1771279931,
      1771279931,
      1771280051,
      1771280051,
      1771280051,
      1771280171,
      1771280171,
      1771280171,
      1771280171,
      1771280171,
      1771280171,
      1771280591,
      1771280591,
      1771280591,
      1771280591,
      1771280591,
      1771280591,
      1771280892,
      1771280892,
      1771280892,
      1771280953,
      1771280953,
      1771280953,
      1771280953,
      1771280953,
      1771280953,
      1771281012,
      1771281012,
      1771281012,
      1771281192,
      1771281192,
      1771281192,
      1771281192,
      1771281192,
      1771281192,
      1771281275,
      1771281275,
      1771281313,
      1771281313,
      1771281335,
      1771281335,
      1771281335,
      1771281373,
      1771281373,
      1771281373,
      1771281373,
      1771281455,
      1771281515,
      1771281515,
      1771281515,
      1771281515,
      1771281515,
      1771281614,
      1771281614,
      1771281696,
      1771281696,
      1771281696,
      1771281696,
      1771281696,
      1771281696,
      1771281854,
      1771281854,
      1771281854,
      1771281854,
      1771281876,
      1771281876,
      1771281876,
      1771281876,
      1771281974,
      1771281974,
      1771281974,
      1771281996,
      1771281996,
      1771282034,
      1771282034,
      1771282034,
      1771282034,
      1771282094,
      1771282094,
      1771282154,
      1771282154,
      1771282154,
      1771282154,
      1771282154,
      1771282154,
      1771282296,
      1771282296,
      1771282296,
      1771282296,
      1771282357,
      1771282357,
      1771282417,
      1771282417,
      1771282455,
      1771282455,
      1771282455,
      1771282477,
      1771282477,
      1771282477,
      1771282537,
      1771282537,
      1771282597,
      1771282597,
      1771282597,
      1771282597,
      1771282657,
      1771282657,
      1771282657,
      1771282657,
      1771282657,
      1771282816,
      1771282816,
      1771282837,
      1771282837,
      1771282897,
      1771282897,
      1771282897,
      1771282897,
      1771282897,
      1771282897,
      1771283018,
      1771283018,
      1771283018,
      1771283018,
      1771283056,
      1771283056,
      1771283056,
      1771283078,
      1771283078,
      1771283116,
      1771283116,
      1771283116,
      1771283116,
      1771283150,
      1771283150,
      1771283198,
      1771283198,
      1771283210,
      1771283210,
      1771283210,
      1771283318,
      1771283318,
      1771283330,
      1771283378,
      1771283378,
      1771283378,
      1771283378,
      1771283378,
      1771283438,
      1771283438,
      1771283438,
      1771283450,
      1771283571,
      1771283571,
      1771283571,
      1771283679,
      1771283679,
      1771283679,
      1771283679,
      1771283739,
      1771283739,
      1771283739,
      1771283739,
      1771283751,
      1771283751,
      1771283799,
      1771283799,
      1771283799,
      1771283799,
      1771283931,
      1771283931,
      1771283931,
      1771283931,
      1771283931,
      1771284051,
      1771284051,
      1771284051,
      1771284051,
      1771284051,
      1771284201,
      1771284201,
      1771284201,
      1771284231,
      1771284231,
      1771284231,
      1771284231,
      1771284261,
      1771284261,
      1771284292,
      1771284340,
      1771284340,
      1771284381,
      1771284381,
      1771284381,
      1771284412,
      1771284412,
      1771284412,
      1771284441,
      1771284441,
      1771284472,
      1771284532,
      1771284532,
      1771284532,
      1771284532,
      1771284592,
      1771284621,
      1771284621,
      1771284621,
      1771284621,
      1771284640,
      1771284640,
      1771284681,
      1771284681,
      1771284681,
      1771284700,
      1771284700,
      1771284712,
      1771284892,
      1771284892,
      1771284922,
      1771284922,
      1771284952,
      1771284952,
      1771284952,
      1771285013,
      1771285013,
      1771285013,
      1771285042,
      1771285042,
      1771285042,
      1771285073,
      1771285073,
      1771285102,
      1771285102,
      1771285162,
      1771285162,
      1771285162,
      1771285162,
      1771285253,
      1771285253,
      1771285282,
      1771285282,
      1771285282,
      1771285373,
      1771285373,
      1771285373,
      1771285373,
      1771285373,
      1771285463,
      1771285463,
      1771285463,
      1771285463,
      1771285493,
      1771285493,
      1771285493,
      1771285553,
      1771285583,
      1771285583,
      1771285583,
      1771285613,
      1771285703,
      1771285703,
      1771285703,
      1771285703,
      1771285734,
      1771285734,
      1771285734,
      1771285734,
      1771285734,
      1771285854,
      1771285854,
      1771285854,
      1771285854,
      1771285854,
      1771285883,
      1771285883,
      1771285883,
      1771286184,
      1771286184,
      1771286184,
      1771286184,
      1771286184,
      1771286184,
      1771286214,
      1771286214,
      1771286364,
      1771286364,
      1771286364,
      1771286364,
      1771286364,
      1771286364,
      1771286364,
      1771286544,
      1771286544,
      1771286544,
      1771286544,
      1771286544,
      1771286724,
      1771286724,
      1771286724,
      1771286724,
      1771286724,
      1771286755,
      1771286845,
      1771286905,
      1771286905,
      1771286905,
      1771286939,
      1771286939,
      1771287025,
      1771287085,
      1771287119,
      1771287179,
      1771287179,
      1771287179,
      1771287205,
      1771287205,
      1771287205,
      1771287205,
      1771287419,
      1771287419,
      1771287419,
      1771287419,
      1771287419,
      1771287419,
      1771287445,
      1771287506,
      1771287506,
      1771287566,
      1771287566,
      1771287626,
      1771287626,
      1771287626,
      1771287720,
      1771287720,
      1771287746,
      1771287840,
      1771287840,
      1771287840,
      1771287840,
      1771287866,
      1771287900,
      1771287926,
      1771287926,
      1771287960,
      1771287960,
      1771287960,
      1771288080,
      1771288080,
      1771288080,
      1771288140,
      1771288140,
      1771288140,
      1771288166,
      1771288260,
      1771288260,
      1771288260,
      1771288320,
      1771288320,
      1771288441,
      1771288441,
      1771288441,
      1771288467,
      1771288467,
      1771288467,
      1771288561,
      1771288561,
      1771288681,
      1771288681,
      1771288681,
      1771288741,
      1771288767,
      1771288801,
      1771288801,
      1771288827,
      1771288827,
      1771288827,
      1771288861,
      1771288861,
      1771288861,
      1771288861,
      1771288981,
      1771289008,
      1771289041,
      1771289041,
      1771289041,
      1771289102,
      1771289162,
      1771289282,
      1771289282,
      1771289282,
      1771289389,
      1771289389,
      1771289389,
      1771289449,
      1771289449,
      1771289522,
      1771289522,
      1771289522,
      1771289569,
      1771289569,
      1771289569,
      1771289569,
      1771289750,
      1771289750,
      1771289750,
      1771289810,
      1771289810,
      1771289810,
      1771289822,
      1771289822,
      1771289870,
      1771289870,
      1771289990,
      1771289990,
      1771290170,
      1771290183,
      1771290243,
      1771290243,
      1771290290,
      1771290290,
      1771290350,
      1771290471,
      1771290471,
      1771290471,
      1771290471,
      1771290471,
      1771290531,
      1771290543,
      1771290543,
      1771290543,
      1771290543,
      1771290651,
      1771290651,
      1771290651,
      1771290771,
      1771290771,
      1771290771,
      1771290771,
      1771290891,
      1771290891,
      1771290891,
      1771290891,
      1771290951,
      1771290951,
      1771291011,
      1771291011,
      1771291011,
      1771291071,
      1771291071,
      1771291071,
      1771291071,
      1771291131,
      1771291167,
      1771291167,
      1771291167,
      1771291167,
      1771291252,
      1771291252,
      1771291252,
      1771291288,
      1771291288,
      1771291288,
      1771291372,
      1771291372,
      1771291432,
      1771291432,
      1771291468,
      1771291468,
      1771291468,
      1771291468,
      1771291468,
      1771291552,
      1771291552,
      1771291552,
      1771291552,
      1771291612,
      1771291612,
      1771291612,
      1771291612,
      1771291648,
      1771291648,
      1771291648,
      1771291768,
      1771291768,
      1771291768,
      1771291768,
      1771291828,
      1771291828,
      1771291828,
      1771291828,
      1771291828,
      1771291913,
      1771291913,
      1771291973,
      1771291973,
      1771291973,
      1771292009,
      1771292009,
      1771292093,
      1771292093,
      1771292093,
      1771292093,
      1771292093,
      1771292093,
      1771292189,
      1771292189,
      1771292189,
      1771292189,
      1771292273,
      1771292273,
      1771292273,
      1771292393,
      1771292393,
      1771292393,
      1771292393,
      1771292429,
      1771292489,
      1771292489,
      1771292489,
      1771292513,
      1771292513,
      1771292513,
      1771292513,
      1771292549,
      1771292573,
      1771292609,
      1771292609,
      1771292609,
      1771292609,
      1771292609,
      1771292729,
      1771292754,
      1771292754,
      1771292754,
      1771292790,
      1771292790,
      1771292790,
      1771292790,
      1771292814,
      1771292850,
      1771292874,
      1771292874,
      1771292874,
      1771292874,
      1771292934,
      1771292934,
      1771292934,
      1771292994,
      1771292994,
      1771292994,
      1771292994,
      1771293054,
      1771293054,
      1771293054,
      1771293174,
      1771293174,
      1771293234,
      1771293234,
      1771293234,
      1771293294,
      1771293294,
      1771293294,
      1771293294,
      1771293330,
      1771293330,
      1771293355,
      1771293390,
      1771293390,
      1771293450,
      1771293475,
      1771293475,
      1771293475,
      1771293475,
      1771293535,
      1771293535,
      1771293571,
      1771293571,
      1771293571,
      1771293571,
      1771293631,
      1771293631,
      1771293631,
      1771293631,
      1771293631,
      1771293655,
      1771293811,
      1771293811,
      1771293811,
      1771293835,
      1771293835,
      1771293835,
      1771293895,
      1771293895,
      1771293895,
      1771293991,
      1771293991,
      1771293991,
      1771293991,
      1771294015,
      1771294015,
      1771294232,
      1771294232,
      1771294232,
      1771294232,
      1771294316,
      1771294316,
      1771294316,
      1771294316,
      1771294352,
      1771294376,
      1771294376,
      1771294412,
      1771294436,
      1771294436,
      1771294472,
      1771294496,
      1771294496,
      1771294496,
      1771294532,
      1771294532,
      1771294532,
      1771294616,
      1771294616,
      1771294616,
      1771294652,
      1771294652,
      1771294736,
      1771294736,
      1771294736,
      1771294736,
      1771294736,
      1771294784,
      1771294797,
      1771294844,
      1771294857,
      1771294857,
      1771294857,
      1771294904,
      1771294904,
      1771294904,
      1771294904,
      1771294965,
      1771294965,
      1771294965,
      1771295265,
      1771295265,
      1771295265,
      1771295265,
      1771295265,
      1771295265,
      1771295625,
      1771295625,
      1771295625,
      1771295625,
      1771295625,
      1771295806,
      1771295806,
      1771295806,
      1771295806,
      1771295806,
      1771295866,
      1771295926,
      1771295926,
      1771295926,
      1771295926,
      1771295986,
      1771295986,
      1771295986,
      1771295986,
      1771296166,
      1771296166,
      1771296166,
      1771296166,
      1771296166,
      1771296166,
      1771296346,
      1771296346,
      1771296346,
      1771296406,
      1771296406,
      1771296406,
      1771296406,
      1771296406,
      1771296406,
      1771296467,
      1771296467,
      1771296527,
      1771296527,
      1771296527,
      1771296647,
      1771296647,
      1771296647,
      1771296647,
      1771296647,
      1771296707,
      1771296707,
      1771296787,
      1771296787,
      1771296847,
      1771296847,
      1771296887,
      1771296887,
      1771296907,
      1771296907,
      1771297067,
      1771297067,
      1771297067,
      1771297067,
      1771297067,
      1771297067,
      1771297127,
      1771297127,
      1771297187,
      1771297187,
      1771297187,
      1771297207,
      1771297207,
      1771297207,
      1771297248,
      1771297248,
      1771297248,
      1771297368,
      1771297368,
      1771297368,
      1771297368,
      1771297428,
      1771297428,
      1771297448,
      1771297448,
      1771297488,
      1771297488,
      1771297608,
      1771297608,
      1771297608,
      1771297608,
      1771297628,
      1771297628,
      1771297628,
      1771297688,
      1771297728,
      1771297728,
      1771297728,
      1771297748,
      1771297748,
      1771297848,
      1771297848,
      1771297848,
      1771297848,
      1771297969,
      1771297988,
      1771298089,
      1771298089,
      1771298089,
      1771298089,
      1771298168,
      1771298168,
      1771298168,
      1771298348,
      1771298348,
      1771298348,
      1771298348,
      1771298348,
      1771298408,
      1771298408,
      1771298408,
      1771298408,
      1771298589,
      1771298589,
      1771298589,
      1771298649,
      1771298649,
      1771298649,
      1771298769,
      1771298769,
      1771298769,
      1771298769,
      1771299069,
      1771299069,
      1771299069,
      1771299069,
      1771299204,
      1771299204,
      1771299384,
      1771299384,
      1771299429,
      1771299429,
      1771299429,
      1771299449,
      1771299449,
      1771299449,
      1771299610,
      1771299610,
      1771299610,
      1771299629,
      1771299629,
      1771299670,
      1771299670,
      1771299809,
      1771299809,
      1771299809,
      1771299850,
      1771299869,
      1771299929,
      1771299929,
      1771299989,
      1771299989,
      1771299989,
      1771299989,
      1771299989,
      1771300150,
      1771300150,
      1771300150,
      1771300175,
      1771300210,
      1771300210,
      1771300210,
      1771300289,
      1771300289,
      1771300330,
      1771300330,
      1771300344,
      1771300344
    ],
    "wof:geomhash": "87b175dc5e74e12eabb521b523418303",
    "wof:id": 2014807537,
    "wof:repo": "sfomuseum-data-flights-2026-02"
  },
  "bbox": [
    -122.35,
    37.49388888888889,
    -74.08333333333333,
    40.81888888888889
  ],
  "geometry": {"coordinates":[[-74.16666666666667,40.7],[-74.16666666666667,40.7],[-74.16666666666667,40.7],[-74.16666666666667,40.7],[-74.16666666666667,40.7],[-74.08333333333333,40.766666666666666],[-74.08333333333333,40.766666666666666],[-74.08333333333333,40.766666666666666],[-74.17916666666667,40.815],[-74.17916666666667,40.815],[-74.17916666666667,40.815],[-74.17916666666667,40.815],[-74.27111111111111,40.81888888888889],[-74.27111111111111,40.81888888888889],[-74.53333333333333,40.75],[-74.5525,40.753055555555555],[-74.5525,40.753055555555555],[-74.5525,40.753055555555555],[-74.5525,40.753055555555555],[-74.5525,40.753055555555555],[-74.62972222222221,40.60444444444445],[-74.72472222222223,40.62694444444445],[-74.72472222222223,40.62694444444445],[-74.78888888888889,40.70666666666667],[-74.78888888888889,40.70666666666667],[-75.01361111111112,40.779444444444444],[-75.13555555555556,40.79888888888889],[-75.13555555555556,40.79888888888889],[-75.13555555555556,40.79888888888889],[-75.13555555555556,40.79888888888889],[-75.13555555555556,40.79888888888889],[-75.13555555555556,40.79888888888889],[-75.39166666666668,40.76027777777778],[-75.39166666666668,40.76027777777778],[-75.52194444444444,40.712500000000006],[-75.52194444444444,40.712500000000006],[-75.52194444444444,40.712500000000006],[-75.52194444444444,40.712500000000006],[-75.79916666666666,40.60944444444445],[-75.79916666666666,40.60944444444445],[-75.79916666666666,40.60944444444445],[-76.06583333333333,40.50805555555556],[-76.06583333333333,40.50805555555556],[-76.06583333333333,40.50805555555556],[-76.06583333333333,40.50805555555556],[-76.06583333333333,40.50805555555556],[-76.06583333333333,40.50805555555556],[-77.12388888888889,40.24777777777778],[-77.12388888888889,40.24777777777778],[-77.12388888888889,40.24777777777778],[-77.12388888888889,40.24777777777778],[-77.12388888888889,40.24777777777778],[-77.12388888888889,40.24777777777778],[-77.89500000000001,40.165277777777774],[-77.89500000000001,40.165277777777774],[-77.89500000000001,40.165277777777774],[-78.04583333333333,40.17333333333333],[-78.04583333333333,40.17333333333333],[-78.04583333333333,40.17333333333333],[-78.04583333333333,40.17333333333333],[-78.04583333333333,40.17333333333333],[-78.04583333333333,40.17333333333333],[-78.19194444444445,40.18138888888889],[-78.19194444444445,40.18138888888889],[-78.19194444444445,40.18138888888889],[-78.65,40.20444444444445],[-78.65,40.20444444444445],[-78.65,40.20444444444445],[-78.65,40.20444444444445],[-78.65,40.20444444444445],[-78.65,40.20444444444445],[-78.84472222222222,40.21388888888889],[-78.84472222222222,40.21388888888889],[-78.95277777777778,40.21888888888889],[-78.95277777777778,40.21888888888889],[-78.99583333333334,40.22083333333334],[-78.99583333333334,40.22083333333334],[-78.99583333333334,40.22083333333334],[-79.11027777777777,40.225833333333334],[-79.11027777777777,40.225833333333334],[-79.11027777777777,40.225833333333334],[-79.11027777777777,40.225833333333334],[-79.30194444444444,40.23444444444444],[-79.45527777777778,40.240833333333335],[-79.45527777777778,40.240833333333335],[-79.45527777777778,40.240833333333335],[-79.45527777777778,40.240833333333335],[-79.45527777777778,40.240833333333335],[-79.72666666666667,40.251666666666665],[-79.72666666666667,40.251666666666665],[-79.91611111111112,40.259166666666665],[-79.91611111111112,40.259166666666665],[-79.91611111111112,40.259166666666665],[-79.91611111111112,40.259166666666665],[-79.91611111111112,40.259166666666665],[-79.91611111111112,40.259166666666665],[-80.33305555555555,40.27388888888889],[-80.33305555555555,40.27388888888889],[-80.33305555555555,40.27388888888889],[-80.33305555555555,40.27388888888889],[-80.36833333333333,40.275277777777774],[-80.36833333333333,40.275277777777774],[-80.36833333333333,40.275277777777774],[-80.36833333333333,40.275277777777774],[-80.60444444444444,40.283055555555556],[-80.60444444444444,40.283055555555556],[-80.60444444444444,40.283055555555556],[-80.66555555555556,40.285],[-80.66555555555556,40.285],[-80.7525,40.2875],[-80.7525,40.2875],[-80.7525,40.2875],[-80.7525,40.2875],[-80.90194444444445,40.29194444444444],[-80.90194444444445,40.29194444444444],[-81.06416666666667,40.296388888888885],[-81.06416666666667,40.296388888888885],[-81.06416666666667,40.296388888888885],[-81.06416666666667,40.296388888888885],[-81.06416666666667,40.296388888888885],[-81.06416666666667,40.296388888888885],[-81.40694444444445,40.30555555555555],[-81.40694444444445,40.30555555555555],[-81.40694444444445,40.30555555555555],[-81.40694444444445,40.30555555555555],[-81.55333333333333,40.30888888888889],[-81.55333333333333,40.30888888888889],[-81.69777777777779,40.31222222222222],[-81.69777777777779,40.31222222222222],[-81.78833333333333,40.314166666666665],[-81.78833333333333,40.314166666666665],[-81.78833333333333,40.314166666666665],[-81.85027777777778,40.315555555555555],[-81.85027777777778,40.315555555555555],[-81.85027777777778,40.315555555555555],[-81.99694444444445,40.31861111111112],[-81.99694444444445,40.31861111111112],[-82.14361111111111,40.32138888888889],[-82.14361111111111,40.32138888888889],[-82.14361111111111,40.32138888888889],[-82.14361111111111,40.32138888888889],[-82.28999999999999,40.323888888888895],[-82.28999999999999,40.323888888888895],[-82.28999999999999,40.323888888888895],[-82.28999999999999,40.323888888888895],[-82.28999999999999,40.323888888888895],[-82.66555555555556,40.32972222222222],[-82.66555555555556,40.32972222222222],[-82.73083333333334,40.330555555555556],[-82.73083333333334,40.330555555555556],[-82.87222222222222,40.33277777777778],[-82.87222222222222,40.33277777777778],[-82.87222222222222,40.33277777777778],[-82.87222222222222,40.33277777777778],[-82.87222222222222,40.33277777777778],[-82.87222222222222,40.33277777777778],[-83.1413888888889,40.37694444444445],[-83.1413888888889,40.37694444444445],[-83.1413888888889,40.37694444444445],[-83.1413888888889,40.37694444444445],[-83.21111111111111,40.38916666666667],[-83.21111111111111,40.38916666666667],[-83.21111111111111,40.38916666666667],[-83.27527777777777,40.400277777777774],[-83.27527777777777,40.400277777777774],[-83.34527777777777,40.4125],[-83.34527777777777,40.4125],[-83.34527777777777,40.4125],[-83.34527777777777,40.4125],[-83.44555555555556,40.41916666666666],[-83.44555555555556,40.41916666666666],[-83.55166666666666,40.4225],[-83.55166666666666,40.4225],[-83.58611111111111,40.42388888888889],[-83.58611111111111,40.42388888888889],[-83.58611111111111,40.42388888888889],[-83.83888888888889,40.433055555555555],[-83.83888888888889,40.433055555555555],[-83.87527777777777,40.43444444444444],[-83.96972222222223,40.437777777777775],[-83.96972222222223,40.437777777777775],[-83.96972222222223,40.437777777777775],[-83.96972222222223,40.437777777777775],[-83.96972222222223,40.437777777777775],[-84.11277777777777,40.442499999999995],[-84.11277777777777,40.442499999999995],[-84.11277777777777,40.442499999999995],[-84.1613888888889,40.443888888888885],[-84.4475,40.45277777777778],[-84.4475,40.45277777777778],[-84.4475,40.45277777777778],[-84.68111111111112,40.45944444444445],[-84.68111111111112,40.45944444444445],[-84.68111111111112,40.45944444444445],[-84.68111111111112,40.45944444444445],[-84.82555555555555,40.46333333333334],[-84.82555555555555,40.46333333333334],[-84.82555555555555,40.46333333333334],[-84.82555555555555,40.46333333333334],[-84.86972222222222,40.464444444444446],[-84.86972222222222,40.464444444444446],[-84.98611111111111,40.4675],[-84.98611111111111,40.4675],[-84.98611111111111,40.4675],[-84.98611111111111,40.4675],[-85.30277777777778,40.474722222222226],[-85.30277777777778,40.474722222222226],[-85.30277777777778,40.474722222222226],[-85.30277777777778,40.474722222222226],[-85.30277777777778,40.474722222222226],[-85.58583333333333,40.48083333333334],[-85.58583333333333,40.48083333333334],[-85.58583333333333,40.48083333333334],[-85.58583333333333,40.48083333333334],[-85.58583333333333,40.48083333333334],[-85.95194444444445,40.488055555555555],[-85.95194444444445,40.488055555555555],[-85.95194444444445,40.488055555555555],[-86.01527777777778,40.48833333333334],[-86.01527777777778,40.48833333333334],[-86.01527777777778,40.48833333333334],[-86.01527777777778,40.48833333333334],[-86.09472222222222,40.49],[-86.09472222222222,40.49],[-86.15694444444445,40.49055555555556],[-86.26833333333333,40.492222222222225],[-86.26833333333333,40.492222222222225],[-86.37833333333333,40.49305555555556],[-86.37833333333333,40.49305555555556],[-86.37833333333333,40.49305555555556],[-86.44027777777778,40.494166666666665],[-86.44027777777778,40.494166666666665],[-86.44027777777778,40.494166666666665],[-86.52222222222223,40.49583333333334],[-86.52222222222223,40.49583333333334],[-86.58388888888888,40.49611111111111],[-86.72666666666667,40.4975],[-86.72666666666667,40.4975],[-86.72666666666667,40.4975],[-86.72666666666667,40.4975],[-86.87027777777777,40.49888888888889],[-86.95472222222223,40.49916666666667],[-86.95472222222223,40.49916666666667],[-86.95472222222223,40.49916666666667],[-86.95472222222223,40.49916666666667],[-86.98388888888888,40.499722222222225],[-86.98388888888888,40.499722222222225],[-87.0975,40.50055555555556],[-87.0975,40.50055555555556],[-87.0975,40.50055555555556],[-87.1325,40.50055555555556],[-87.1325,40.50055555555556],[-87.1613888888889,40.50083333333333],[-87.58694444444444,40.50277777777778],[-87.58694444444444,40.50277777777778],[-87.65833333333335,40.50277777777778],[-87.65833333333335,40.50277777777778],[-87.72361111111111,40.50277777777778],[-87.72361111111111,40.50277777777778],[-87.72361111111111,40.50277777777778],[-87.85944444444443,40.503055555555555],[-87.85944444444443,40.503055555555555],[-87.85944444444443,40.503055555555555],[-87.92944444444444,40.503055555555555],[-87.92944444444444,40.503055555555555],[-87.92944444444444,40.503055555555555],[-87.99722222222222,40.50277777777778],[-87.99722222222222,40.50277777777778],[-88.06555555555555,40.50277777777778],[-88.06555555555555,40.50277777777778],[-88.2025,40.5025],[-88.2025,40.5025],[-88.2025,40.5025],[-88.2025,40.5025],[-88.40583333333333,40.501666666666665],[-88.40583333333333,40.501666666666665],[-88.47444444444444,40.50138888888889],[-88.47444444444444,40.50138888888889],[-88.47444444444444,40.50138888888889],[-88.68,40.5],[-88.68,40.5],[-88.68,40.5],[-88.68,40.5],[-88.68,40.5],[-88.88222222222221,40.498333333333335],[-88.88222222222221,40.498333333333335],[-88.88222222222221,40.498333333333335],[-88.88222222222221,40.498333333333335],[-88.93583333333333,40.49777777777778],[-88.93583333333333,40.49777777777778],[-88.93583333333333,40.49777777777778],[-89.07333333333332,40.49638888888889],[-89.15277777777779,40.495555555555555],[-89.15277777777779,40.495555555555555],[-89.15277777777779,40.495555555555555],[-89.2063888888889,40.495],[-89.42027777777778,40.492222222222225],[-89.42027777777778,40.492222222222225],[-89.42027777777778,40.492222222222225],[-89.42027777777778,40.492222222222225],[-89.47194444444445,40.49166666666667],[-89.47194444444445,40.49166666666667],[-89.47194444444445,40.49166666666667],[-89.47194444444445,40.49166666666667],[-89.47194444444445,40.49166666666667],[-89.75305555555556,40.487500000000004],[-89.75305555555556,40.487500000000004],[-89.75305555555556,40.487500000000004],[-89.75305555555556,40.487500000000004],[-89.75305555555556,40.487500000000004],[-89.82305555555556,40.486111111111114],[-89.82305555555556,40.486111111111114],[-89.82305555555556,40.486111111111114],[-90.47472222222223,40.473055555555554],[-90.47472222222223,40.473055555555554],[-90.47472222222223,40.473055555555554],[-90.47472222222223,40.473055555555554],[-90.47472222222223,40.473055555555554],[-90.47472222222223,40.473055555555554],[-90.55527777777777,40.47138888888889],[-90.55527777777777,40.47138888888889],[-90.88083333333333,40.46333333333334],[-90.88083333333333,40.46333333333334],[-90.88083333333333,40.46333333333334],[-90.88083333333333,40.46333333333334],[-90.88083333333333,40.46333333333334],[-90.88083333333333,40.46333333333334],[-90.88083333333333,40.46333333333334],[-91.31444444444445,40.45111111111111],[-91.31444444444445,40.45111111111111],[-91.31444444444445,40.45111111111111],[-91.31444444444445,40.45111111111111],[-91.31444444444445,40.45111111111111],[-91.71055555555556,40.43861111111111],[-91.71055555555556,40.43861111111111],[-91.71055555555556,40.43861111111111],[-91.71055555555556,40.43861111111111],[-91.71055555555556,40.43861111111111],[-91.76916666666666,40.436388888888885],[-91.98,40.42916666666667],[-92.11416666666666,40.42444444444444],[-92.11416666666666,40.42444444444444],[-92.11416666666666,40.42444444444444],[-92.19416666666667,40.421388888888885],[-92.19416666666667,40.421388888888885],[-92.39194444444445,40.41361111111111],[-92.52722222222222,40.40833333333333],[-92.60055555555554,40.405277777777776],[-92.72694444444444,40.4],[-92.72694444444444,40.4],[-92.72694444444444,40.4],[-92.78166666666667,40.397777777777776],[-92.78166666666667,40.397777777777776],[-92.78166666666667,40.397777777777776],[-92.78166666666667,40.397777777777776],[-93.26611111111112,40.376111111111115],[-93.26611111111112,40.376111111111115],[-93.26611111111112,40.376111111111115],[-93.26611111111112,40.376111111111115],[-93.26611111111112,40.376111111111115],[-93.26611111111112,40.376111111111115],[-93.32111111111111,40.373333333333335],[-93.45611111111111,40.36694444444444],[-93.45611111111111,40.36694444444444],[-93.59055555555555,40.36027777777778],[-93.59055555555555,40.36027777777778],[-93.72611111111111,40.353611111111114],[-93.72611111111111,40.353611111111114],[-93.72611111111111,40.353611111111114],[-93.94166666666668,40.342222222222226],[-93.94166666666668,40.342222222222226],[-93.9961111111111,40.339444444444446],[-94.21083333333334,40.32777777777778],[-94.21083333333334,40.32777777777778],[-94.21083333333334,40.32777777777778],[-94.21083333333334,40.32777777777778],[-94.26638888888888,40.32472222222223],[-94.3461111111111,40.32027777777778],[-94.40305555555557,40.316944444444445],[-94.40305555555557,40.316944444444445],[-94.48166666666667,40.3125],[-94.48166666666667,40.3125],[-94.48166666666667,40.3125],[-94.7525,40.29666666666667],[-94.7525,40.29666666666667],[-94.7525,40.29666666666667],[-94.8875,40.288333333333334],[-94.8875,40.288333333333334],[-94.8875,40.288333333333334],[-94.94194444444445,40.285],[-95.16000000000001,40.271388888888886],[-95.16000000000001,40.271388888888886],[-95.16000000000001,40.271388888888886],[-95.29527777777777,40.26277777777778],[-95.29527777777777,40.26277777777778],[-95.56944444444444,40.24472222222222],[-95.56944444444444,40.24472222222222],[-95.56944444444444,40.24472222222222],[-95.62083333333332,40.24138888888889],[-95.62083333333332,40.24138888888889],[-95.62083333333332,40.24138888888889],[-95.845,40.225833333333334],[-95.845,40.225833333333334],[-96.12416666666665,40.20611111111111],[-96.12416666666665,40.20611111111111],[-96.12416666666665,40.20611111111111],[-96.26305555555555,40.20138888888889],[-96.32194444444444,40.2025],[-96.40083333333334,40.20388888888889],[-96.40083333333334,40.20388888888889],[-96.46055555555556,40.205000000000005],[-96.46055555555556,40.205000000000005],[-96.46055555555556,40.205000000000005],[-96.5411111111111,40.20638888888889],[-96.5411111111111,40.20638888888889],[-96.5411111111111,40.20638888888889],[-96.5411111111111,40.20638888888889],[-96.81916666666666,40.21055555555556],[-96.89166666666668,40.211666666666666],[-96.95805555555556,40.21277777777778],[-96.95805555555556,40.21277777777778],[-96.95805555555556,40.21277777777778],[-97.0975,40.214444444444446],[-97.23833333333333,40.21611111111111],[-97.51222222222222,40.218611111111116],[-97.51222222222222,40.218611111111116],[-97.51222222222222,40.218611111111116],[-97.76194444444444,40.220555555555556],[-97.76194444444444,40.220555555555556],[-97.76194444444444,40.220555555555556],[-97.90305555555557,40.22138888888889],[-97.90305555555557,40.22138888888889],[-98.07249999999999,40.221944444444446],[-98.07249999999999,40.221944444444446],[-98.07249999999999,40.221944444444446],[-98.18527777777778,40.222500000000004],[-98.18527777777778,40.222500000000004],[-98.18527777777778,40.222500000000004],[-98.18527777777778,40.222500000000004],[-98.60583333333332,40.22277777777778],[-98.60583333333332,40.22277777777778],[-98.60583333333332,40.22277777777778],[-98.74694444444445,40.222500000000004],[-98.74694444444445,40.222500000000004],[-98.74694444444445,40.222500000000004],[-98.77388888888889,40.222500000000004],[-98.77388888888889,40.222500000000004],[-98.88722222222223,40.22222222222222],[-98.88722222222223,40.22222222222222],[-99.16250000000001,40.22083333333334],[-99.16250000000001,40.22083333333334],[-99.58944444444444,40.2175],[-99.61749999999999,40.2175],[-99.75916666666667,40.215833333333336],[-99.75916666666667,40.215833333333336],[-99.86972222222222,40.21472222222223],[-99.86972222222222,40.21472222222223],[-100.0075,40.21277777777778],[-100.28972222222222,40.20888888888889],[-100.28972222222222,40.20888888888889],[-100.28972222222222,40.20888888888889],[-100.28972222222222,40.20888888888889],[-100.28972222222222,40.20888888888889],[-100.43138888888889,40.20666666666667],[-100.45666666666666,40.20638888888889],[-100.45666666666666,40.20638888888889],[-100.45666666666666,40.20638888888889],[-100.45666666666666,40.20638888888889],[-100.71666666666667,40.19833333333333],[-100.71666666666667,40.19833333333333],[-100.71666666666667,40.19833333333333],[-101.00277777777778,40.184999999999995],[-101.00277777777778,40.184999999999995],[-101.00277777777778,40.184999999999995],[-101.00277777777778,40.184999999999995],[-101.28777777777778,40.17111111111111],[-101.28777777777778,40.17111111111111],[-101.28777777777778,40.17111111111111],[-101.28777777777778,40.17111111111111],[-101.43166666666667,40.163888888888884],[-101.43166666666667,40.163888888888884],[-101.57527777777777,40.156388888888884],[-101.57527777777777,40.156388888888884],[-101.57527777777777,40.156388888888884],[-101.71583333333334,40.14888888888889],[-101.71583333333334,40.14888888888889],[-101.71583333333334,40.14888888888889],[-101.71583333333334,40.14888888888889],[-101.85972222222222,40.14111111111111],[-101.94555555555556,40.13527777777778],[-101.94555555555556,40.13527777777778],[-101.94555555555556,40.13527777777778],[-101.94555555555556,40.13527777777778],[-102.14361111111111,40.125277777777775],[-102.14361111111111,40.125277777777775],[-102.14361111111111,40.125277777777775],[-102.23166666666667,40.11888888888889],[-102.23166666666667,40.11888888888889],[-102.23166666666667,40.11888888888889],[-102.42888888888889,40.108333333333334],[-102.42888888888889,40.108333333333334],[-102.57194444444444,40.099722222222226],[-102.57194444444444,40.099722222222226],[-102.6588888888889,40.09277777777778],[-102.6588888888889,40.09277777777778],[-102.6588888888889,40.09277777777778],[-102.6588888888889,40.09277777777778],[-102.6588888888889,40.09277777777778],[-102.86861111111111,40.081388888888895],[-102.86861111111111,40.081388888888895],[-102.86861111111111,40.081388888888895],[-102.86861111111111,40.081388888888895],[-103.01583333333333,40.07166666666667],[-103.01583333333333,40.07166666666667],[-103.01583333333333,40.07166666666667],[-103.01583333333333,40.07166666666667],[-103.09916666666666,40.066111111111105],[-103.09916666666666,40.066111111111105],[-103.09916666666666,40.066111111111105],[-103.38472222222222,40.04527777777778],[-103.38472222222222,40.04527777777778],[-103.38472222222222,40.04527777777778],[-103.38472222222222,40.04527777777778],[-103.52388888888889,40.03611111111111],[-103.52388888888889,40.03611111111111],[-103.52388888888889,40.03611111111111],[-103.52388888888889,40.03611111111111],[-103.52388888888889,40.03611111111111],[-103.71805555555555,40.02388888888889],[-103.71805555555555,40.02388888888889],[-103.85555555555555,40.013888888888886],[-103.85555555555555,40.013888888888886],[-103.85555555555555,40.013888888888886],[-103.94277777777778,40.006388888888885],[-103.94277777777778,40.006388888888885],[-104.13305555555554,39.99333333333333],[-104.13305555555554,39.99333333333333],[-104.13305555555554,39.99333333333333],[-104.13305555555554,39.99333333333333],[-104.13305555555554,39.99333333333333],[-104.13305555555554,39.99333333333333],[-104.35944444444443,39.97555555555556],[-104.35944444444443,39.97555555555556],[-104.35944444444443,39.97555555555556],[-104.35944444444443,39.97555555555556],[-104.55333333333333,39.961111111111116],[-104.55333333333333,39.961111111111116],[-104.55333333333333,39.961111111111116],[-104.83361111111111,39.93888888888888],[-104.83361111111111,39.93888888888888],[-104.83361111111111,39.93888888888888],[-104.83361111111111,39.93888888888888],[-104.92222222222223,39.93111111111111],[-105.0675,39.91972222222222],[-105.0675,39.91972222222222],[-105.0675,39.91972222222222],[-105.11138888888888,39.91611111111111],[-105.11138888888888,39.91611111111111],[-105.11138888888888,39.91611111111111],[-105.11138888888888,39.91611111111111],[-105.20722222222223,39.908055555555556],[-105.25166666666667,39.90416666666667],[-105.34694444444445,39.89527777777778],[-105.34694444444445,39.89527777777778],[-105.34694444444445,39.89527777777778],[-105.34694444444445,39.89527777777778],[-105.34694444444445,39.89527777777778],[-105.63222222222221,39.86972222222222],[-105.6763888888889,39.8675],[-105.6763888888889,39.8675],[-105.6763888888889,39.8675],[-105.77638888888889,39.85888888888889],[-105.77638888888889,39.85888888888889],[-105.77638888888889,39.85888888888889],[-105.77638888888889,39.85888888888889],[-105.82138888888889,39.85472222222222],[-105.92,39.845555555555556],[-105.96527777777779,39.84138888888889],[-105.96527777777779,39.84138888888889],[-105.96527777777779,39.84138888888889],[-105.96527777777779,39.84138888888889],[-106.10638888888889,39.828611111111115],[-106.10638888888889,39.828611111111115],[-106.10638888888889,39.828611111111115],[-106.24916666666667,39.81527777777777],[-106.24916666666667,39.81527777777777],[-106.24916666666667,39.81527777777777],[-106.24916666666667,39.81527777777777],[-106.39805555555556,39.80138888888889],[-106.39805555555556,39.80138888888889],[-106.39805555555556,39.80138888888889],[-106.71555555555555,39.76861111111111],[-106.71555555555555,39.76861111111111],[-106.85944444444443,39.75277777777778],[-106.85944444444443,39.75277777777778],[-106.85944444444443,39.75277777777778],[-106.99833333333333,39.73722222222222],[-106.99833333333333,39.73722222222222],[-106.99833333333333,39.73722222222222],[-106.99833333333333,39.73722222222222],[-107.07472222222222,39.727222222222224],[-107.07472222222222,39.727222222222224],[-107.14055555555557,39.72138888888889],[-107.21805555555555,39.71194444444445],[-107.21805555555555,39.71194444444445],[-107.3625,39.69611111111111],[-107.41555555555556,39.69],[-107.41555555555556,39.69],[-107.41555555555556,39.69],[-107.41555555555556,39.69],[-107.55499999999999,39.67388888888889],[-107.55499999999999,39.67388888888889],[-107.63972222222223,39.663333333333334],[-107.63972222222223,39.663333333333334],[-107.63972222222223,39.663333333333334],[-107.63972222222223,39.663333333333334],[-107.78277777777778,39.64666666666667],[-107.78277777777778,39.64666666666667],[-107.78277777777778,39.64666666666667],[-107.78277777777778,39.64666666666667],[-107.78277777777778,39.64666666666667],[-107.85083333333333,39.63916666666667],[-108.21333333333334,39.59527777777778],[-108.21333333333334,39.59527777777778],[-108.21333333333334,39.59527777777778],[-108.2825,39.58694444444445],[-108.2825,39.58694444444445],[-108.2825,39.58694444444445],[-108.42555555555556,39.56888888888889],[-108.42555555555556,39.56888888888889],[-108.42555555555556,39.56888888888889],[-108.64277777777778,39.541666666666664],[-108.64277777777778,39.541666666666664],[-108.64277777777778,39.541666666666664],[-108.64277777777778,39.541666666666664],[-108.69833333333334,39.53472222222222],[-108.69833333333334,39.53472222222222],[-109.2125,39.468611111111116],[-109.2125,39.468611111111116],[-109.2125,39.468611111111116],[-109.2125,39.468611111111116],[-109.40722222222223,39.442499999999995],[-109.40722222222223,39.442499999999995],[-109.40722222222223,39.442499999999995],[-109.40722222222223,39.442499999999995],[-109.49333333333334,39.43111111111111],[-109.54638888888888,39.42388888888889],[-109.54638888888888,39.42388888888889],[-109.63111111111111,39.4125],[-109.68805555555556,39.405],[-109.68805555555556,39.405],[-109.77444444444444,39.393055555555556],[-109.82805555555555,39.385555555555555],[-109.82805555555555,39.385555555555555],[-109.82805555555555,39.385555555555555],[-109.91472222222222,39.37388888888889],[-109.91472222222222,39.37388888888889],[-109.91472222222222,39.37388888888889],[-110.10666666666665,39.34722222222222],[-110.10666666666665,39.34722222222222],[-110.10666666666665,39.34722222222222],[-110.19083333333333,39.33527777777778],[-110.19083333333333,39.33527777777778],[-110.38222222222221,39.30833333333333],[-110.38222222222221,39.30833333333333],[-110.38222222222221,39.30833333333333],[-110.38222222222221,39.30833333333333],[-110.38222222222221,39.30833333333333],[-110.49277777777777,39.29277777777778],[-110.52,39.288888888888884],[-110.62944444444443,39.27305555555555],[-110.65722222222223,39.26888888888889],[-110.65722222222223,39.26888888888889],[-110.65722222222223,39.26888888888889],[-110.7675,39.253055555555555],[-110.7675,39.253055555555555],[-110.7675,39.253055555555555],[-110.7675,39.253055555555555],[-110.90805555555556,39.23222222222223],[-110.90805555555556,39.23222222222223],[-110.90805555555556,39.23222222222223],[-111.60944444444443,39.12694444444445],[-111.60944444444443,39.12694444444445],[-111.60944444444443,39.12694444444445],[-111.60944444444443,39.12694444444445],[-111.60944444444443,39.12694444444445],[-111.60944444444443,39.12694444444445],[-112.45305555555557,38.994166666666665],[-112.45305555555557,38.994166666666665],[-112.45305555555557,38.994166666666665],[-112.45305555555557,38.994166666666665],[-112.45305555555557,38.994166666666665],[-112.87416666666665,38.925555555555555],[-112.87416666666665,38.925555555555555],[-112.87416666666665,38.925555555555555],[-112.87416666666665,38.925555555555555],[-112.87416666666665,38.925555555555555],[-113.01222222222222,38.902499999999996],[-113.15305555555557,38.87888888888889],[-113.15305555555557,38.87888888888889],[-113.15305555555557,38.87888888888889],[-113.15305555555557,38.87888888888889],[-113.29388888888889,38.85527777777778],[-113.29388888888889,38.85527777777778],[-113.29388888888889,38.85527777777778],[-113.29388888888889,38.85527777777778],[-113.72027777777778,38.7825],[-113.72027777777778,38.7825],[-113.72027777777778,38.7825],[-113.72027777777778,38.7825],[-113.72027777777778,38.7825],[-113.72027777777778,38.7825],[-114.14861111111112,38.70722222222223],[-114.14861111111112,38.70722222222223],[-114.14861111111112,38.70722222222223],[-114.2911111111111,38.68194444444444],[-114.2911111111111,38.68194444444444],[-114.2911111111111,38.68194444444444],[-114.2911111111111,38.68194444444444],[-114.2911111111111,38.68194444444444],[-114.2911111111111,38.68194444444444],[-114.43222222222222,38.656666666666666],[-114.43222222222222,38.656666666666666],[-114.5775,38.63055555555555],[-114.5775,38.63055555555555],[-114.5775,38.63055555555555],[-114.86083333333333,38.57888888888889],[-114.86083333333333,38.57888888888889],[-114.86083333333333,38.57888888888889],[-114.86083333333333,38.57888888888889],[-114.86083333333333,38.57888888888889],[-114.99861111111112,38.55333333333333],[-114.99861111111112,38.55333333333333],[-115.18194444444445,38.51916666666666],[-115.18194444444445,38.51916666666666],[-115.32305555555556,38.493611111111115],[-115.32305555555556,38.493611111111115],[-115.40222222222222,38.47777777777778],[-115.40222222222222,38.47777777777778],[-115.46277777777777,38.467777777777776],[-115.46277777777777,38.467777777777776],[-115.82472222222222,38.39722222222222],[-115.82472222222222,38.39722222222222],[-115.82472222222222,38.39722222222222],[-115.82472222222222,38.39722222222222],[-115.82472222222222,38.39722222222222],[-115.82472222222222,38.39722222222222],[-115.96527777777779,38.37],[-115.96527777777779,38.37],[-116.10499999999999,38.34277777777778],[-116.10499999999999,38.34277777777778],[-116.10499999999999,38.34277777777778],[-116.16222222222223,38.331388888888895],[-116.16222222222223,38.331388888888895],[-116.16222222222223,38.331388888888895],[-116.24333333333334,38.315555555555555],[-116.24333333333334,38.315555555555555],[-116.24333333333334,38.315555555555555],[-116.52111111111111,38.26027777777778],[-116.52111111111111,38.26027777777778],[-116.52111111111111,38.26027777777778],[-116.52111111111111,38.26027777777778],[-116.65972222222223,38.2325],[-116.65972222222223,38.2325],[-116.71638888888889,38.221111111111114],[-116.71638888888889,38.221111111111114],[-116.80361111111111,38.203611111111115],[-116.80361111111111,38.203611111111115],[-117.08972222222222,38.14527777777778],[-117.08972222222222,38.14527777777778],[-117.08972222222222,38.14527777777778],[-117.08972222222222,38.14527777777778],[-117.15,38.132777777777775],[-117.15,38.132777777777775],[-117.15,38.132777777777775],[-117.29527777777777,38.10277777777778],[-117.39111111111112,38.08305555555556],[-117.39111111111112,38.08305555555556],[-117.39111111111112,38.08305555555556],[-117.4225,38.07638888888889],[-117.4225,38.07638888888889],[-117.68361111111112,38.02166666666667],[-117.68361111111112,38.02166666666667],[-117.68361111111112,38.02166666666667],[-117.68361111111112,38.02166666666667],[-117.98027777777779,37.981388888888894],[-118.01305555555555,37.97777777777778],[-118.27916666666667,37.94916666666666],[-118.27916666666667,37.94916666666666],[-118.27916666666667,37.94916666666666],[-118.27916666666667,37.94916666666666],[-118.46444444444445,37.928888888888885],[-118.46444444444445,37.928888888888885],[-118.46444444444445,37.928888888888885],[-118.9263888888889,37.87722222222222],[-118.9263888888889,37.87722222222222],[-118.9263888888889,37.87722222222222],[-118.9263888888889,37.87722222222222],[-118.9263888888889,37.87722222222222],[-119.09777777777778,37.8575],[-119.09777777777778,37.8575],[-119.09777777777778,37.8575],[-119.09777777777778,37.8575],[-119.56333333333333,37.80305555555555],[-119.56333333333333,37.80305555555555],[-119.56333333333333,37.80305555555555],[-119.71555555555555,37.78444444444444],[-119.71555555555555,37.78444444444444],[-119.71555555555555,37.78444444444444],[-119.99916666666667,37.75],[-119.99916666666667,37.75],[-119.99916666666667,37.75],[-119.99916666666667,37.75],[-120.60333333333332,37.67583333333333],[-120.60333333333332,37.67583333333333],[-120.60333333333332,37.67583333333333],[-120.60333333333332,37.67583333333333],[-120.85,37.65],[-120.85,37.65],[-121.16666666666667,37.6],[-121.16666666666667,37.6],[-121.22888888888889,37.597500000000004],[-121.22888888888889,37.597500000000004],[-121.22888888888889,37.597500000000004],[-121.26666666666667,37.583333333333336],[-121.26666666666667,37.583333333333336],[-121.26666666666667,37.583333333333336],[-121.51277777777777,37.56388888888888],[-121.51277777777777,37.56388888888888],[-121.51277777777777,37.56388888888888],[-121.55,37.56666666666667],[-121.55,37.56666666666667],[-121.60499999999999,37.55333333333333],[-121.60499999999999,37.55333333333333],[-121.81666666666666,37.5],[-121.81666666666666,37.5],[-121.81666666666666,37.5],[-121.86305555555555,37.49388888888889],[-121.9,37.5],[-121.98333333333333,37.5],[-121.98333333333333,37.5],[-122.06666666666666,37.5],[-122.06666666666666,37.5],[-122.06666666666666,37.5],[-122.06666666666666,37.5],[-122.06666666666666,37.5],[-122.20305555555557,37.54861111111111],[-122.20305555555557,37.54861111111111],[-122.20305555555557,37.54861111111111],[-122.23333333333333,37.56666666666667],[-122.2525,37.56944444444445],[-122.2525,37.56944444444445],[-122.2525,37.56944444444445],[-122.31666666666666,37.6],[-122.31666666666666,37.6],[-122.33166666666666,37.60277777777778],[-122.33166666666666,37.60277777777778],[-122.35,37.61666666666667],[-122.35,37.61666666666667]],"type":"LineString"}
}
