{
  "id": 2014824977,
  "type": "Feature",
  "properties": {
    "geom:area": 0,
    "geom:bbox": "-122.762180,37.390050,-122.081570,38.430030",
    "geom:latitude": 37.773934915008645,
    "geom:longitude": -122.4566175888022,
    "src:alt_label": "swim-approach",
    "src:geom": "swim",
    "swim:elevations": [
      7559,
      7200,
      7132,
      6706,
      6667,
      6047,
      5891,
      5403,
      5050,
      4770,
      4468,
      4374,
      3977,
      3670,
      3479,
      3368,
      3358,
      3373,
      3353,
      3353,
      3353,
      3353,
      3302,
      3137,
      3010,
      2779,
      2639,
      2470,
      2096,
      2039,
      1851,
      1831,
      1703,
      1679,
      1405,
      1220,
      1219,
      1219,
      1219,
      1219,
      1160,
      1096,
      885,
      849,
      811,
      700,
      554,
      427,
      398,
      215,
      120,
      0
    ],
    "swim:geom": "approach",
    "swim:timestamps": [
      1771406034,
      1771406064,
      1771406074,
      1771406117,
      1771406120,
      1771406154,
      1771406179,
      1771406215,
      1771406243,
      1771406271,
      1771406307,
      1771406324,
      1771406365,
      1771406389,
      1771406406,
      1771406438,
      1771406455,
      1771406461,
      1771406479,
      1771406502,
      1771406548,
      1771406577,
      1771406596,
      1771406627,
      1771406648,
      1771406683,
      1771406713,
      1771406738,
      1771406786,
      1771406790,
      1771406813,
      1771406815,
      1771406845,
      1771406865,
      1771406894,
      1771406934,
      1771406961,
      1771406970,
      1771406991,
      1771407001,
      1771407056,
      1771407079,
      1771407118,
      1771407131,
      1771407141,
      1771407170,
      1771407201,
      1771407238,
      1771407247,
      1771407297,
      1771407325,
      1771407354
    ],
    "wof:geomhash": "38fb64282dd62c04d02538f7f8099500",
    "wof:id": 2014824977,
    "wof:repo": "sfomuseum-data-flights-2026-02"
  },
  "bbox": [
    -122.76218,
    37.39005,
    -122.08157,
    38.43003
  ],
  "geometry": {"coordinates":[[-122.70958,38.43003],[-122.72573,38.37241],[-122.73069,38.35451],[-122.75196,38.27797],[-122.75338,38.27279],[-122.76218,38.21147],[-122.74893,38.16465],[-122.73114,38.10185],[-122.71708,38.0528],[-122.70299,38.00406],[-122.68546,37.94366],[-122.67691,37.91506],[-122.62896,37.85833],[-122.59713,37.82835],[-122.57539,37.80778],[-122.53734,37.7719],[-122.51883,37.7544],[-122.51303,37.74881],[-122.49441,37.73102],[-122.47035,37.70829],[-122.42376,37.66451],[-122.39302,37.63569],[-122.37332,37.61699],[-122.35256,37.58187],[-122.33804,37.55915],[-122.31448,37.52083],[-122.29504,37.48911],[-122.27932,37.46336],[-122.24418,37.418],[-122.2384,37.41482],[-122.21015,37.40322],[-122.20615,37.4019],[-122.16777,37.39005],[-122.14276,37.39235],[-122.11537,37.4059],[-122.09332,37.43829],[-122.08157,37.45985],[-122.08286,37.46795],[-122.09355,37.48366],[-122.09895,37.49068],[-122.13831,37.51885],[-122.15676,37.52675],[-122.18796,37.54015],[-122.1978,37.54427],[-122.20549,37.5474],[-122.22835,37.557],[-122.25298,37.56746],[-122.28216,37.57974],[-122.28801,37.5822],[-122.32102,37.59606],[-122.33976,37.60394],[-122.3594,37.61235]],"type":"LineString"}
}
