{
  "id": 2014887661,
  "type": "Feature",
  "properties": {
    "geom:area": 0,
    "geom:bbox": "-122.319167,32.921667,-97.050000,38.333889",
    "geom:latitude": 36.44773838823783,
    "geom:longitude": -109.5001575838853,
    "src:alt_label": "swim-path",
    "src:geom": "swim",
    "swim:altitudes": [
      "038",
      "091",
      "161",
      "284",
      "300C",
      "300C",
      "300C",
      "301C",
      "300C",
      "300C",
      "300C",
      "300C",
      "300C",
      "300C",
      "300C",
      "300C",
      "300C",
      "300C",
      "300C",
      "300C",
      "300C",
      "300C",
      "300C",
      "300",
      "191",
      "106",
      "007"
    ],
    "swim:geom": "path",
    "swim:speeds": [
      246,
      282,
      387,
      378,
      375,
      379,
      380,
      386,
      384,
      387,
      394,
      392,
      392,
      388,
      393,
      388,
      389,
      387,
      391,
      390,
      393,
      398,
      400,
      401,
      338,
      314,
      148
    ],
    "swim:timestamps": [
      1772169691,
      1772169822,
      1772170086,
      1772170626,
      1772171046,
      1772171647,
      1772172367,
      1772172925,
      1772173466,
      1772173732,
      1772174304,
      1772174785,
      1772175053,
      1772175293,
      1772175593,
      1772176266,
      1772176433,
      1772177046,
      1772177346,
      1772178307,
      1772178968,
      1772179388,
      1772179627,
      1772180589,
      1772181207,
      1772181489,
      1772182090
    ],
    "wof:geomhash": "dcf5644085440d91f2e915cd5ab9b815",
    "wof:id": 2014887661,
    "wof:repo": "sfomuseum-data-flights-2026-02"
  },
  "bbox": [
    -122.31916666666666,
    32.92166666666667,
    -97.05,
    38.33388888888889
  ],
  "geometry": {"coordinates":[[-97.05,33],[-97.18333333333334,33.083333333333336],[-97.6463888888889,32.92166666666667],[-98.66638888888889,33.261944444444445],[-99.44500000000001,33.58916666666667],[-100.56944444444444,34.049166666666665],[-101.95111111111112,34.593611111111116],[-103.05638888888889,35.01305555555555],[-104.1286111111111,35.40611111111111],[-104.67694444444444,35.60138888888889],[-105.8425,36.00805555555556],[-106.83833333333332,36.3425],[-107.38666666666667,36.52166666666667],[-107.88666666666667,36.68138888888889],[-108.51777777777778,36.8775],[-109.95861111111111,37.30694444444444],[-110.29416666666667,37.40361111111111],[-111.62805555555555,37.74388888888889],[-112.28888888888889,37.880833333333335],[-114.41777777777779,38.24305555555556],[-115.94666666666667,38.33388888888889],[-116.9113888888889,38.216944444444444],[-117.455,38.14333333333333],[-119.67361111111111,37.81666666666667],[-121.05,37.61666666666667],[-121.55222222222221,37.55916666666666],[-122.31916666666666,37.597500000000004]],"type":"LineString"}
}
