{
  "id": 2014872279,
  "type": "Feature",
  "properties": {
    "geom:area": 0,
    "geom:bbox": "-122.351120,36.728450,-121.882680,37.608600",
    "geom:latitude": 37.209274802586904,
    "geom:longitude": -122.06894272940302,
    "src:alt_label": "swim-approach",
    "src:geom": "swim",
    "swim:elevations": [
      5497,
      5110,
      4964,
      4822,
      4652,
      4416,
      3919,
      3756,
      3262,
      3219,
      3167,
      3043,
      2837,
      2773,
      2526,
      2206,
      2191,
      2163,
      2046,
      1978,
      1769,
      1712,
      1581,
      1354,
      1215,
      985,
      850,
      617,
      351,
      229,
      211,
      127,
      41
    ],
    "swim:geom": "approach",
    "swim:timestamps": [
      1771924696,
      1771924736,
      1771924749,
      1771924763,
      1771924781,
      1771924804,
      1771924851,
      1771924868,
      1771924917,
      1771924923,
      1771924932,
      1771924976,
      1771925006,
      1771925016,
      1771925050,
      1771925096,
      1771925110,
      1771925121,
      1771925154,
      1771925172,
      1771925214,
      1771925227,
      1771925257,
      1771925285,
      1771925303,
      1771925338,
      1771925352,
      1771925376,
      1771925424,
      1771925457,
      1771925460,
      1771925484,
      1771925500
    ],
    "wof:geomhash": "e6d91392b982c07a473a69be1331f950",
    "wof:id": 2014872279,
    "wof:repo": "sfomuseum-data-flights-2026-02"
  },
  "bbox": [
    -122.35112,
    36.72845,
    -121.88268,
    37.6086
  ],
  "geometry": {"coordinates":[[-121.88268,36.72845],[-121.90824,36.79249],[-121.91429,36.81438],[-121.92053,36.83724],[-121.92886,36.86639],[-121.93979,36.90456],[-121.96441,36.98017],[-121.97441,37.00596],[-122.00331,37.08095],[-122.00705,37.09055],[-122.01231,37.10412],[-122.03589,37.16491],[-122.05153,37.2044],[-122.05658,37.21701],[-122.07434,37.26142],[-122.0973,37.32055],[-122.10411,37.33783],[-122.10906,37.35054],[-122.12376,37.38916],[-122.13036,37.40868],[-122.14475,37.45044],[-122.149,37.46296],[-122.15797,37.48907],[-122.17083,37.5124],[-122.18665,37.52242],[-122.21582,37.54232],[-122.22767,37.55038],[-122.24752,37.56362],[-122.29041,37.58331],[-122.31645,37.594],[-122.31946,37.5953],[-122.33829,37.60318],[-122.35112,37.6086]],"type":"LineString"}
}
