{
  "id": 2014815895,
  "type": "Feature",
  "properties": {
    "geom:area": 0,
    "geom:bbox": "-123.494280,37.260010,-122.099180,37.610370",
    "geom:latitude": 37.359466289428475,
    "geom:longitude": -122.68522217398824,
    "src:alt_label": "swim-approach",
    "src:geom": "swim",
    "swim:elevations": [
      5241,
      4954,
      4889,
      4782,
      4467,
      4234,
      4017,
      3765,
      3542,
      3402,
      3285,
      3144,
      3080,
      3048,
      3048,
      2964,
      2716,
      2582,
      2438,
      2368,
      2320,
      1964,
      1915,
      1829,
      1829,
      1809,
      1710,
      1523,
      1486,
      1399,
      1322,
      1219,
      1156,
      1035,
      986,
      966,
      935,
      936,
      851,
      805,
      655,
      513,
      428,
      290,
      273,
      207,
      94,
      45
    ],
    "swim:geom": "approach",
    "swim:timestamps": [
      1771363815,
      1771363851,
      1771363860,
      1771363877,
      1771363916,
      1771363947,
      1771363973,
      1771364006,
      1771364036,
      1771364053,
      1771364067,
      1771364088,
      1771364108,
      1771364142,
      1771364175,
      1771364193,
      1771364224,
      1771364245,
      1771364272,
      1771364302,
      1771364314,
      1771364368,
      1771364374,
      1771364427,
      1771364448,
      1771364483,
      1771364505,
      1771364543,
      1771364552,
      1771364587,
      1771364606,
      1771364630,
      1771364642,
      1771364685,
      1771364716,
      1771364732,
      1771364756,
      1771364771,
      1771364788,
      1771364794,
      1771364833,
      1771364863,
      1771364898,
      1771364934,
      1771364941,
      1771364964,
      1771364997,
      1771365017
    ],
    "wof:geomhash": "dd7957df0ed5a7b78b5ca2c82513860a",
    "wof:id": 2014815895,
    "wof:repo": "sfomuseum-data-flights-2026-02"
  },
  "bbox": [
    -123.49428,
    37.26001,
    -122.09918,
    37.61037
  ],
  "geometry": {"coordinates":[[-123.49428,37.30471],[-123.41915,37.29929],[-123.40024,37.2979],[-123.3639,37.29527],[-123.28088,37.28922],[-123.21639,37.28443],[-123.1622,37.28042],[-123.09538,37.27535],[-123.03315,37.27065],[-122.99914,37.268],[-122.97147,37.26592],[-122.93163,37.2629],[-122.8937,37.26001],[-122.83273,37.26468],[-122.776,37.27808],[-122.74384,37.28551],[-122.69117,37.29782],[-122.65473,37.30642],[-122.60871,37.31707],[-122.55766,37.32895],[-122.53626,37.33388],[-122.44753,37.35429],[-122.4375,37.35654],[-122.35292,37.37598],[-122.32167,37.38309],[-122.26993,37.39522],[-122.23662,37.40283],[-122.1794,37.41576],[-122.16599,37.41873],[-122.11958,37.43397],[-122.10521,37.44968],[-122.09918,37.46917],[-122.10347,37.47768],[-122.12265,37.50618],[-122.14376,37.5215],[-122.15598,37.52647],[-122.1753,37.53456],[-122.18721,37.53972],[-122.201,37.54549],[-122.20579,37.54741],[-122.23677,37.56059],[-122.26043,37.57064],[-122.28209,37.5796],[-122.30414,37.589],[-122.30851,37.59081],[-122.32297,37.59684],[-122.34341,37.60544],[-122.35523,37.61037]],"type":"LineString"}
}
