{
  "id": 2014748491,
  "type": "Feature",
  "properties": {
    "geom:area": 0,
    "geom:bbox": "-123.482850,36.971080,-122.121050,37.608250",
    "geom:latitude": 37.28765632305105,
    "geom:longitude": -122.71223626910479,
    "src:alt_label": "swim-approach",
    "src:geom": "swim",
    "swim:elevations": [
      6221,
      5977,
      5493,
      5159,
      5016,
      4723,
      4523,
      4204,
      4007,
      3680,
      3362,
      3128,
      3080,
      3046,
      2997,
      2924,
      2621,
      2592,
      2478,
      2439,
      2438,
      2438,
      2438,
      2438,
      2438,
      2438,
      2438,
      2438,
      2438,
      2406,
      2330,
      2179,
      2037,
      1820,
      1659,
      1356,
      1257,
      1077,
      972,
      831,
      728,
      536,
      491,
      336,
      233,
      192,
      94
    ],
    "swim:geom": "approach",
    "swim:timestamps": [
      1770678854,
      1770678878,
      1770678924,
      1770678956,
      1770678971,
      1770678997,
      1770679018,
      1770679048,
      1770679068,
      1770679103,
      1770679132,
      1770679166,
      1770679197,
      1770679206,
      1770679215,
      1770679230,
      1770679275,
      1770679293,
      1770679333,
      1770679348,
      1770679375,
      1770679381,
      1770679389,
      1770679415,
      1770679454,
      1770679498,
      1770679522,
      1770679548,
      1770679582,
      1770679590,
      1770679602,
      1770679629,
      1770679650,
      1770679691,
      1770679715,
      1770679767,
      1770679780,
      1770679820,
      1770679850,
      1770679886,
      1770679908,
      1770679945,
      1770679951,
      1770679978,
      1770680005,
      1770680015,
      1770680042
    ],
    "wof:geomhash": "b9be9452f7854667002655ca88374644",
    "wof:id": 2014748491,
    "wof:repo": "sfomuseum-data-flights-2026-02"
  },
  "bbox": [
    -123.48285,
    36.97108,
    -122.12105,
    37.60825
  ],
  "geometry": {"coordinates":[[-123.48285,36.97108],[-123.4303,36.99576],[-123.33101,37.04156],[-123.26351,37.07318],[-123.23261,37.08762],[-123.17979,37.11202],[-123.13788,37.13134],[-123.07963,37.15824],[-123.04128,37.17607],[-122.9774,37.20533],[-122.92408,37.22957],[-122.86329,37.25572],[-122.80837,37.27021],[-122.79313,37.27388],[-122.77818,37.27741],[-122.75353,37.2832],[-122.68164,37.29998],[-122.65329,37.30652],[-122.59592,37.31983],[-122.5758,37.32467],[-122.54056,37.33288],[-122.53211,37.33479],[-122.52211,37.33713],[-122.48733,37.34509],[-122.43602,37.35689],[-122.38292,37.36928],[-122.35545,37.37563],[-122.32633,37.38232],[-122.28662,37.3913],[-122.27811,37.39322],[-122.26422,37.39634],[-122.23348,37.40332],[-122.21005,37.40879],[-122.16445,37.41918],[-122.1411,37.42792],[-122.12105,37.47081],[-122.12467,37.48249],[-122.15405,37.50987],[-122.17586,37.52891],[-122.20403,37.54919],[-122.2275,37.55851],[-122.26404,37.57404],[-122.26957,37.57647],[-122.29265,37.5865],[-122.31519,37.59593],[-122.32294,37.59922],[-122.3445,37.60825]],"type":"LineString"}
}
