{
  "id": 2014844909,
  "type": "Feature",
  "properties": {
    "geom:area": 0,
    "geom:bbox": "-122.510950,36.729840,-121.308250,37.704740",
    "geom:latitude": 37.22045976728608,
    "geom:longitude": -122.00371173564808,
    "src:alt_label": "swim-takeoff",
    "src:geom": "swim",
    "swim:elevations": [
      664,
      933,
      1163,
      1311,
      2030,
      2495,
      2682,
      3279,
      3493,
      3801,
      4048,
      4599,
      4997,
      5342,
      5442,
      5745,
      6360,
      6647,
      6844,
      7031,
      7376,
      7439,
      7522,
      7819,
      8166,
      8464,
      8639,
      8837,
      8839,
      8839,
      8839,
      8839,
      8839,
      8839
    ],
    "swim:geom": "takeoff",
    "swim:timestamps": [
      1771577188,
      1771577209,
      1771577238,
      1771577257,
      1771577307,
      1771577338,
      1771577349,
      1771577389,
      1771577405,
      1771577428,
      1771577446,
      1771577482,
      1771577513,
      1771577542,
      1771577552,
      1771577577,
      1771577627,
      1771577667,
      1771577690,
      1771577713,
      1771577754,
      1771577784,
      1771577798,
      1771577837,
      1771577877,
      1771577907,
      1771577924,
      1771577949,
      1771577990,
      1771578004,
      1771578046,
      1771578054,
      1771578060,
      1771578094
    ],
    "wof:geomhash": "28b5479aa07dc525b80448356302f6d8",
    "wof:id": 2014844909,
    "wof:repo": "sfomuseum-data-flights-2026-02"
  },
  "bbox": [
    -122.51095,
    36.72984,
    -121.30825,
    37.70474
  ],
  "geometry": {"coordinates":[[-122.36208,37.66101],[-122.36151,37.67823],[-122.37447,37.69967],[-122.39855,37.70474],[-122.47086,37.68879],[-122.50586,37.66322],[-122.51095,37.64841],[-122.5106,37.59488],[-122.49843,37.57535],[-122.4791,37.54528],[-122.46408,37.52238],[-122.43106,37.47466],[-122.38892,37.44165],[-122.34382,37.4124],[-122.32772,37.40199],[-122.28816,37.3758],[-122.20743,37.32342],[-122.14113,37.28039],[-122.09989,37.25355],[-122.06009,37.22751],[-121.98504,37.17826],[-121.92827,37.14089],[-121.90033,37.12243],[-121.82226,37.07119],[-121.74089,37.0176],[-121.68053,36.97761],[-121.64533,36.95466],[-121.59715,36.92261],[-121.51361,36.86691],[-121.48642,36.84892],[-121.404,36.794],[-121.3867,36.78242],[-121.37516,36.77488],[-121.30825,36.72984]],"type":"LineString"}
}
