{
  "id": 2014825033,
  "type": "Feature",
  "properties": {
    "geom:area": 0,
    "geom:bbox": "-123.426440,37.263200,-122.123520,37.614270",
    "geom:latitude": 37.36957591662783,
    "geom:longitude": -122.66685612626944,
    "src:alt_label": "swim-approach",
    "src:geom": "swim",
    "swim:elevations": [
      4481,
      4221,
      3933,
      3662,
      3389,
      3261,
      3170,
      3111,
      3047,
      3048,
      3046,
      2931,
      2889,
      2801,
      2773,
      2720,
      2575,
      2440,
      2378,
      2201,
      2129,
      1945,
      1702,
      1596,
      1530,
      1528,
      1524,
      1431,
      1414,
      1098,
      1018,
      792,
      726,
      615,
      366,
      342,
      207,
      0
    ],
    "swim:geom": "approach",
    "swim:timestamps": [
      1771440473,
      1771440501,
      1771440535,
      1771440565,
      1771440595,
      1771440643,
      1771440674,
      1771440706,
      1771440742,
      1771440767,
      1771440784,
      1771440801,
      1771440824,
      1771440862,
      1771440886,
      1771440920,
      1771440952,
      1771440986,
      1771441015,
      1771441047,
      1771441061,
      1771441095,
      1771441136,
      1771441152,
      1771441170,
      1771441185,
      1771441224,
      1771441255,
      1771441260,
      1771441307,
      1771441316,
      1771441348,
      1771441363,
      1771441384,
      1771441435,
      1771441443,
      1771441480,
      1771441525
    ],
    "wof:geomhash": "b27d1ca9f7bec2fb9d26ab3486ebf816",
    "wof:id": 2014825033,
    "wof:repo": "sfomuseum-data-flights-2026-02"
  },
  "bbox": [
    -123.42644,
    37.2632,
    -122.12352,
    37.61427
  ],
  "geometry": {"coordinates":[[-123.42644,37.34753],[-123.35477,37.33626],[-123.27378,37.32343],[-123.20157,37.31218],[-123.13208,37.3011],[-123.02791,37.28439],[-122.96592,37.27431],[-122.90513,37.26436],[-122.84132,37.2632],[-122.79902,37.27256],[-122.77021,37.27918],[-122.74047,37.28624],[-122.70274,37.29529],[-122.64182,37.3093],[-122.60383,37.31818],[-122.54948,37.33066],[-122.49874,37.34247],[-122.44567,37.35461],[-122.40226,37.36475],[-122.35256,37.37625],[-122.33108,37.38111],[-122.28082,37.39252],[-122.21819,37.40694],[-122.19517,37.41218],[-122.17022,37.42114],[-122.15564,37.43528],[-122.12906,37.47795],[-122.12352,37.51243],[-122.12672,37.51717],[-122.17743,37.53791],[-122.18628,37.54171],[-122.21608,37.55418],[-122.22965,37.55992],[-122.24902,37.56795],[-122.29022,37.58528],[-122.29651,37.58792],[-122.32394,37.59957],[-122.35851,37.61427]],"type":"LineString"}
}
