{
  "id": 2014816767,
  "type": "Feature",
  "properties": {
    "geom:area": 0,
    "geom:bbox": "-122.383333,37.616667,-88.116667,42.612778",
    "geom:latitude": 41.592913699301185,
    "geom:longitude": -105.54522525924949,
    "src:alt_label": "swim-path",
    "src:geom": "swim",
    "swim:altitudes": [
      "005",
      "005",
      "005",
      "096",
      "096",
      "116",
      "155",
      "155",
      "219",
      "219",
      "235",
      "290C",
      "290C",
      "290C",
      "290C",
      "290",
      "290",
      "294",
      "308C",
      "308C",
      "308C",
      "308C",
      "310C",
      "310C",
      "310C",
      "310C",
      "310C",
      "310C",
      "310C",
      "310C",
      "310C",
      "310C",
      "310C",
      "310C",
      "310C",
      "310C",
      "310C",
      "310C",
      "310C",
      "310C",
      "310C",
      "310C",
      "310C",
      "310C",
      "310C",
      "310C",
      "310C",
      "310C",
      "310C",
      "310C",
      "310C",
      "310C",
      "310C",
      "310C",
      "310C",
      "310C",
      "310C",
      "310C",
      "310C",
      "310C",
      "310C",
      "310C",
      "310C",
      "310C",
      "310C",
      "310C",
      "310C",
      "310C",
      "310C",
      "310",
      "310",
      "310",
      "310",
      "310",
      "310",
      "329C",
      "329C",
      "330C",
      "330C",
      "330C",
      "330C",
      "330C",
      "330C",
      "330C",
      "330C",
      "330C",
      "330C",
      "330C",
      "330C",
      "330C",
      "330C",
      "330C",
      "330C",
      "330C",
      "330C",
      "330C",
      "330C",
      "330C",
      "330C",
      "330C",
      "330C",
      "330C",
      "330C",
      "330C",
      "330C",
      "330C",
      "330C",
      "330C",
      "330C",
      "330C",
      "330C",
      "330C",
      "330C",
      "330C",
      "330C",
      "330C",
      "330C",
      "330C",
      "330C",
      "330C",
      "330C",
      "330C",
      "330C",
      "330C",
      "330C",
      "330C",
      "330C",
      "330C",
      "330C",
      "330C",
      "330C",
      "330C",
      "330C",
      "330C",
      "330C",
      "330C",
      "330C",
      "330C",
      "330C",
      "330C",
      "330C",
      "330C",
      "330C",
      "330C",
      "330C",
      "330C",
      "330C",
      "330C",
      "330C",
      "330C",
      "330C",
      "330C",
      "330C",
      "330C",
      "330C",
      "330C",
      "330C",
      "330C",
      "350C",
      "350C",
      "350C",
      "350C",
      "350C",
      "350C",
      "350C",
      "350C",
      "350C",
      "350C",
      "350C",
      "350C",
      "350C",
      "350C",
      "350C",
      "350C",
      "350C",
      "350C",
      "350C",
      "350C",
      "350C",
      "350C",
      "350C",
      "350C",
      "350C",
      "350C",
      "350C",
      "350C",
      "350C",
      "350C",
      "350C",
      "350C",
      "350C",
      "350C",
      "350C",
      "350C",
      "350C",
      "350C",
      "350C",
      "350C",
      "350C",
      "350C",
      "350C",
      "350C",
      "350C",
      "350C",
      "350C",
      "350C",
      "350C",
      "350C",
      "350C",
      "350C",
      "350C",
      "350C",
      "350C",
      "350C",
      "350C",
      "350C",
      "350C",
      "350C",
      "350C",
      "350C",
      "350C",
      "350C",
      "350C",
      "350C",
      "350C",
      "350C",
      "350C",
      "350C",
      "350C",
      "350C",
      "350C",
      "350C",
      "350C",
      "350C",
      "350C",
      "350C",
      "350C",
      "350C",
      "350C",
      "350C",
      "350C",
      "350C",
      "350C",
      "350C",
      "350C",
      "350C",
      "350C",
      "350C",
      "350C",
      "350C",
      "350C",
      "350C",
      "350C",
      "350C",
      "350C",
      "350C",
      "350C",
      "350C",
      "350C",
      "350C",
      "350C",
      "350C",
      "350C",
      "350C",
      "350C",
      "350C",
      "350C",
      "350C",
      "350C",
      "350C",
      "350C",
      "350C",
      "350",
      "350",
      "350",
      "350",
      "350",
      "350",
      "350",
      "310C",
      "310C",
      "310C",
      "310C",
      "310C",
      "310",
      "310",
      "310",
      "310",
      "310",
      "310",
      "310",
      "310",
      "310",
      "310",
      "310",
      "310",
      "310",
      "310",
      "279",
      "279",
      "279",
      "248",
      "248",
      "248",
      "248",
      "248",
      "223",
      "223",
      "223",
      "177",
      "177",
      "177",
      "133",
      "133",
      "133",
      "133",
      "118",
      "118",
      "110",
      "110",
      "110",
      "087",
      "087",
      "077",
      "077",
      "073",
      "073",
      "073",
      "065",
      "065",
      "063",
      "051",
      "051",
      "048",
      "048",
      "048",
      "040",
      "040",
      "040",
      "040",
      "040",
      "040",
      "040",
      "040",
      "040",
      "036",
      "036",
      "034",
      "034"
    ],
    "swim:geom": "path",
    "swim:speeds": [
      173,
      173,
      173,
      280,
      280,
      348,
      440,
      440,
      471,
      471,
      487,
      520,
      525,
      525,
      525,
      527,
      527,
      528,
      529,
      529,
      529,
      529,
      531,
      531,
      529,
      529,
      531,
      531,
      531,
      530,
      530,
      530,
      530,
      522,
      522,
      521,
      521,
      521,
      521,
      521,
      522,
      522,
      523,
      523,
      523,
      524,
      524,
      524,
      524,
      527,
      527,
      527,
      528,
      528,
      529,
      529,
      525,
      524,
      524,
      524,
      529,
      529,
      529,
      529,
      524,
      524,
      524,
      526,
      526,
      507,
      507,
      507,
      507,
      507,
      507,
      510,
      510,
      530,
      530,
      530,
      530,
      530,
      530,
      523,
      523,
      523,
      523,
      523,
      516,
      516,
      516,
      515,
      515,
      515,
      515,
      516,
      516,
      516,
      516,
      510,
      508,
      508,
      518,
      518,
      518,
      518,
      520,
      520,
      519,
      519,
      519,
      517,
      517,
      517,
      516,
      514,
      514,
      514,
      513,
      513,
      513,
      518,
      518,
      518,
      519,
      520,
      520,
      520,
      520,
      520,
      521,
      522,
      522,
      522,
      522,
      521,
      521,
      520,
      520,
      520,
      520,
      520,
      520,
      520,
      520,
      524,
      524,
      524,
      524,
      524,
      524,
      524,
      524,
      526,
      526,
      526,
      526,
      526,
      502,
      502,
      502,
      502,
      502,
      502,
      500,
      500,
      500,
      498,
      498,
      498,
      499,
      499,
      499,
      499,
      499,
      495,
      495,
      495,
      495,
      495,
      495,
      495,
      495,
      497,
      497,
      497,
      497,
      500,
      500,
      500,
      500,
      500,
      502,
      502,
      502,
      502,
      502,
      500,
      500,
      500,
      500,
      500,
      498,
      498,
      499,
      499,
      499,
      506,
      506,
      506,
      506,
      508,
      508,
      508,
      508,
      508,
      513,
      513,
      513,
      513,
      520,
      520,
      520,
      520,
      520,
      525,
      525,
      525,
      527,
      527,
      527,
      526,
      526,
      526,
      526,
      517,
      517,
      517,
      522,
      522,
      522,
      522,
      518,
      518,
      518,
      518,
      518,
      518,
      522,
      522,
      522,
      523,
      523,
      523,
      524,
      524,
      525,
      525,
      526,
      526,
      526,
      527,
      527,
      527,
      527,
      522,
      522,
      522,
      521,
      521,
      521,
      521,
      519,
      519,
      519,
      519,
      519,
      519,
      519,
      545,
      545,
      545,
      545,
      545,
      549,
      549,
      549,
      549,
      551,
      552,
      553,
      553,
      553,
      553,
      553,
      553,
      554,
      554,
      543,
      543,
      543,
      535,
      535,
      535,
      535,
      535,
      509,
      509,
      509,
      469,
      469,
      469,
      430,
      430,
      430,
      430,
      396,
      396,
      360,
      360,
      360,
      302,
      302,
      282,
      282,
      279,
      279,
      279,
      271,
      271,
      264,
      260,
      260,
      253,
      253,
      253,
      241,
      212,
      212,
      215,
      215,
      190,
      190,
      190,
      190,
      182,
      182,
      178,
      178
    ],
    "swim:timestamps": [
      1771336980,
      1771336980,
      1771336980,
      1771337178,
      1771337178,
      1771337238,
      1771337358,
      1771337358,
      1771337538,
      1771337538,
      1771337598,
      1771337838,
      1771337898,
      1771337898,
      1771337898,
      1771338018,
      1771338018,
      1771338039,
      1771338099,
      1771338099,
      1771338099,
      1771338099,
      1771338138,
      1771338138,
      1771338280,
      1771338280,
      1771338460,
      1771338498,
      1771338498,
      1771338558,
      1771338558,
      1771338558,
      1771338558,
      1771338739,
      1771338739,
      1771338859,
      1771338859,
      1771338880,
      1771338880,
      1771338880,
      1771339039,
      1771339039,
      1771339099,
      1771339181,
      1771339219,
      1771339279,
      1771339279,
      1771339301,
      1771339339,
      1771339399,
      1771339399,
      1771339399,
      1771339421,
      1771339421,
      1771339459,
      1771339459,
      1771339541,
      1771339661,
      1771339661,
      1771339661,
      1771339841,
      1771339841,
      1771339841,
      1771339841,
      1771339901,
      1771340022,
      1771340022,
      1771340082,
      1771340082,
      1771340202,
      1771340202,
      1771340202,
      1771340202,
      1771340202,
      1771340202,
      1771340382,
      1771340382,
      1771340502,
      1771340502,
      1771340502,
      1771340502,
      1771340502,
      1771340502,
      1771340682,
      1771340682,
      1771340682,
      1771340682,
      1771340682,
      1771340923,
      1771340923,
      1771340923,
      1771341043,
      1771341043,
      1771341043,
      1771341043,
      1771341103,
      1771341103,
      1771341103,
      1771341103,
      1771341704,
      1771341731,
      1771341731,
      1771341764,
      1771341764,
      1771341764,
      1771341764,
      1771341971,
      1771341971,
      1771342004,
      1771342004,
      1771342004,
      1771342031,
      1771342031,
      1771342031,
      1771342064,
      1771342124,
      1771342124,
      1771342124,
      1771342151,
      1771342151,
      1771342151,
      1771342244,
      1771342244,
      1771342244,
      1771342305,
      1771342425,
      1771342425,
      1771342425,
      1771342425,
      1771342425,
      1771342452,
      1771342485,
      1771342485,
      1771342485,
      1771342485,
      1771342572,
      1771342572,
      1771342605,
      1771342605,
      1771342605,
      1771342605,
      1771342692,
      1771342692,
      1771342692,
      1771342692,
      1771342872,
      1771342872,
      1771342872,
      1771342872,
      1771342872,
      1771342905,
      1771342905,
      1771342905,
      1771343053,
      1771343053,
      1771343053,
      1771343053,
      1771343053,
      1771343413,
      1771343413,
      1771343413,
      1771343413,
      1771343413,
      1771343413,
      1771343473,
      1771343473,
      1771343473,
      1771343533,
      1771343533,
      1771343533,
      1771343774,
      1771343774,
      1771343774,
      1771343774,
      1771343774,
      1771343954,
      1771343954,
      1771343954,
      1771343954,
      1771343954,
      1771344014,
      1771344014,
      1771344014,
      1771344134,
      1771344134,
      1771344134,
      1771344134,
      1771344194,
      1771344194,
      1771344250,
      1771344250,
      1771344250,
      1771344314,
      1771344314,
      1771344374,
      1771344374,
      1771344374,
      1771344430,
      1771344430,
      1771344430,
      1771344430,
      1771344430,
      1771344550,
      1771344550,
      1771344610,
      1771344610,
      1771344610,
      1771344675,
      1771344675,
      1771344675,
      1771344675,
      1771344911,
      1771344911,
      1771344911,
      1771344911,
      1771344911,
      1771345031,
      1771345031,
      1771345031,
      1771345031,
      1771345211,
      1771345211,
      1771345211,
      1771345211,
      1771345211,
      1771345331,
      1771345331,
      1771345331,
      1771345452,
      1771345452,
      1771345452,
      1771345512,
      1771345512,
      1771345512,
      1771345512,
      1771345932,
      1771345932,
      1771345932,
      1771346052,
      1771346052,
      1771346052,
      1771346052,
      1771346173,
      1771346173,
      1771346173,
      1771346173,
      1771346173,
      1771346173,
      1771346413,
      1771346413,
      1771346413,
      1771346473,
      1771346473,
      1771346473,
      1771346497,
      1771346497,
      1771346557,
      1771346557,
      1771346593,
      1771346593,
      1771346593,
      1771346617,
      1771346617,
      1771346677,
      1771346677,
      1771346713,
      1771346713,
      1771346713,
      1771346738,
      1771346738,
      1771346738,
      1771346738,
      1771346954,
      1771346954,
      1771346954,
      1771346954,
      1771346954,
      1771346954,
      1771346954,
      1771347374,
      1771347374,
      1771347374,
      1771347374,
      1771347374,
      1771347494,
      1771347494,
      1771347494,
      1771347494,
      1771347554,
      1771347579,
      1771347614,
      1771347614,
      1771347614,
      1771347639,
      1771347639,
      1771347639,
      1771347675,
      1771347675,
      1771347759,
      1771347759,
      1771347759,
      1771347819,
      1771347819,
      1771347819,
      1771347819,
      1771347819,
      1771347879,
      1771347879,
      1771347879,
      1771347999,
      1771347999,
      1771347999,
      1771348119,
      1771348119,
      1771348119,
      1771348119,
      1771348176,
      1771348176,
      1771348240,
      1771348240,
      1771348240,
      1771348368,
      1771348368,
      1771348420,
      1771348420,
      1771348434,
      1771348434,
      1771348434,
      1771348480,
      1771348480,
      1771348488,
      1771348540,
      1771348540,
      1771348548,
      1771348548,
      1771348548,
      1771348608,
      1771348660,
      1771348660,
      1771348720,
      1771348720,
      1771348789,
      1771348789,
      1771348789,
      1771348789,
      1771348840,
      1771348840,
      1771348849,
      1771348849
    ],
    "wof:geomhash": "2ac12e7741fe21f8a5362e5b4029329f",
    "wof:id": 2014816767,
    "wof:repo": "sfomuseum-data-flights-2026-02"
  },
  "bbox": [
    -122.38333333333334,
    37.61666666666667,
    -88.11666666666666,
    42.61277777777778
  ],
  "geometry": {"coordinates":[[-122.38333333333334,37.61666666666667],[-122.38333333333334,37.61666666666667],[-122.38333333333334,37.61666666666667],[-122.37888888888888,37.83027777777778],[-122.37888888888888,37.83027777777778],[-122.3786111111111,37.91722222222222],[-122.13138888888888,38.04222222222222],[-122.13138888888888,38.04222222222222],[-121.69611111111111,38.21527777777778],[-121.69611111111111,38.21527777777778],[-121.54333333333334,38.275277777777774],[-120.98694444444445,38.585],[-120.84083333333332,38.67444444444444],[-120.84083333333332,38.67444444444444],[-120.84083333333332,38.67444444444444],[-120.54388888888889,38.855000000000004],[-120.54388888888889,38.855000000000004],[-120.49055555555556,38.88666666666666],[-120.33999999999999,38.97638888888889],[-120.33999999999999,38.97638888888889],[-120.33999999999999,38.97638888888889],[-120.33999999999999,38.97638888888889],[-120.24444444444444,39.03638888888889],[-120.24444444444444,39.03638888888889],[-119.89,39.24666666666667],[-119.89,39.24666666666667],[-119.39333333333335,39.46277777777778],[-119.28805555555556,39.49916666666667],[-119.28805555555556,39.49916666666667],[-119.11333333333333,39.55833333333333],[-119.11333333333333,39.55833333333333],[-119.11333333333333,39.55833333333333],[-119.11333333333333,39.55833333333333],[-118.58833333333332,39.73277777777778],[-118.58833333333332,39.73277777777778],[-118.2388888888889,39.84722222222222],[-118.2388888888889,39.84722222222222],[-118.17333333333333,39.868611111111115],[-118.17333333333333,39.868611111111115],[-118.17333333333333,39.868611111111115],[-117.71916666666667,40.014722222222225],[-117.71916666666667,40.014722222222225],[-117.5425,40.071111111111115],[-117.30888888888889,40.144999999999996],[-117.20111111111112,40.17861111111111],[-117.0275,40.23305555555556],[-117.0275,40.23305555555556],[-116.99305555555556,40.24388888888889],[-116.84138888888889,40.29111111111111],[-116.66305555555556,40.34583333333334],[-116.66305555555556,40.34583333333334],[-116.66305555555556,40.34583333333334],[-116.5786111111111,40.37166666666667],[-116.5786111111111,40.37166666666667],[-116.46861111111112,40.405277777777776],[-116.46861111111112,40.405277777777776],[-116.22305555555556,40.480000000000004],[-115.86999999999999,40.58583333333333],[-115.86999999999999,40.58583333333333],[-115.86999999999999,40.58583333333333],[-115.33138888888888,40.745],[-115.33138888888888,40.745],[-115.33138888888888,40.745],[-115.33138888888888,40.745],[-115.15166666666667,40.79722222222222],[-114.7936111111111,40.89972222222222],[-114.7936111111111,40.89972222222222],[-114.61361111111111,40.95194444444445],[-114.61361111111111,40.95194444444445],[-114.28611111111111,41.044444444444444],[-114.28611111111111,41.044444444444444],[-114.28611111111111,41.044444444444444],[-114.28611111111111,41.044444444444444],[-114.28611111111111,41.044444444444444],[-114.28611111111111,41.044444444444444],[-113.76833333333333,41.18805555555555],[-113.76833333333333,41.18805555555555],[-113.40305555555557,41.28777777777778],[-113.40305555555557,41.28777777777778],[-113.40305555555557,41.28777777777778],[-113.40305555555557,41.28777777777778],[-113.40305555555557,41.28777777777778],[-113.40305555555557,41.28777777777778],[-112.85638888888889,41.43416666666666],[-112.85638888888889,41.43416666666666],[-112.85638888888889,41.43416666666666],[-112.85638888888889,41.43416666666666],[-112.85638888888889,41.43416666666666],[-112.11722222222221,41.581944444444446],[-112.11722222222221,41.581944444444446],[-112.11722222222221,41.581944444444446],[-111.73583333333333,41.63333333333333],[-111.73583333333333,41.63333333333333],[-111.73583333333333,41.63333333333333],[-111.73583333333333,41.63333333333333],[-111.54805555555555,41.65833333333333],[-111.54805555555555,41.65833333333333],[-111.54805555555555,41.65833333333333],[-111.54805555555555,41.65833333333333],[-109.65611111111112,41.88944444444444],[-109.57833333333333,41.89861111111111],[-109.57833333333333,41.89861111111111],[-109.46055555555556,41.911944444444444],[-109.46055555555556,41.911944444444444],[-109.46055555555556,41.911944444444444],[-109.46055555555556,41.911944444444444],[-108.80583333333333,41.98305555555556],[-108.80583333333333,41.98305555555556],[-108.69083333333333,41.99527777777778],[-108.69083333333333,41.99527777777778],[-108.69083333333333,41.99527777777778],[-108.61388888888888,42.003055555555555],[-108.61388888888888,42.003055555555555],[-108.61388888888888,42.003055555555555],[-108.50111111111111,42.014722222222225],[-108.31083333333333,42.03444444444444],[-108.31083333333333,42.03444444444444],[-108.31083333333333,42.03444444444444],[-108.2363888888889,42.04194444444444],[-108.2363888888889,42.04194444444444],[-108.2363888888889,42.04194444444444],[-107.92694444444444,42.073055555555555],[-107.92694444444444,42.073055555555555],[-107.92694444444444,42.073055555555555],[-107.73361111111112,42.09166666666667],[-107.34805555555555,42.128055555555555],[-107.34805555555555,42.128055555555555],[-107.34805555555555,42.128055555555555],[-107.34805555555555,42.128055555555555],[-107.34805555555555,42.128055555555555],[-107.27,42.135],[-107.15166666666667,42.145833333333336],[-107.15166666666667,42.145833333333336],[-107.15166666666667,42.145833333333336],[-107.15166666666667,42.145833333333336],[-106.88388888888889,42.169999999999995],[-106.88388888888889,42.169999999999995],[-106.76833333333333,42.180277777777775],[-106.76833333333333,42.180277777777775],[-106.76833333333333,42.180277777777775],[-106.76833333333333,42.180277777777775],[-106.49833333333333,42.203611111111115],[-106.49833333333333,42.203611111111115],[-106.49833333333333,42.203611111111115],[-106.49833333333333,42.203611111111115],[-105.90055555555556,42.253055555555555],[-105.90055555555556,42.253055555555555],[-105.90055555555556,42.253055555555555],[-105.90055555555556,42.253055555555555],[-105.90055555555556,42.253055555555555],[-105.82027777777778,42.25944444444445],[-105.82027777777778,42.25944444444445],[-105.82027777777778,42.25944444444445],[-105.31361111111111,42.29833333333333],[-105.31361111111111,42.29833333333333],[-105.31361111111111,42.29833333333333],[-105.31361111111111,42.29833333333333],[-105.31361111111111,42.29833333333333],[-104.17666666666668,42.3775],[-104.17666666666668,42.3775],[-104.17666666666668,42.3775],[-104.17666666666668,42.3775],[-104.17666666666668,42.3775],[-104.17666666666668,42.3775],[-103.98972222222223,42.38944444444444],[-103.98972222222223,42.38944444444444],[-103.98972222222223,42.38944444444444],[-103.80694444444444,42.401111111111106],[-103.80694444444444,42.401111111111106],[-103.80694444444444,42.401111111111106],[-103.06166666666667,42.443888888888885],[-103.06166666666667,42.443888888888885],[-103.06166666666667,42.443888888888885],[-103.06166666666667,42.443888888888885],[-103.06166666666667,42.443888888888885],[-102.505,42.473055555555554],[-102.505,42.473055555555554],[-102.505,42.473055555555554],[-102.505,42.473055555555554],[-102.505,42.473055555555554],[-102.31916666666666,42.48222222222223],[-102.31916666666666,42.48222222222223],[-102.31916666666666,42.48222222222223],[-101.94583333333334,42.49944444444444],[-101.94583333333334,42.49944444444444],[-101.94583333333334,42.49944444444444],[-101.94583333333334,42.49944444444444],[-101.74166666666667,42.50861111111111],[-101.74166666666667,42.50861111111111],[-101.59777777777778,42.514722222222225],[-101.59777777777778,42.514722222222225],[-101.59777777777778,42.514722222222225],[-101.36194444444443,42.52444444444444],[-101.36194444444443,42.52444444444444],[-101.17361111111111,42.531666666666666],[-101.17361111111111,42.531666666666666],[-101.17361111111111,42.531666666666666],[-101.02583333333334,42.536944444444444],[-101.02583333333334,42.536944444444444],[-101.02583333333334,42.536944444444444],[-101.02583333333334,42.536944444444444],[-101.02583333333334,42.536944444444444],[-100.65194444444445,42.55027777777777],[-100.65194444444445,42.55027777777777],[-100.46305555555556,42.556666666666665],[-100.46305555555556,42.556666666666665],[-100.46305555555556,42.556666666666665],[-100.23277777777778,42.56361111111111],[-100.23277777777778,42.56361111111111],[-100.23277777777778,42.56361111111111],[-100.23277777777778,42.56361111111111],[-99.50611111111111,42.58305555555556],[-99.50611111111111,42.58305555555556],[-99.50611111111111,42.58305555555556],[-99.50611111111111,42.58305555555556],[-99.50611111111111,42.58305555555556],[-99.11666666666666,42.59138888888889],[-99.11666666666666,42.59138888888889],[-99.11666666666666,42.59138888888889],[-99.11666666666666,42.59138888888889],[-98.5275,42.60194444444445],[-98.5275,42.60194444444445],[-98.5275,42.60194444444445],[-98.5275,42.60194444444445],[-98.5275,42.60194444444445],[-98.12888888888888,42.60722222222223],[-98.12888888888888,42.60722222222223],[-98.12888888888888,42.60722222222223],[-97.7175,42.611111111111114],[-97.7175,42.611111111111114],[-97.7175,42.611111111111114],[-97.52,42.612500000000004],[-97.52,42.612500000000004],[-97.52,42.612500000000004],[-97.52,42.612500000000004],[-96.15055555555556,42.61277777777778],[-96.15055555555556,42.61277777777778],[-96.15055555555556,42.61277777777778],[-95.75694444444444,42.60944444444445],[-95.75694444444444,42.60944444444445],[-95.75694444444444,42.60944444444445],[-95.75694444444444,42.60944444444445],[-95.36472222222221,42.60527777777778],[-95.36472222222221,42.60527777777778],[-95.36472222222221,42.60527777777778],[-95.36472222222221,42.60527777777778],[-95.36472222222221,42.60527777777778],[-95.36472222222221,42.60527777777778],[-94.5786111111111,42.59277777777778],[-94.5786111111111,42.59277777777778],[-94.5786111111111,42.59277777777778],[-94.41194444444444,42.589444444444446],[-94.41194444444444,42.589444444444446],[-94.41194444444444,42.589444444444446],[-94.33333333333333,42.58777777777778],[-94.33333333333333,42.58777777777778],[-94.13333333333334,42.58305555555556],[-94.13333333333334,42.58305555555556],[-94.01361111111112,42.58027777777778],[-94.01361111111112,42.58027777777778],[-94.01361111111112,42.58027777777778],[-93.93805555555556,42.57833333333333],[-93.93805555555556,42.57833333333333],[-93.73722222222223,42.573055555555555],[-93.73722222222223,42.573055555555555],[-93.61999999999999,42.57],[-93.61999999999999,42.57],[-93.61999999999999,42.57],[-93.54166666666667,42.56777777777778],[-93.54166666666667,42.56777777777778],[-93.54166666666667,42.56777777777778],[-93.54166666666667,42.56777777777778],[-92.8411111111111,42.547777777777775],[-92.8411111111111,42.547777777777775],[-92.8411111111111,42.547777777777775],[-92.8411111111111,42.547777777777775],[-92.8411111111111,42.547777777777775],[-92.8411111111111,42.547777777777775],[-92.8411111111111,42.547777777777775],[-91.41972222222223,42.526944444444446],[-91.41972222222223,42.526944444444446],[-91.41972222222223,42.526944444444446],[-91.41972222222223,42.526944444444446],[-91.41972222222223,42.526944444444446],[-91.00777777777778,42.526666666666664],[-91.00777777777778,42.526666666666664],[-91.00777777777778,42.526666666666664],[-91.00777777777778,42.526666666666664],[-90.8,42.52638888888889],[-90.7175,42.52583333333333],[-90.59333333333333,42.525277777777774],[-90.59333333333333,42.525277777777774],[-90.59333333333333,42.525277777777774],[-90.50972222222222,42.52444444444444],[-90.50972222222222,42.52444444444444],[-90.50972222222222,42.52444444444444],[-90.3863888888889,42.51694444444444],[-90.3863888888889,42.51694444444444],[-90.1,42.49583333333334],[-90.1,42.49583333333334],[-90.1,42.49583333333334],[-89.9,42.48027777777778],[-89.9,42.48027777777778],[-89.9,42.48027777777778],[-89.9,42.48027777777778],[-89.9,42.48027777777778],[-89.70916666666668,42.46555555555556],[-89.70916666666668,42.46555555555556],[-89.70916666666668,42.46555555555556],[-89.35,42.43722222222222],[-89.35,42.43722222222222],[-89.35,42.43722222222222],[-89.03277777777778,42.41111111111111],[-89.03277777777778,42.41111111111111],[-89.03277777777778,42.41111111111111],[-89.03277777777778,42.41111111111111],[-88.86666666666666,42.4],[-88.86666666666666,42.4],[-88.74027777777778,42.38666666666666],[-88.74027777777778,42.38666666666666],[-88.74027777777778,42.38666666666666],[-88.46666666666667,42.333333333333336],[-88.46666666666667,42.333333333333336],[-88.44444444444444,42.27833333333333],[-88.44444444444444,42.27833333333333],[-88.43333333333334,42.25],[-88.43333333333334,42.25],[-88.43333333333334,42.25],[-88.41611111111112,42.205555555555556],[-88.41611111111112,42.205555555555556],[-88.41666666666667,42.2],[-88.38916666666667,42.13583333333333],[-88.38916666666667,42.13583333333333],[-88.38333333333334,42.11666666666667],[-88.38333333333334,42.11666666666667],[-88.38333333333334,42.11666666666667],[-88.36666666666666,42.05],[-88.34527777777777,42.010555555555555],[-88.34527777777777,42.010555555555555],[-88.27472222222222,41.98777777777778],[-88.27472222222222,41.98777777777778],[-88.18333333333334,41.983333333333334],[-88.18333333333334,41.983333333333334],[-88.18333333333334,41.983333333333334],[-88.18333333333334,41.983333333333334],[-88.12722222222222,41.988055555555555],[-88.12722222222222,41.988055555555555],[-88.11666666666666,41.983333333333334],[-88.11666666666666,41.983333333333334]],"type":"LineString"}
}
