{
  "id": 2014865209,
  "type": "Feature",
  "properties": {
    "geom:area": 0,
    "geom:bbox": "-157.900000,21.200000,-122.126389,37.616667",
    "geom:latitude": 29.5744422682653,
    "geom:longitude": -140.0189991607064,
    "src:alt_label": "swim-path",
    "src:geom": "swim",
    "swim:altitudes": [
      "004",
      "004",
      "004",
      "006C",
      "025C",
      "025C",
      "048C",
      "048C",
      "048C",
      "048C",
      "165C",
      "165C",
      "165C",
      "165C",
      "165C",
      "165C",
      "242C",
      "242C",
      "242C",
      "242C",
      "255C",
      "265C",
      "285C",
      "285C",
      "285C",
      "285C",
      "290",
      "290",
      "290",
      "290",
      "290",
      "290",
      "290",
      "290",
      "290",
      "290",
      "290",
      "290",
      "290",
      "290",
      "290",
      "290",
      "290",
      "290",
      "290",
      "290",
      "290",
      "290",
      "290",
      "290",
      "290",
      "290",
      "290",
      "290",
      "290",
      "290",
      "290",
      "290",
      "290",
      "290",
      "290",
      "290C",
      "290C",
      "290C",
      "290C",
      "290C",
      "290C",
      "290C",
      "290C",
      "290C",
      "290C",
      "290C",
      "290C",
      "290C",
      "290C",
      "290",
      "290",
      "290",
      "290",
      "275",
      "275",
      "275",
      "241",
      "241",
      "201",
      "201",
      "201",
      "137",
      "137",
      "137",
      "111",
      "107",
      "099",
      "085",
      "085",
      "075",
      "063",
      "061",
      "059",
      "048",
      "048",
      "025",
      "018",
      "009",
      "009",
      "009",
      "001",
      "001",
      "001"
    ],
    "swim:geom": "path",
    "swim:speeds": [
      180,
      180,
      180,
      190,
      240,
      240,
      260,
      260,
      260,
      260,
      370,
      370,
      370,
      370,
      370,
      370,
      410,
      410,
      410,
      410,
      420,
      430,
      440,
      440,
      440,
      440,
      450,
      450,
      450,
      450,
      450,
      450,
      450,
      450,
      450,
      450,
      450,
      450,
      450,
      450,
      450,
      450,
      450,
      450,
      460,
      460,
      460,
      460,
      450,
      450,
      450,
      450,
      450,
      450,
      450,
      450,
      460,
      460,
      460,
      460,
      460,
      510,
      510,
      510,
      510,
      510,
      509,
      509,
      509,
      508,
      508,
      503,
      503,
      503,
      503,
      500,
      500,
      500,
      500,
      495,
      495,
      495,
      463,
      463,
      453,
      453,
      453,
      404,
      404,
      404,
      381,
      383,
      272,
      272,
      272,
      260,
      249,
      252,
      248,
      245,
      245,
      189,
      184,
      153,
      153,
      153,
      154,
      154,
      154
    ],
    "swim:timestamps": [
      1771877233,
      1771877233,
      1771877233,
      1771877241,
      1771877301,
      1771877301,
      1771877361,
      1771877361,
      1771877361,
      1771877361,
      1771877722,
      1771877722,
      1771877722,
      1771877722,
      1771877722,
      1771877722,
      1771878023,
      1771878023,
      1771878023,
      1771878023,
      1771878083,
      1771878143,
      1771878263,
      1771878263,
      1771878263,
      1771878263,
      1771878324,
      1771878324,
      1771878384,
      1771878504,
      1771878504,
      1771878504,
      1771878684,
      1771878684,
      1771878684,
      1771878684,
      1771878684,
      1771878745,
      1771878745,
      1771878745,
      1771878865,
      1771878865,
      1771878925,
      1771878925,
      1771879045,
      1771879045,
      1771879045,
      1771879045,
      1771879166,
      1771879166,
      1771879166,
      1771879166,
      1771879166,
      1771879707,
      1771879707,
      1771879707,
      1771879768,
      1771879768,
      1771879768,
      1771879768,
      1771879768,
      1771891166,
      1771891166,
      1771891166,
      1771891166,
      1771891166,
      1771891347,
      1771891347,
      1771891347,
      1771891407,
      1771891407,
      1771891587,
      1771891587,
      1771891587,
      1771891587,
      1771891887,
      1771891887,
      1771891887,
      1771891887,
      1771892067,
      1771892067,
      1771892067,
      1771892187,
      1771892187,
      1771892308,
      1771892308,
      1771892308,
      1771892508,
      1771892508,
      1771892508,
      1771892592,
      1771892608,
      1771892788,
      1771892848,
      1771892848,
      1771892892,
      1771892952,
      1771892968,
      1771893028,
      1771893149,
      1771893149,
      1771893269,
      1771893306,
      1771893372,
      1771893372,
      1771893372,
      1771893433,
      1771893433,
      1771893433
    ],
    "wof:geomhash": "2353dcd6d96ac90e3d11126dd98fd4a3",
    "wof:id": 2014865209,
    "wof:repo": "sfomuseum-data-flights-2026-02"
  },
  "bbox": [
    -157.9,
    21.2,
    -122.12638888888888,
    37.61666666666667
  ],
  "geometry": {"coordinates":[[-157.9,21.3],[-157.9,21.3],[-157.9,21.3],[-157.9,21.3],[-157.86666666666667,21.25],[-157.86666666666667,21.25],[-157.81666666666666,21.2],[-157.81666666666666,21.2],[-157.81666666666666,21.2],[-157.81666666666666,21.2],[-157.28333333333333,21.333333333333332],[-157.28333333333333,21.333333333333332],[-157.28333333333333,21.333333333333332],[-157.28333333333333,21.333333333333332],[-157.28333333333333,21.333333333333332],[-157.28333333333333,21.333333333333332],[-156.8,21.65],[-156.8,21.65],[-156.8,21.65],[-156.8,21.65],[-156.68333333333334,21.716666666666665],[-156.58333333333334,21.783333333333335],[-156.36666666666667,21.916666666666668],[-156.36666666666667,21.916666666666668],[-156.36666666666667,21.916666666666668],[-156.36666666666667,21.916666666666668],[-156.25,22],[-156.25,22],[-156.15,22.066666666666666],[-155.91666666666666,22.2],[-155.91666666666666,22.2],[-155.91666666666666,22.2],[-155.58333333333334,22.416666666666668],[-155.58333333333334,22.416666666666668],[-155.58333333333334,22.416666666666668],[-155.58333333333334,22.416666666666668],[-155.58333333333334,22.416666666666668],[-155.48333333333332,22.483333333333334],[-155.48333333333332,22.483333333333334],[-155.48333333333332,22.483333333333334],[-155.25,22.616666666666667],[-155.25,22.616666666666667],[-155.13333333333333,22.7],[-155.13333333333333,22.7],[-154.9,22.833333333333332],[-154.9,22.833333333333332],[-154.9,22.833333333333332],[-154.9,22.833333333333332],[-154.68333333333334,22.983333333333334],[-154.68333333333334,22.983333333333334],[-154.68333333333334,22.983333333333334],[-154.68333333333334,22.983333333333334],[-154.68333333333334,22.983333333333334],[-153.65,23.6],[-153.65,23.6],[-153.65,23.6],[-153.53333333333333,23.666666666666668],[-153.53333333333333,23.666666666666668],[-153.53333333333333,23.666666666666668],[-153.53333333333333,23.666666666666668],[-153.53333333333333,23.666666666666668],[-126.32888888888888,35.643055555555556],[-126.32888888888888,35.643055555555556],[-126.32888888888888,35.643055555555556],[-126.32888888888888,35.643055555555556],[-126.32888888888888,35.643055555555556],[-125.86194444444443,35.83638888888889],[-125.86194444444443,35.83638888888889],[-125.86194444444443,35.83638888888889],[-125.71472222222222,35.90888888888889],[-125.71472222222222,35.90888888888889],[-125.27,36.12583333333333],[-125.27,36.12583333333333],[-125.27,36.12583333333333],[-125.27,36.12583333333333],[-124.53388888888888,36.480555555555554],[-124.53388888888888,36.480555555555554],[-124.53388888888888,36.480555555555554],[-124.53388888888888,36.480555555555554],[-124.08888888888889,36.69166666666666],[-124.08888888888889,36.69166666666666],[-124.08888888888889,36.69166666666666],[-123.80666666666666,36.82361111111111],[-123.80666666666666,36.82361111111111],[-123.53388888888888,36.95055555555556],[-123.53388888888888,36.95055555555556],[-123.53388888888888,36.95055555555556],[-123.1,37.15],[-123.1,37.15],[-123.1,37.15],[-122.93333333333334,37.21666666666667],[-122.91166666666668,37.23555555555556],[-122.60666666666665,37.3175],[-122.51666666666667,37.33833333333334],[-122.51666666666667,37.33833333333334],[-122.45,37.35],[-122.36666666666666,37.36666666666667],[-122.34583333333333,37.37777777777778],[-122.26388888888889,37.396388888888886],[-122.12638888888888,37.461111111111116],[-122.12638888888888,37.461111111111116],[-122.21000000000001,37.54944444444444],[-122.25,37.56666666666667],[-122.3,37.583333333333336],[-122.3,37.583333333333336],[-122.3,37.583333333333336],[-122.35,37.61666666666667],[-122.35,37.61666666666667],[-122.35,37.61666666666667]],"type":"LineString"}
}
