{
  "id": 2014868707,
  "type": "Feature",
  "properties": {
    "geom:area": 0,
    "geom:bbox": "-122.390000,37.620000,-76.390000,42.900000",
    "geom:latitude": 41.255705821384375,
    "geom:longitude": -99.67222577562188,
    "src:alt_label": "swim-route",
    "src:geom": "swim",
    "swim:geom": "route",
    "wof:geomhash": "065571caa387b6cfcece43f2ebf2fe9d",
    "wof:id": 2014868707,
    "wof:repo": "sfomuseum-data-flights-2026-02"
  },
  "bbox": [
    -122.39,
    37.62,
    -76.39,
    42.9
  ],
  "geometry": {"coordinates":[[-122.38,37.62],[-122.3,37.68],[-122.31,37.7],[-122.31,37.7],[-122.34,37.75],[-122.34,37.76],[-122.35,37.76],[-122.36,37.79],[-122.38,37.83],[-122.39,37.85],[-122.39,37.85],[-122.38,37.94],[-122.32,37.98],[-122.16,38.08],[-122.15,38.08],[-122.09,38.12],[-122.03,38.15],[-121.91,38.23],[-121.88,38.25],[-121.82,38.28],[-121.72,38.34],[-121.69,38.36],[-121.63,38.4],[-121.55,38.44],[-121.42,38.52],[-121.35,38.57],[-121.27,38.62],[-121.22,38.64],[-121.19,38.67],[-120.85,38.87],[-120.35,39.16],[-120.12,39.3],[-120.07,39.33],[-119.1,39.89],[-118.92,39.98],[-118.05,40.28],[-118.04,40.28],[-115.67,40.88],[-114.46,41.23],[-114.21,41.3],[-113.43,41.39],[-112.77,41.56],[-112.24,41.7],[-111.01,41.88],[-110.89,41.91],[-108.49,42.34],[-107.69,42.47],[-107.08,42.56],[-105.82,42.75],[-104.8,42.89],[-104.54,42.88],[-104.41,42.9],[-103.19,42.86],[-102.97,42.83],[-102.43,42.81],[-99.98,42.69],[-99.55,42.65],[-99.29,42.63],[-98.39,42.56],[-98.18,42.56],[-96.29,42.37],[-95.4,42.28],[-93.32,42.04],[-92.01,41.87],[-91.49,41.8],[-91.37,41.78],[-89.16,41.43],[-88.96,41.4],[-88.93,41.41],[-87,41.13],[-86.87,41.12],[-85.76,40.94],[-84.69,40.77],[-83.97,40.64],[-83.87,40.62],[-83.78,40.61],[-83.01,40.47],[-81.63,40.2],[-80.82,40.03],[-80.04,39.86],[-79.73,39.8],[-79.63,39.78],[-79.59,39.77],[-79.17,39.68],[-79.09,39.66],[-78.97,39.63],[-78.8,39.6],[-78.75,39.59],[-78.65,39.56],[-78.61,39.55],[-78.4,39.51],[-78.39,39.51],[-78.14,39.45],[-78.13,39.45],[-78.02,39.45],[-77.97,39.45],[-77.74,39.45],[-77.69,39.45],[-77.66,39.45],[-77.54,39.45],[-77.42,39.45],[-77.36,39.45],[-77.3,39.44],[-77.18,39.44],[-77.07,39.43],[-77.06,39.43],[-76.94,39.43],[-76.82,39.42],[-76.74,39.42],[-76.71,39.41],[-76.59,39.38],[-76.52,39.36],[-76.51,39.36],[-76.49,39.34],[-76.45,39.28],[-76.43,39.26],[-76.41,39.23],[-76.39,39.21],[-76.47,39.2],[-76.58,39.19],[-76.67,39.18]],"type":"LineString"}
}
