{
  "id": 2014740529,
  "type": "Feature",
  "properties": {
    "geom:area": 0,
    "geom:bbox": "-122.458020,36.719600,-121.876890,37.612390",
    "geom:latitude": 37.22257827925578,
    "geom:longitude": -122.18518540371399,
    "src:alt_label": "swim-approach",
    "src:geom": "swim",
    "swim:elevations": [
      5609,
      5457,
      5426,
      5345,
      5156,
      4917,
      4552,
      4294,
      4028,
      3780,
      3593,
      3369,
      3057,
      3020,
      2945,
      2804,
      2776,
      2757,
      2710,
      2484,
      2333,
      2143,
      1966,
      1912,
      1875,
      1830,
      1829,
      1829,
      1829,
      1829,
      1829,
      1829,
      1829,
      1829,
      1829,
      1829,
      1665,
      1512,
      1329,
      1219,
      1219,
      1069,
      940,
      914,
      815,
      638,
      525,
      348,
      332,
      243,
      134,
      117,
      41,
      467
    ],
    "swim:geom": "approach",
    "swim:timestamps": [
      1770568045,
      1770568069,
      1770568076,
      1770568082,
      1770568100,
      1770568125,
      1770568163,
      1770568196,
      1770568225,
      1770568251,
      1770568273,
      1770568309,
      1770568344,
      1770568375,
      1770568394,
      1770568432,
      1770568452,
      1770568459,
      1770568478,
      1770568518,
      1770568540,
      1770568564,
      1770568597,
      1770568613,
      1770568622,
      1770568645,
      1770568666,
      1770568708,
      1770568729,
      1770568750,
      1770568777,
      1770568798,
      1770568802,
      1770568814,
      1770568851,
      1770568886,
      1770568917,
      1770568939,
      1770568968,
      1770569004,
      1770569016,
      1770569045,
      1770569074,
      1770569113,
      1770569140,
      1770569171,
      1770569201,
      1770569246,
      1770569252,
      1770569280,
      1770569307,
      1770569313,
      1770569337,
      1770569346
    ],
    "wof:geomhash": "ae0c7d2009581a0b3fab41b374f91ca9",
    "wof:id": 2014740529,
    "wof:repo": "sfomuseum-data-flights-2026-02"
  },
  "bbox": [
    -122.45802,
    36.7196,
    -121.87689,
    37.61239
  ],
  "geometry": {"coordinates":[[-121.87689,36.7196],[-121.89507,36.75005],[-121.89888,36.75962],[-121.90161,36.76798],[-121.90878,36.79383],[-121.91858,36.82894],[-121.93338,36.88181],[-121.94594,36.92733],[-121.95918,36.96769],[-121.97315,37.00357],[-121.98445,37.03268],[-122.00368,37.08139],[-122.04459,37.11054],[-122.0919,37.12236],[-122.12048,37.12962],[-122.1778,37.14434],[-122.20718,37.15196],[-122.21654,37.15445],[-122.24133,37.16102],[-122.28992,37.17338],[-122.31652,37.1795],[-122.34496,37.18615],[-122.38434,37.19515],[-122.40426,37.19966],[-122.41491,37.20214],[-122.44185,37.20868],[-122.45802,37.22338],[-122.44634,37.26792],[-122.43651,37.29069],[-122.42724,37.31234],[-122.41482,37.34154],[-122.39625,37.36015],[-122.39236,37.36181],[-122.3748,37.3664],[-122.32246,37.37806],[-122.27394,37.38878],[-122.23191,37.39815],[-122.20213,37.40489],[-122.16803,37.42135],[-122.13915,37.44921],[-122.13337,37.45953],[-122.13863,37.48436],[-122.15699,37.5051],[-122.18165,37.53258],[-122.20402,37.5464],[-122.23343,37.5592],[-122.25903,37.57003],[-122.29151,37.58364],[-122.29566,37.58543],[-122.31463,37.5934],[-122.33413,37.60155],[-122.33845,37.60334],[-122.35641,37.61084],[-122.36224,37.61239]],"type":"LineString"}
}
