{
  "id": 2014876597,
  "type": "Feature",
  "properties": {
    "geom:area": 0,
    "geom:bbox": "-122.450000,32.745833,-115.830000,37.650000",
    "geom:latitude": 35.146733227358425,
    "geom:longitude": -119.24928431818459,
    "src:alt_label": "swim-path",
    "src:geom": "swim",
    "swim:altitudes": [
      "006",
      "006",
      "033",
      "033",
      "045",
      "048",
      "048",
      "048",
      "072",
      "072",
      "076",
      "076",
      "076",
      "136",
      "136",
      "136",
      "148",
      "148",
      "169",
      "221",
      "221",
      "221",
      "236",
      "236",
      "236",
      "236",
      "291",
      "291",
      "291",
      "300",
      "300",
      "300",
      "312",
      "312",
      "325",
      "325",
      "336",
      "336",
      "336",
      "336",
      "348",
      "348",
      "348",
      "370C",
      "370C",
      "370C",
      "370C",
      "370C",
      "370C",
      "370C",
      "370C",
      "370C",
      "370C",
      "370C",
      "370C",
      "370C",
      "370C",
      "370C",
      "370C",
      "370C",
      "370C",
      "370C",
      "370C",
      "370C",
      "370C",
      "370C",
      "370C",
      "370C",
      "370C",
      "370C",
      "370C",
      "370C",
      "370C",
      "370C",
      "370C",
      "370C",
      "370C",
      "370C",
      "370C",
      "370C",
      "370C",
      "370C",
      "370C",
      "370C",
      "370C",
      "370C",
      "370C",
      "370C",
      "370C"
    ],
    "swim:geom": "path",
    "swim:speeds": [
      152,
      152,
      153,
      153,
      221,
      227,
      227,
      227,
      266,
      266,
      264,
      264,
      264,
      290,
      290,
      290,
      386,
      386,
      391,
      442,
      442,
      442,
      446,
      446,
      446,
      446,
      485,
      485,
      485,
      498,
      498,
      498,
      498,
      498,
      498,
      498,
      498,
      498,
      498,
      498,
      498,
      498,
      498,
      498,
      498,
      499,
      499,
      499,
      499,
      499,
      499,
      499,
      499,
      498,
      498,
      498,
      494,
      494,
      494,
      493,
      491,
      491,
      491,
      491,
      489,
      489,
      489,
      488,
      487,
      487,
      481,
      481,
      481,
      481,
      481,
      479,
      479,
      479,
      480,
      480,
      480,
      480,
      495,
      497,
      497,
      495,
      494,
      494,
      494
    ],
    "swim:timestamps": [
      1771974422,
      1771974422,
      1771974495,
      1771974495,
      1771974555,
      1771974575,
      1771974575,
      1771974575,
      1771974615,
      1771974615,
      1771974635,
      1771974635,
      1771974635,
      1771974755,
      1771974755,
      1771974755,
      1771974815,
      1771974815,
      1771974875,
      1771975055,
      1771975055,
      1771975055,
      1771975116,
      1771975116,
      1771975116,
      1771975116,
      1771975356,
      1771975356,
      1771975356,
      1771975416,
      1771975416,
      1771975416,
      1771975476,
      1771975476,
      1771975536,
      1771975536,
      1771975596,
      1771975596,
      1771975596,
      1771975596,
      1771975657,
      1771975657,
      1771975657,
      1771975956,
      1771975956,
      1771976017,
      1771976017,
      1771976017,
      1771976017,
      1771976017,
      1771976197,
      1771976197,
      1771976197,
      1771976257,
      1771976257,
      1771976257,
      1771976497,
      1771976497,
      1771976497,
      1771976558,
      1771976618,
      1771976618,
      1771976618,
      1771976618,
      1771976738,
      1771976738,
      1771976738,
      1771976798,
      1771976858,
      1771976858,
      1771977219,
      1771977219,
      1771977219,
      1771977219,
      1771977219,
      1771977459,
      1771977519,
      1771977519,
      1771977580,
      1771977580,
      1771977580,
      1771977580,
      1771977700,
      1771977760,
      1771977760,
      1771977880,
      1771977940,
      1771977940,
      1771977940
    ],
    "wof:geomhash": "2bee0d0d8ce8bc79641879535f63b8a1",
    "wof:id": 2014876597,
    "wof:repo": "sfomuseum-data-flights-2026-02"
  },
  "bbox": [
    -122.45,
    32.74583333333334,
    -115.83,
    37.65
  ],
  "geometry": {"coordinates":[[-122.38333333333334,37.61666666666667],[-122.38333333333334,37.61666666666667],[-122.43333333333334,37.65],[-122.43333333333334,37.65],[-122.45,37.6],[-122.44861111111112,37.590833333333336],[-122.44861111111112,37.590833333333336],[-122.44861111111112,37.590833333333336],[-122.43333333333334,37.53333333333333],[-122.43333333333334,37.53333333333333],[-122.42694444444444,37.519444444444446],[-122.42694444444444,37.519444444444446],[-122.42694444444444,37.519444444444446],[-122.37305555555555,37.37027777777778],[-122.37305555555555,37.37027777777778],[-122.37305555555555,37.37027777777778],[-122.28027777777778,37.3],[-122.28027777777778,37.3],[-122.17527777777778,37.225],[-121.83833333333332,36.98888888888889],[-121.83833333333332,36.98888888888889],[-121.83833333333332,36.98888888888889],[-121.72333333333333,36.90138888888889],[-121.72333333333333,36.90138888888889],[-121.72333333333333,36.90138888888889],[-121.72333333333333,36.90138888888889],[-121.22416666666666,36.54888888888889],[-121.22416666666666,36.54888888888889],[-121.22416666666666,36.54888888888889],[-121.10277777777777,36.46083333333333],[-121.10277777777777,36.46083333333333],[-121.10277777777777,36.46083333333333],[-120.97333333333333,36.36972222222222],[-120.97333333333333,36.36972222222222],[-120.83833333333332,36.276666666666664],[-120.83833333333332,36.276666666666664],[-120.70527777777778,36.186388888888885],[-120.70527777777778,36.186388888888885],[-120.70527777777778,36.186388888888885],[-120.70527777777778,36.186388888888885],[-120.57888888888888,36.1],[-120.57888888888888,36.1],[-120.57888888888888,36.1],[-119.93194444444445,35.653055555555554],[-119.93194444444445,35.653055555555554],[-119.80444444444444,35.56388888888888],[-119.80444444444444,35.56388888888888],[-119.80444444444444,35.56388888888888],[-119.80444444444444,35.56388888888888],[-119.80444444444444,35.56388888888888],[-119.41805555555555,35.29194444444444],[-119.41805555555555,35.29194444444444],[-119.41805555555555,35.29194444444444],[-119.285,35.19777777777777],[-119.285,35.19777777777777],[-119.285,35.19777777777777],[-118.78222222222222,34.83777777777778],[-118.78222222222222,34.83777777777778],[-118.78222222222222,34.83777777777778],[-118.67055555555557,34.757222222222225],[-118.54638888888888,34.66722222222222],[-118.54638888888888,34.66722222222222],[-118.54638888888888,34.66722222222222],[-118.54638888888888,34.66722222222222],[-118.29972222222221,34.487500000000004],[-118.29972222222221,34.487500000000004],[-118.29972222222221,34.487500000000004],[-118.17666666666668,34.39722222222222],[-118.05444444444444,34.3075],[-118.05444444444444,34.3075],[-117.33444444444444,33.759166666666665],[-117.33444444444444,33.759166666666665],[-117.33444444444444,33.759166666666665],[-117.33444444444444,33.759166666666665],[-117.33444444444444,33.759166666666665],[-116.88444444444445,33.38861111111111],[-116.7725,33.295833333333334],[-116.7725,33.295833333333334],[-116.6588888888889,33.20138888888889],[-116.6588888888889,33.20138888888889],[-116.6588888888889,33.20138888888889],[-116.6588888888889,33.20138888888889],[-116.38916666666667,33.03861111111111],[-116.24916666666667,32.96555555555556],[-116.24916666666667,32.96555555555556],[-115.9675,32.818333333333335],[-115.83,32.74583333333334],[-115.83,32.74583333333334],[-115.83,32.74583333333334]],"type":"LineString"}
}
